{
  "type": "FeatureCollection",
  "features": [
    {
      "type": "Feature",
      "geometry": {
        "type": "Polygon",
        "coordinates": [
          [
            [
              -2.328301356086306,
              53.42903702801926
            ],
            [
              -2.328285599384112,
              53.428945388091094
            ],
            [
              -2.32802565658465,
              53.42896120355491
            ],
            [
              -2.328041262928908,
              53.42905293381524
            ],
            [
              -2.328301356086306,
              53.42903702801926
            ]
          ]
        ]
      },
      "properties": {
        "slot_id": "building_type_3",
        "lineage_id": "building_type_3-new-20260927T1328+0300",
        "owner": "cagdas aydin",
        "partition": "building_type_3",
        "page_generation": 61,
        "semantic_mode": null,
        "batch_id": "BT3-P119G61-20261009-OSOML-TRAFFORD-BUILDING10",
        "cursor": "BT3-P119G61-20261009-OSOML-TRAFFORD-BUILDING10-p119",
        "building_state": "BUILDING_PRESENT",
        "source_record_id": "os-openmap-local:building-2023:7C089D9A-D464-48BD-B75A-804F00DFDC29",
        "semantic_identity": "os-openmap-local:building-2023:7C089D9A-D464-48BD-B75A-804F00DFDC29",
        "source_row_ordinal": 1,
        "name": null,
        "building_type_use": "building",
        "type_use_evidence": "OS OpenMap Local FEATCODE=15014: Building. Functional use is not specified in this source and is not inferred.",
        "dataset": "OS OpenMap Local Building",
        "quality": "OS building footprint; no functional-use attribution",
        "coordinate_reference_system": "OGC:CRS84; transformed from OS EPSG:27700",
        "ID": "7C089D9A-D464-48BD-B75A-804F00DFDC29",
        "FEATCODE": 15014,
        "area_code": "E08000009",
        "area_name": "Trafford",
        "authority": "Ordnance Survey OpenMap Local Building, Trafford Data Lab published OS-derived GIS",
        "source_url": "https://github.com/traffordDataLab/open_data/blob/fa92a96ed3b59314fddc8e0a7ac8f087f950d610/buildings/trafford_buildings.geojson",
        "final_url": "https://github.com/traffordDataLab/open_data/blob/fa92a96ed3b59314fddc8e0a7ac8f087f950d610/buildings/trafford_buildings.geojson",
        "http_status": 200,
        "access_utc": "2026-10-09T07:57:05.545Z",
        "data_date": "April 2023 (OS source); June 20 2023 publication commit",
        "source_version": "Ordnance Survey OS OpenMap Local Building layer June 2023; commit fa92a96ed3b59314fddc8e0a7ac8f087f950d610; Git blob 3fd3eec1a39d562b3f999ec1629b442b43622923",
        "license": "Open Government Licence v3.0; contains OS data © Crown copyright and database right 2023",
        "source_file_sha256": "ef2c9f958c4a79e7e619cc0629c9026fe4133ebc2f7c8068a90bc764a41b1701",
        "field_evidence": [
          "ID",
          "FEATCODE",
          "geometry",
          "area_code",
          "area_name"
        ],
        "confidence_score_0_100": 87,
        "evidence_grade": "B_OS_OPENMAP_LOCAL_FEATCODE_15014_BUILDING_POLYGON_USE_UNSPECIFIED",
        "official_public_no_login": true,
        "fake_data": false,
        "evidence_slice_sha256": "30be3b84a07a3b89a2b1fdec8fa613c8dd6db226c31b2a70d8dbbea9f4d6aa21"
      }
    },
    {
      "type": "Feature",
      "geometry": {
        "type": "Polygon",
        "coordinates": [
          [
            [
              -2.329310027542795,
              53.429058518378255
            ],
            [
              -2.329203773944979,
              53.4289611957756
            ],
            [
              -2.329047725048973,
              53.42902220895251
            ],
            [
              -2.329153827250975,
              53.4291194422247
            ],
            [
              -2.329310027542795,
              53.429058518378255
            ]
          ]
        ]
      },
      "properties": {
        "slot_id": "building_type_3",
        "lineage_id": "building_type_3-new-20260927T1328+0300",
        "owner": "cagdas aydin",
        "partition": "building_type_3",
        "page_generation": 61,
        "semantic_mode": null,
        "batch_id": "BT3-P119G61-20261009-OSOML-TRAFFORD-BUILDING10",
        "cursor": "BT3-P119G61-20261009-OSOML-TRAFFORD-BUILDING10-p119",
        "building_state": "BUILDING_PRESENT",
        "source_record_id": "os-openmap-local:building-2023:FBFB10B2-1EBF-41AF-BE41-F4E511D5F84B",
        "semantic_identity": "os-openmap-local:building-2023:FBFB10B2-1EBF-41AF-BE41-F4E511D5F84B",
        "source_row_ordinal": 2,
        "name": null,
        "building_type_use": "building",
        "type_use_evidence": "OS OpenMap Local FEATCODE=15014: Building. Functional use is not specified in this source and is not inferred.",
        "dataset": "OS OpenMap Local Building",
        "quality": "OS building footprint; no functional-use attribution",
        "coordinate_reference_system": "OGC:CRS84; transformed from OS EPSG:27700",
        "ID": "FBFB10B2-1EBF-41AF-BE41-F4E511D5F84B",
        "FEATCODE": 15014,
        "area_code": "E08000009",
        "area_name": "Trafford",
        "authority": "Ordnance Survey OpenMap Local Building, Trafford Data Lab published OS-derived GIS",
        "source_url": "https://github.com/traffordDataLab/open_data/blob/fa92a96ed3b59314fddc8e0a7ac8f087f950d610/buildings/trafford_buildings.geojson",
        "final_url": "https://github.com/traffordDataLab/open_data/blob/fa92a96ed3b59314fddc8e0a7ac8f087f950d610/buildings/trafford_buildings.geojson",
        "http_status": 200,
        "access_utc": "2026-10-09T07:57:05.545Z",
        "data_date": "April 2023 (OS source); June 20 2023 publication commit",
        "source_version": "Ordnance Survey OS OpenMap Local Building layer June 2023; commit fa92a96ed3b59314fddc8e0a7ac8f087f950d610; Git blob 3fd3eec1a39d562b3f999ec1629b442b43622923",
        "license": "Open Government Licence v3.0; contains OS data © Crown copyright and database right 2023",
        "source_file_sha256": "ef2c9f958c4a79e7e619cc0629c9026fe4133ebc2f7c8068a90bc764a41b1701",
        "field_evidence": [
          "ID",
          "FEATCODE",
          "geometry",
          "area_code",
          "area_name"
        ],
        "confidence_score_0_100": 87,
        "evidence_grade": "B_OS_OPENMAP_LOCAL_FEATCODE_15014_BUILDING_POLYGON_USE_UNSPECIFIED",
        "official_public_no_login": true,
        "fake_data": false,
        "evidence_slice_sha256": "f990f55cc4f98dd8d3e5acabd50bef5cf3c4e402a5814aa891b2b6d05bac0fcc"
      }
    },
    {
      "type": "Feature",
      "geometry": {
        "type": "Polygon",
        "coordinates": [
          [
            [
              -2.327940837866685,
              53.4290671420476
            ],
            [
              -2.327925770720495,
              53.428967230707585
            ],
            [
              -2.327428572162683,
              53.42899394344665
            ],
            [
              -2.327443637461655,
              53.429093764967014
            ],
            [
              -2.327940837866685,
              53.4290671420476
            ]
          ]
        ]
      },
      "properties": {
        "slot_id": "building_type_3",
        "lineage_id": "building_type_3-new-20260927T1328+0300",
        "owner": "cagdas aydin",
        "partition": "building_type_3",
        "page_generation": 61,
        "semantic_mode": null,
        "batch_id": "BT3-P119G61-20261009-OSOML-TRAFFORD-BUILDING10",
        "cursor": "BT3-P119G61-20261009-OSOML-TRAFFORD-BUILDING10-p119",
        "building_state": "BUILDING_PRESENT",
        "source_record_id": "os-openmap-local:building-2023:54F76EEF-136B-486F-A060-641BDB73EE1E",
        "semantic_identity": "os-openmap-local:building-2023:54F76EEF-136B-486F-A060-641BDB73EE1E",
        "source_row_ordinal": 3,
        "name": null,
        "building_type_use": "building",
        "type_use_evidence": "OS OpenMap Local FEATCODE=15014: Building. Functional use is not specified in this source and is not inferred.",
        "dataset": "OS OpenMap Local Building",
        "quality": "OS building footprint; no functional-use attribution",
        "coordinate_reference_system": "OGC:CRS84; transformed from OS EPSG:27700",
        "ID": "54F76EEF-136B-486F-A060-641BDB73EE1E",
        "FEATCODE": 15014,
        "area_code": "E08000009",
        "area_name": "Trafford",
        "authority": "Ordnance Survey OpenMap Local Building, Trafford Data Lab published OS-derived GIS",
        "source_url": "https://github.com/traffordDataLab/open_data/blob/fa92a96ed3b59314fddc8e0a7ac8f087f950d610/buildings/trafford_buildings.geojson",
        "final_url": "https://github.com/traffordDataLab/open_data/blob/fa92a96ed3b59314fddc8e0a7ac8f087f950d610/buildings/trafford_buildings.geojson",
        "http_status": 200,
        "access_utc": "2026-10-09T07:57:05.545Z",
        "data_date": "April 2023 (OS source); June 20 2023 publication commit",
        "source_version": "Ordnance Survey OS OpenMap Local Building layer June 2023; commit fa92a96ed3b59314fddc8e0a7ac8f087f950d610; Git blob 3fd3eec1a39d562b3f999ec1629b442b43622923",
        "license": "Open Government Licence v3.0; contains OS data © Crown copyright and database right 2023",
        "source_file_sha256": "ef2c9f958c4a79e7e619cc0629c9026fe4133ebc2f7c8068a90bc764a41b1701",
        "field_evidence": [
          "ID",
          "FEATCODE",
          "geometry",
          "area_code",
          "area_name"
        ],
        "confidence_score_0_100": 87,
        "evidence_grade": "B_OS_OPENMAP_LOCAL_FEATCODE_15014_BUILDING_POLYGON_USE_UNSPECIFIED",
        "official_public_no_login": true,
        "fake_data": false,
        "evidence_slice_sha256": "141d2e226e2d055ca3148bdefb2c01ee8b41eb724b6886f13938e3bbde0ccbaf"
      }
    },
    {
      "type": "Feature",
      "geometry": {
        "type": "Polygon",
        "coordinates": [
          [
            [
              -2.327173298376739,
              53.42918654912742
            ],
            [
              -2.32735412377813,
              53.429176525446636
            ],
            [
              -2.327323562159684,
              53.428979490246185
            ],
            [
              -2.327142737586914,
              53.42898951387978
            ],
            [
              -2.327173298376739,
              53.42918654912742
            ]
          ]
        ]
      },
      "properties": {
        "slot_id": "building_type_3",
        "lineage_id": "building_type_3-new-20260927T1328+0300",
        "owner": "cagdas aydin",
        "partition": "building_type_3",
        "page_generation": 61,
        "semantic_mode": null,
        "batch_id": "BT3-P119G61-20261009-OSOML-TRAFFORD-BUILDING10",
        "cursor": "BT3-P119G61-20261009-OSOML-TRAFFORD-BUILDING10-p119",
        "building_state": "BUILDING_PRESENT",
        "source_record_id": "os-openmap-local:building-2023:3C5AC09F-2E55-4957-8AAF-292EE0968302",
        "semantic_identity": "os-openmap-local:building-2023:3C5AC09F-2E55-4957-8AAF-292EE0968302",
        "source_row_ordinal": 4,
        "name": null,
        "building_type_use": "building",
        "type_use_evidence": "OS OpenMap Local FEATCODE=15014: Building. Functional use is not specified in this source and is not inferred.",
        "dataset": "OS OpenMap Local Building",
        "quality": "OS building footprint; no functional-use attribution",
        "coordinate_reference_system": "OGC:CRS84; transformed from OS EPSG:27700",
        "ID": "3C5AC09F-2E55-4957-8AAF-292EE0968302",
        "FEATCODE": 15014,
        "area_code": "E08000009",
        "area_name": "Trafford",
        "authority": "Ordnance Survey OpenMap Local Building, Trafford Data Lab published OS-derived GIS",
        "source_url": "https://github.com/traffordDataLab/open_data/blob/fa92a96ed3b59314fddc8e0a7ac8f087f950d610/buildings/trafford_buildings.geojson",
        "final_url": "https://github.com/traffordDataLab/open_data/blob/fa92a96ed3b59314fddc8e0a7ac8f087f950d610/buildings/trafford_buildings.geojson",
        "http_status": 200,
        "access_utc": "2026-10-09T07:57:05.545Z",
        "data_date": "April 2023 (OS source); June 20 2023 publication commit",
        "source_version": "Ordnance Survey OS OpenMap Local Building layer June 2023; commit fa92a96ed3b59314fddc8e0a7ac8f087f950d610; Git blob 3fd3eec1a39d562b3f999ec1629b442b43622923",
        "license": "Open Government Licence v3.0; contains OS data © Crown copyright and database right 2023",
        "source_file_sha256": "ef2c9f958c4a79e7e619cc0629c9026fe4133ebc2f7c8068a90bc764a41b1701",
        "field_evidence": [
          "ID",
          "FEATCODE",
          "geometry",
          "area_code",
          "area_name"
        ],
        "confidence_score_0_100": 87,
        "evidence_grade": "B_OS_OPENMAP_LOCAL_FEATCODE_15014_BUILDING_POLYGON_USE_UNSPECIFIED",
        "official_public_no_login": true,
        "fake_data": false,
        "evidence_slice_sha256": "8ff36f1a8adebdce53f094f79c0f07c0bcc19cf056ca3b3365c310f1206570b6"
      }
    },
    {
      "type": "Feature",
      "geometry": {
        "type": "Polygon",
        "coordinates": [
          [
            [
              -2.328696097257145,
              53.42905364903444
            ],
            [
              -2.328591530672332,
              53.4290967224831
            ],
            [
              -2.328699256965418,
              53.42918999672116
            ],
            [
              -2.32880367317154,
              53.42914692359328
            ],
            [
              -2.328696097257145,
              53.42905364903444
            ]
          ]
        ]
      },
      "properties": {
        "slot_id": "building_type_3",
        "lineage_id": "building_type_3-new-20260927T1328+0300",
        "owner": "cagdas aydin",
        "partition": "building_type_3",
        "page_generation": 61,
        "semantic_mode": null,
        "batch_id": "BT3-P119G61-20261009-OSOML-TRAFFORD-BUILDING10",
        "cursor": "BT3-P119G61-20261009-OSOML-TRAFFORD-BUILDING10-p119",
        "building_state": "BUILDING_PRESENT",
        "source_record_id": "os-openmap-local:building-2023:A6412199-B7AF-412F-BFBA-18E92200EE22",
        "semantic_identity": "os-openmap-local:building-2023:A6412199-B7AF-412F-BFBA-18E92200EE22",
        "source_row_ordinal": 5,
        "name": null,
        "building_type_use": "building",
        "type_use_evidence": "OS OpenMap Local FEATCODE=15014: Building. Functional use is not specified in this source and is not inferred.",
        "dataset": "OS OpenMap Local Building",
        "quality": "OS building footprint; no functional-use attribution",
        "coordinate_reference_system": "OGC:CRS84; transformed from OS EPSG:27700",
        "ID": "A6412199-B7AF-412F-BFBA-18E92200EE22",
        "FEATCODE": 15014,
        "area_code": "E08000009",
        "area_name": "Trafford",
        "authority": "Ordnance Survey OpenMap Local Building, Trafford Data Lab published OS-derived GIS",
        "source_url": "https://github.com/traffordDataLab/open_data/blob/fa92a96ed3b59314fddc8e0a7ac8f087f950d610/buildings/trafford_buildings.geojson",
        "final_url": "https://github.com/traffordDataLab/open_data/blob/fa92a96ed3b59314fddc8e0a7ac8f087f950d610/buildings/trafford_buildings.geojson",
        "http_status": 200,
        "access_utc": "2026-10-09T07:57:05.545Z",
        "data_date": "April 2023 (OS source); June 20 2023 publication commit",
        "source_version": "Ordnance Survey OS OpenMap Local Building layer June 2023; commit fa92a96ed3b59314fddc8e0a7ac8f087f950d610; Git blob 3fd3eec1a39d562b3f999ec1629b442b43622923",
        "license": "Open Government Licence v3.0; contains OS data © Crown copyright and database right 2023",
        "source_file_sha256": "ef2c9f958c4a79e7e619cc0629c9026fe4133ebc2f7c8068a90bc764a41b1701",
        "field_evidence": [
          "ID",
          "FEATCODE",
          "geometry",
          "area_code",
          "area_name"
        ],
        "confidence_score_0_100": 87,
        "evidence_grade": "B_OS_OPENMAP_LOCAL_FEATCODE_15014_BUILDING_POLYGON_USE_UNSPECIFIED",
        "official_public_no_login": true,
        "fake_data": false,
        "evidence_slice_sha256": "efca475c717468dfaa21b82857e363ad4d4aefa27d7681fbbdd9ccc69a1f8704"
      }
    },
    {
      "type": "Feature",
      "geometry": {
        "type": "Polygon",
        "coordinates": [
          [
            [
              -2.329475501688705,
              53.42922363090537
            ],
            [
              -2.329326266047817,
              53.42909541653835
            ],
            [
              -2.329192752604721,
              53.429151334129664
            ],
            [
              -2.329341984564503,
              53.42927909924442
            ],
            [
              -2.329475501688705,
              53.42922363090537
            ]
          ]
        ]
      },
      "properties": {
        "slot_id": "building_type_3",
        "lineage_id": "building_type_3-new-20260927T1328+0300",
        "owner": "cagdas aydin",
        "partition": "building_type_3",
        "page_generation": 61,
        "semantic_mode": null,
        "batch_id": "BT3-P119G61-20261009-OSOML-TRAFFORD-BUILDING10",
        "cursor": "BT3-P119G61-20261009-OSOML-TRAFFORD-BUILDING10-p119",
        "building_state": "BUILDING_PRESENT",
        "source_record_id": "os-openmap-local:building-2023:96AA3BED-5773-4A4E-8FCE-431CE612AE14",
        "semantic_identity": "os-openmap-local:building-2023:96AA3BED-5773-4A4E-8FCE-431CE612AE14",
        "source_row_ordinal": 6,
        "name": null,
        "building_type_use": "building",
        "type_use_evidence": "OS OpenMap Local FEATCODE=15014: Building. Functional use is not specified in this source and is not inferred.",
        "dataset": "OS OpenMap Local Building",
        "quality": "OS building footprint; no functional-use attribution",
        "coordinate_reference_system": "OGC:CRS84; transformed from OS EPSG:27700",
        "ID": "96AA3BED-5773-4A4E-8FCE-431CE612AE14",
        "FEATCODE": 15014,
        "area_code": "E08000009",
        "area_name": "Trafford",
        "authority": "Ordnance Survey OpenMap Local Building, Trafford Data Lab published OS-derived GIS",
        "source_url": "https://github.com/traffordDataLab/open_data/blob/fa92a96ed3b59314fddc8e0a7ac8f087f950d610/buildings/trafford_buildings.geojson",
        "final_url": "https://github.com/traffordDataLab/open_data/blob/fa92a96ed3b59314fddc8e0a7ac8f087f950d610/buildings/trafford_buildings.geojson",
        "http_status": 200,
        "access_utc": "2026-10-09T07:57:05.545Z",
        "data_date": "April 2023 (OS source); June 20 2023 publication commit",
        "source_version": "Ordnance Survey OS OpenMap Local Building layer June 2023; commit fa92a96ed3b59314fddc8e0a7ac8f087f950d610; Git blob 3fd3eec1a39d562b3f999ec1629b442b43622923",
        "license": "Open Government Licence v3.0; contains OS data © Crown copyright and database right 2023",
        "source_file_sha256": "ef2c9f958c4a79e7e619cc0629c9026fe4133ebc2f7c8068a90bc764a41b1701",
        "field_evidence": [
          "ID",
          "FEATCODE",
          "geometry",
          "area_code",
          "area_name"
        ],
        "confidence_score_0_100": 87,
        "evidence_grade": "B_OS_OPENMAP_LOCAL_FEATCODE_15014_BUILDING_POLYGON_USE_UNSPECIFIED",
        "official_public_no_login": true,
        "fake_data": false,
        "evidence_slice_sha256": "0721c413897321e15fe98347317f548dd830639d972f3b12e06f149fe17963cb"
      }
    },
    {
      "type": "Feature",
      "geometry": {
        "type": "Polygon",
        "coordinates": [
          [
            [
              -2.32743298128268,
              53.42917585971061
            ],
            [
              -2.327337641881743,
              53.42922519873355
            ],
            [
              -2.327543867678867,
              53.42936719145225
            ],
            [
              -2.327633060236773,
              53.42932092524809
            ],
            [
              -2.32748583350753,
              53.42921841034343
            ],
            [
              -2.32743298128268,
              53.42917585971061
            ]
          ]
        ]
      },
      "properties": {
        "slot_id": "building_type_3",
        "lineage_id": "building_type_3-new-20260927T1328+0300",
        "owner": "cagdas aydin",
        "partition": "building_type_3",
        "page_generation": 61,
        "semantic_mode": null,
        "batch_id": "BT3-P119G61-20261009-OSOML-TRAFFORD-BUILDING10",
        "cursor": "BT3-P119G61-20261009-OSOML-TRAFFORD-BUILDING10-p119",
        "building_state": "BUILDING_PRESENT",
        "source_record_id": "os-openmap-local:building-2023:26C52C13-2D22-4B2F-8CDD-079FB9093759",
        "semantic_identity": "os-openmap-local:building-2023:26C52C13-2D22-4B2F-8CDD-079FB9093759",
        "source_row_ordinal": 7,
        "name": null,
        "building_type_use": "building",
        "type_use_evidence": "OS OpenMap Local FEATCODE=15014: Building. Functional use is not specified in this source and is not inferred.",
        "dataset": "OS OpenMap Local Building",
        "quality": "OS building footprint; no functional-use attribution",
        "coordinate_reference_system": "OGC:CRS84; transformed from OS EPSG:27700",
        "ID": "26C52C13-2D22-4B2F-8CDD-079FB9093759",
        "FEATCODE": 15014,
        "area_code": "E08000009",
        "area_name": "Trafford",
        "authority": "Ordnance Survey OpenMap Local Building, Trafford Data Lab published OS-derived GIS",
        "source_url": "https://github.com/traffordDataLab/open_data/blob/fa92a96ed3b59314fddc8e0a7ac8f087f950d610/buildings/trafford_buildings.geojson",
        "final_url": "https://github.com/traffordDataLab/open_data/blob/fa92a96ed3b59314fddc8e0a7ac8f087f950d610/buildings/trafford_buildings.geojson",
        "http_status": 200,
        "access_utc": "2026-10-09T07:57:05.545Z",
        "data_date": "April 2023 (OS source); June 20 2023 publication commit",
        "source_version": "Ordnance Survey OS OpenMap Local Building layer June 2023; commit fa92a96ed3b59314fddc8e0a7ac8f087f950d610; Git blob 3fd3eec1a39d562b3f999ec1629b442b43622923",
        "license": "Open Government Licence v3.0; contains OS data © Crown copyright and database right 2023",
        "source_file_sha256": "ef2c9f958c4a79e7e619cc0629c9026fe4133ebc2f7c8068a90bc764a41b1701",
        "field_evidence": [
          "ID",
          "FEATCODE",
          "geometry",
          "area_code",
          "area_name"
        ],
        "confidence_score_0_100": 87,
        "evidence_grade": "B_OS_OPENMAP_LOCAL_FEATCODE_15014_BUILDING_POLYGON_USE_UNSPECIFIED",
        "official_public_no_login": true,
        "fake_data": false,
        "evidence_slice_sha256": "da086611f30f1ab7a70c7bb8074f4901a6c8fe2a40e1061cb2f25c06af29de74"
      }
    },
    {
      "type": "Feature",
      "geometry": {
        "type": "Polygon",
        "coordinates": [
          [
            [
              -2.328934174793893,
              53.42926602191478
            ],
            [
              -2.328831890020485,
              53.42917587889171
            ],
            [
              -2.328711264387724,
              53.42922474936226
            ],
            [
              -2.328814149629646,
              53.42931471106237
            ],
            [
              -2.328934174793893,
              53.42926602191478
            ]
          ]
        ]
      },
      "properties": {
        "slot_id": "building_type_3",
        "lineage_id": "building_type_3-new-20260927T1328+0300",
        "owner": "cagdas aydin",
        "partition": "building_type_3",
        "page_generation": 61,
        "semantic_mode": null,
        "batch_id": "BT3-P119G61-20261009-OSOML-TRAFFORD-BUILDING10",
        "cursor": "BT3-P119G61-20261009-OSOML-TRAFFORD-BUILDING10-p119",
        "building_state": "BUILDING_PRESENT",
        "source_record_id": "os-openmap-local:building-2023:0CE9A717-A9E2-4B75-A7E8-D73BF62B3EC2",
        "semantic_identity": "os-openmap-local:building-2023:0CE9A717-A9E2-4B75-A7E8-D73BF62B3EC2",
        "source_row_ordinal": 8,
        "name": null,
        "building_type_use": "building",
        "type_use_evidence": "OS OpenMap Local FEATCODE=15014: Building. Functional use is not specified in this source and is not inferred.",
        "dataset": "OS OpenMap Local Building",
        "quality": "OS building footprint; no functional-use attribution",
        "coordinate_reference_system": "OGC:CRS84; transformed from OS EPSG:27700",
        "ID": "0CE9A717-A9E2-4B75-A7E8-D73BF62B3EC2",
        "FEATCODE": 15014,
        "area_code": "E08000009",
        "area_name": "Trafford",
        "authority": "Ordnance Survey OpenMap Local Building, Trafford Data Lab published OS-derived GIS",
        "source_url": "https://github.com/traffordDataLab/open_data/blob/fa92a96ed3b59314fddc8e0a7ac8f087f950d610/buildings/trafford_buildings.geojson",
        "final_url": "https://github.com/traffordDataLab/open_data/blob/fa92a96ed3b59314fddc8e0a7ac8f087f950d610/buildings/trafford_buildings.geojson",
        "http_status": 200,
        "access_utc": "2026-10-09T07:57:05.545Z",
        "data_date": "April 2023 (OS source); June 20 2023 publication commit",
        "source_version": "Ordnance Survey OS OpenMap Local Building layer June 2023; commit fa92a96ed3b59314fddc8e0a7ac8f087f950d610; Git blob 3fd3eec1a39d562b3f999ec1629b442b43622923",
        "license": "Open Government Licence v3.0; contains OS data © Crown copyright and database right 2023",
        "source_file_sha256": "ef2c9f958c4a79e7e619cc0629c9026fe4133ebc2f7c8068a90bc764a41b1701",
        "field_evidence": [
          "ID",
          "FEATCODE",
          "geometry",
          "area_code",
          "area_name"
        ],
        "confidence_score_0_100": 87,
        "evidence_grade": "B_OS_OPENMAP_LOCAL_FEATCODE_15014_BUILDING_POLYGON_USE_UNSPECIFIED",
        "official_public_no_login": true,
        "fake_data": false,
        "evidence_slice_sha256": "c0f27ba02508ccee03a344b8fc94fe68ef2b387db0dcd0ba40b13f6e9b5ffec2"
      }
    },
    {
      "type": "Feature",
      "geometry": {
        "type": "Polygon",
        "coordinates": [
          [
            [
              -2.329538433571225,
              53.42922651327703
            ],
            [
              -2.329573869321845,
              53.429254729384596
            ],
            [
              -2.329656809504644,
              53.42921764725668
            ],
            [
              -2.329621373730149,
              53.42918943117357
            ],
            [
              -2.329538433571225,
              53.42922651327703
            ]
          ]
        ]
      },
      "properties": {
        "slot_id": "building_type_3",
        "lineage_id": "building_type_3-new-20260927T1328+0300",
        "owner": "cagdas aydin",
        "partition": "building_type_3",
        "page_generation": 61,
        "semantic_mode": null,
        "batch_id": "BT3-P119G61-20261009-OSOML-TRAFFORD-BUILDING10",
        "cursor": "BT3-P119G61-20261009-OSOML-TRAFFORD-BUILDING10-p119",
        "building_state": "BUILDING_PRESENT",
        "source_record_id": "os-openmap-local:building-2023:004D1013-07EA-4BBE-A3A3-B58A0C9DECBA",
        "semantic_identity": "os-openmap-local:building-2023:004D1013-07EA-4BBE-A3A3-B58A0C9DECBA",
        "source_row_ordinal": 9,
        "name": null,
        "building_type_use": "building",
        "type_use_evidence": "OS OpenMap Local FEATCODE=15014: Building. Functional use is not specified in this source and is not inferred.",
        "dataset": "OS OpenMap Local Building",
        "quality": "OS building footprint; no functional-use attribution",
        "coordinate_reference_system": "OGC:CRS84; transformed from OS EPSG:27700",
        "ID": "004D1013-07EA-4BBE-A3A3-B58A0C9DECBA",
        "FEATCODE": 15014,
        "area_code": "E08000009",
        "area_name": "Trafford",
        "authority": "Ordnance Survey OpenMap Local Building, Trafford Data Lab published OS-derived GIS",
        "source_url": "https://github.com/traffordDataLab/open_data/blob/fa92a96ed3b59314fddc8e0a7ac8f087f950d610/buildings/trafford_buildings.geojson",
        "final_url": "https://github.com/traffordDataLab/open_data/blob/fa92a96ed3b59314fddc8e0a7ac8f087f950d610/buildings/trafford_buildings.geojson",
        "http_status": 200,
        "access_utc": "2026-10-09T07:57:05.545Z",
        "data_date": "April 2023 (OS source); June 20 2023 publication commit",
        "source_version": "Ordnance Survey OS OpenMap Local Building layer June 2023; commit fa92a96ed3b59314fddc8e0a7ac8f087f950d610; Git blob 3fd3eec1a39d562b3f999ec1629b442b43622923",
        "license": "Open Government Licence v3.0; contains OS data © Crown copyright and database right 2023",
        "source_file_sha256": "ef2c9f958c4a79e7e619cc0629c9026fe4133ebc2f7c8068a90bc764a41b1701",
        "field_evidence": [
          "ID",
          "FEATCODE",
          "geometry",
          "area_code",
          "area_name"
        ],
        "confidence_score_0_100": 87,
        "evidence_grade": "B_OS_OPENMAP_LOCAL_FEATCODE_15014_BUILDING_POLYGON_USE_UNSPECIFIED",
        "official_public_no_login": true,
        "fake_data": false,
        "evidence_slice_sha256": "ded815abad76de1827ea6012e4be7e55c0d6572756752493056e383ccf46eb6b"
      }
    },
    {
      "type": "Feature",
      "geometry": {
        "type": "Polygon",
        "coordinates": [
          [
            [
              -2.328592095593186,
              53.42926741359632
            ],
            [
              -2.328167147995623,
              53.42935442344778
            ],
            [
              -2.328210011864852,
              53.429428730821854
            ],
            [
              -2.328634510700449,
              53.42934199171211
            ],
            [
              -2.328592095593186,
              53.42926741359632
            ]
          ]
        ]
      },
      "properties": {
        "slot_id": "building_type_3",
        "lineage_id": "building_type_3-new-20260927T1328+0300",
        "owner": "cagdas aydin",
        "partition": "building_type_3",
        "page_generation": 61,
        "semantic_mode": null,
        "batch_id": "BT3-P119G61-20261009-OSOML-TRAFFORD-BUILDING10",
        "cursor": "BT3-P119G61-20261009-OSOML-TRAFFORD-BUILDING10-p119",
        "building_state": "BUILDING_PRESENT",
        "source_record_id": "os-openmap-local:building-2023:4595D5F7-C22F-47AE-859D-3D167CFCBC2E",
        "semantic_identity": "os-openmap-local:building-2023:4595D5F7-C22F-47AE-859D-3D167CFCBC2E",
        "source_row_ordinal": 10,
        "name": null,
        "building_type_use": "building",
        "type_use_evidence": "OS OpenMap Local FEATCODE=15014: Building. Functional use is not specified in this source and is not inferred.",
        "dataset": "OS OpenMap Local Building",
        "quality": "OS building footprint; no functional-use attribution",
        "coordinate_reference_system": "OGC:CRS84; transformed from OS EPSG:27700",
        "ID": "4595D5F7-C22F-47AE-859D-3D167CFCBC2E",
        "FEATCODE": 15014,
        "area_code": "E08000009",
        "area_name": "Trafford",
        "authority": "Ordnance Survey OpenMap Local Building, Trafford Data Lab published OS-derived GIS",
        "source_url": "https://github.com/traffordDataLab/open_data/blob/fa92a96ed3b59314fddc8e0a7ac8f087f950d610/buildings/trafford_buildings.geojson",
        "final_url": "https://github.com/traffordDataLab/open_data/blob/fa92a96ed3b59314fddc8e0a7ac8f087f950d610/buildings/trafford_buildings.geojson",
        "http_status": 200,
        "access_utc": "2026-10-09T07:57:05.545Z",
        "data_date": "April 2023 (OS source); June 20 2023 publication commit",
        "source_version": "Ordnance Survey OS OpenMap Local Building layer June 2023; commit fa92a96ed3b59314fddc8e0a7ac8f087f950d610; Git blob 3fd3eec1a39d562b3f999ec1629b442b43622923",
        "license": "Open Government Licence v3.0; contains OS data © Crown copyright and database right 2023",
        "source_file_sha256": "ef2c9f958c4a79e7e619cc0629c9026fe4133ebc2f7c8068a90bc764a41b1701",
        "field_evidence": [
          "ID",
          "FEATCODE",
          "geometry",
          "area_code",
          "area_name"
        ],
        "confidence_score_0_100": 87,
        "evidence_grade": "B_OS_OPENMAP_LOCAL_FEATCODE_15014_BUILDING_POLYGON_USE_UNSPECIFIED",
        "official_public_no_login": true,
        "fake_data": false,
        "evidence_slice_sha256": "256a91e8d4533ea702f0242986a7643b195fb437f32458f59bcf388fc4185dee"
      }
    }
  ]
}
