{"type":"FeatureCollection","features":[{"type":"Feature","geometry":null,"properties":{"slot_id":"planned_buildings_1","lineage_id":"planned_buildings_1-0ffc4ebd6c6e4e41","semantic_mode":"DISTINCT_BUILDINGS","planned_building_id":"planning-application:26/00663/FUL::PROPOSED_DWELLING","building_status":"PLANNED","building_name":"Proposed dwelling, Highwinds 52 Silverdale Avenue Worcester","planning_reference":"26/00663/FUL","authority":"Worcester City Council","source_url":"https://plan.worcester.gov.uk/Planning/Display/26/00663/FUL","final_url":"https://plan.worcester.gov.uk/Planning/Display/26/00663/FUL","access_utc":"2026-10-05T06:03:00Z","source_data_date":"2026-07-21","license":"Council planning-register copyright/consultation terms; no separate data licence stated on page","geometry_role":"null; no geometry inferred","field_evidence":"Valid; Pending Decision; decision Pending; proposal explicitly states Proposed dwelling.","identity_limitation":"Exactly one new dwelling is counted from the explicit proposal; no other structure is inferred.","confidence_score_0_100":99,"evidence_grade":"A","fake_data":false}}]}