{"features":[{"geometry":{"coordinates":[[[[0.040345,51.39963],[0.040408,51.399437],[0.045153,51.399679],[0.045122,51.399907],[0.043609,51.399805],[0.043574,51.399829],[0.041102,51.399748],[0.040482,51.39965],[0.040345,51.39963]]]],"type":"MultiPolygon"},"properties":{"accepted_as_parcel":false,"access_utc":"2026-10-05T10:49:00Z","authority":"London Borough of Bromley","confidence":0.98,"confidence_score_0_100":98,"coverage_polygon_provided":true,"data_date":"2020-12-22","dataset_url":"https://www.planning.data.gov.uk/entity/1707463","evidence_grade":"A","evidence_scope":"official_exact_identifier_and_linked_polygon","evidence_slice_sha256":"12d484f78b6cd84cdf305e1f16faad2c55277c4cc3a2084695af7a4620d37f9a","exact_identifier":"BLR2","exact_identifier_provided":true,"fake_data":false,"field_evidence":{"brownfield_land_entry_date":"2017-12-31","brownfield_site_entry_date":"2020-12-22","geometry_type":"MultiPolygon","hectares":0.9,"notes":"The site is allocated for around 30 residential units in Bromley's Draft Local Plan.","organisation":"London Borough of Bromley","planning_permission_status":"not-permissioned","reference":"BLR2","site_name":"Land adjacent to Bickley Station,BR1 2EB"},"final_url":"https://www.planning.data.gov.uk/entity/1801960","hectares":0.9,"identifier_namespace":"Planning Data brownfield-site / brownfield-land reference","license":"Open Government Licence v3.0","lineage_id":"future_growth_ 2-newstart-20261001T203100Z","maximum_net_dwellings":null,"minimum_net_dwellings":null,"owner":"future_growth_ 2","page_generation":1,"partition":"future_growth","planned_building_count_contribution":0,"planning_permission_status":"not-permissioned","point":{"coordinates":[0.042686,51.399674],"type":"Point"},"semantic_mode":"SOURCE_AREA_EXACT_IDENTIFIER","site_address":"Land adjacent to Bickley Station,BR1 2EB","slot_id":"future_growth_ 2","source_area_count_contribution":1,"source_url":"https://www.planning.data.gov.uk/entity/1801960","spatial_binding_method":"official Planning Data linked Brownfield land identifier plus Brownfield site MultiPolygon; canonical parcel spatial join/materialization delegated to local OpenCode"},"type":"Feature"}],"type":"FeatureCollection"}