{"type":"FeatureCollection","schema_family":"AAYS_LAYER24_EVIDENCE_V1","category":"AAYS_SOURCE_AREA_V1","slot_id":"gas_emissions_5","lineage_id":"gas_emissions_5__new_start__20260927T104100Z","features":[{"type":"Feature","geometry":null,"properties":{"source_id":"GLA_TFL_LAEI2022_HARINGEY_ZIP_WINDOW_001","coverage_area_id":"Haringey","coverage_area_name":"Haringey","coverage_binding":"EXACT_OFFICIAL_BOROUGH_FILE_IDENTIFIER","dataset":"LAEI 2022 - Borough Air Quality Data for LLAQM","source_file_name":"Haringey.zip","emissions_years":[2016,2019,2022,2025,2030],"pollutant":"CO2","canonical_parcel_id":null,"match_status":"UNPROCESSED_LOCAL_OPENCODE_SPATIAL_JOIN_REQUIRED","fake_data":false}}],"metadata":{"source_area_count":15,"new_source_record_count":1,"accepted_count":0,"duplicate_count":0,"rejected_count":0,"unmatched_count":1,"materialized_parcel_count":0,"direct_parcel_count":0,"verified_no_building_count":0,"unprocessed_count":1,"planned_building_count":0,"cursor":"GLA_TFL_LAEI2022_HARINGEY_ZIP_WINDOW_001"}}
