{"features":[{"geometry":null,"properties":{"accepted_as_parcel":false,"access_utc":"2026-10-03T10:09:00Z","authority":"London Borough of Tower Hamlets","confidence_score_0_100":99,"coverage_polygon_provided":false,"data_date":"2026-05-14","evidence_grade":"A","evidence_scope":"exact_official_identifier_from_council_local_plan_examination_update","evidence_slice_sha256":"a3c884b4b33af1226d1df74529aab73a0f2962fc06ebb70f686c2c1dfaaeccfd","exact_identifier":"Site Allocation 2.2","exact_identifier_provided":true,"fake_data":false,"field_evidence":{"counterparties":"Chrisp Street Developments Ltd & Poplar HARCA","dataset":"Tower Hamlets Local Plan 2038 examination updates","examination_update_date":"2026-05-14","local_plan":"Tower Hamlets Local Plan 2038","organisation":"London Borough of Tower Hamlets","plan_stage":"independent examination","reference":"Site Allocation 2.2","statement_of_common_ground":"THLP/ED08","submission_date":"2026-02-16"},"final_url":"https://www.towerhamlets.gov.uk/lgnl/planning_and_building_control/planning_policy_guidance/Local-Plan-2038-examination/Local-Plan-Examination-updates.aspx","identifier_namespace":"Tower Hamlets Local Plan 2038 site-allocation reference","license":"© Tower Hamlets Council; cited council page does not assert a separate open reuse licence.","lineage_id":"future_growth_3-newstart-20261001T203100Z","page_generation":null,"planned_building_count_contribution":0,"secondary_exact_identifier":"THLP/ED08","site_address":"Chrisp Street, London Borough of Tower Hamlets","slot_id":"future_growth_3","source_area_count_contribution":1,"source_entity":"Site Allocation 2.2 - Chrisp Street","source_payload_sha256":"24b99fac661db647ead504a3a7381308c800db55fb96104f410d9310840a0e5a","source_payload_sha256_basis":"canonicalized official Tower Hamlets Council Site Allocation 2.2 examination evidence fields","source_url":"https://www.towerhamlets.gov.uk/lgnl/planning_and_building_control/planning_policy_guidance/Local-Plan-2038-examination/Local-Plan-Examination-updates.aspx","spatial_binding_method":"official Tower Hamlets Council Local Plan 2038 examination update THLP/ED08 with exact Site Allocation 2.2 reference; canonical parcel spatial join and materialization delegated to local OpenCode"},"type":"Feature"}],"type":"FeatureCollection"}