{
  "type": "FeatureCollection",
  "features": [
    {
      "type": "Feature",
      "id": "ons-ward:E05009390:WD_MAY_2026_UK_BFE",
      "geometry": null,
      "properties": {
        "evidence_scope": "coverage_area",
        "coverage_area_id": "E05009390",
        "coverage_area_name": "Campden",
        "identifier_scheme": "ONS_WARD_GSS_CODE",
        "exact_official_identifier": "E05009390",
        "source_resolution": "ONS_OPEN_GEOGRAPHY_WARDS_MAY_2026_BFE_FEATURESERVER",
        "geometry_source_type": "OFFICIAL_FULL_RESOLUTION_POLYGON_FEATURE_SERVICE",
        "geometry_type": "Polygon",
        "source_crs": "EPSG:27700",
        "time_window": "MAY_2026",
        "measurement_date": "2026-05",
        "measurement_method": "official ONS Open Geography full-resolution polygon FeatureServer binding",
        "spatial_binding_method": "OFFICIAL_FEATURE_QUERY_AND_PARCEL_JOIN_DEFERRED_TO_LOCAL_OPENCODE",
        "source_url": "https://services1.arcgis.com/ESMARspQHYMw9BZ9/ArcGIS/rest/services/WD_MAY_2026_UK_BFE/FeatureServer/0",
        "final_url": "https://services1.arcgis.com/ESMARspQHYMw9BZ9/ArcGIS/rest/services/WD_MAY_2026_UK_BFE/FeatureServer/0",
        "accessed_at_utc": "2026-10-02T01:12:00Z",
        "data_date": "2026-05",
        "licence": "Open Government Licence v3.0",
        "sha256": "0d8e8181393c090c40b76973681016a239ea8f4bb25f7e0078dd9a00dc338ade",
        "field_evidence": {
          "service_name": "WD_MAY_2026_UK_BFE",
          "service_item_id": "51cded99915b4caab140d45e85008064",
          "layer_id": 0,
          "geometry_type": "esriGeometryPolygon",
          "spatial_reference": "EPSG:27700",
          "boundary_resolution": "BFE full resolution - extent of the realm",
          "display_field": "WD26CD",
          "code_field": "WD26CD",
          "name_field": "WD26NM",
          "parent_code_field": "LAD26CD",
          "parent_name_field": "LAD26NM",
          "dataset_vintage": "May 2026",
          "data_last_edit_utc": "2026-08-05T13:57:29Z",
          "target_identifier": "E05009390",
          "target_name": "Campden",
          "target_query": "WD26CD='E05009390'",
          "feature_extraction_status": "DEFERRED_TO_LOCAL_OPENCODE",
          "source_url": "https://services1.arcgis.com/ESMARspQHYMw9BZ9/ArcGIS/rest/services/WD_MAY_2026_UK_BFE/FeatureServer/0",
          "accessed_at_utc": "2026-10-02T01:12:00Z"
        },
        "evidence_slice_sha256": "a40b315dc1e235be4c0ac5b2bf16b9201c6d55be8ae8aefddfe473a1a19ca2fd",
        "confidence_score_0_100": 100,
        "evidence_grade": "A",
        "fake_data": false,
        "source_window_id": "ons_ogp_WD_MAY_2026_UK_BFE_E05009390_sps5_20261002_v1",
        "cursor": "ons_ogp_WD_MAY_2026_UK_BFE_E05009390_sps5_20261002_v1:record=1"
      }
    }
  ]
}
