{"type":"FeatureCollection","name":"height_difference_5","metadata":{"batch_id":"20261002T165500Z_osni_river_basin_lidar_2012_resources_blocked","slot_id":"height_difference_5","lineage_id":"height_difference_5-eb56f92ed3f0514c","schema":"AAYS_LAYER24_EVIDENCE_V1","partition":"layer24","fake_data":false},"features":[{"type":"Feature","geometry":null,"properties":{"batch_id":"20261002T165500Z_osni_river_basin_lidar_2012_resources_blocked","source_record_id":"OSNI_RIVER_BASIN_LIDAR_2012:1","resource_name":"Sion Mills_02_02_2012","payload_url":"https://opendatani.blob.core.windows.net/lpslidar/Sion%20Mills_02_02_2012.zip","payload_transport_status":"CACHE_MISS","required_building_state":"BUILDING_PRESENT","binding_status":"LOCAL_OPENCODE_BUILDING_PRESENT_EXACT_TILE_BIND_REQUIRED","evidence_slice_sha256":"94c58a45783d873ab4d720a64178093772798af7c47a72b30665d65fec63948a","fake_data":false}},{"type":"Feature","geometry":null,"properties":{"batch_id":"20261002T165500Z_osni_river_basin_lidar_2012_resources_blocked","source_record_id":"OSNI_RIVER_BASIN_LIDAR_2012:2","resource_name":"Saintfield_02_02_2012","payload_url":"https://opendatani.blob.core.windows.net/lpslidar/Saintfield_02_02_2012.zip","payload_transport_status":"CACHE_MISS","required_building_state":"BUILDING_PRESENT","binding_status":"LOCAL_OPENCODE_BUILDING_PRESENT_EXACT_TILE_BIND_REQUIRED","evidence_slice_sha256":"94c58a45783d873ab4d720a64178093772798af7c47a72b30665d65fec63948a","fake_data":false}},{"type":"Feature","geometry":null,"properties":{"batch_id":"20261002T165500Z_osni_river_basin_lidar_2012_resources_blocked","source_record_id":"OSNI_RIVER_BASIN_LIDAR_2012:3","resource_name":"PortadownExtension_02_02_2012","payload_url":"https://opendatani.blob.core.windows.net/lpslidar/PortadownExtension_02_02_2012.zip","payload_transport_status":"CACHE_MISS","required_building_state":"BUILDING_PRESENT","binding_status":"LOCAL_OPENCODE_BUILDING_PRESENT_EXACT_TILE_BIND_REQUIRED","evidence_slice_sha256":"94c58a45783d873ab4d720a64178093772798af7c47a72b30665d65fec63948a","fake_data":false}},{"type":"Feature","geometry":null,"properties":{"batch_id":"20261002T165500Z_osni_river_basin_lidar_2012_resources_blocked","source_record_id":"OSNI_RIVER_BASIN_LIDAR_2012:4","resource_name":"Omagh_Town_11_12_2012","payload_url":"https://opendatani.blob.core.windows.net/lpslidar/Omagh_Town_11_12_2012.zip","payload_transport_status":"CACHE_MISS","required_building_state":"BUILDING_PRESENT","binding_status":"LOCAL_OPENCODE_BUILDING_PRESENT_EXACT_TILE_BIND_REQUIRED","evidence_slice_sha256":"94c58a45783d873ab4d720a64178093772798af7c47a72b30665d65fec63948a","fake_data":false}},{"type":"Feature","geometry":null,"properties":{"batch_id":"20261002T165500Z_osni_river_basin_lidar_2012_resources_blocked","source_record_id":"OSNI_RIVER_BASIN_LIDAR_2012:5","resource_name":"Mossley_05_03_2012","payload_url":"https://opendatani.blob.core.windows.net/lpslidar/Mossley_05_03_2012.zip","payload_transport_status":"CACHE_MISS","required_building_state":"BUILDING_PRESENT","binding_status":"LOCAL_OPENCODE_BUILDING_PRESENT_EXACT_TILE_BIND_REQUIRED","evidence_slice_sha256":"94c58a45783d873ab4d720a64178093772798af7c47a72b30665d65fec63948a","fake_data":false}},{"type":"Feature","geometry":null,"properties":{"batch_id":"20261002T165500Z_osni_river_basin_lidar_2012_resources_blocked","source_record_id":"OSNI_RIVER_BASIN_LIDAR_2012:6","resource_name":"Moneymore_05_03_2012","payload_url":"https://opendatani.blob.core.windows.net/lpslidar/Moneymore_05_03_2012.zip","payload_transport_status":"CACHE_MISS","required_building_state":"BUILDING_PRESENT","binding_status":"LOCAL_OPENCODE_BUILDING_PRESENT_EXACT_TILE_BIND_REQUIRED","evidence_slice_sha256":"94c58a45783d873ab4d720a64178093772798af7c47a72b30665d65fec63948a","fake_data":false}},{"type":"Feature","geometry":null,"properties":{"batch_id":"20261002T165500Z_osni_river_basin_lidar_2012_resources_blocked","source_record_id":"OSNI_RIVER_BASIN_LIDAR_2012:7","resource_name":"Maguiresbridge_05_03_2012","payload_url":"https://opendatani.blob.core.windows.net/lpslidar/Maguiresbridge_05_03_2012.zip","payload_transport_status":"CACHE_MISS","required_building_state":"BUILDING_PRESENT","binding_status":"LOCAL_OPENCODE_BUILDING_PRESENT_EXACT_TILE_BIND_REQUIRED","evidence_slice_sha256":"94c58a45783d873ab4d720a64178093772798af7c47a72b30665d65fec63948a","fake_data":false}},{"type":"Feature","geometry":null,"properties":{"batch_id":"20261002T165500Z_osni_river_basin_lidar_2012_resources_blocked","source_record_id":"OSNI_RIVER_BASIN_LIDAR_2012:8","resource_name":"Lurgan_05_03_2012","payload_url":"https://opendatani.blob.core.windows.net/lpslidar/Lurgan_05_03_2012.zip","payload_transport_status":"CACHE_MISS","required_building_state":"BUILDING_PRESENT","binding_status":"LOCAL_OPENCODE_BUILDING_PRESENT_EXACT_TILE_BIND_REQUIRED","evidence_slice_sha256":"94c58a45783d873ab4d720a64178093772798af7c47a72b30665d65fec63948a","fake_data":false}},{"type":"Feature","geometry":null,"properties":{"batch_id":"20261002T165500Z_osni_river_basin_lidar_2012_resources_blocked","source_record_id":"OSNI_RIVER_BASIN_LIDAR_2012:9","resource_name":"Lisbellaw_05_03_2012","payload_url":"https://opendatani.blob.core.windows.net/lpslidar/Lisbellaw_05_03_2012.zip","payload_transport_status":"CACHE_MISS","required_building_state":"BUILDING_PRESENT","binding_status":"LOCAL_OPENCODE_BUILDING_PRESENT_EXACT_TILE_BIND_REQUIRED","evidence_slice_sha256":"94c58a45783d873ab4d720a64178093772798af7c47a72b30665d65fec63948a","fake_data":false}},{"type":"Feature","geometry":null,"properties":{"batch_id":"20261002T165500Z_osni_river_basin_lidar_2012_resources_blocked","source_record_id":"OSNI_RIVER_BASIN_LIDAR_2012:10","resource_name":"Keady_02_02_2012","payload_url":"https://opendatani.blob.core.windows.net/lpslidar/Keady_02_02_2012.zip","payload_transport_status":"CACHE_MISS","required_building_state":"BUILDING_PRESENT","binding_status":"LOCAL_OPENCODE_BUILDING_PRESENT_EXACT_TILE_BIND_REQUIRED","evidence_slice_sha256":"94c58a45783d873ab4d720a64178093772798af7c47a72b30665d65fec63948a","fake_data":false}},{"type":"Feature","geometry":null,"properties":{"batch_id":"20261002T165500Z_osni_river_basin_lidar_2012_resources_blocked","source_record_id":"OSNI_RIVER_BASIN_LIDAR_2012:11","resource_name":"Glenavy_02_02_2012","payload_url":"https://opendatani.blob.core.windows.net/lpslidar/Glenavy_02_02_2012.zip","payload_transport_status":"CACHE_MISS","required_building_state":"BUILDING_PRESENT","binding_status":"LOCAL_OPENCODE_BUILDING_PRESENT_EXACT_TILE_BIND_REQUIRED","evidence_slice_sha256":"94c58a45783d873ab4d720a64178093772798af7c47a72b30665d65fec63948a","fake_data":false}},{"type":"Feature","geometry":null,"properties":{"batch_id":"20261002T165500Z_osni_river_basin_lidar_2012_resources_blocked","source_record_id":"OSNI_RIVER_BASIN_LIDAR_2012:12","resource_name":"Folk Park Newtownstewart_02_02_2012","payload_url":"https://opendatani.blob.core.windows.net/lpslidar/Folk%20Park%20Newtownstewart_02_02_2012.zip","payload_transport_status":"CACHE_MISS","required_building_state":"BUILDING_PRESENT","binding_status":"LOCAL_OPENCODE_BUILDING_PRESENT_EXACT_TILE_BIND_REQUIRED","evidence_slice_sha256":"94c58a45783d873ab4d720a64178093772798af7c47a72b30665d65fec63948a","fake_data":false}},{"type":"Feature","geometry":null,"properties":{"batch_id":"20261002T165500Z_osni_river_basin_lidar_2012_resources_blocked","source_record_id":"OSNI_RIVER_BASIN_LIDAR_2012:13","resource_name":"Fintona_02_02_2012","payload_url":"https://opendatani.blob.core.windows.net/lpslidar/Fintona_02_02_2012.zip","payload_transport_status":"CACHE_MISS","required_building_state":"BUILDING_PRESENT","binding_status":"LOCAL_OPENCODE_BUILDING_PRESENT_EXACT_TILE_BIND_REQUIRED","evidence_slice_sha256":"94c58a45783d873ab4d720a64178093772798af7c47a72b30665d65fec63948a","fake_data":false}},{"type":"Feature","geometry":null,"properties":{"batch_id":"20261002T165500Z_osni_river_basin_lidar_2012_resources_blocked","source_record_id":"OSNI_RIVER_BASIN_LIDAR_2012:14","resource_name":"Enniskillen_05_03_2012","payload_url":"https://opendatani.blob.core.windows.net/lpslidar/Enniskillen_05_03_2012.zip","payload_transport_status":"CACHE_MISS","required_building_state":"BUILDING_PRESENT","binding_status":"LOCAL_OPENCODE_BUILDING_PRESENT_EXACT_TILE_BIND_REQUIRED","evidence_slice_sha256":"94c58a45783d873ab4d720a64178093772798af7c47a72b30665d65fec63948a","fake_data":false}},{"type":"Feature","geometry":null,"properties":{"batch_id":"20261002T165500Z_osni_river_basin_lidar_2012_resources_blocked","source_record_id":"OSNI_RIVER_BASIN_LIDAR_2012:15","resource_name":"Eglinton_11_12_2012","payload_url":"https://opendatani.blob.core.windows.net/lpslidar/Eglinton_11_12_2012.zip","payload_transport_status":"CACHE_MISS","required_building_state":"BUILDING_PRESENT","binding_status":"LOCAL_OPENCODE_BUILDING_PRESENT_EXACT_TILE_BIND_REQUIRED","evidence_slice_sha256":"94c58a45783d873ab4d720a64178093772798af7c47a72b30665d65fec63948a","fake_data":false}},{"type":"Feature","geometry":null,"properties":{"batch_id":"20261002T165500Z_osni_river_basin_lidar_2012_resources_blocked","source_record_id":"OSNI_RIVER_BASIN_LIDAR_2012:16","resource_name":"Dougary_02_02_2012","payload_url":"https://opendatani.blob.core.windows.net/lpslidar/Dougary_02_02_2012.zip","payload_transport_status":"CACHE_MISS","required_building_state":"BUILDING_PRESENT","binding_status":"LOCAL_OPENCODE_BUILDING_PRESENT_EXACT_TILE_BIND_REQUIRED","evidence_slice_sha256":"94c58a45783d873ab4d720a64178093772798af7c47a72b30665d65fec63948a","fake_data":false}},{"type":"Feature","geometry":null,"properties":{"batch_id":"20261002T165500Z_osni_river_basin_lidar_2012_resources_blocked","source_record_id":"OSNI_RIVER_BASIN_LIDAR_2012:17","resource_name":"Burren_03_03_2012","payload_url":"https://opendatani.blob.core.windows.net/lpslidar/Burren_03_03_2012.zip","payload_transport_status":"CACHE_MISS","required_building_state":"BUILDING_PRESENT","binding_status":"LOCAL_OPENCODE_BUILDING_PRESENT_EXACT_TILE_BIND_REQUIRED","evidence_slice_sha256":"94c58a45783d873ab4d720a64178093772798af7c47a72b30665d65fec63948a","fake_data":false}},{"type":"Feature","geometry":null,"properties":{"batch_id":"20261002T165500Z_osni_river_basin_lidar_2012_resources_blocked","source_record_id":"OSNI_RIVER_BASIN_LIDAR_2012:18","resource_name":"Beragh_02_02_2012","payload_url":"https://opendatani.blob.core.windows.net/lpslidar/Beragh_02_02_2012.zip","payload_transport_status":"CACHE_MISS","required_building_state":"BUILDING_PRESENT","binding_status":"LOCAL_OPENCODE_BUILDING_PRESENT_EXACT_TILE_BIND_REQUIRED","evidence_slice_sha256":"94c58a45783d873ab4d720a64178093772798af7c47a72b30665d65fec63948a","fake_data":false}},{"type":"Feature","geometry":null,"properties":{"batch_id":"20261002T165500Z_osni_river_basin_lidar_2012_resources_blocked","source_record_id":"OSNI_RIVER_BASIN_LIDAR_2012:19","resource_name":"Belleek_05_03_2012","payload_url":"https://opendatani.blob.core.windows.net/lpslidar/Belleek_05_03_2012.zip","payload_transport_status":"CACHE_MISS","required_building_state":"BUILDING_PRESENT","binding_status":"LOCAL_OPENCODE_BUILDING_PRESENT_EXACT_TILE_BIND_REQUIRED","evidence_slice_sha256":"94c58a45783d873ab4d720a64178093772798af7c47a72b30665d65fec63948a","fake_data":false}},{"type":"Feature","geometry":null,"properties":{"batch_id":"20261002T165500Z_osni_river_basin_lidar_2012_resources_blocked","source_record_id":"OSNI_RIVER_BASIN_LIDAR_2012:20","resource_name":"Bangor Extension_05_03_2012","payload_url":"https://opendatani.blob.core.windows.net/lpslidar/Bangor%20Extension_05_03_2012.zip","payload_transport_status":"CACHE_MISS","required_building_state":"BUILDING_PRESENT","binding_status":"LOCAL_OPENCODE_BUILDING_PRESENT_EXACT_TILE_BIND_REQUIRED","evidence_slice_sha256":"94c58a45783d873ab4d720a64178093772798af7c47a72b30665d65fec63948a","fake_data":false}},{"type":"Feature","geometry":null,"properties":{"batch_id":"20261002T165500Z_osni_river_basin_lidar_2012_resources_blocked","source_record_id":"OSNI_RIVER_BASIN_LIDAR_2012:21","resource_name":"Ballinamallard_05_03_2012","payload_url":"https://opendatani.blob.core.windows.net/lpslidar/Ballinamallard_05_03_2012.zip","payload_transport_status":"CACHE_MISS","required_building_state":"BUILDING_PRESENT","binding_status":"LOCAL_OPENCODE_BUILDING_PRESENT_EXACT_TILE_BIND_REQUIRED","evidence_slice_sha256":"94c58a45783d873ab4d720a64178093772798af7c47a72b30665d65fec63948a","fake_data":false}},{"type":"Feature","geometry":null,"properties":{"batch_id":"20261002T165500Z_osni_river_basin_lidar_2012_resources_blocked","source_record_id":"OSNI_RIVER_BASIN_LIDAR_2012:22","resource_name":"Ardstraw_02_02_2012","payload_url":"https://opendatani.blob.core.windows.net/lpslidar/Ardstraw_02_02_2012.zip","payload_transport_status":"CACHE_MISS","required_building_state":"BUILDING_PRESENT","binding_status":"LOCAL_OPENCODE_BUILDING_PRESENT_EXACT_TILE_BIND_REQUIRED","evidence_slice_sha256":"94c58a45783d873ab4d720a64178093772798af7c47a72b30665d65fec63948a","fake_data":false}}]}
