{"type":"FeatureCollection","name":"height_difference_2","features":[],"metadata":{"slot_id":"height_difference_2","lineage_id":"height_difference_2_20260930T001051Z","page_generation":1,"partition":"source_area","schema":"AAYS_LAYER24_EVIDENCE_V1","fake_data":false,"owner":"cagdas aydin","batch_id":"batch_0117_gateshead_multi_record_canonical_blocker_20261007T032000+0300","cursor":"BLOCKED_GATESHEAD_MULTI_RECORD_BUILDING_PRESENT_WITHOUT_HD2_CANONICAL_PARCEL_OR_EXACT_TILE_BINDING","source_area_count":0,"accepted_count":0,"unmatched_count":4,"source_window_path":"incoming/layer24/building_type_9/building_type_9-20261001T200900Z-newstart/batch-0034/","reason":"EXACT_BLOCKER: a previously unused verified official public no-login Gateshead Metropolitan Borough Council / Planning Data listed-building-outline window was processed as a four-record canonical-binding cohort. Entities 42118318, 42118441, 42118409 and 42118258 are all BUILDING_PRESENT with authoritative MultiPolygon geometry, Open Government Licence v3.0 and data date 2023-08-17. All four records have canonical_parcel_id=null, parcel_status=UNPROCESSED and local_spatial_join_required=true, and none exposes an exact official DEM/LIDAR tile selector attributable to height_difference_2. Accepting any record as parcel progress would require the local OpenCode canonical parcel spatial join/materialization reserved by contract. Therefore the Height Difference family start criterion remains unsatisfied and no DEM/LIDAR source window was opened. Local OpenCode must publish a non-null slot-bound canonical_parcel_id with BUILDING_PRESENT plus parcel geometry/bbox or an exact official DEM/LIDAR tile selector before source acceptance."}}
