{"type":"FeatureCollection","features":[{"type":"Feature","id":"planning-data-brownfield-land:1735258","geometry":null,"properties":{"slot_id":"future_growth_4","lineage_id":"fg4-e4c9076d6f554f00","page_generation":1,"owner":"future_growth_4","partition":"future_growth","semantic_mode":"SOURCE_AREA_EXACT_IDENTIFIER","dataset":"planning-data-brownfield-land","entity":1735258,"reference":"LBCBLR113.3","quality":"authoritative","organisation":"London Borough of Camden","name":"King's Cross Central, York Way, London, N1","site_address":"King's Cross Central, York Way, London, N1","source_url":"https://www.planning.data.gov.uk/entity/1735258","final_url":"https://www.planning.data.gov.uk/entity/1735258","access_utc":"2026-10-06T23:30:00Z","data_date":"2025-12-07","license":"Open Government Licence v3.0","field_evidence":{"reference":"LBCBLR113.3","entity":1735258,"site_name_address":"King's Cross Central, York Way, London, N1","hectares":0.31,"deliverable":"yes","point":"POINT (-0.12563 51.538444)","ownership_status":"unknown-ownership","minimum_net_dwellings":1550,"maximum_net_dwellings":1550,"planning_permission_date":"2021-03-10","planning_permission_type":"other","planning_permission_status":"permissioned","planning_application_references":["2020/5885/P","2020/5143/P","2018/4813/P"],"entry_date":"2025-12-07","start_date":"2023-11-01"},"evidence_slice_sha256":"1bf45c381bb0be6483f2b19272d30d972029b399aea80276422b4c1faca402b0","confidence_score_0_100":99,"confidence":0.99,"evidence_grade":"A","exact_identifier_provided":true,"coverage_polygon_provided":false,"fake_data":false,"join_mode":"LOCAL_OPENCODE_SPATIAL_JOIN_PENDING","direct_parcel":false,"source_area_count_contribution":1,"planned_building_count_contribution":0}}]}