{"type":"FeatureCollection","name":"security_public_safety_6","features":[{"type":"Feature","id":"ons_csp24:E22000150","geometry":null,"properties":{"source_area_id":"E22000150","source_area_name":"Blackburn with Darwen","source_area_kind":"community_safety_partnership_exact_identifier","source_window_id":"ons_csp24_names_codes_preview_rows_1_4_2026-10-02","source_url":"https://www.data.gov.uk/dataset/528bf23c-19b5-4e6d-bfb8-ea3756a9eed2/community-safety-partnerships-december-2024-names-and-codes-in-ew/datafile/3649013a-177f-4679-84a3-18d277733962/preview","final_url":"https://www.data.gov.uk/dataset/528bf23c-19b5-4e6d-bfb8-ea3756a9eed2/community-safety-partnerships-december-2024-names-and-codes-in-ew/datafile/3649013a-177f-4679-84a3-18d277733962/preview","accessed_utc":"2026-10-02T09:40:28Z","data_date":"2024-12-31","license":"Dataset licence field: Not set; National Data Library site content is OGL v3.0 except where otherwise stated.","source_record_ordinal":1,"evidence_type":"exact_identifier","evidence_slice_sha256":"92c0a604e8ab05db80380fafa8a73f9fa30c32507bc4fadc29089452461349b5","field_evidence":{"source_area_id":"CSP24CD from official ONS/National Data Library CSV preview","source_area_name":"CSP24NM from official ONS/National Data Library CSV preview","geometry":"Names-and-codes source; no polygon geometry claimed in this batch."},"confidence_score_0_100":99,"evidence_grade":"A_OFFICIAL_PRIMARY_PREVIEW","fake_data":false,"canonical_parcel_id":null,"parcel_match_status":"DEFERRED_TO_LOCAL_OPENCODE"}},{"type":"Feature","id":"ons_csp24:E22000151","geometry":null,"properties":{"source_area_id":"E22000151","source_area_name":"Blackpool","source_area_kind":"community_safety_partnership_exact_identifier","source_window_id":"ons_csp24_names_codes_preview_rows_1_4_2026-10-02","source_url":"https://www.data.gov.uk/dataset/528bf23c-19b5-4e6d-bfb8-ea3756a9eed2/community-safety-partnerships-december-2024-names-and-codes-in-ew/datafile/3649013a-177f-4679-84a3-18d277733962/preview","final_url":"https://www.data.gov.uk/dataset/528bf23c-19b5-4e6d-bfb8-ea3756a9eed2/community-safety-partnerships-december-2024-names-and-codes-in-ew/datafile/3649013a-177f-4679-84a3-18d277733962/preview","accessed_utc":"2026-10-02T09:40:28Z","data_date":"2024-12-31","license":"Dataset licence field: Not set; National Data Library site content is OGL v3.0 except where otherwise stated.","source_record_ordinal":2,"evidence_type":"exact_identifier","evidence_slice_sha256":"92c0a604e8ab05db80380fafa8a73f9fa30c32507bc4fadc29089452461349b5","field_evidence":{"source_area_id":"CSP24CD from official ONS/National Data Library CSV preview","source_area_name":"CSP24NM from official ONS/National Data Library CSV preview","geometry":"Names-and-codes source; no polygon geometry claimed in this batch."},"confidence_score_0_100":99,"evidence_grade":"A_OFFICIAL_PRIMARY_PREVIEW","fake_data":false,"canonical_parcel_id":null,"parcel_match_status":"DEFERRED_TO_LOCAL_OPENCODE"}},{"type":"Feature","id":"ons_csp24:E22000152","geometry":null,"properties":{"source_area_id":"E22000152","source_area_name":"Burnley","source_area_kind":"community_safety_partnership_exact_identifier","source_window_id":"ons_csp24_names_codes_preview_rows_1_4_2026-10-02","source_url":"https://www.data.gov.uk/dataset/528bf23c-19b5-4e6d-bfb8-ea3756a9eed2/community-safety-partnerships-december-2024-names-and-codes-in-ew/datafile/3649013a-177f-4679-84a3-18d277733962/preview","final_url":"https://www.data.gov.uk/dataset/528bf23c-19b5-4e6d-bfb8-ea3756a9eed2/community-safety-partnerships-december-2024-names-and-codes-in-ew/datafile/3649013a-177f-4679-84a3-18d277733962/preview","accessed_utc":"2026-10-02T09:40:28Z","data_date":"2024-12-31","license":"Dataset licence field: Not set; National Data Library site content is OGL v3.0 except where otherwise stated.","source_record_ordinal":3,"evidence_type":"exact_identifier","evidence_slice_sha256":"92c0a604e8ab05db80380fafa8a73f9fa30c32507bc4fadc29089452461349b5","field_evidence":{"source_area_id":"CSP24CD from official ONS/National Data Library CSV preview","source_area_name":"CSP24NM from official ONS/National Data Library CSV preview","geometry":"Names-and-codes source; no polygon geometry claimed in this batch."},"confidence_score_0_100":99,"evidence_grade":"A_OFFICIAL_PRIMARY_PREVIEW","fake_data":false,"canonical_parcel_id":null,"parcel_match_status":"DEFERRED_TO_LOCAL_OPENCODE"}},{"type":"Feature","id":"ons_csp24:E22000153","geometry":null,"properties":{"source_area_id":"E22000153","source_area_name":"Chorley","source_area_kind":"community_safety_partnership_exact_identifier","source_window_id":"ons_csp24_names_codes_preview_rows_1_4_2026-10-02","source_url":"https://www.data.gov.uk/dataset/528bf23c-19b5-4e6d-bfb8-ea3756a9eed2/community-safety-partnerships-december-2024-names-and-codes-in-ew/datafile/3649013a-177f-4679-84a3-18d277733962/preview","final_url":"https://www.data.gov.uk/dataset/528bf23c-19b5-4e6d-bfb8-ea3756a9eed2/community-safety-partnerships-december-2024-names-and-codes-in-ew/datafile/3649013a-177f-4679-84a3-18d277733962/preview","accessed_utc":"2026-10-02T09:40:28Z","data_date":"2024-12-31","license":"Dataset licence field: Not set; National Data Library site content is OGL v3.0 except where otherwise stated.","source_record_ordinal":4,"evidence_type":"exact_identifier","evidence_slice_sha256":"92c0a604e8ab05db80380fafa8a73f9fa30c32507bc4fadc29089452461349b5","field_evidence":{"source_area_id":"CSP24CD from official ONS/National Data Library CSV preview","source_area_name":"CSP24NM from official ONS/National Data Library CSV preview","geometry":"Names-and-codes source; no polygon geometry claimed in this batch."},"confidence_score_0_100":99,"evidence_grade":"A_OFFICIAL_PRIMARY_PREVIEW","fake_data":false,"canonical_parcel_id":null,"parcel_match_status":"DEFERRED_TO_LOCAL_OPENCODE"}}],"metadata":{"slot_id":"security_public_safety_6","lineage_id":"SECPS6_20260930T003421Z_01","page_generation":1,"batch_id":"BATCH_20261002T094028Z_ONS_CSP24_PREVIEW4","source_window_id":"ons_csp24_names_codes_preview_rows_1_4_2026-10-02","source_url":"https://www.data.gov.uk/dataset/528bf23c-19b5-4e6d-bfb8-ea3756a9eed2/community-safety-partnerships-december-2024-names-and-codes-in-ew/datafile/3649013a-177f-4679-84a3-18d277733962/preview","final_url":"https://www.data.gov.uk/dataset/528bf23c-19b5-4e6d-bfb8-ea3756a9eed2/community-safety-partnerships-december-2024-names-and-codes-in-ew/datafile/3649013a-177f-4679-84a3-18d277733962/preview","dataset_url":"https://www.data.gov.uk/dataset/528bf23c-19b5-4e6d-bfb8-ea3756a9eed2/community-safety-partnerships-december-2024-names-and-codes-in-ew","accessed_utc":"2026-10-02T09:40:28Z","data_date":"2024-12-31","license":"Dataset licence field: Not set; National Data Library site content is OGL v3.0 except where otherwise stated.","evidence_slice_sha256":"92c0a604e8ab05db80380fafa8a73f9fa30c32507bc4fadc29089452461349b5","new_source_records":4,"source_area_count_delta":4,"cumulative_source_area_count":46,"accepted_count":0,"duplicate_count":0,"rejected_count":0,"unmatched_count":0,"materialized_parcel_count":0,"direct_parcel_count":0,"planned_building_count":0,"cursor":null,"window_complete":true,"dataset_complete":false,"local_spatial_join_required":true,"fake_data":false}}
