{"type":"FeatureCollection","features":[{"type":"Feature","geometry":null,"properties":{"slot_id":"future_growth_3","lineage_id":"future_growth_3-newstart-20261001T203100Z","page_generation":null,"accepted_as_parcel":false,"source_area_count_contribution":1,"exact_identifier":"LEB1","exact_identifier_provided":true,"coverage_polygon_provided":false,"identifier_namespace":"Hambleton Local Plan 2022 housing allocation policy reference","secondary_exact_identifier":"Harkness Drive, Leeming Bar","source_entity":"LEB1 - Harkness Drive, Leeming Bar","access_utc":"2026-10-07T00:05:00Z","data_date":"2022-02-22","source_url":"https://map-services.hambleton.gov.uk/arcgis/rest/services/AGOL/LocalPlanPoliciesMap2022/MapServer/274","final_url":"https://map-services.hambleton.gov.uk/arcgis/rest/services/AGOL/LocalPlanPoliciesMap2022/MapServer/274","license":"Static representation; © Crown copyright [and database rights] 2022 OS 100018555.","authority":"Hambleton District Council","site_address":"Harkness Drive, Leeming Bar","field_evidence":{"reference":"LEB1","dataset":"Hambleton Local Plan 2022","organisation":"Hambleton District Council","site_name":"Harkness Drive, Leeming Bar","policy_category":"Housing Allocation","policy_context":"HG1 Housing Delivery","adopted_date":"2022-02-22","map_layer":"Allocations (ID 274)","geometry_type":"esriGeometryPolygon"},"source_payload_sha256":"4f2f911b2599a0c41d5cf20d68d4ca29c0abf20a8fcce84626892b1ca7da6393","source_payload_sha256_basis":"canonicalized official Hambleton District Council Local Plan LEB1 evidence fields","evidence_slice_sha256":"597073cd81420a204a04ebf8d52c3fb179bda12a8a16a66ad9a630b8cf747d11","evidence_grade":"A","confidence_score_0_100":99,"evidence_scope":"exact_official_identifier_bound_to_council_polygon_allocation_layer","fake_data":false,"spatial_binding_method":"official Hambleton District Council Local Plan 2022 Allocations layer (ID 274) and exact Policy_Ref LEB1; canonical parcel spatial join and materialization delegated to local OpenCode","planned_building_count_contribution":0}}]}