{"type":"FeatureCollection","features":[{"type":"Feature","id":"planned_buildings_2-gla-hz-005-heart-of-harrow","geometry":null,"properties":{"slot_id":"planned_buildings_2","source_dataset_id":"gla_city_hall_housing_zones_detail","source_index":3,"source_window_index":4,"published_zone_number":5,"official_site_key":"GLA-HZ-CITYHALL-005","canonical_record_key":"london-city-hall:housing-zones:5:heart-of-harrow","planned_project_name":"Heart of Harrow","planned_project_type":"housing_zone_program_area","planned_project_status":"official_housing_zone_program_record","borough":"London Borough of Harrow","official_total_homes":5295,"parcel_id":null,"planned_building_value":null,"planned_building_probability":null,"planned_building_complete_month":null,"planned_site_geometry":null,"matching_method":"direct_official_housing_zone_program_record_no_parcel_match","source_url":"https://www.london.gov.uk/programmes-strategies/housing-and-land/mayors-priorities-londons-housing-and-land/housing-zones","source_quality":"authoritative","demo_only":true,"fake_data":false,"final_ready":false,"production_merge":false,"generated_at":"2026-08-18T03:32:06Z"}}],"metadata":{"slot_id":"planned_buildings_2","batch_index":61,"source_index":3,"source_window":{"resource_index":4,"limit":1},"feature_count_before":423,"feature_count_after":424,"unique_real_site_project_before":264,"unique_real_site_project_after":265,"duplicate_count_new":0,"nearest_match_used":false,"parcel_match_used":false,"fake_data":false,"mirror_only":true}}