{"type":"FeatureCollection","features":[{"type":"Feature","geometry":null,"properties":{"slot_id":"future_growth_1","lineage_id":"future_growth_1-newstart-20260927T153100+0300","page_generation":null,"accepted_as_parcel":false,"source_area_count_contribution":1,"exact_identifier":"CA006","exact_identifier_provided":true,"coverage_polygon_provided":false,"identifier_namespace":"Southend New Local Plan Preferred Approach Policy N5ai site proposal","site_name":"Victoria Avenue West","access_utc":"2026-10-05T00:48:00Z","data_date":"2025-09-30","source_url":"https://localplan.southend.gov.uk/southend-new-local-plan-preferred-approach-options","final_url":"https://localplan.southend.gov.uk/southend-new-local-plan-preferred-approach-options","license":"Southend-on-Sea City Council public Local Plan consultation page; page-specific reuse licence not stated.","authority":"Southend-on-Sea City Council","policy_reference":"Policy N5ai","plan_stage":"Proposed Allocation","proposed_use":"Mixed use, residential-led development with supporting commercial uses to ground floor, active frontage, and green space/green infrastructure provision or enhancements","approx_homes":850,"evidence_grade":"A","confidence_score_0_100":99,"evidence_scope":"official Southend New Local Plan Preferred Approach Policy N5ai proposed allocation CA006 on the council's live HTML consultation record","evidence_slice_sha256":"362cacd1ab9a3d7e30a1ca32c0e3b7395731841d66fd17fd7fbfde9617fd89d5","fake_data":false,"spatial_binding_method":"official CA006 allocation identifier plus accompanying Policies Map; exact boundary extraction, canonical parcel spatial join and materialization delegated to local OpenCode","planned_building_count_contribution":0}}]}
