{"type":"FeatureCollection","features":[],"metadata":{"slot_id":"planned_buildings_1","batch_index":10,"source_family":"planning_data_brownfield_land","source_window":{"geometry_entity":626195,"geometry_relation":"within","limit":1,"offset":105},"source_reference_hint":"BLR107","source_evidence_status":"LAMBETH_SEQUENCE_REFERENCE_EXPECTED_GENERIC_CHERWELL_COLLISION_REJECTED_EXACT_LAMBETH_ENTITY_POINT_NOT_RESOLVED","feature_count_before":129,"feature_count_after":129,"unique_real_site_project_before":80,"unique_real_site_project_after":80,"new_feature_count":0,"duplicate_count_new":0,"nearest_match_used":false,"fake_data":false,"mirror_only":true}}