{"type":"FeatureCollection","features":[{"type":"Feature","geometry":null,"properties":{"slot_id":"future_growth_1","lineage_id":"future_growth_1-newstart-20260927T153100+0300","page_generation":null,"accepted_as_parcel":false,"source_area_count_contribution":1,"exact_identifier":"SP14","exact_identifier_provided":true,"coverage_polygon_provided":false,"identifier_namespace":"West Berkshire Local Plan Review 2023-2041 policy","site_name":"North East Thatcham Strategic Site Allocation","plan_name":"West Berkshire Local Plan Review 2023-2041","plan_status":"adopted","adoption_date":"2025-06-10","dwelling_capacity":"up to approximately 2,500 dwellings","affordable_housing_min_percent":40,"custom_self_build_min_percent":3,"masterplan_required":true,"green_infrastructure_approx_percent":50,"access_utc":"2026-10-03T21:52:00Z","data_date":"2025-06-10","source_url":"https://www.westberks.gov.uk/NET","final_url":"https://www.westberks.gov.uk/article/45556/North-East-Thatcham-Masterplan","local_plan_url":"https://westberks.gov.uk/local-plan-review","adoption_url":"https://www.westberks.gov.uk/article/44642/West-Berkshire-Council-adopts-Local-Plan-Review-following-Government-direction","license":"West Berkshire Council public Local Plan and masterplan webpages; page-specific reuse licence not stated","authority":"West Berkshire Council","evidence_grade":"A","confidence_score_0_100":99,"evidence_scope":"exact adopted West Berkshire Local Plan Policy SP14 strategic allocation plus current council North East Thatcham masterplan evidence","evidence_slice_sha256":"19b0659cb29c4d14f182aad4f924b7292475536a928357b6c1f7fd04d3fa1734","fake_data":false,"spatial_binding_method":"official adopted Policy SP14 exact identifier plus mapped strategic site-allocation evidence; exact boundary resolution, canonical parcel spatial join and materialization delegated to local OpenCode","planned_building_count_contribution":0,"policy_pdf_url":"https://www.westberks.gov.uk/media/64243/SP14-North-East-Thatcham/pdf/SP14_North_East_Thatcham.pdf?m=1755102256867"}}]}