{
  "type": "FeatureCollection",
  "name": "security_public_safety_1_batch_exact_identifiers",
  "features": [
    {
      "type": "Feature",
      "geometry": null,
      "properties": {
        "slot_id": "security_public_safety_1",
        "evidence_scope": "coverage_exact_identifier",
        "coverage_area_id": "B Division North",
        "exact_identifier": "B Division North",
        "exact_identifier_type": "btp.police.uk.b_division_subdivision.official_name",
        "coverage_area_name": "B Division North",
        "source_url": "https://www.btp.police.uk/SysSiteAssets/foi-media/british-transport-police/foi-requests/foi-response-01-foi-24-2551-and-01-foi-24-2552-btp-locations.pdf",
        "final_url": "https://www.btp.police.uk/SysSiteAssets/foi-media/british-transport-police/foi-requests/foi-response-01-foi-24-2551-and-01-foi-24-2552-btp-locations.pdf",
        "access_utc": "2026-10-07T01:41:00Z",
        "data_date": "2024-03-29",
        "data_date_basis": "FOI request receipt date stated in the official response; subdivision structure is stated in the response",
        "license": "British Transport Police publication; explicit reuse licence not asserted in extracted source window",
        "file_sha256": "7b30fdcf156a6d1a3be9ee19ce95ccd812dfbdcf008a5b86e949c6cae34a7dc2",
        "file_sha256_scope": "normalized three official B-Division subdivision records; not raw PDF bytes",
        "evidence_slice_sha256": "8bc18718754f7d5695fcb2a8c24a20df1844034f92cbf93b86c95a111ff79441",
        "field_evidence": {
          "ordinal": 1,
          "id": "B Division North",
          "display_name": "B Division North",
          "coverage": "railways north of the River Thames, including parts of Central London and Greater London, TfL footprint, Essex, East Anglia and Home Counties"
        },
        "confidence_score_0_100": 100,
        "evidence_grade": "A_OFFICIAL_EXACT_IDENTIFIER",
        "fake_data": false,
        "spatial_binding_method": "DEFERRED_TO_LOCAL_OPENCODE",
        "canonical_parcel_id": null,
        "materialized_parcel_count": 0,
        "direct_parcel_count": 0
      }
    },
    {
      "type": "Feature",
      "geometry": null,
      "properties": {
        "slot_id": "security_public_safety_1",
        "evidence_scope": "coverage_exact_identifier",
        "coverage_area_id": "B Division South",
        "exact_identifier": "B Division South",
        "exact_identifier_type": "btp.police.uk.b_division_subdivision.official_name",
        "coverage_area_name": "B Division South",
        "source_url": "https://www.btp.police.uk/SysSiteAssets/foi-media/british-transport-police/foi-requests/foi-response-01-foi-24-2551-and-01-foi-24-2552-btp-locations.pdf",
        "final_url": "https://www.btp.police.uk/SysSiteAssets/foi-media/british-transport-police/foi-requests/foi-response-01-foi-24-2551-and-01-foi-24-2552-btp-locations.pdf",
        "access_utc": "2026-10-07T01:41:00Z",
        "data_date": "2024-03-29",
        "data_date_basis": "FOI request receipt date stated in the official response; subdivision structure is stated in the response",
        "license": "British Transport Police publication; explicit reuse licence not asserted in extracted source window",
        "file_sha256": "7b30fdcf156a6d1a3be9ee19ce95ccd812dfbdcf008a5b86e949c6cae34a7dc2",
        "file_sha256_scope": "normalized three official B-Division subdivision records; not raw PDF bytes",
        "evidence_slice_sha256": "239aa81438dc5d568058148be24f3aca1ca6d90cf8c1e071682ac9015e6b3d06",
        "field_evidence": {
          "ordinal": 2,
          "id": "B Division South",
          "display_name": "B Division South",
          "coverage": "railways south of the River Thames in London, Kent, Surrey, Sussex and Hampshire"
        },
        "confidence_score_0_100": 100,
        "evidence_grade": "A_OFFICIAL_EXACT_IDENTIFIER",
        "fake_data": false,
        "spatial_binding_method": "DEFERRED_TO_LOCAL_OPENCODE",
        "canonical_parcel_id": null,
        "materialized_parcel_count": 0,
        "direct_parcel_count": 0
      }
    },
    {
      "type": "Feature",
      "geometry": null,
      "properties": {
        "slot_id": "security_public_safety_1",
        "evidence_scope": "coverage_exact_identifier",
        "coverage_area_id": "B Division Central/TfL",
        "exact_identifier": "B Division Central/TfL",
        "exact_identifier_type": "btp.police.uk.b_division_subdivision.official_name",
        "coverage_area_name": "B Division Central/TfL",
        "source_url": "https://www.btp.police.uk/SysSiteAssets/foi-media/british-transport-police/foi-requests/foi-response-01-foi-24-2551-and-01-foi-24-2552-btp-locations.pdf",
        "final_url": "https://www.btp.police.uk/SysSiteAssets/foi-media/british-transport-police/foi-requests/foi-response-01-foi-24-2551-and-01-foi-24-2552-btp-locations.pdf",
        "access_utc": "2026-10-07T01:41:00Z",
        "data_date": "2024-03-29",
        "data_date_basis": "FOI request receipt date stated in the official response; subdivision structure is stated in the response",
        "license": "British Transport Police publication; explicit reuse licence not asserted in extracted source window",
        "file_sha256": "7b30fdcf156a6d1a3be9ee19ce95ccd812dfbdcf008a5b86e949c6cae34a7dc2",
        "file_sha256_scope": "normalized three official B-Division subdivision records; not raw PDF bytes",
        "evidence_slice_sha256": "9ea62214bf65dfdc2baa9a8caf771f28979bad9214421b10f70ea7cdd550ef55",
        "field_evidence": {
          "ordinal": 3,
          "id": "B Division Central/TfL",
          "display_name": "B Division Central/TfL",
          "coverage": "railways across London, including Central and Greater London, within the TfL footprint"
        },
        "confidence_score_0_100": 100,
        "evidence_grade": "A_OFFICIAL_EXACT_IDENTIFIER",
        "fake_data": false,
        "spatial_binding_method": "DEFERRED_TO_LOCAL_OPENCODE",
        "canonical_parcel_id": null,
        "materialized_parcel_count": 0,
        "direct_parcel_count": 0
      }
    }
  ],
  "metadata": {
    "source_area_count": 202,
    "source_area_delta_this_turn": 3,
    "latest_evidence_window": "BTP_B_DIVISION_SUBDIVISIONS_FOI_2024_03_29_20261007T014100Z",
    "latest_status": "3_NEW_OFFICIAL_EXACT_IDENTIFIERS_ACCEPTED",
    "exact_blocker": "LOCAL_OPENCODE_EXACT_IDENTIFIER_TO_CANONICAL_SPATIAL_BINDING_REQUIRED",
    "first_missing_criterion": "LOCAL_OPENCODE_EXACT_IDENTIFIER_TO_CANONICAL_SPATIAL_BINDING"
  }
}
