{"type":"FeatureCollection","features":[{"type":"Feature","geometry":{"type":"MultiPolygon","coordinates":[[[[-0.104883,51.538191],[-0.102948,51.538234],[-0.102973,51.538364],[-0.102558,51.538339],[-0.102537,51.538496],[-0.102937,51.53853],[-0.102924,51.538808],[-0.103677,51.538862],[-0.103707,51.538948],[-0.10377,51.539042],[-0.103768,51.539181],[-0.103743,51.539507],[-0.103892,51.539501],[-0.103881,51.539408],[-0.103871,51.539289],[-0.103949,51.539281],[-0.104653,51.539246],[-0.104877,51.539217],[-0.104883,51.538191]]]]},"properties":{"slot_id":"future_growth_1","lineage_id":"future_growth_1-newstart-20260927T153100+0300","page_generation":null,"semantic_mode":"AREA_JOIN","source_window":"mhclg_islington_brownfield_site_P052245_1802342_entry2020-12-22","semantic_identity":"brownfield-site:P052245|ISL|2020-12-22|1802342","source_url":"https://www.planning.data.gov.uk/entity/1802342","final_url":"https://www.planning.data.gov.uk/entity/1802342","final_url_status":"official canonical entity page","http_status":null,"http_status_reason":"numeric HTTP status not exposed","access_utc":"2026-10-09T03:38:29.631Z","data_date":"2020-12-22","data_date_basis":"official entity entry-date","license":"Open Government Licence v3.0","license_evidence_url":"https://www.nationalarchives.gov.uk/doc/open-government-licence/version/3/","field_evidence":{"entry-date":"2020-12-22","start-date":"","end-date":"","entity":1802342,"name":"Block A,B,D,F (Site 1), Islington Square, 116 Upper Street (Former North London Mail Centre)","dataset":"brownfield-site","typology":"geography","reference":"P052245","prefix":"brownfield-site","organisation-entity":"181","geometry":"MULTIPOLYGON (((-0.104883 51.538191, -0.102948 51.538234, -0.102973 51.538364, -0.102558 51.538339, -0.102537 51.538496, -0.102937 51.53853, -0.102924 51.538808, -0.103677 51.538862, -0.103707 51.538948, -0.10377 51.539042, -0.103768 51.539181, -0.103743 51.539507, -0.103892 51.539501, -0.103881 51.539408, -0.103871 51.539289, -0.103949 51.539281, -0.104653 51.539246, -0.104877 51.539217, -0.104883 51.538191)))","point":"POINT (-0.10398 51.538676)","quality":"some","brownfield-site":"P052245","organisation-curie":"local-authority:ISL"},"evidence_slice_sha256":"2af877571dd11da4cb83b443cdd3e87f983505f3725b9d83445c7d4cfb70ec70","confidence_score_0_100":90,"evidence_grade":"B","fake_data":false,"source_area_count_contribution":1,"accepted_as_parcel":false,"exact_identifier":"P052245","exact_identifier_provided":true,"identifier_namespace":"MHCLG brownfield-site:ISL","coverage_polygon_provided":true,"geometry_type":"MultiPolygon","geometry_crs":"EPSG:4326","source_file_sha256":null,"source_file_sha256_reason":"Original raw downloadable GeoJSON not captured; official WKT recorded","spatial_binding_method":"published government WKT, local canonical parcel spatial join pending","planned_building_count_contribution":0}}]}