{"type":"FeatureCollection","name":"internet_access_5_exact_blocker_partition_ownership_missing","metadata":{"schema":"AAYS_SOURCE_AREA_V1","target_schema":"AAYS_LAYER24_EVIDENCE_V1","family":"Layer24","category":"Internet Access","slot_id":"internet_access_5","slot_name":"internet_access_5","owner":"internet_access_5","lineage_id":"internet_access_5__20260927T155800+0300__newstart","page_generation":1,"partition":"UNRESOLVED_NO_PRIOR_OWNERSHIP_ARTIFACT","semantic_mode":"EXACT_OFFICIAL_IDENTIFIER","batch_id":"batch_0019_exact_blocker_commit_status_window_20261002T114900Z","delivery_mode":"TEXT_BUNDLE_V1","new_source_records_this_turn":0,"source_area_count":217,"batch_source_area_count":0,"accepted_count":0,"materialized_parcel_count":0,"direct_parcel_count":0,"verified_no_building_count":0,"unprocessed_count":0,"planned_building_count":0,"duplicate_count_this_turn":0,"rejected_count_this_turn":0,"unmatched_count_this_turn":0,"cursor":"GITHUB_COMMIT_STATUS_WINDOW_0_NO_AUTHORITATIVE_OWNERSHIP_MAP@8273592e280e","first_missing_criterion":"EXISTING_PARTITION_OWNERSHIP_OR_EXPLICIT_PARTITION_MAP:EXACT_BLOCKER_NO_AUTHORITATIVE_ARTIFACT_FOUND","canonical_matching":"deferred_to_local_OpenCode","zero_accept_streak":"13+","method_change":"PUBLIC_COMMIT_STATUS_METADATA_WINDOW_INSTEAD_OF_WORKFLOW_RUN_OR_ISSUE_OR_PR_OR_RELEASE_OR_BRANCH_OR_TREE_OR_CODE_SEARCH","evidence_file":"source_evidence/ownership_partition_commit_status_window.json","confidence_score_0_100":100,"evidence_grade":"A_PUBLIC_REPOSITORY_COMMIT_STATUS_NEGATIVE_EVIDENCE","fake_data":false,"claims":{"parcel_acceptance":false,"parcel_progress":false,"publisher_progress":false,"all_england_complete":false,"local_import_readback":false},"previous_checkpoint":{"source_area_count":217,"accepted_count":0,"cursor":"GITHUB_WORKFLOW_RUN_WINDOW_50_NO_AUTHORITATIVE_OWNERSHIP_MAP","producer_commit":"8273592e280e0ced79bb32f34cd6a10fde174fcf","lineage_id":"internet_access_5__20260927T155800+0300__newstart","page_generation":1,"partition":"UNRESOLVED_NO_PRIOR_OWNERSHIP_ARTIFACT","semantic_mode":"EXACT_OFFICIAL_IDENTIFIER"},"next_step":"Provide or materialize authoritative slot partition/ownership map before further source-area accumulation or parcel spatial join/materialization.","source_url":"https://github.com/cagdascagdas100/chat_gpt_clone_1/commit/8273592e280e0ced79bb32f34cd6a10fde174fcf","final_url":"https://api.github.com/repos/cagdascagdas100/chat_gpt_clone_1/commits/8273592e280e0ced79bb32f34cd6a10fde174fcf/status","access_utc":"2026-10-02T11:49:00Z","data_date":"2026-10-02","license":"GitHub repository commit-status metadata; no separate authoritative ownership-map artifact identified","source_window_records":0,"candidate_count":0,"authoritative_candidate_count":0,"method_fingerprint_sha256":"0c8bb9458e0efc244778b60f5a9d806da47757f3d4e17b3a59f19705b588f64c","evidence_slice_sha256":"4f53cda18c2baa0c0354bb5f9a3ecbe5ed12ab4d8e11ba873c2f11161202b945","exact_blocker":"EXISTING_PARTITION_OWNERSHIP_OR_EXPLICIT_PARTITION_MAP:EXACT_BLOCKER_NO_AUTHORITATIVE_ARTIFACT_FOUND"},"features":[]}
