{"type":"FeatureCollection","features":[{"type":"Feature","id":"CHERWELL_25_01556_F_REPLACEMENT_GARAGE_01","geometry":null,"properties":{"slot_id":"planned_buildings_4","owner":"planned_buildings_4","lineage_id":"pb4-8debc7c8ddf348a2","page_generation":1,"partition":"layer24","schema":"AAYS_LAYER24_EVIDENCE_V1","semantic_mode":"PLANNED_BUILDINGS_OFFICIAL_REFERENCE_DISTINCT_STRUCTURE","batch_id":"20261006T102435Z-cherwell-25-01556-f-window-001","publisher":"Cherwell District Council","source_family":"CHERWELL_PLANNING_REGISTER","source_url":"https://planningregister.cherwell.gov.uk/Planning/Display/25/01556/F","final_url":"https://planningregister.cherwell.gov.uk/Planning/Display/25/01556/F","access_utc":"2026-10-06T10:24:35Z","data_date":"2025-06-12","license":"Public planning register; document copyright/usage remains governed by council register terms","planning_reference":"25/01556/F","location":"9 Cherwell Avenue Kidlington OX5 2JL","proposal":"Demolition and re-build of existing garage, extension of existing rear extension and removal of lawned area to frontage to add provision for parking","status":"Application Permitted","geometry_status":"NOT_MATERIALIZED_LOCAL_OPENCODE","field_evidence":"Official Cherwell District Council Planning Register application 25/01556/F. Application Type: Full Development. Status: Application Permitted. Valid date: 12/06/2025. Location: 9 Cherwell Avenue Kidlington OX5 2JL. Proposal: Demolition and re-build of existing garage, extension of existing rear extension and removal of lawned area to frontage to add provision for parking. Decision: Permitted. Decision Issued Date: 07/08/2025. Official documents include Proposed Site Plan drawing/file 9 CA 106; Proposed Floor/Roof Plan drawing 9 CA 103 revision C; and Proposed Elevations drawing 9 CA 104 revision C. The official proposal identifies demolition and re-build of the existing garage, yielding one distinct planned replacement garage. The extension of the existing rear extension is work to the existing dwelling and is not counted as an additional distinct new structure; the frontage parking provision is not a building. The proposed drawing set supports the same single planned garage. Geometry/materialization is deferred to local OpenCode.","evidence_slice_sha256":"cbf09953253d10b1de3959f1cff21d19e45a10fba881985c75d5fab79003e2f9","confidence":0.99,"evidence_grade":"A_OFFICIAL_LOCAL_AUTHORITY_PLANNING_REGISTER_SINGLE_REPLACEMENT_GARAGE_PERMITTED","fake_data":false,"source_record_id":"CHERWELL_25_01556_F_REPLACEMENT_GARAGE_01","planned_building":"replacement garage","official_plan_reference":"9 CA 106; 9 CA 103 C; 9 CA 104 C","official_plan_description":"Proposed Site Plan; Proposed Floor/Roof Plan; Proposed Elevations"}}]}
