{"type":"FeatureCollection","features":[{"type":"Feature","geometry":null,"properties":{"slot_id":"planned_buildings_1","lineage_id":"planned_buildings_1-0ffc4ebd6c6e4e41","semantic_mode":"DISTINCT_BUILDINGS","planned_building_id":"planning-application:2026/0647/FPA::COACH_HOUSE","building_status":"PLANNED","building_name":"Proposed Coach House, Foxfield","planning_reference":"2026/0647/FPA","authority":"Westmorland & Furness Council","source_url":"https://planningregister.westmorlandandfurness.gov.uk/Planning/Display/2026/0647/FPA","final_url":"https://planningregister.westmorlandandfurness.gov.uk/Planning/Display/2026/0647/FPA","access_utc":"2026-10-03T22:56:00Z","source_data_date":"2026-04-02","license":"Open Government Licence v3.0","geometry_role":"official planning register exposes no machine-readable application point or building footprint in the retrieved record; geometry null; no geometry inferred","field_evidence":"Official Valid Full Application states erection of a Coach House with two-storey manager’s accommodation and a commercial unit for a microbrewery; status Officer Consideration and decision Pending.","identity_limitation":"The source explicitly states one new Coach House; manager accommodation and microbrewery unit are uses/components within that Coach House and are not counted as separate buildings; deterministic COACH_HOUSE suffix identifies the source-described building role only.","confidence_score_0_100":98,"evidence_grade":"A","fake_data":false}}]}