{"type":"FeatureCollection","name":"building_type_9_batch_0025","features":[{"type":"Feature","id":"1195855","geometry":{"type":"MultiPolygon","coordinates":[[[[-2.191843,53.039973],[-2.191819,53.039947],[-2.191799,53.039954],[-2.191751,53.039904],[-2.191774,53.039895],[-2.191752,53.039872],[-2.191727,53.03988],[-2.191703,53.039853],[-2.191713,53.039849],[-2.191718,53.039841],[-2.191705,53.039827],[-2.191693,53.039827],[-2.191681,53.039829],[-2.191676,53.039825],[-2.191627,53.039842],[-2.191621,53.039837],[-2.191548,53.039863],[-2.191596,53.039915],[-2.191615,53.039908],[-2.191674,53.03997],[-2.191657,53.039976],[-2.191706,53.040027],[-2.191774,53.040003],[-2.191769,53.039999],[-2.191843,53.039973]]]]},"properties":{"slot_id":"building_type_9","lineage_id":"building_type_9-20261001T200900Z-newstart","batch_id":"batch-0025","page_generation":1,"source_entity":null,"source_reference":"1195855","source_dataset":"listed-building-outline","source_organisation":"Stoke-on-Trent City Council","building_evidence_status":"BUILDING_PRESENT","parcel_status":"UNPROCESSED","canonical_parcel_id":null,"building_type":"listed_building","building_use":null,"poi_accepted":false,"field_evidence":{"footprint":"official council listed-building GeoJSON Polygon","type":"official dataset classification: listed-building outline","name":"184 AND 186, WATERLOO ROAD","reference":"1195855","grade":"II","use":"no use inferred"},"source_url":"https://www.stoke.gov.uk/download/downloads/id/2911/listed_building_dataset.json","final_url":"https://www.stoke.gov.uk/download/downloads/id/2911/listed_building_dataset.json","access_utc":"2026-10-05T10:05:00Z","data_date":null,"licence":"Open Government Licence v3.0","evidence_slice_sha256":"9e802028eaf0bf6226ae73e43435414623db7ee3a9d8b0765b142751b786d3c1","confidence_score_0_100":94,"evidence_grade":"A","fake_data":false,"local_spatial_join_required":true}},{"type":"Feature","id":"1297942","geometry":{"type":"MultiPolygon","coordinates":[[[[-2.184566,53.039341],[-2.184412,53.039682],[-2.184711,53.039731],[-2.184738,53.039671],[-2.184761,53.039675],[-2.184759,53.039682],[-2.18487,53.039701],[-2.185001,53.039412],[-2.184629,53.039351],[-2.184566,53.039341]]]]},"properties":{"slot_id":"building_type_9","lineage_id":"building_type_9-20261001T200900Z-newstart","batch_id":"batch-0025","page_generation":1,"source_entity":null,"source_reference":"1297942","source_dataset":"listed-building-outline","source_organisation":"Stoke-on-Trent City Council","building_evidence_status":"BUILDING_PRESENT","parcel_status":"UNPROCESSED","canonical_parcel_id":null,"building_type":"listed_building","building_use":null,"poi_accepted":false,"field_evidence":{"footprint":"official council listed-building GeoJSON Polygon","type":"official dataset classification: listed-building outline","name":"POT BANK OCCUPIED BY W MOORCROFT LIMITED","reference":"1297942","grade":"II","use":"no use inferred"},"source_url":"https://www.stoke.gov.uk/download/downloads/id/2911/listed_building_dataset.json","final_url":"https://www.stoke.gov.uk/download/downloads/id/2911/listed_building_dataset.json","access_utc":"2026-10-05T10:05:00Z","data_date":"1993-03-15","licence":"Open Government Licence v3.0","evidence_slice_sha256":"70dd98b9d53bd4e7a99e00ce6fda9fc8cbf0f210d295284de9bec39c128003c5","confidence_score_0_100":94,"evidence_grade":"A","fake_data":false,"local_spatial_join_required":true}},{"type":"Feature","id":"1297965","geometry":{"type":"MultiPolygon","coordinates":[[[[-2.193198,53.046351],[-2.193214,53.046348],[-2.193202,53.046323],[-2.193177,53.046273],[-2.193126,53.046282],[-2.193081,53.04629],[-2.193034,53.046298],[-2.192993,53.046304],[-2.192943,53.046312],[-2.192936,53.046297],[-2.192927,53.046279],[-2.19291,53.046282],[-2.1929,53.046261],[-2.19289,53.046238],[-2.192864,53.046243],[-2.19283,53.046248],[-2.192747,53.046262],[-2.192784,53.046336],[-2.192808,53.046384],[-2.192817,53.046399],[-2.192824,53.046414],[-2.192892,53.046402],[-2.19303,53.046379],[-2.193117,53.046364],[-2.193198,53.046351]]]]},"properties":{"slot_id":"building_type_9","lineage_id":"building_type_9-20261001T200900Z-newstart","batch_id":"batch-0025","page_generation":1,"source_entity":null,"source_reference":"1297965","source_dataset":"listed-building-outline","source_organisation":"Stoke-on-Trent City Council","building_evidence_status":"BUILDING_PRESENT","parcel_status":"UNPROCESSED","canonical_parcel_id":null,"building_type":"listed_building","building_use":null,"poi_accepted":false,"field_evidence":{"footprint":"official council listed-building GeoJSON Polygon","type":"official dataset classification: listed-building outline","name":"POT BANK","reference":"1297965","grade":"II","use":"no use inferred"},"source_url":"https://www.stoke.gov.uk/download/downloads/id/2911/listed_building_dataset.json","final_url":"https://www.stoke.gov.uk/download/downloads/id/2911/listed_building_dataset.json","access_utc":"2026-10-05T10:05:00Z","data_date":"1993-03-15","licence":"Open Government Licence v3.0","evidence_slice_sha256":"5f787c936c6db0d0e3b1e58060287970b909d9cb95c998c11a5dd61946e240ee","confidence_score_0_100":94,"evidence_grade":"A","fake_data":false,"local_spatial_join_required":true}},{"type":"Feature","id":"1195851","geometry":{"type":"MultiPolygon","coordinates":[[[[-2.174228,53.025562],[-2.174239,53.025579],[-2.174248,53.025592],[-2.174282,53.025595],[-2.174481,53.025614],[-2.174482,53.02561],[-2.174601,53.025621],[-2.1746,53.025626],[-2.174635,53.02563],[-2.174655,53.025555],[-2.174644,53.025553],[-2.174664,53.025479],[-2.174671,53.025479],[-2.174691,53.025403],[-2.174682,53.025401],[-2.174701,53.02533],[-2.17471,53.025331],[-2.17473,53.025254],[-2.174321,53.025216],[-2.174245,53.025208],[-2.174194,53.025204],[-2.174144,53.025401],[-2.174138,53.025424],[-2.17416,53.025458],[-2.174174,53.025479],[-2.174178,53.025485],[-2.174188,53.025501],[-2.174228,53.025562]]]]},"properties":{"slot_id":"building_type_9","lineage_id":"building_type_9-20261001T200900Z-newstart","batch_id":"batch-0025","page_generation":1,"source_entity":null,"source_reference":"1195851","source_dataset":"listed-building-outline","source_organisation":"Stoke-on-Trent City Council","building_evidence_status":"BUILDING_PRESENT","parcel_status":"UNPROCESSED","canonical_parcel_id":null,"building_type":"listed_building","building_use":null,"poi_accepted":false,"field_evidence":{"footprint":"official council listed-building GeoJSON Polygon","type":"official dataset classification: listed-building outline","name":"THE TONTINE SHOPS","reference":"1195851","grade":"II","use":"no use inferred"},"source_url":"https://www.stoke.gov.uk/download/downloads/id/2911/listed_building_dataset.json","final_url":"https://www.stoke.gov.uk/download/downloads/id/2911/listed_building_dataset.json","access_utc":"2026-10-05T10:05:00Z","data_date":"1993-03-15","licence":"Open Government Licence v3.0","evidence_slice_sha256":"4a042b7dc3239591772c1f01f10b54ed4ad4a20a1bfce7d499070fdb5153713e","confidence_score_0_100":94,"evidence_grade":"A","fake_data":false,"local_spatial_join_required":true}},{"type":"Feature","id":"1290405","geometry":{"type":"MultiPolygon","coordinates":[[[[-2.174272,53.025034],[-2.174294,53.025034],[-2.174715,53.025028],[-2.174715,53.025025],[-2.174709,53.02499],[-2.174716,53.024989],[-2.17471,53.02495],[-2.174703,53.02495],[-2.174692,53.024878],[-2.1747,53.024878],[-2.174681,53.024755],[-2.174675,53.024755],[-2.17467,53.024722],[-2.174664,53.024684],[-2.17467,53.024684],[-2.174664,53.024651],[-2.174633,53.024652],[-2.174517,53.02468],[-2.174522,53.024695],[-2.174473,53.024698],[-2.174457,53.024706],[-2.174458,53.02472],[-2.174437,53.024721],[-2.17446,53.024891],[-2.174366,53.024895],[-2.174373,53.024962],[-2.174289,53.024967],[-2.174288,53.024971],[-2.174272,53.025034]]]]},"properties":{"slot_id":"building_type_9","lineage_id":"building_type_9-20261001T200900Z-newstart","batch_id":"batch-0025","page_generation":1,"source_entity":null,"source_reference":"1290405","source_dataset":"listed-building-outline","source_organisation":"Stoke-on-Trent City Council","building_evidence_status":"BUILDING_PRESENT","parcel_status":"UNPROCESSED","canonical_parcel_id":null,"building_type":"listed_building","building_use":null,"poi_accepted":false,"field_evidence":{"footprint":"official council listed-building GeoJSON Polygon","type":"official dataset classification: listed-building outline","name":"POST OFFICE","reference":"1290405","grade":"II","use":"no use inferred"},"source_url":"https://www.stoke.gov.uk/download/downloads/id/2911/listed_building_dataset.json","final_url":"https://www.stoke.gov.uk/download/downloads/id/2911/listed_building_dataset.json","access_utc":"2026-10-05T10:05:00Z","data_date":null,"licence":"Open Government Licence v3.0","evidence_slice_sha256":"f2e63beb6c64788e7c5d100cfd9b0e559d4e43f0ec92bc766ee21cf82c176f52","confidence_score_0_100":94,"evidence_grade":"A","fake_data":false,"local_spatial_join_required":true}},{"type":"Feature","id":"1210680","geometry":{"type":"MultiPolygon","coordinates":[[[[-2.174788,53.028074],[-2.174822,53.028071],[-2.175228,53.028084],[-2.175232,53.028038],[-2.175326,53.028041],[-2.175332,53.027972],[-2.175236,53.027969],[-2.17524,53.02792],[-2.174835,53.027908],[-2.174835,53.027919],[-2.174789,53.027917],[-2.174738,53.027895],[-2.174726,53.027914],[-2.174714,53.028072],[-2.174775,53.028074],[-2.174788,53.028074]]]]},"properties":{"slot_id":"building_type_9","lineage_id":"building_type_9-20261001T200900Z-newstart","batch_id":"batch-0025","page_generation":1,"source_entity":null,"source_reference":"1210680","source_dataset":"listed-building-outline","source_organisation":"Stoke-on-Trent City Council","building_evidence_status":"BUILDING_PRESENT","parcel_status":"UNPROCESSED","canonical_parcel_id":null,"building_type":"listed_building","building_use":"church","poi_accepted":false,"field_evidence":{"footprint":"official council listed-building GeoJSON Polygon","type":"official dataset classification: listed-building outline","name":"CHURCH OF ST JOHN THE EVANGELIST","reference":"1210680","grade":"II*","use":"church explicit in official source name"},"source_url":"https://www.stoke.gov.uk/download/downloads/id/2911/listed_building_dataset.json","final_url":"https://www.stoke.gov.uk/download/downloads/id/2911/listed_building_dataset.json","access_utc":"2026-10-05T10:05:00Z","data_date":"2000-10-24","licence":"Open Government Licence v3.0","evidence_slice_sha256":"b86dc8bbda77e263f131cc53d7d4af82307f1de94cf0e5415d7847a5e779fc87","confidence_score_0_100":96,"evidence_grade":"A","fake_data":false,"local_spatial_join_required":true}},{"type":"Feature","id":"1290967","geometry":{"type":"MultiPolygon","coordinates":[[[[-2.210159,53.058683],[-2.210158,53.058678],[-2.210155,53.058663],[-2.210151,53.058644],[-2.210149,53.058631],[-2.210146,53.058617],[-2.210159,53.058616],[-2.210149,53.058559],[-2.210143,53.058522],[-2.210136,53.058479],[-2.210128,53.058431],[-2.21012,53.058383],[-2.210108,53.058383],[-2.210105,53.058367],[-2.210103,53.05835],[-2.2101,53.058333],[-2.210078,53.058322],[-2.210076,53.058309],[-2.210073,53.05829],[-2.210045,53.058292],[-2.210045,53.058287],[-2.210019,53.058288],[-2.209986,53.05829],[-2.209951,53.058292],[-2.209949,53.058289],[-2.209934,53.05829],[-2.209893,53.058292],[-2.209879,53.058302],[-2.209839,53.058305],[-2.209796,53.058307],[-2.209789,53.058304],[-2.20979,53.058312],[-2.209794,53.058332],[-2.209797,53.058351],[-2.209799,53.05836],[-2.209801,53.058372],[-2.209803,53.05838],[-2.209806,53.058395],[-2.209808,53.058411],[-2.209811,53.058424],[-2.209815,53.058446],[-2.209818,53.05846],[-2.209819,53.05847],[-2.209821,53.058479],[-2.209823,53.058486],[-2.209824,53.058495],[-2.209827,53.05851],[-2.209828,53.058514],[-2.209828,53.058516],[-2.209828,53.058517],[-2.209829,53.058519],[-2.20983,53.058521],[-2.20983,53.058522],[-2.209831,53.058523],[-2.209831,53.058523],[-2.209831,53.058523],[-2.209831,53.058524],[-2.209831,53.058524],[-2.209832,53.058524],[-2.209832,53.058525],[-2.209832,53.058525],[-2.209833,53.058526],[-2.209833,53.058526],[-2.209833,53.058527],[-2.209834,53.058528],[-2.209835,53.058529],[-2.209835,53.058529],[-2.209835,53.05853],[-2.209836,53.05853],[-2.209836,53.058531],[-2.209838,53.058532],[-2.209839,53.058533],[-2.209841,53.058534],[-2.209845,53.058536],[-2.209848,53.058537],[-2.209849,53.058537],[-2.209849,53.058537],[-2.209852,53.058537],[-2.2099,53.058576],[-2.209905,53.058603],[-2.209912,53.058639],[-2.209919,53.058671],[-2.209925,53.058704],[-2.209929,53.058723],[-2.209975,53.05872],[-2.21004,53.058717],[-2.210085,53.058714],[-2.21011,53.058713],[-2.210125,53.058704],[-2.210138,53.058695],[-2.210138,53.058691],[-2.210159,53.058683]]]]},"properties":{"slot_id":"building_type_9","lineage_id":"building_type_9-20261001T200900Z-newstart","batch_id":"batch-0025","page_generation":1,"source_entity":null,"source_reference":"1290967","source_dataset":"listed-building-outline","source_organisation":"Stoke-on-Trent City Council","building_evidence_status":"BUILDING_PRESENT","parcel_status":"UNPROCESSED","canonical_parcel_id":null,"building_type":"listed_building","building_use":null,"poi_accepted":false,"field_evidence":{"footprint":"official council listed-building GeoJSON Polygon","type":"official dataset classification: listed-building outline","name":"FORMER TOWN HALL, NATIONAL WESTMINSTER BANK AND SHOPS","reference":"1290967","grade":"II","use":"no use inferred"},"source_url":"https://www.stoke.gov.uk/download/downloads/id/2911/listed_building_dataset.json","final_url":"https://www.stoke.gov.uk/download/downloads/id/2911/listed_building_dataset.json","access_utc":"2026-10-05T10:05:00Z","data_date":"1993-03-15","licence":"Open Government Licence v3.0","evidence_slice_sha256":"b4cee4626c234f2cd5d0334cdc4f1ad3ac39131ecddd492bfca52142f7075d1d","confidence_score_0_100":94,"evidence_grade":"A","fake_data":false,"local_spatial_join_required":true}},{"type":"Feature","id":"1365725","geometry":{"type":"MultiPolygon","coordinates":[[[[-2.194211,53.04311],[-2.194176,53.043125],[-2.19401,53.043196],[-2.193928,53.043221],[-2.193918,53.043212],[-2.193726,53.043293],[-2.193771,53.043338],[-2.193934,53.04352],[-2.194065,53.043466],[-2.194105,53.043449],[-2.194136,53.043437],[-2.194165,53.043425],[-2.194411,53.043322],[-2.194383,53.043293],[-2.194369,53.043277],[-2.194341,53.043254],[-2.194273,53.043182],[-2.194251,53.043152],[-2.194234,53.043135],[-2.194211,53.04311]]]]},"properties":{"slot_id":"building_type_9","lineage_id":"building_type_9-20261001T200900Z-newstart","batch_id":"batch-0025","page_generation":1,"source_entity":null,"source_reference":"1365725","source_dataset":"listed-building-outline","source_organisation":"Stoke-on-Trent City Council","building_evidence_status":"BUILDING_PRESENT","parcel_status":"UNPROCESSED","canonical_parcel_id":null,"building_type":"listed_building","building_use":null,"poi_accepted":false,"field_evidence":{"footprint":"official council listed-building GeoJSON Polygon","type":"official dataset classification: listed-building outline","name":"FORMER BETHEL CHAPEL","reference":"1365725","grade":"II","use":"no use inferred"},"source_url":"https://www.stoke.gov.uk/download/downloads/id/2911/listed_building_dataset.json","final_url":"https://www.stoke.gov.uk/download/downloads/id/2911/listed_building_dataset.json","access_utc":"2026-10-05T10:05:00Z","data_date":"1993-03-15","licence":"Open Government Licence v3.0","evidence_slice_sha256":"252e1cdf99eadef626c8b462bf4bad7bea06642c2d980eccc3d1309ba88d5ed0","confidence_score_0_100":94,"evidence_grade":"A","fake_data":false,"local_spatial_join_required":true}}]}