{"type":"FeatureCollection","features":[{"type":"Feature","geometry":null,"properties":{"slot_id":"planned_buildings_1","lineage_id":"planned_buildings_1-0ffc4ebd6c6e4e41","semantic_mode":"DISTINCT_BUILDINGS","planned_building_id":"planning-application:2025/2453/FPA::DWELLING_01","building_status":"PLANNED","building_name":"Dwelling 1, Swarthmoor","planning_reference":"2025/2453/FPA","authority":"Westmorland & Furness Council","source_url":"https://planningregister.westmorlandandfurness.gov.uk/planning/display/2025/2453/FPA","final_url":"https://planningregister.westmorlandandfurness.gov.uk/planning/display/2025/2453/FPA","access_utc":"2026-10-04T12:23:00Z","source_data_date":"2025-12-19","license":"Open Government Licence v3.0","geometry_role":"null; no geometry inferred","field_evidence":"Valid; Officer Consideration; decision Pending; 29 dwellings.","identity_limitation":"01/29 explicit; no machine-readable plot id.","confidence_score_0_100":97,"evidence_grade":"A","fake_data":false}},{"type":"Feature","geometry":null,"properties":{"slot_id":"planned_buildings_1","lineage_id":"planned_buildings_1-0ffc4ebd6c6e4e41","semantic_mode":"DISTINCT_BUILDINGS","planned_building_id":"planning-application:2025/2453/FPA::DWELLING_02","building_status":"PLANNED","building_name":"Dwelling 2, Swarthmoor","planning_reference":"2025/2453/FPA","authority":"Westmorland & Furness Council","source_url":"https://planningregister.westmorlandandfurness.gov.uk/planning/display/2025/2453/FPA","final_url":"https://planningregister.westmorlandandfurness.gov.uk/planning/display/2025/2453/FPA","access_utc":"2026-10-04T12:23:00Z","source_data_date":"2025-12-19","license":"Open Government Licence v3.0","geometry_role":"null; no geometry inferred","field_evidence":"Valid; Officer Consideration; decision Pending; 29 dwellings.","identity_limitation":"02/29 explicit; no machine-readable plot id.","confidence_score_0_100":97,"evidence_grade":"A","fake_data":false}},{"type":"Feature","geometry":null,"properties":{"slot_id":"planned_buildings_1","lineage_id":"planned_buildings_1-0ffc4ebd6c6e4e41","semantic_mode":"DISTINCT_BUILDINGS","planned_building_id":"planning-application:2025/2453/FPA::DWELLING_03","building_status":"PLANNED","building_name":"Dwelling 3, Swarthmoor","planning_reference":"2025/2453/FPA","authority":"Westmorland & Furness Council","source_url":"https://planningregister.westmorlandandfurness.gov.uk/planning/display/2025/2453/FPA","final_url":"https://planningregister.westmorlandandfurness.gov.uk/planning/display/2025/2453/FPA","access_utc":"2026-10-04T12:23:00Z","source_data_date":"2025-12-19","license":"Open Government Licence v3.0","geometry_role":"null; no geometry inferred","field_evidence":"Valid; Officer Consideration; decision Pending; 29 dwellings.","identity_limitation":"03/29 explicit; no machine-readable plot id.","confidence_score_0_100":97,"evidence_grade":"A","fake_data":false}},{"type":"Feature","geometry":null,"properties":{"slot_id":"planned_buildings_1","lineage_id":"planned_buildings_1-0ffc4ebd6c6e4e41","semantic_mode":"DISTINCT_BUILDINGS","planned_building_id":"planning-application:2025/2453/FPA::DWELLING_04","building_status":"PLANNED","building_name":"Dwelling 4, Swarthmoor","planning_reference":"2025/2453/FPA","authority":"Westmorland & Furness Council","source_url":"https://planningregister.westmorlandandfurness.gov.uk/planning/display/2025/2453/FPA","final_url":"https://planningregister.westmorlandandfurness.gov.uk/planning/display/2025/2453/FPA","access_utc":"2026-10-04T12:23:00Z","source_data_date":"2025-12-19","license":"Open Government Licence v3.0","geometry_role":"null; no geometry inferred","field_evidence":"Valid; Officer Consideration; decision Pending; 29 dwellings.","identity_limitation":"04/29 explicit; no machine-readable plot id.","confidence_score_0_100":97,"evidence_grade":"A","fake_data":false}},{"type":"Feature","geometry":null,"properties":{"slot_id":"planned_buildings_1","lineage_id":"planned_buildings_1-0ffc4ebd6c6e4e41","semantic_mode":"DISTINCT_BUILDINGS","planned_building_id":"planning-application:2025/2453/FPA::DWELLING_05","building_status":"PLANNED","building_name":"Dwelling 5, Swarthmoor","planning_reference":"2025/2453/FPA","authority":"Westmorland & Furness Council","source_url":"https://planningregister.westmorlandandfurness.gov.uk/planning/display/2025/2453/FPA","final_url":"https://planningregister.westmorlandandfurness.gov.uk/planning/display/2025/2453/FPA","access_utc":"2026-10-04T12:23:00Z","source_data_date":"2025-12-19","license":"Open Government Licence v3.0","geometry_role":"null; no geometry inferred","field_evidence":"Valid; Officer Consideration; decision Pending; 29 dwellings.","identity_limitation":"05/29 explicit; no machine-readable plot id.","confidence_score_0_100":97,"evidence_grade":"A","fake_data":false}},{"type":"Feature","geometry":null,"properties":{"slot_id":"planned_buildings_1","lineage_id":"planned_buildings_1-0ffc4ebd6c6e4e41","semantic_mode":"DISTINCT_BUILDINGS","planned_building_id":"planning-application:2025/2453/FPA::DWELLING_06","building_status":"PLANNED","building_name":"Dwelling 6, Swarthmoor","planning_reference":"2025/2453/FPA","authority":"Westmorland & Furness Council","source_url":"https://planningregister.westmorlandandfurness.gov.uk/planning/display/2025/2453/FPA","final_url":"https://planningregister.westmorlandandfurness.gov.uk/planning/display/2025/2453/FPA","access_utc":"2026-10-04T12:23:00Z","source_data_date":"2025-12-19","license":"Open Government Licence v3.0","geometry_role":"null; no geometry inferred","field_evidence":"Valid; Officer Consideration; decision Pending; 29 dwellings.","identity_limitation":"06/29 explicit; no machine-readable plot id.","confidence_score_0_100":97,"evidence_grade":"A","fake_data":false}},{"type":"Feature","geometry":null,"properties":{"slot_id":"planned_buildings_1","lineage_id":"planned_buildings_1-0ffc4ebd6c6e4e41","semantic_mode":"DISTINCT_BUILDINGS","planned_building_id":"planning-application:2025/2453/FPA::DWELLING_07","building_status":"PLANNED","building_name":"Dwelling 7, Swarthmoor","planning_reference":"2025/2453/FPA","authority":"Westmorland & Furness Council","source_url":"https://planningregister.westmorlandandfurness.gov.uk/planning/display/2025/2453/FPA","final_url":"https://planningregister.westmorlandandfurness.gov.uk/planning/display/2025/2453/FPA","access_utc":"2026-10-04T12:23:00Z","source_data_date":"2025-12-19","license":"Open Government Licence v3.0","geometry_role":"null; no geometry inferred","field_evidence":"Valid; Officer Consideration; decision Pending; 29 dwellings.","identity_limitation":"07/29 explicit; no machine-readable plot id.","confidence_score_0_100":97,"evidence_grade":"A","fake_data":false}},{"type":"Feature","geometry":null,"properties":{"slot_id":"planned_buildings_1","lineage_id":"planned_buildings_1-0ffc4ebd6c6e4e41","semantic_mode":"DISTINCT_BUILDINGS","planned_building_id":"planning-application:2025/2453/FPA::DWELLING_08","building_status":"PLANNED","building_name":"Dwelling 8, Swarthmoor","planning_reference":"2025/2453/FPA","authority":"Westmorland & Furness Council","source_url":"https://planningregister.westmorlandandfurness.gov.uk/planning/display/2025/2453/FPA","final_url":"https://planningregister.westmorlandandfurness.gov.uk/planning/display/2025/2453/FPA","access_utc":"2026-10-04T12:23:00Z","source_data_date":"2025-12-19","license":"Open Government Licence v3.0","geometry_role":"null; no geometry inferred","field_evidence":"Valid; Officer Consideration; decision Pending; 29 dwellings.","identity_limitation":"08/29 explicit; no machine-readable plot id.","confidence_score_0_100":97,"evidence_grade":"A","fake_data":false}},{"type":"Feature","geometry":null,"properties":{"slot_id":"planned_buildings_1","lineage_id":"planned_buildings_1-0ffc4ebd6c6e4e41","semantic_mode":"DISTINCT_BUILDINGS","planned_building_id":"planning-application:2025/2453/FPA::DWELLING_09","building_status":"PLANNED","building_name":"Dwelling 9, Swarthmoor","planning_reference":"2025/2453/FPA","authority":"Westmorland & Furness Council","source_url":"https://planningregister.westmorlandandfurness.gov.uk/planning/display/2025/2453/FPA","final_url":"https://planningregister.westmorlandandfurness.gov.uk/planning/display/2025/2453/FPA","access_utc":"2026-10-04T12:23:00Z","source_data_date":"2025-12-19","license":"Open Government Licence v3.0","geometry_role":"null; no geometry inferred","field_evidence":"Valid; Officer Consideration; decision Pending; 29 dwellings.","identity_limitation":"09/29 explicit; no machine-readable plot id.","confidence_score_0_100":97,"evidence_grade":"A","fake_data":false}},{"type":"Feature","geometry":null,"properties":{"slot_id":"planned_buildings_1","lineage_id":"planned_buildings_1-0ffc4ebd6c6e4e41","semantic_mode":"DISTINCT_BUILDINGS","planned_building_id":"planning-application:2025/2453/FPA::DWELLING_10","building_status":"PLANNED","building_name":"Dwelling 10, Swarthmoor","planning_reference":"2025/2453/FPA","authority":"Westmorland & Furness Council","source_url":"https://planningregister.westmorlandandfurness.gov.uk/planning/display/2025/2453/FPA","final_url":"https://planningregister.westmorlandandfurness.gov.uk/planning/display/2025/2453/FPA","access_utc":"2026-10-04T12:23:00Z","source_data_date":"2025-12-19","license":"Open Government Licence v3.0","geometry_role":"null; no geometry inferred","field_evidence":"Valid; Officer Consideration; decision Pending; 29 dwellings.","identity_limitation":"10/29 explicit; no machine-readable plot id.","confidence_score_0_100":97,"evidence_grade":"A","fake_data":false}},{"type":"Feature","geometry":null,"properties":{"slot_id":"planned_buildings_1","lineage_id":"planned_buildings_1-0ffc4ebd6c6e4e41","semantic_mode":"DISTINCT_BUILDINGS","planned_building_id":"planning-application:2025/2453/FPA::DWELLING_11","building_status":"PLANNED","building_name":"Dwelling 11, Swarthmoor","planning_reference":"2025/2453/FPA","authority":"Westmorland & Furness Council","source_url":"https://planningregister.westmorlandandfurness.gov.uk/planning/display/2025/2453/FPA","final_url":"https://planningregister.westmorlandandfurness.gov.uk/planning/display/2025/2453/FPA","access_utc":"2026-10-04T12:23:00Z","source_data_date":"2025-12-19","license":"Open Government Licence v3.0","geometry_role":"null; no geometry inferred","field_evidence":"Valid; Officer Consideration; decision Pending; 29 dwellings.","identity_limitation":"11/29 explicit; no machine-readable plot id.","confidence_score_0_100":97,"evidence_grade":"A","fake_data":false}},{"type":"Feature","geometry":null,"properties":{"slot_id":"planned_buildings_1","lineage_id":"planned_buildings_1-0ffc4ebd6c6e4e41","semantic_mode":"DISTINCT_BUILDINGS","planned_building_id":"planning-application:2025/2453/FPA::DWELLING_12","building_status":"PLANNED","building_name":"Dwelling 12, Swarthmoor","planning_reference":"2025/2453/FPA","authority":"Westmorland & Furness Council","source_url":"https://planningregister.westmorlandandfurness.gov.uk/planning/display/2025/2453/FPA","final_url":"https://planningregister.westmorlandandfurness.gov.uk/planning/display/2025/2453/FPA","access_utc":"2026-10-04T12:23:00Z","source_data_date":"2025-12-19","license":"Open Government Licence v3.0","geometry_role":"null; no geometry inferred","field_evidence":"Valid; Officer Consideration; decision Pending; 29 dwellings.","identity_limitation":"12/29 explicit; no machine-readable plot id.","confidence_score_0_100":97,"evidence_grade":"A","fake_data":false}},{"type":"Feature","geometry":null,"properties":{"slot_id":"planned_buildings_1","lineage_id":"planned_buildings_1-0ffc4ebd6c6e4e41","semantic_mode":"DISTINCT_BUILDINGS","planned_building_id":"planning-application:2025/2453/FPA::DWELLING_13","building_status":"PLANNED","building_name":"Dwelling 13, Swarthmoor","planning_reference":"2025/2453/FPA","authority":"Westmorland & Furness Council","source_url":"https://planningregister.westmorlandandfurness.gov.uk/planning/display/2025/2453/FPA","final_url":"https://planningregister.westmorlandandfurness.gov.uk/planning/display/2025/2453/FPA","access_utc":"2026-10-04T12:23:00Z","source_data_date":"2025-12-19","license":"Open Government Licence v3.0","geometry_role":"null; no geometry inferred","field_evidence":"Valid; Officer Consideration; decision Pending; 29 dwellings.","identity_limitation":"13/29 explicit; no machine-readable plot id.","confidence_score_0_100":97,"evidence_grade":"A","fake_data":false}},{"type":"Feature","geometry":null,"properties":{"slot_id":"planned_buildings_1","lineage_id":"planned_buildings_1-0ffc4ebd6c6e4e41","semantic_mode":"DISTINCT_BUILDINGS","planned_building_id":"planning-application:2025/2453/FPA::DWELLING_14","building_status":"PLANNED","building_name":"Dwelling 14, Swarthmoor","planning_reference":"2025/2453/FPA","authority":"Westmorland & Furness Council","source_url":"https://planningregister.westmorlandandfurness.gov.uk/planning/display/2025/2453/FPA","final_url":"https://planningregister.westmorlandandfurness.gov.uk/planning/display/2025/2453/FPA","access_utc":"2026-10-04T12:23:00Z","source_data_date":"2025-12-19","license":"Open Government Licence v3.0","geometry_role":"null; no geometry inferred","field_evidence":"Valid; Officer Consideration; decision Pending; 29 dwellings.","identity_limitation":"14/29 explicit; no machine-readable plot id.","confidence_score_0_100":97,"evidence_grade":"A","fake_data":false}},{"type":"Feature","geometry":null,"properties":{"slot_id":"planned_buildings_1","lineage_id":"planned_buildings_1-0ffc4ebd6c6e4e41","semantic_mode":"DISTINCT_BUILDINGS","planned_building_id":"planning-application:2025/2453/FPA::DWELLING_15","building_status":"PLANNED","building_name":"Dwelling 15, Swarthmoor","planning_reference":"2025/2453/FPA","authority":"Westmorland & Furness Council","source_url":"https://planningregister.westmorlandandfurness.gov.uk/planning/display/2025/2453/FPA","final_url":"https://planningregister.westmorlandandfurness.gov.uk/planning/display/2025/2453/FPA","access_utc":"2026-10-04T12:23:00Z","source_data_date":"2025-12-19","license":"Open Government Licence v3.0","geometry_role":"null; no geometry inferred","field_evidence":"Valid; Officer Consideration; decision Pending; 29 dwellings.","identity_limitation":"15/29 explicit; no machine-readable plot id.","confidence_score_0_100":97,"evidence_grade":"A","fake_data":false}},{"type":"Feature","geometry":null,"properties":{"slot_id":"planned_buildings_1","lineage_id":"planned_buildings_1-0ffc4ebd6c6e4e41","semantic_mode":"DISTINCT_BUILDINGS","planned_building_id":"planning-application:2025/2453/FPA::DWELLING_16","building_status":"PLANNED","building_name":"Dwelling 16, Swarthmoor","planning_reference":"2025/2453/FPA","authority":"Westmorland & Furness Council","source_url":"https://planningregister.westmorlandandfurness.gov.uk/planning/display/2025/2453/FPA","final_url":"https://planningregister.westmorlandandfurness.gov.uk/planning/display/2025/2453/FPA","access_utc":"2026-10-04T12:23:00Z","source_data_date":"2025-12-19","license":"Open Government Licence v3.0","geometry_role":"null; no geometry inferred","field_evidence":"Valid; Officer Consideration; decision Pending; 29 dwellings.","identity_limitation":"16/29 explicit; no machine-readable plot id.","confidence_score_0_100":97,"evidence_grade":"A","fake_data":false}},{"type":"Feature","geometry":null,"properties":{"slot_id":"planned_buildings_1","lineage_id":"planned_buildings_1-0ffc4ebd6c6e4e41","semantic_mode":"DISTINCT_BUILDINGS","planned_building_id":"planning-application:2025/2453/FPA::DWELLING_17","building_status":"PLANNED","building_name":"Dwelling 17, Swarthmoor","planning_reference":"2025/2453/FPA","authority":"Westmorland & Furness Council","source_url":"https://planningregister.westmorlandandfurness.gov.uk/planning/display/2025/2453/FPA","final_url":"https://planningregister.westmorlandandfurness.gov.uk/planning/display/2025/2453/FPA","access_utc":"2026-10-04T12:23:00Z","source_data_date":"2025-12-19","license":"Open Government Licence v3.0","geometry_role":"null; no geometry inferred","field_evidence":"Valid; Officer Consideration; decision Pending; 29 dwellings.","identity_limitation":"17/29 explicit; no machine-readable plot id.","confidence_score_0_100":97,"evidence_grade":"A","fake_data":false}},{"type":"Feature","geometry":null,"properties":{"slot_id":"planned_buildings_1","lineage_id":"planned_buildings_1-0ffc4ebd6c6e4e41","semantic_mode":"DISTINCT_BUILDINGS","planned_building_id":"planning-application:2025/2453/FPA::DWELLING_18","building_status":"PLANNED","building_name":"Dwelling 18, Swarthmoor","planning_reference":"2025/2453/FPA","authority":"Westmorland & Furness Council","source_url":"https://planningregister.westmorlandandfurness.gov.uk/planning/display/2025/2453/FPA","final_url":"https://planningregister.westmorlandandfurness.gov.uk/planning/display/2025/2453/FPA","access_utc":"2026-10-04T12:23:00Z","source_data_date":"2025-12-19","license":"Open Government Licence v3.0","geometry_role":"null; no geometry inferred","field_evidence":"Valid; Officer Consideration; decision Pending; 29 dwellings.","identity_limitation":"18/29 explicit; no machine-readable plot id.","confidence_score_0_100":97,"evidence_grade":"A","fake_data":false}},{"type":"Feature","geometry":null,"properties":{"slot_id":"planned_buildings_1","lineage_id":"planned_buildings_1-0ffc4ebd6c6e4e41","semantic_mode":"DISTINCT_BUILDINGS","planned_building_id":"planning-application:2025/2453/FPA::DWELLING_19","building_status":"PLANNED","building_name":"Dwelling 19, Swarthmoor","planning_reference":"2025/2453/FPA","authority":"Westmorland & Furness Council","source_url":"https://planningregister.westmorlandandfurness.gov.uk/planning/display/2025/2453/FPA","final_url":"https://planningregister.westmorlandandfurness.gov.uk/planning/display/2025/2453/FPA","access_utc":"2026-10-04T12:23:00Z","source_data_date":"2025-12-19","license":"Open Government Licence v3.0","geometry_role":"null; no geometry inferred","field_evidence":"Valid; Officer Consideration; decision Pending; 29 dwellings.","identity_limitation":"19/29 explicit; no machine-readable plot id.","confidence_score_0_100":97,"evidence_grade":"A","fake_data":false}},{"type":"Feature","geometry":null,"properties":{"slot_id":"planned_buildings_1","lineage_id":"planned_buildings_1-0ffc4ebd6c6e4e41","semantic_mode":"DISTINCT_BUILDINGS","planned_building_id":"planning-application:2025/2453/FPA::DWELLING_20","building_status":"PLANNED","building_name":"Dwelling 20, Swarthmoor","planning_reference":"2025/2453/FPA","authority":"Westmorland & Furness Council","source_url":"https://planningregister.westmorlandandfurness.gov.uk/planning/display/2025/2453/FPA","final_url":"https://planningregister.westmorlandandfurness.gov.uk/planning/display/2025/2453/FPA","access_utc":"2026-10-04T12:23:00Z","source_data_date":"2025-12-19","license":"Open Government Licence v3.0","geometry_role":"null; no geometry inferred","field_evidence":"Valid; Officer Consideration; decision Pending; 29 dwellings.","identity_limitation":"20/29 explicit; no machine-readable plot id.","confidence_score_0_100":97,"evidence_grade":"A","fake_data":false}},{"type":"Feature","geometry":null,"properties":{"slot_id":"planned_buildings_1","lineage_id":"planned_buildings_1-0ffc4ebd6c6e4e41","semantic_mode":"DISTINCT_BUILDINGS","planned_building_id":"planning-application:2025/2453/FPA::DWELLING_21","building_status":"PLANNED","building_name":"Dwelling 21, Swarthmoor","planning_reference":"2025/2453/FPA","authority":"Westmorland & Furness Council","source_url":"https://planningregister.westmorlandandfurness.gov.uk/planning/display/2025/2453/FPA","final_url":"https://planningregister.westmorlandandfurness.gov.uk/planning/display/2025/2453/FPA","access_utc":"2026-10-04T12:23:00Z","source_data_date":"2025-12-19","license":"Open Government Licence v3.0","geometry_role":"null; no geometry inferred","field_evidence":"Valid; Officer Consideration; decision Pending; 29 dwellings.","identity_limitation":"21/29 explicit; no machine-readable plot id.","confidence_score_0_100":97,"evidence_grade":"A","fake_data":false}},{"type":"Feature","geometry":null,"properties":{"slot_id":"planned_buildings_1","lineage_id":"planned_buildings_1-0ffc4ebd6c6e4e41","semantic_mode":"DISTINCT_BUILDINGS","planned_building_id":"planning-application:2025/2453/FPA::DWELLING_22","building_status":"PLANNED","building_name":"Dwelling 22, Swarthmoor","planning_reference":"2025/2453/FPA","authority":"Westmorland & Furness Council","source_url":"https://planningregister.westmorlandandfurness.gov.uk/planning/display/2025/2453/FPA","final_url":"https://planningregister.westmorlandandfurness.gov.uk/planning/display/2025/2453/FPA","access_utc":"2026-10-04T12:23:00Z","source_data_date":"2025-12-19","license":"Open Government Licence v3.0","geometry_role":"null; no geometry inferred","field_evidence":"Valid; Officer Consideration; decision Pending; 29 dwellings.","identity_limitation":"22/29 explicit; no machine-readable plot id.","confidence_score_0_100":97,"evidence_grade":"A","fake_data":false}},{"type":"Feature","geometry":null,"properties":{"slot_id":"planned_buildings_1","lineage_id":"planned_buildings_1-0ffc4ebd6c6e4e41","semantic_mode":"DISTINCT_BUILDINGS","planned_building_id":"planning-application:2025/2453/FPA::DWELLING_23","building_status":"PLANNED","building_name":"Dwelling 23, Swarthmoor","planning_reference":"2025/2453/FPA","authority":"Westmorland & Furness Council","source_url":"https://planningregister.westmorlandandfurness.gov.uk/planning/display/2025/2453/FPA","final_url":"https://planningregister.westmorlandandfurness.gov.uk/planning/display/2025/2453/FPA","access_utc":"2026-10-04T12:23:00Z","source_data_date":"2025-12-19","license":"Open Government Licence v3.0","geometry_role":"null; no geometry inferred","field_evidence":"Valid; Officer Consideration; decision Pending; 29 dwellings.","identity_limitation":"23/29 explicit; no machine-readable plot id.","confidence_score_0_100":97,"evidence_grade":"A","fake_data":false}},{"type":"Feature","geometry":null,"properties":{"slot_id":"planned_buildings_1","lineage_id":"planned_buildings_1-0ffc4ebd6c6e4e41","semantic_mode":"DISTINCT_BUILDINGS","planned_building_id":"planning-application:2025/2453/FPA::DWELLING_24","building_status":"PLANNED","building_name":"Dwelling 24, Swarthmoor","planning_reference":"2025/2453/FPA","authority":"Westmorland & Furness Council","source_url":"https://planningregister.westmorlandandfurness.gov.uk/planning/display/2025/2453/FPA","final_url":"https://planningregister.westmorlandandfurness.gov.uk/planning/display/2025/2453/FPA","access_utc":"2026-10-04T12:23:00Z","source_data_date":"2025-12-19","license":"Open Government Licence v3.0","geometry_role":"null; no geometry inferred","field_evidence":"Valid; Officer Consideration; decision Pending; 29 dwellings.","identity_limitation":"24/29 explicit; no machine-readable plot id.","confidence_score_0_100":97,"evidence_grade":"A","fake_data":false}},{"type":"Feature","geometry":null,"properties":{"slot_id":"planned_buildings_1","lineage_id":"planned_buildings_1-0ffc4ebd6c6e4e41","semantic_mode":"DISTINCT_BUILDINGS","planned_building_id":"planning-application:2025/2453/FPA::DWELLING_25","building_status":"PLANNED","building_name":"Dwelling 25, Swarthmoor","planning_reference":"2025/2453/FPA","authority":"Westmorland & Furness Council","source_url":"https://planningregister.westmorlandandfurness.gov.uk/planning/display/2025/2453/FPA","final_url":"https://planningregister.westmorlandandfurness.gov.uk/planning/display/2025/2453/FPA","access_utc":"2026-10-04T12:23:00Z","source_data_date":"2025-12-19","license":"Open Government Licence v3.0","geometry_role":"null; no geometry inferred","field_evidence":"Valid; Officer Consideration; decision Pending; 29 dwellings.","identity_limitation":"25/29 explicit; no machine-readable plot id.","confidence_score_0_100":97,"evidence_grade":"A","fake_data":false}},{"type":"Feature","geometry":null,"properties":{"slot_id":"planned_buildings_1","lineage_id":"planned_buildings_1-0ffc4ebd6c6e4e41","semantic_mode":"DISTINCT_BUILDINGS","planned_building_id":"planning-application:2025/2453/FPA::DWELLING_26","building_status":"PLANNED","building_name":"Dwelling 26, Swarthmoor","planning_reference":"2025/2453/FPA","authority":"Westmorland & Furness Council","source_url":"https://planningregister.westmorlandandfurness.gov.uk/planning/display/2025/2453/FPA","final_url":"https://planningregister.westmorlandandfurness.gov.uk/planning/display/2025/2453/FPA","access_utc":"2026-10-04T12:23:00Z","source_data_date":"2025-12-19","license":"Open Government Licence v3.0","geometry_role":"null; no geometry inferred","field_evidence":"Valid; Officer Consideration; decision Pending; 29 dwellings.","identity_limitation":"26/29 explicit; no machine-readable plot id.","confidence_score_0_100":97,"evidence_grade":"A","fake_data":false}},{"type":"Feature","geometry":null,"properties":{"slot_id":"planned_buildings_1","lineage_id":"planned_buildings_1-0ffc4ebd6c6e4e41","semantic_mode":"DISTINCT_BUILDINGS","planned_building_id":"planning-application:2025/2453/FPA::DWELLING_27","building_status":"PLANNED","building_name":"Dwelling 27, Swarthmoor","planning_reference":"2025/2453/FPA","authority":"Westmorland & Furness Council","source_url":"https://planningregister.westmorlandandfurness.gov.uk/planning/display/2025/2453/FPA","final_url":"https://planningregister.westmorlandandfurness.gov.uk/planning/display/2025/2453/FPA","access_utc":"2026-10-04T12:23:00Z","source_data_date":"2025-12-19","license":"Open Government Licence v3.0","geometry_role":"null; no geometry inferred","field_evidence":"Valid; Officer Consideration; decision Pending; 29 dwellings.","identity_limitation":"27/29 explicit; no machine-readable plot id.","confidence_score_0_100":97,"evidence_grade":"A","fake_data":false}},{"type":"Feature","geometry":null,"properties":{"slot_id":"planned_buildings_1","lineage_id":"planned_buildings_1-0ffc4ebd6c6e4e41","semantic_mode":"DISTINCT_BUILDINGS","planned_building_id":"planning-application:2025/2453/FPA::DWELLING_28","building_status":"PLANNED","building_name":"Dwelling 28, Swarthmoor","planning_reference":"2025/2453/FPA","authority":"Westmorland & Furness Council","source_url":"https://planningregister.westmorlandandfurness.gov.uk/planning/display/2025/2453/FPA","final_url":"https://planningregister.westmorlandandfurness.gov.uk/planning/display/2025/2453/FPA","access_utc":"2026-10-04T12:23:00Z","source_data_date":"2025-12-19","license":"Open Government Licence v3.0","geometry_role":"null; no geometry inferred","field_evidence":"Valid; Officer Consideration; decision Pending; 29 dwellings.","identity_limitation":"28/29 explicit; no machine-readable plot id.","confidence_score_0_100":97,"evidence_grade":"A","fake_data":false}},{"type":"Feature","geometry":null,"properties":{"slot_id":"planned_buildings_1","lineage_id":"planned_buildings_1-0ffc4ebd6c6e4e41","semantic_mode":"DISTINCT_BUILDINGS","planned_building_id":"planning-application:2025/2453/FPA::DWELLING_29","building_status":"PLANNED","building_name":"Dwelling 29, Swarthmoor","planning_reference":"2025/2453/FPA","authority":"Westmorland & Furness Council","source_url":"https://planningregister.westmorlandandfurness.gov.uk/planning/display/2025/2453/FPA","final_url":"https://planningregister.westmorlandandfurness.gov.uk/planning/display/2025/2453/FPA","access_utc":"2026-10-04T12:23:00Z","source_data_date":"2025-12-19","license":"Open Government Licence v3.0","geometry_role":"null; no geometry inferred","field_evidence":"Valid; Officer Consideration; decision Pending; 29 dwellings.","identity_limitation":"29/29 explicit; no machine-readable plot id.","confidence_score_0_100":97,"evidence_grade":"A","fake_data":false}}]}