{"type":"FeatureCollection","features":[{"type":"Feature","id":"CHERWELL_25_02977_CLUP_CARPORT_LOG_STORE_01","geometry":null,"properties":{"slot_id":"planned_buildings_4","owner":"planned_buildings_4","lineage_id":"pb4-8debc7c8ddf348a2","page_generation":1,"partition":"layer24","schema":"AAYS_LAYER24_EVIDENCE_V1","semantic_mode":"PLANNED_BUILDINGS_OFFICIAL_REFERENCE_DISTINCT_STRUCTURE","batch_id":"20261002T163129Z-cherwell-25-02977-clup-window-001","publisher":"Cherwell District Council","source_family":"CHERWELL_PLANNING_REGISTER","source_url":"https://planningregister.cherwell.gov.uk/Planning/Display/25/02977/CLUP","final_url":"https://planningregister.cherwell.gov.uk/Planning/Display/25/02977/CLUP","access_utc":"2026-10-02T16:31:29Z","data_date":"2025-11-17","license":"Public planning register; document copyright/usage remains governed by council register terms","planning_reference":"25/02977/CLUP","location":"Tuther Corner Brill Aylesbury HP18 9UZ","proposal":"Certificate of Lawfulness of Proposed Development for construction of a 3 bay carport and log store","status":"Application Permitted","geometry_status":"NOT_MATERIALIZED_LOCAL_OPENCODE","field_evidence":"Official Cherwell District Council Planning Register application 25/02977/CLUP. Application Type: Certificate of Lawful Use Proposed. Status: Application Permitted. Valid date: 17/11/2025. Location: Tuther Corner Brill Aylesbury HP18 9UZ. Proposal: Certificate of Lawfulness of Proposed Development for construction of a 3 bay carport and log store. Decision: Permitted. Decision Issued Date: 08/01/2026. Official documents list Tuther Corner Proposed Location Plan McCormick.pdf as Proposed Location Plan (drawing/revision 2025), Tuther Corner Proposed Site Plan McCormick.pdf as Proposed Site Plan (2025 003), and GP Carport McCormick.pdf as Carport (16105EP). One distinct planned structure is counted from the official proposal: the combined 3-bay carport with integrated log store, supported by the proposed site plan and dedicated carport drawing. Geometry/materialization is deferred to local OpenCode.","evidence_slice_sha256":"39ce52d2aaf6d639d9fec10e2962694fc761e435fef71179ad8abbb6f6d3e4da","confidence":0.99,"evidence_grade":"A_OFFICIAL_LOCAL_AUTHORITY_PLANNING_REGISTER_DISTINCT_THREE_BAY_CARPORT_WITH_LOG_STORE_PERMITTED","fake_data":false,"source_record_id":"CHERWELL_25_02977_CLUP_CARPORT_LOG_STORE_01","planned_building":"3-bay carport with integrated log store","official_plan_reference":"16105EP","official_plan_description":"Carport"}}]}
