{"type":"FeatureCollection","features":[{"type":"Feature","geometry":{"type":"MultiPolygon","coordinates":[[[[-0.071942,51.500344],[-0.07168,51.500386],[-0.071717,51.500466],[-0.071976,51.500423],[-0.071942,51.500344]]]]},"properties":{"slot_id":"future_growth_1","lineage_id":"future_growth_1-newstart-20260927T153100+0300","page_generation":null,"semantic_mode":"AREA_JOIN","source_window":"mhclg_brownfield_southwark_14AP4611A_1800402_entry2020-12-22","semantic_identity":"brownfield-site:14-AP-4611A|organisation-entity:329|2020-12-22","source_url":"https://www.planning.data.gov.uk/entity/1800402","final_url":"https://www.planning.data.gov.uk/entity/1800402","final_url_status":"official canonical entity URL; redirect not captured","http_status":null,"http_status_reason":"web retrieval does not expose origin HTTP code","access_utc":"2026-10-08T05:08:12.317Z","data_date":"2020-12-22","data_date_basis":"MHCLG official entry-date; start-date 2017-12-20","license":"Open Government Licence v3.0","license_evidence_url":"https://www.planning.data.gov.uk/dataset/brownfield-site","field_evidence":{"reference":"14-AP-4611A","name":"Ground, 1st, 2nd, 3rd & 4th Floors The Italian Building, 41-43 Dockhead Road SE1 2BS","dataset":"brownfield-site","organisation-entity":"329","start-date":"2017-12-20","end-date":"","entry-date":"2020-12-22","typology":"geography","geometry":"MULTIPOLYGON (((-0.071942 51.500344, -0.07168 51.500386, -0.071717 51.500466, -0.071976 51.500423, -0.071942 51.500344)))","point":"POINT (-0.071828 51.500405)","entity":1800402,"dataset-name":"","brownfield-site":"14-AP-4611A"},"evidence_slice_sha256":"4c979fedb2649b74514e2b7a3d1dab651ec8090ef2df547d8c7637d50bb09389","confidence_score_0_100":92,"evidence_grade":"A","fake_data":false,"source_area_count_contribution":1,"accepted_as_parcel":false,"exact_identifier":"14-AP-4611A","exact_identifier_provided":true,"identifier_namespace":"MHCLG brownfield-site","coverage_polygon_provided":true,"geometry_type":"MultiPolygon","geometry_crs":"EPSG:4326","source_file_sha256":null,"source_file_sha256_reason":"No raw official GeoJSON bytes available; WKT and evidence-slice SHA-256 retained.","spatial_binding_method":"Official dated WKT MultiPolygon; canonical parcel spatial join delegated to local OpenCode","planned_building_count_contribution":0}}]}