{"type":"FeatureCollection","features":[{"type":"Feature","id":"planned_buildings_1-planning-data-brownfield-1705638","geometry":{"type":"Point","coordinates":[-0.127122,51.463812]},"properties":{"topic_id":"planned-buildings","slot_id":"planned_buildings_1","source_dataset_id":"planning_data_brownfield_land","source_entity":1705638,"official_site_key":"BLR003","canonical_record_key":"planning-data:brownfield-land:1705638","planned_project_name":"Fenwick Estate South","planned_project_type":"brownfield_residential_or_mixed_use_site","planned_project_status":"permissioned","planned_project_owner_type":"owned-by-a-public-authority","planned_building_capacity_net_dwellings":55,"parcel_id":null,"program_parcel_id":null,"planned_building_value":null,"planned_building_probability":null,"planned_building_complete_month":null,"planned_building_expected_window":null,"planned_scoring_status":"METHODOLOGY_APPROVAL_REQUIRED","planned_complete_month_reason":"No explicit official completion YYYY-MM field; planning-permission-date is not a completion month.","planned_site_geometry":"official_source_point","matching_method":"direct_official_site_record_no_parcel_match","source_url":"https://www.planning.data.gov.uk/entity.json?dataset=brownfield-land&geometry_entity=626195&geometry_relation=within&limit=100","source_entity_url":"https://www.planning.data.gov.uk/entity/1705638","source_quality":"authoritative","source_license":"Open Government Licence v3.0","source_record_scope":{"reference":"BLR003","planning_permission_date":"2017-02-10","planning_permission_type":"full-planning-permission","maximum_net_dwellings":55},"evidence_level":3,"demo_only":true,"fake_data":false,"final_ready":false,"production_merge":false,"generated_at":"2026-08-18T01:17:00Z"}}],"metadata":{"slot_id":"planned_buildings_1","batch_index":3,"source_window":{"geometry_entity":626195,"geometry_relation":"within","limit":1,"offset":2},"feature_count_delta":1,"feature_count_before":52,"feature_count_after":53,"unique_real_site_project_before":3,"unique_real_site_project_after":4,"duplicate_count_new":0,"nearest_match_used":false,"fake_data":false,"mirror_only":true}}
