{"type":"FeatureCollection","features":[{"type":"Feature","geometry":{"type":"MultiPolygon","coordinates":[[[[-1.015363,53.58243],[-1.015439,53.582439],[-1.015534,53.582172],[-1.015768,53.582189],[-1.015932,53.581608],[-1.015515,53.581548],[-1.015552,53.581513],[-1.015534,53.581501],[-1.015603,53.581347],[-1.015634,53.581311],[-1.015541,53.581298],[-1.015555,53.58132],[-1.015449,53.581538],[-1.01532,53.581519],[-1.015133,53.582023],[-1.014992,53.582076],[-1.0148,53.582058],[-1.014787,53.582084],[-1.015461,53.582163],[-1.015363,53.58243]]]]},"properties":{"slot_id":"future_growth_1","lineage_id":"future_growth_1-newstart-20260927T153100+0300","page_generation":null,"semantic_mode":"AREA_JOIN","source_window":"mhclg_doncaster_brownfield_site_60_entity1802727_2025-12-03","semantic_identity":"brownfield-site:60|local-authority:DNC|2025-12-03","source_url":"https://www.planning.data.gov.uk/entity/1802727","final_url":"https://www.planning.data.gov.uk/entity/1802727","final_url_status":"official canonical entity link; no redirect observed","http_status":null,"http_status_reason":"Indexed public page retrieval does not provide numeric origin HTTP response code","access_utc":"2026-10-09T01:02:21.633Z","data_date":"2025-12-03","data_date_basis":"Official entity entry-date; source dataset collector last ran 2026-08-10","license":"Open Government Licence v3.0","license_evidence_url":"https://www.planning.data.gov.uk/dataset/brownfield-site","field_evidence":{"entry-date":"2025-12-03","start-date":"","end-date":"","entity":1802727,"name":"Land West Of Abbey Road, Dunscroft, Doncaster, DN7 4LE","dataset":"brownfield-site","typology":"geography","reference":"60","prefix":"brownfield-site","organisation-entity":"109","geometry":"MULTIPOLYGON (((-1.015363 53.58243, -1.015439 53.582439, -1.015534 53.582172, -1.015768 53.582189, -1.015932 53.581608, -1.015515 53.581548, -1.015552 53.581513, -1.015534 53.581501, -1.015603 53.581347, -1.015634 53.581311, -1.015541 53.581298, -1.015555 53.58132, -1.015449 53.581538, -1.01532 53.581519, -1.015133 53.582023, -1.014992 53.582076, -1.0148 53.582058, -1.014787 53.582084, -1.015461 53.582163, -1.015363 53.58243)))","point":"POINT (-1.015506 53.581875)","quality":"authoritative","brownfield-site":"60"},"evidence_slice_sha256":"82dc35eb6cf4e82d53a695bf3344ed4c0329e667d0283d8ba8a8fefa926860e3","confidence_score_0_100":94,"evidence_grade":"A","fake_data":false,"source_area_count_contribution":1,"accepted_as_parcel":false,"exact_identifier":"60","exact_identifier_provided":true,"identifier_namespace":"MHCLG brownfield-site DNC","coverage_polygon_provided":true,"geometry_type":"MultiPolygon","geometry_crs":"EPSG:4326","source_file_sha256":null,"source_file_sha256_reason":"Original official GeoJSON download (entity/1802727.geojson) and entity JSON returned cache misses; no raw bytes captured","spatial_binding_method":"Exact published government entity MULTIPOLYGON WKT; canonical parcel spatial join delegated to local OpenCode","planned_building_count_contribution":0}}]}