{"type":"FeatureCollection","name":"building_type_2_batch_0001","features":[{"type":"Feature","id":"42118006","geometry":{"type":"MultiPolygon","coordinates":[[[[1.726521,52.603905],[1.726468,52.603969],[1.726519,52.603987],[1.726511,52.603999],[1.726464,52.604051],[1.726269,52.603985],[1.726356,52.60385],[1.726365,52.603853],[1.726378,52.603832],[1.726453,52.603857],[1.726436,52.603877],[1.726521,52.603905]]]]},"properties":{"slot_id":"building_type_2","lineage_id":"building_type_2-20260930T173100Z-newstart","batch_id":"batch-0001","page_generation":1,"source_entity":42118006,"source_reference":"1245802","source_dataset":"listed-building-outline","source_organisation":"Great Yarmouth Borough Council","building_evidence_status":"BUILDING_PRESENT","parcel_status":"UNPROCESSED","canonical_parcel_id":null,"building_type":"listed_building","building_use":null,"poi_accepted":false,"field_evidence":{"footprint":"official listed-building-outline MULTIPOLYGON","type":"official dataset classification: listed-building-outline","name":"23 AND 24, SOUTH QUAY","reference":"1245802"},"source_url":"https://www.planning.data.gov.uk/entity/42118006","final_url":"https://www.planning.data.gov.uk/entity/42118006","access_utc":"2026-09-30T17:31:00Z","data_date":"2023-07-17","licence":"Open Government Licence v3.0","confidence_score_0_100":96,"evidence_grade":"A","fake_data":false,"local_spatial_join_required":true}},{"type":"Feature","id":"42122670","geometry":{"type":"MultiPolygon","coordinates":[[[[-1.243101,51.513432],[-1.243073,51.513434],[-1.243072,51.513428],[-1.243017,51.51344],[-1.243015,51.513432],[-1.242996,51.513434],[-1.242999,51.513442],[-1.242925,51.513443],[-1.242929,51.51346],[-1.242803,51.513472],[-1.242826,51.51356],[-1.242955,51.513547],[-1.242957,51.513556],[-1.242975,51.513555],[-1.242973,51.513545],[-1.243001,51.513542],[-1.243002,51.513552],[-1.243024,51.51355],[-1.243021,51.51354],[-1.243052,51.513538],[-1.243055,51.513547],[-1.243075,51.513545],[-1.243072,51.513535],[-1.243112,51.513531],[-1.243113,51.513541],[-1.243137,51.513538],[-1.243134,51.513529],[-1.243167,51.513526],[-1.243169,51.513535],[-1.243192,51.513533],[-1.243181,51.513491],[-1.243226,51.513486],[-1.243249,51.513494],[-1.243248,51.513483],[-1.24323,51.513477],[-1.243221,51.513444],[-1.243236,51.513432],[-1.243221,51.513426],[-1.243208,51.513438],[-1.243182,51.513441],[-1.243194,51.513428],[-1.243177,51.513422],[-1.243161,51.513438],[-1.243154,51.513414],[-1.243115,51.513418],[-1.243118,51.51343],[-1.243101,51.513432]]]]},"properties":{"slot_id":"building_type_2","lineage_id":"building_type_2-20260930T173100Z-newstart","batch_id":"batch-0001","page_generation":1,"source_entity":42122670,"source_reference":"1135775","source_dataset":"listed-building-outline","source_organisation":"West Berkshire Council","building_evidence_status":"BUILDING_PRESENT","parcel_status":"UNPROCESSED","canonical_parcel_id":null,"building_type":"listed_building","building_use":null,"poi_accepted":false,"field_evidence":{"footprint":"official listed-building-outline MULTIPOLYGON","type":"official dataset classification: listed-building-outline","name":null,"reference":"1135775"},"source_url":"https://www.planning.data.gov.uk/entity/42122670","final_url":"https://www.planning.data.gov.uk/entity/42122670","access_utc":"2026-09-30T17:31:00Z","data_date":"2025-09-10","licence":"Open Government Licence v3.0","confidence_score_0_100":92,"evidence_grade":"A","fake_data":false,"local_spatial_join_required":true}}]}