{"type":"FeatureCollection","features":[{"type":"Feature","geometry":null,"properties":{"slot_id":"future_growth_7","lineage_id":"future_growth_7_open_source_v2_20260813","page_generation":null,"batch_id":"batch_20261001T103700Z_lbcblr041","future_growth_evidence_type":"brownfield_land_exact_official_identifier","official_entity_id":1702361,"official_reference":"LBCBLR041","dataset":"brownfield-land","organisation":"London Borough of Camden","source_url":"https://www.planning.data.gov.uk/entity/1702361","final_url":"https://www.planning.data.gov.uk/entity/1702361","accessed_utc":"2026-10-01T07:37:00Z","data_date":"2025-12-07","field_evidence":{"future_growth":["dataset=brownfield-land","quality=authoritative","typology=geography"],"identifier":["entity=1702361","reference=LBCBLR041"],"coverage":["point=POINT (-0.146396 51.540392)","geometry not rendered in entity page; exact identifier retained for local canonical spatial resolution"]},"evidence_slice_sha256":"7c71e058a0ec731084153da2017545d0ffdac087324b87cd0ad6aef673e165a1","evidence_grade":"A_EXACT_OFFICIAL_IDENTIFIER","confidence_score_0_100":92,"fake_data":false}}]}