{"type":"FeatureCollection","name":"building_type_9_batch_0024","features":[{"type":"Feature","id":"42235656","geometry":{"type":"MultiPolygon","coordinates":[[[[-2.272521,52.999748],[-2.272615,52.999777],[-2.272669,52.999712],[-2.272776,52.999744],[-2.272833,52.999674],[-2.272721,52.999642],[-2.272738,52.999615],[-2.272878,52.999658],[-2.272935,52.999674],[-2.27297,52.999633],[-2.272771,52.99957],[-2.272789,52.999549],[-2.272532,52.999475],[-2.272533,52.999474],[-2.272316,52.999414],[-2.272247,52.999503],[-2.272123,52.999468],[-2.272101,52.999495],[-2.272123,52.9995],[-2.272117,52.99951],[-2.27222,52.999539],[-2.272142,52.999641],[-2.272521,52.999748]]]]},"properties":{"slot_id":"building_type_9","lineage_id":"building_type_9-20261001T200900Z-newstart","batch_id":"batch-0024","page_generation":1,"source_entity":42235656,"source_reference":"6/35","source_dataset":"listed-building-outline","source_organisation":"Newcastle-under-Lyme Borough Council","building_evidence_status":"BUILDING_PRESENT","parcel_status":"UNPROCESSED","canonical_parcel_id":null,"building_type":"listed_building","building_use":null,"poi_accepted":false,"field_evidence":{"footprint":"official listed-building-outline MULTIPOLYGON","type":"official dataset classification: listed-building-outline","name":"","description":"Former stable block and coach house.","reference":"6/35","use":"no use inferred"},"source_url":"https://www.planning.data.gov.uk/entity/42235656","final_url":"https://www.planning.data.gov.uk/entity/42235656","access_utc":"2026-10-05T09:40:54Z","data_date":"2007-10-03","licence":"Open Government Licence v3.0","evidence_slice_sha256":"4d83d83cf37c21f25a6b73651974bc1ad6abe739aa5191113412d707a4430c1b","confidence_score_0_100":94,"evidence_grade":"A","fake_data":false,"local_spatial_join_required":true}},{"type":"Feature","id":"42235595","geometry":{"type":"MultiPolygon","coordinates":[[[[-2.262331,53.075383],[-2.262331,53.07534],[-2.262326,53.075241],[-2.262325,53.075145],[-2.262327,53.075061],[-2.262322,53.074972],[-2.262313,53.074973],[-2.262292,53.074911],[-2.26173,53.074973],[-2.261739,53.075008],[-2.261609,53.075032],[-2.261606,53.075026],[-2.26135,53.075067],[-2.261422,53.07525],[-2.261428,53.075258],[-2.261431,53.075272],[-2.26147,53.07536],[-2.261483,53.075393],[-2.261517,53.075462],[-2.26153,53.075493],[-2.261552,53.075491],[-2.262239,53.075394],[-2.262331,53.075383]]]]},"properties":{"slot_id":"building_type_9","lineage_id":"building_type_9-20261001T200900Z-newstart","batch_id":"batch-0024","page_generation":1,"source_entity":42235595,"source_reference":"5/54A","source_dataset":"listed-building-outline","source_organisation":"Newcastle-under-Lyme Borough Council","building_evidence_status":"BUILDING_PRESENT","parcel_status":"UNPROCESSED","canonical_parcel_id":null,"building_type":"listed_building","building_use":null,"poi_accepted":false,"field_evidence":{"footprint":"official listed-building-outline MULTIPOLYGON","type":"official dataset classification: listed-building-outline","name":"","description":"Agricultural Building","reference":"5/54A","use":"no use inferred"},"source_url":"https://www.planning.data.gov.uk/entity/42235595","final_url":"https://www.planning.data.gov.uk/entity/42235595","access_utc":"2026-10-05T09:40:54Z","data_date":"2012-05-15","licence":"Open Government Licence v3.0","evidence_slice_sha256":"1a29273a055d722b0e16338681f5dd2d62fc49cde52231e7a927bac45340ce88","confidence_score_0_100":94,"evidence_grade":"A","fake_data":false,"local_spatial_join_required":true}},{"type":"Feature","id":"42235495","geometry":{"type":"MultiPolygon","coordinates":[[[[-2.283342,52.96595],[-2.283363,52.965952],[-2.28337,52.965907],[-2.283391,52.965881],[-2.283386,52.965859],[-2.283366,52.965829],[-2.283349,52.965814],[-2.283326,52.965798],[-2.283298,52.965787],[-2.283259,52.965789],[-2.283235,52.965795],[-2.283183,52.965814],[-2.283149,52.965844],[-2.283136,52.965853],[-2.283099,52.965887],[-2.283059,52.965933],[-2.282993,52.966003],[-2.283243,52.966005],[-2.283282,52.966007],[-2.283307,52.966015],[-2.283327,52.966024],[-2.28334,52.965981],[-2.283342,52.96595]]]]},"properties":{"slot_id":"building_type_9","lineage_id":"building_type_9-20261001T200900Z-newstart","batch_id":"batch-0024","page_generation":1,"source_entity":42235495,"source_reference":"6/193","source_dataset":"listed-building-outline","source_organisation":"Newcastle-under-Lyme Borough Council","building_evidence_status":"BUILDING_PRESENT","parcel_status":"UNPROCESSED","canonical_parcel_id":null,"building_type":"listed_building","building_use":null,"poi_accepted":false,"field_evidence":{"footprint":"official listed-building-outline MULTIPOLYGON","type":"official dataset classification: listed-building-outline","name":"","description":"Lodge","reference":"6/193","use":"no use inferred"},"source_url":"https://www.planning.data.gov.uk/entity/42235495","final_url":"https://www.planning.data.gov.uk/entity/42235495","access_utc":"2026-10-05T09:40:54Z","data_date":"2006-11-14","licence":"Open Government Licence v3.0","evidence_slice_sha256":"ab10f6e08004707294330b5c9644fef2f47e53ca008a44114dd65e2352900d37","confidence_score_0_100":94,"evidence_grade":"A","fake_data":false,"local_spatial_join_required":true}},{"type":"Feature","id":"42235491","geometry":{"type":"MultiPolygon","coordinates":[[[[-2.461454,52.888966],[-2.461305,52.888878],[-2.461118,52.888777],[-2.461062,52.888744],[-2.461027,52.888765],[-2.461091,52.888802],[-2.460888,52.888931],[-2.460952,52.888975],[-2.461172,52.889116],[-2.461223,52.889078],[-2.461275,52.889052],[-2.461343,52.889015],[-2.461454,52.888966]]]]},"properties":{"slot_id":"building_type_9","lineage_id":"building_type_9-20261001T200900Z-newstart","batch_id":"batch-0024","page_generation":1,"source_entity":42235491,"source_reference":"11/166","source_dataset":"listed-building-outline","source_organisation":"Newcastle-under-Lyme Borough Council","building_evidence_status":"BUILDING_PRESENT","parcel_status":"UNPROCESSED","canonical_parcel_id":null,"building_type":"listed_building","building_use":null,"poi_accepted":false,"field_evidence":{"footprint":"official listed-building-outline MULTIPOLYGON","type":"official dataset classification: listed-building-outline","name":"","description":"Former Chapel","reference":"11/166","use":"no use inferred"},"source_url":"https://www.planning.data.gov.uk/entity/42235491","final_url":"https://www.planning.data.gov.uk/entity/42235491","access_utc":"2026-10-05T09:40:54Z","data_date":"2012-08-20","licence":"Open Government Licence v3.0","evidence_slice_sha256":"e2762292f223a453972dca3ec711e8754164d1dc80dcea62a49937a8dd1aa4a5","confidence_score_0_100":94,"evidence_grade":"A","fake_data":false,"local_spatial_join_required":true}},{"type":"Feature","id":"42235541","geometry":{"type":"MultiPolygon","coordinates":[[[[-2.301063,53.054918],[-2.30109,53.054989],[-2.301275,53.054963],[-2.30129,53.055004],[-2.3016,53.054962],[-2.301582,53.054917],[-2.301688,53.054903],[-2.301661,53.054833],[-2.301553,53.054847],[-2.301538,53.054806],[-2.301228,53.054848],[-2.301245,53.054892],[-2.301063,53.054918]]]]},"properties":{"slot_id":"building_type_9","lineage_id":"building_type_9-20261001T200900Z-newstart","batch_id":"batch-0024","page_generation":1,"source_entity":42235541,"source_reference":"4/5","source_dataset":"listed-building-outline","source_organisation":"Newcastle-under-Lyme Borough Council","building_evidence_status":"BUILDING_PRESENT","parcel_status":"UNPROCESSED","canonical_parcel_id":null,"building_type":"listed_building","building_use":null,"poi_accepted":false,"field_evidence":{"footprint":"official listed-building-outline MULTIPOLYGON","type":"official dataset classification: listed-building-outline","name":"","description":"Parish Church","reference":"4/5","use":"no use inferred"},"source_url":"https://www.planning.data.gov.uk/entity/42235541","final_url":"https://www.planning.data.gov.uk/entity/42235541","access_utc":"2026-10-05T09:40:54Z","data_date":"2007-07-17","licence":"Open Government Licence v3.0","evidence_slice_sha256":"52d861485ea5a73576f3fd5c123db07ecc272081195b8f15207d6380ece00bf8","confidence_score_0_100":94,"evidence_grade":"A","fake_data":false,"local_spatial_join_required":true}},{"type":"Feature","id":"42235616","geometry":{"type":"MultiPolygon","coordinates":[[[[-2.312202,52.942048],[-2.312194,52.942083],[-2.312291,52.94209],[-2.312298,52.942055],[-2.312202,52.942048]]]]},"properties":{"slot_id":"building_type_9","lineage_id":"building_type_9-20261001T200900Z-newstart","batch_id":"batch-0024","page_generation":1,"source_entity":42235616,"source_reference":"9/99","source_dataset":"listed-building-outline","source_organisation":"Newcastle-under-Lyme Borough Council","building_evidence_status":"BUILDING_PRESENT","parcel_status":"UNPROCESSED","canonical_parcel_id":null,"building_type":"listed_building","building_use":null,"poi_accepted":false,"field_evidence":{"footprint":"official listed-building-outline MULTIPOLYGON","type":"official dataset classification: listed-building-outline","name":"","description":"Boathouse","reference":"9/99","use":"no use inferred"},"source_url":"https://www.planning.data.gov.uk/entity/42235616","final_url":"https://www.planning.data.gov.uk/entity/42235616","access_utc":"2026-10-05T09:40:54Z","data_date":"2008-02-15","licence":"Open Government Licence v3.0","evidence_slice_sha256":"aad0257fc1059fa7ee66895b541a3417b1a90127b98f95cd2e1df2975a8c964c","confidence_score_0_100":94,"evidence_grade":"A","fake_data":false,"local_spatial_join_required":true}},{"type":"Feature","id":"42235619","geometry":{"type":"MultiPolygon","coordinates":[[[[-2.28368,52.968376],[-2.283882,52.968419],[-2.283911,52.96837],[-2.283708,52.968326],[-2.283679,52.968375],[-2.28368,52.968376]]]]},"properties":{"slot_id":"building_type_9","lineage_id":"building_type_9-20261001T200900Z-newstart","batch_id":"batch-0024","page_generation":1,"source_entity":42235619,"source_reference":"6/191","source_dataset":"listed-building-outline","source_organisation":"Newcastle-under-Lyme Borough Council","building_evidence_status":"BUILDING_PRESENT","parcel_status":"UNPROCESSED","canonical_parcel_id":null,"building_type":"listed_building","building_use":null,"poi_accepted":false,"field_evidence":{"footprint":"official listed-building-outline MULTIPOLYGON","type":"official dataset classification: listed-building-outline","name":"","description":"Former Stable Block","reference":"6/191","use":"no use inferred"},"source_url":"https://www.planning.data.gov.uk/entity/42235619","final_url":"https://www.planning.data.gov.uk/entity/42235619","access_utc":"2026-10-05T09:40:54Z","data_date":"2007-09-03","licence":"Open Government Licence v3.0","evidence_slice_sha256":"d85f327516d3eeb6925f1ebfb739a1a913dd2d1ae2ffc77807a7f6b3b9717797","confidence_score_0_100":94,"evidence_grade":"A","fake_data":false,"local_spatial_join_required":true}},{"type":"Feature","id":"42235663","geometry":{"type":"MultiPolygon","coordinates":[[[[-2.427436,52.902081],[-2.42749,52.902105],[-2.427666,52.902206],[-2.427889,52.902319],[-2.427915,52.902269],[-2.427935,52.902223],[-2.427951,52.90217],[-2.427967,52.902103],[-2.427977,52.902036],[-2.427986,52.90199],[-2.427971,52.901942],[-2.42792,52.901854],[-2.42786,52.901762],[-2.42783,52.901684],[-2.427792,52.90157],[-2.427688,52.901279],[-2.427653,52.901282],[-2.427447,52.90128],[-2.426879,52.901253],[-2.426627,52.901235],[-2.426322,52.901194],[-2.426156,52.901157],[-2.425848,52.90107],[-2.425601,52.900971],[-2.425419,52.900887],[-2.425149,52.900732],[-2.424848,52.900536],[-2.424645,52.900393],[-2.424364,52.900208],[-2.424242,52.900132],[-2.424079,52.900039],[-2.424108,52.900014],[-2.423413,52.899634],[-2.422818,52.899333],[-2.422518,52.899188],[-2.42226,52.89907],[-2.422153,52.899033],[-2.422049,52.899006],[-2.421943,52.898982],[-2.421859,52.89896],[-2.421766,52.898947],[-2.42186,52.899112],[-2.421993,52.899326],[-2.422009,52.899348],[-2.422042,52.899419],[-2.422079,52.899504],[-2.422096,52.899583],[-2.422102,52.899592],[-2.422115,52.899625],[-2.422161,52.89973],[-2.422175,52.899783],[-2.422188,52.899864],[-2.422211,52.899916],[-2.422218,52.899962],[-2.422226,52.900001],[-2.422227,52.900016],[-2.422224,52.900064],[-2.422224,52.900098],[-2.422229,52.900128],[-2.422239,52.900166],[-2.422249,52.900186],[-2.42228,52.900278],[-2.422274,52.900293],[-2.422276,52.900325],[-2.422311,52.900448],[-2.422371,52.900583],[-2.42242,52.900646],[-2.422488,52.900681],[-2.422571,52.900708],[-2.422713,52.900746],[-2.423034,52.900824],[-2.42324,52.900882],[-2.423351,52.900919],[-2.423592,52.901018],[-2.423816,52.901127],[-2.423955,52.901204],[-2.424054,52.901262],[-2.42414,52.901315],[-2.424221,52.901379],[-2.42426,52.901419],[-2.424307,52.901475],[-2.424355,52.901522],[-2.424411,52.901559],[-2.42449,52.9016],[-2.424615,52.901653],[-2.424896,52.901762],[-2.425141,52.901843],[-2.425249,52.901876],[-2.425463,52.901935],[-2.425619,52.901972],[-2.425698,52.901986],[-2.425906,52.902015],[-2.425994,52.902024],[-2.426757,52.902068],[-2.426872,52.902083],[-2.427117,52.902103],[-2.427339,52.902131],[-2.427327,52.90211],[-2.427436,52.902081]]]]},"properties":{"slot_id":"building_type_9","lineage_id":"building_type_9-20261001T200900Z-newstart","batch_id":"batch-0024","page_generation":1,"source_entity":42235663,"source_reference":"12/151","source_dataset":"listed-building-outline","source_organisation":"Newcastle-under-Lyme Borough Council","building_evidence_status":"BUILDING_PRESENT","parcel_status":"UNPROCESSED","canonical_parcel_id":null,"building_type":"listed_building","building_use":null,"poi_accepted":false,"field_evidence":{"footprint":"official listed-building-outline MULTIPOLYGON","type":"official dataset classification: listed-building-outline","name":"","description":"Country House","reference":"12/151","use":"no use inferred"},"source_url":"https://www.planning.data.gov.uk/entity/42235663","final_url":"https://www.planning.data.gov.uk/entity/42235663","access_utc":"2026-10-05T09:40:54Z","data_date":"2012-08-16","licence":"Open Government Licence v3.0","evidence_slice_sha256":"79cc47b0491eebf00015f9fc1c0c4f95d8d4ab57a1150b81fdb412e96bbf2105","confidence_score_0_100":94,"evidence_grade":"A","fake_data":false,"local_spatial_join_required":true}}]}