{"type":"FeatureCollection","name":"building_type_2_batch_0013","features":[{"type":"Feature","id":"42117539","geometry":{"type":"MultiPolygon","coordinates":[[[[-0.169158,51.555718],[-0.169152,51.555644],[-0.169237,51.555642],[-0.169233,51.555598],[-0.169357,51.555598],[-0.169346,51.555534],[-0.169333,51.555526],[-0.169304,51.555527],[-0.169293,51.555537],[-0.169281,51.555514],[-0.169241,51.555514],[-0.169221,51.555534],[-0.16921,51.555534],[-0.169205,51.555524],[-0.169155,51.555526],[-0.169156,51.555535],[-0.169079,51.555537],[-0.169085,51.555597],[-0.1692,51.555598],[-0.169202,51.555628],[-0.169088,51.555629],[-0.169095,51.555723],[-0.169158,51.555718]]]]},"properties":{"slot_id":"building_type_2","lineage_id":"building_type_2-20260930T173100Z-newstart","batch_id":"batch-0013","page_generation":1,"source_entity":42117539,"source_reference":"LB849","source_dataset":"listed-building-outline","source_organisation":"London Borough of Camden","building_evidence_status":"BUILDING_PRESENT","parcel_status":"UNPROCESSED","canonical_parcel_id":null,"building_type":"listed_building","building_use":null,"poi_accepted":false,"field_evidence":{"footprint":"official listed-building-outline MULTIPOLYGON","type":"official dataset classification: listed-building-outline","reference":"LB849","quality":"authoritative","name":"(South side) Nos.4, 4A, 4B AND 4C"},"source_url":"https://www.planning.data.gov.uk/entity/42117539","final_url":"https://www.planning.data.gov.uk/entity/42117539","access_utc":"2026-10-02T00:43:59Z","data_date":"2025-11-03","licence":"Open Government Licence v3.0","evidence_slice_sha256":"88c3b2f23af23ebff8bdb5b57f1d1d2a11dd67080cd86a6b80b576e4b8c11e44","confidence_score_0_100":96,"evidence_grade":"A","fake_data":false,"local_spatial_join_required":true}}]}