{"type":"FeatureCollection","features":[{"type":"Feature","geometry":{"type":"MultiPolygon","coordinates":[[[[-0.007495,51.558528],[-0.007472,51.558507],[-0.007456,51.558513],[-0.007359,51.558426],[-0.007379,51.558417],[-0.007347,51.558387],[-0.007149,51.558471],[-0.007103,51.558472],[-0.007101,51.558498],[-0.007142,51.558501],[-0.007141,51.558509],[-0.007275,51.558622],[-0.007253,51.558631],[-0.007273,51.55865],[-0.007336,51.558623],[-0.007353,51.558638],[-0.007427,51.558606],[-0.007387,51.55857],[-0.007495,51.558528]]]]},"properties":{"curie":"listed-building-outline:1190991","prefix":"listed-building-outline","reference":"1190991","name":"LEYTON PUBLIC LIBRARY","dataset":"listed-building-outline","organisation-entity":"366","start-date":"1986-08-01","end-date":"","entry-date":"2025-08-26","typology":"geography","point":"POINT (-0.007303 51.558518)","entity":42158654,"quality":null,"listed-building":"1190991"}}],"source_url":"https://www.planning.data.gov.uk/entity/42158654","final_url":"https://www.planning.data.gov.uk/entity/42158654","source_window_id":"PLANNING_DATA_LISTED_BUILDING_OUTLINE_ENTITY_42158654_120","public_no_login":true,"license":"Open Government Licence v3.0","fake_data":false}