{"type":"FeatureCollection","features":[{"type":"Feature","id":"CHERWELL_25_01262_F_DWELLING_01","geometry":null,"properties":{"slot_id":"planned_buildings_4","owner":"planned_buildings_4","lineage_id":"pb4-8debc7c8ddf348a2","page_generation":1,"partition":"layer24","schema":"AAYS_LAYER24_EVIDENCE_V1","semantic_mode":"PLANNED_BUILDINGS_OFFICIAL_REFERENCE_DISTINCT_STRUCTURE","batch_id":"20261004T064147Z-cherwell-25-01262-f-window-001","publisher":"Cherwell District Council","source_family":"CHERWELL_PLANNING_REGISTER","source_url":"https://planningregister.cherwell.gov.uk/Planning/Display/25/01262/F","final_url":"https://planningregister.cherwell.gov.uk/Planning/Display/25/01262/F","access_utc":"2026-10-04T06:41:47Z","data_date":"2025-05-20","license":"Public planning register; document copyright/usage remains governed by council register terms","planning_reference":"25/01262/F","location":"Land Inbetween Rose View And Gold Hill Cottage Main Street Hethe","proposal":"Erection of a new single dwellinghouse","status":"Application Permitted","geometry_status":"NOT_MATERIALIZED_LOCAL_OPENCODE","field_evidence":"Official Cherwell District Council Planning Register application 25/01262/F. Application Type: Full Development. Status: Application Permitted. Valid date: 20/05/2025. Location: Land Inbetween Rose View And Gold Hill Cottage Main Street Hethe. Proposal: Erection of a new single dwellinghouse. Decision: Permitted. Decision Issued Date: 22/08/2025. The same official application window lists Site Location Plan/Site Plan V24 125 Slp01 - A, Proposed Site Layout Plan V24 125 P01 - E, Proposed Plans And Elevations V24 125 P02 - C, Proposed Street Scene V24 125 P03 - B, the Delegated Officer Report, and the Decision Notice. The official proposal and proposed plan/elevation set identify one new single dwellinghouse; no second distinct new structure is counted from this source window. Geometry/materialization is deferred to local OpenCode.","evidence_slice_sha256":"cf47df89331a75bc850c14eeb8724865e47457c405d9bdcd0616af5e641506c0","confidence":0.99,"evidence_grade":"A_OFFICIAL_LOCAL_AUTHORITY_PLANNING_REGISTER_SINGLE_DWELLING_PERMITTED","fake_data":false,"source_record_id":"CHERWELL_25_01262_F_DWELLING_01","planned_building":"single dwellinghouse","official_supporting_document_reference":"V24 125 Slp01 - A; V24 125 P01 - E; V24 125 P02 - C; V24 125 P03 - B; Delegated Officer Report; Decision Notice","official_supporting_document_description":"Site location/site plan; proposed site layout; proposed plans/elevations; proposed street scene; delegated assessment; decision notice"}}]}
