{"type":"FeatureCollection","name":"building_type_2_batch_0050","features":[{"type":"Feature","id":"42175819","geometry":{"type":"MultiPolygon","coordinates":[[[[-2.09285,53.643971],[-2.092865,53.643956],[-2.092883,53.643944],[-2.092912,53.643916],[-2.092968,53.643874],[-2.093046,53.643833],[-2.093152,53.643773],[-2.093177,53.643765],[-2.093053,53.643713],[-2.092999,53.643741],[-2.092886,53.643808],[-2.092759,53.643873],[-2.092638,53.643921],[-2.09285,53.643971]]]]},"properties":{"slot_id":"building_type_2","lineage_id":"building_type_2-20260930T173100Z-newstart","batch_id":"batch-0050","page_generation":1,"source_entity":42175819,"source_reference":"64","source_dataset":"listed-building-outline","source_organisation":"Rochdale Metropolitan Borough Council","building_evidence_status":"BUILDING_PRESENT","parcel_status":"UNPROCESSED","canonical_parcel_id":null,"building_type":"listed_building","building_use":null,"poi_accepted":false,"field_evidence":{"footprint":"official listed-building-outline MULTIPOLYGON","type":"official dataset classification: listed-building-outline","reference":"64","quality":"authoritative","name":"Railway Viaduct, Halifax Rd, Littleborough"},"source_url":"https://www.planning.data.gov.uk/entity/42175819","final_url":"https://www.planning.data.gov.uk/entity/42175819","access_utc":"2026-10-05T15:54:25Z","data_date":"2025-08-28","licence":"Open Government Licence v3.0","evidence_slice_sha256":"0d5124d889d9278193dcd11c487e5f047c8e6ef18db68ffb71225ebae8b1ab27","confidence_score_0_100":96,"evidence_grade":"A","fake_data":false,"local_spatial_join_required":true}}]}