{"type":"FeatureCollection","name":"future_growth_9_batch_86","demo_only":true,"metadata":{"schema_version":3,"slot_id":"future_growth_9","continuation_key":"future_growth_9_open_source_v2_20260813","run_id":"future_growth_9_bounded12_20260818T123800Z","batch_index":86,"feature_count_before":85,"feature_count_added":1,"feature_count_after":86,"source_window":{"dataset":"brownfield-land","window_index":85,"window_size":1,"entity":1712172},"fake_data":false,"final_ready":false,"production_merge":false,"duplicate_count":0,"nearest_match_used":false},"features":[{"type":"Feature","id":"future_growth_9:planning_data_bradford:ne-015a","geometry":{"type":"Point","coordinates":[-1.707281,53.835481]},"properties":{"slot_id":"future_growth_9","source_feature_id":"NE/015A","planning_data_entity":1712172,"source_url":"https://www.planning.data.gov.uk/entity/1712172","source_dataset_url":"https://www.planning.data.gov.uk/dataset/brownfield-land","source_entry_date":"2018-11-01","source_sha256":"247fa2bb5803fb1be35b99e53f316ff7f532434911ef8526dc8cbc363e7f5611","license":"Open Government Licence v3.0","planning_status":"permissioned","future_growth_evidence_type":"direct_project","direct_project_evidence":true,"evidence_summary":"Official current brownfield record states the site has permission for 28 apartments.","matching_method":"direct official brownfield-land reference identity plus published WGS84 point; no nearest matching, no cross-parcel identity inference","accuracy_scale_1_4":4,"future_growth_value":null,"future_growth_probability":null,"hectares":0.25,"fake_data":false,"final_ready":false,"production_merge":false,"demo_only":true,"site_name":"Harrogate Road, Greengates","net_dwellings_range_from":0,"net_dwellings_range_to":0,"planning_permission_date":"2018-02-27","planning_permission_type":"full-planning-permission"}}]}