{
  "type": "FeatureCollection",
  "features": [
    {
      "type": "Feature",
      "geometry": {
        "type": "MultiPolygon",
        "coordinates": [
          [
            [
              [
                -1.136887,
                53.526219
              ],
              [
                -1.136859,
                53.526224
              ],
              [
                -1.136881,
                53.526198
              ],
              [
                -1.136761,
                53.526222
              ],
              [
                -1.136797,
                53.52623
              ],
              [
                -1.136803,
                53.526234
              ],
              [
                -1.136317,
                53.526327
              ],
              [
                -1.136313,
                53.52631
              ],
              [
                -1.136195,
                53.526332
              ],
              [
                -1.136169,
                53.526337
              ],
              [
                -1.13618,
                53.526353
              ],
              [
                -1.135891,
                53.526408
              ],
              [
                -1.135969,
                53.526647
              ],
              [
                -1.136113,
                53.526627
              ],
              [
                -1.136224,
                53.526614
              ],
              [
                -1.136435,
                53.526586
              ],
              [
                -1.136449,
                53.526621
              ],
              [
                -1.136986,
                53.526546
              ],
              [
                -1.136971,
                53.526509
              ],
              [
                -1.137,
                53.526505
              ],
              [
                -1.136996,
                53.526493
              ],
              [
                -1.136997,
                53.526493
              ],
              [
                -1.136887,
                53.526219
              ]
            ]
          ]
        ]
      },
      "properties": {
        "slot_id": "future_growth_3",
        "lineage_id": "future_growth_3-newstart-20261001T203100Z",
        "page_generation": "null",
        "accepted_as_parcel": false,
        "source_area_count_contribution": 1,
        "exact_identifier": "126",
        "secondary_exact_identifier": "entity:1802793",
        "source_entity": "126 - Canal Depot, Grey Friars Road, Doncaster, DN1 1QN",
        "exact_identifier_provided": true,
        "coverage_polygon_provided": true,
        "identifier_namespace": "Planning Data brownfield-site Doncaster reference",
        "source_url": "https://www.planning.data.gov.uk/entity/1802793",
        "final_url": "https://www.planning.data.gov.uk/entity/1802793",
        "access_utc": "2026-10-08T07:32:48Z",
        "data_date": "2025-12-03",
        "license": "Open Government Licence v3.0; © Crown copyright and database right 2026",
        "authority": "Doncaster Metropolitan Borough Council",
        "site_address": "Canal Depot, Grey Friars Road, Doncaster, DN1 1QN",
        "field_evidence": {
          "entry-date": "2025-12-03",
          "start-date": "",
          "end-date": "",
          "entity": 1802793,
          "name": "Canal Depot, Grey Friars Road, Doncaster, DN1 1QN",
          "dataset": "brownfield-site",
          "typology": "geography",
          "reference": "126",
          "prefix": "brownfield-site",
          "organisation-entity": "109",
          "geometry": "MULTIPOLYGON (((-1.136887 53.526219, -1.136859 53.526224, -1.136881 53.526198, -1.136761 53.526222, -1.136797 53.52623, -1.136803 53.526234, -1.136317 53.526327, -1.136313 53.52631, -1.136195 53.526332, -1.136169 53.526337, -1.13618 53.526353, -1.135891 53.526408, -1.135969 53.526647, -1.136113 53.526627, -1.136224 53.526614, -1.136435 53.526586, -1.136449 53.526621, -1.136986 53.526546, -1.136971 53.526509, -1.137 53.526505, -1.136996 53.526493, -1.136997 53.526493, -1.136887 53.526219)))",
          "point": "POINT (-1.136471 53.526449)",
          "quality": "authoritative",
          "brownfield-site": "126",
          "organisation-curie": "local-authority:DNC"
        },
        "source_payload_sha256": "17830d2de3a559ff3cdf52935fcfc691d8415223a8893debc3fa589ea5ba6d0f",
        "source_payload_sha256_basis": "SHA-256 of UTF-8 JSON serialization of official entity fields",
        "evidence_slice_sha256": "7503f3460373c4af2ce12f4bedbbbce6b191bd1f20243be805c3a6835b0a3b91",
        "evidence_grade": "A",
        "confidence_score_0_100": 99,
        "evidence_scope": "official_polygon_from_planning_data_brownfield_site_entity",
        "fake_data": false,
        "spatial_binding_method": "Official Planning Data published WKT MultiPolygon, canonical parcel spatial join delegated to local OpenCode",
        "planned_building_count_contribution": 0
      }
    }
  ]
}
