{"type":"FeatureCollection","features":[{"type":"Feature","geometry":null,"properties":{"slot_id":"future_growth_1","lineage_id":"future_growth_1-newstart-20260927T153100+0300","page_generation":null,"accepted_as_parcel":false,"source_area_count_contribution":1,"exact_identifier":"3092A","exact_identifier_provided":true,"coverage_polygon_provided":false,"identifier_namespace":"North Tyneside Initial Draft Local Plan possible housing site","site_name":"Land at East Wideopen","access_utc":"2026-10-06T17:49:00Z","data_date":"2026-02-25","source_url":"https://haveyoursay.northtyneside.gov.uk/local-plan-webinar-q-a","final_url":"https://haveyoursay.northtyneside.gov.uk/local-plan-webinar-q-a","supporting_documents_url":"https://haveyoursay.northtyneside.gov.uk/local-plan-consultation-feedback/widgets/146537/documents","current_plan_status_url":"https://haveyoursay.northtyneside.gov.uk/publication-draft-local-plan","license":"North Tyneside Council public Local Plan consultation material; page-specific reuse licence not stated on the source pages","authority":"North Tyneside Council","record_class":"possible housing allocation","plan_stage":"Initial Draft Local Plan consultation","consultation_close_date":"2026-02-25","evidence_grade":"A","confidence_score_0_100":98,"evidence_scope":"exact North Tyneside possible housing site 3092A plus council Webinar Q&A and published Initial Draft response-document identifier","evidence_slice_sha256":"262f77794ce0c050db2f960a47fac7d90824444f018515946668cff8d5b098b0","fake_data":false,"spatial_binding_method":"official 3092A allocation identifier plus North Tyneside interactive-map/Q&A evidence; exact boundary resolution, canonical parcel spatial join and materialization delegated to local OpenCode","planned_building_count_contribution":0}}]}