{
  "type": "FeatureCollection",
  "features": [
    {
      "type": "Feature",
      "id": "planning-data:brownfield-site:1800561",
      "properties": {
        "slot_id": "future_growth_4",
        "lineage_id": "fg4-e4c9076d6f554f00",
        "page_generation": 1,
        "owner": "future_growth_4",
        "partition": "future_growth",
        "semantic_mode": "SOURCE_AREA_EXACT_IDENTIFIER",
        "batch_id": "20261009T022408Z_b029_BROWNFIELD_1800561",
        "dataset": "brownfield-site",
        "entity": 1800561,
        "reference": "SD009",
        "semantic_identity": "planning-data:brownfield-site:1800561",
        "name": "169-171 Sydenham Road",
        "organisation": "London Borough of Lewisham",
        "source_url": "https://www.planning.data.gov.uk/entity/1800561",
        "final_url": "https://www.planning.data.gov.uk/entity/1800561",
        "http_status": "NOT_EXPOSED_BY_SEARCH_RETRIEVAL",
        "access_utc": "2026-10-09T02:24:08.758Z",
        "data_date": "2020-12-22",
        "license": "Open Government Licence v3.0",
        "field_evidence": {
          "entry-date": "2020-12-22",
          "start-date": "",
          "end-date": "",
          "entity": 1800561,
          "name": "169-171 Sydenham Road",
          "dataset": "brownfield-site",
          "typology": "geography",
          "reference": "SD009",
          "prefix": "brownfield-site",
          "organisation-entity": "198",
          "geometry": "MULTIPOLYGON (((-0.046458 51.426028, -0.046447 51.425964, -0.046401 51.425777, -0.046278 51.425777, -0.046266 51.42579, -0.046323 51.426033, -0.046458 51.426028)))",
          "point": "POINT (-0.046362 51.425904)",
          "quality": "some",
          "brownfield-site": "SD009",
          "organisation-curie": "local-authority:LEW"
        },
        "evidence_slice_sha256": "d037b5b21dc8df8473f3aab027aa6b982af043403d3de3b3262908f6bebb83d4",
        "geometry_sha256": "5175f15c1703fe500e88420a0dc6b162a3584e9c4fcb9a0ba59b6ac4e2f3e56c",
        "confidence_score_0_100": 80,
        "confidence": 0.8,
        "evidence_grade": "B",
        "exact_identifier_provided": false,
        "coverage_polygon_provided": true,
        "fake_data": false,
        "join_mode": "LOCAL_OPENCODE_SPATIAL_JOIN_PENDING",
        "direct_parcel": false,
        "source_area_count_contribution": 1,
        "planned_building_count_contribution": 0
      },
      "geometry": {
        "type": "MultiPolygon",
        "coordinates": [
          [
            [
              [
                -0.046458,
                51.426028
              ],
              [
                -0.046447,
                51.425964
              ],
              [
                -0.046401,
                51.425777
              ],
              [
                -0.046278,
                51.425777
              ],
              [
                -0.046266,
                51.42579
              ],
              [
                -0.046323,
                51.426033
              ],
              [
                -0.046458,
                51.426028
              ]
            ]
          ]
        ]
      }
    }
  ]
}
