{"type":"FeatureCollection","features":[{"type":"Feature","properties":{"slot_id":"building_type_3","lineage_id":"building_type_3-new-20260927T1328+0300","batch_id":"BT3-P81G61-20261006-PLANNINGDATA-LBO42131712","cursor":"BT3-P81G61-20261006-PLANNINGDATA-LBO42131712-p81","building_state":"BUILDING_PRESENT","source_record_id":"reference=LB_539;outline_entity=42131712","entity":42131712,"reference":"LB_539","name":"CHURCH OF ST PAUL WITH ST STEPHEN","building_type_use":"church","type_use_evidence":"official_name_exact=CHURCH OF ST PAUL WITH ST STEPHEN","dataset":"listed-building-outline","quality":"authoritative","start_date":"1973-09-27","entry_date":"2026-09-22","organisation":"London Borough of Tower Hamlets","source_url":"https://www.planning.data.gov.uk/entity/42131712","final_url":"https://www.planning.data.gov.uk/entity/42131712","source_version":"Planning Data listed-building-outline entity 42131712 reference LB_539; authoritative London Borough of Tower Hamlets record","access_utc":"2026-10-06T02:40:00Z","data_date":"2026-09-22","license":"Open Government Licence v3.0; © Crown copyright and database right 2026","source_file_sha256":"0b82e6269b8ebef2164426bd6ba69476b35a04b8344fda642a8702c8c5a9370c","evidence_slice_sha256":"7e933f147173b5bff99ee641592e58643f112b03ef094b70856b4a8de725544f","field_evidence":["entity","reference","name","quality","dataset","organisation","start-date","entry-date","geometry"],"confidence_score_0_100":99,"evidence_grade":"A_OFFICIAL_GOVERNMENT_BUILDING_OUTLINE_AND_NAMED_TYPE_USE","fake_data":false},"geometry":{"type":"MultiPolygon","coordinates":[[[[-0.032657,51.533192],[-0.032652,51.533171],[-0.032599,51.533095],[-0.032588,51.533097],[-0.032556,51.533087],[-0.032534,51.533057],[-0.032513,51.533051],[-0.032172,51.533146],[-0.032162,51.533131],[-0.032106,51.533147],[-0.032135,51.533198],[-0.032123,51.533197],[-0.032124,51.533203],[-0.032132,51.533206],[-0.03213,51.533227],[-0.032197,51.533321],[-0.032657,51.533192]]]]}}]}
