{"type":"FeatureCollection","name":"future_growth_6","features":[],"properties":{"state":"EXACT_BLOCKER_LOCAL_OPENCODE_READBACK_STILL_NOT_PRESENT","source_area_count":13,"source_area_count_delta":0,"accepted_count":0,"new_source_record_count":0,"materialized_parcel_count":0,"direct_parcel_count":0,"planned_building_count":0,"cursor":"BLOCKER:LOCAL_OPENCODE_READBACK_STILL_NOT_PRESENT:AFTER_SA3:MAIN_4af6ab75","first_missing_criterion":"LOCAL_CANONICAL_PARCEL_IDENTIFIER_BINDING_MATERIALIZATION","blocker_fingerprint":"local-opencode-readback-still-absence-after-sa3-main-4af6ab758193e0ed","checked_main_head":"4af6ab758193e0ed8dbaa0678edafb2d755cb3db","fake_data":false}}
