{"type":"FeatureCollection","features":[{"type":"Feature","geometry":null,"properties":{"slot_id":"future_growth_1","lineage_id":"future_growth_1-newstart-20260927T153100+0300","page_generation":null,"accepted_as_parcel":false,"source_area_count_contribution":1,"exact_identifier":"SHLAA/BUN/001","exact_identifier_provided":true,"coverage_polygon_provided":false,"identifier_namespace":"Rushcliffe SHLAA site reference","site_name":"Bunny Brickworks","parish":"Bunny","site_area_hectares":2.4,"brownfield_or_greenfield":"Brownfield","dwelling_capacity":110,"allocated_site_reference":"Policy 23","planning_reference":"21/02109/OUT","planning_status":"Extant outline planning permission","dwellings_remaining":110,"delivery_horizon":"6-10 years","delivery_units":44,"access_utc":"2026-10-03T21:16:00Z","data_date":"2025-03-31","source_url":"https://www.rushcliffe.gov.uk/about-us/about-the-council/policies-strategies-and-other-documents/accessible-documents/strategic-housing-land-availability-assessment-report-2025/","final_url":"https://www.rushcliffe.gov.uk/about-us/about-the-council/policies-strategies-and-other-documents/accessible-documents/strategic-housing-land-availability-assessment-report-2025/","detail_url":"https://www.rushcliffe.gov.uk/about-us/about-the-council/policies-strategies-and-other-documents/accessible-documents/strategic-housing-land-availability-assessment-report-2025/bunny-housing-land-assessment/","license":"Rushcliffe Borough Council public SHLAA webpages; page-specific reuse licence not stated","authority":"Rushcliffe Borough Council","evidence_grade":"A","confidence_score_0_100":99,"evidence_scope":"exact Rushcliffe SHLAA 2025 site reference plus council-hosted delivery-horizon table and site-specific housing-land assessment","evidence_slice_sha256":"7fae267102b6f2360ff2a9c7bd7b725b0c9af6f0877b2e4655b2c3810f377aeb","fake_data":false,"spatial_binding_method":"official Rushcliffe SHLAA/BUN/001 exact identifier; exact boundary resolution, canonical parcel spatial join and materialization delegated to local OpenCode","planned_building_count_contribution":0}}]}