{"type":"FeatureCollection","features":[{"type":"Feature","geometry":null,"properties":{"slot_id":"planned_buildings_1","lineage_id":"planned_buildings_1-0ffc4ebd6c6e4e41","semantic_mode":"DISTINCT_BUILDINGS","planned_building_id":"planning-application:RB2026/0053::SELF_BUILD_RESIDENTIAL_DWELLING","building_status":"PLANNED","building_name":"Self build residential dwelling, land rear of 4 Penny Piece Place","planning_reference":"RB2026/0053","authority":"Rotherham Metropolitan Borough Council","source_url":"https://planning.rotherham.gov.uk/detail.asp?AltRef=RB2026%2F0053","final_url":"https://planning.rotherham.gov.uk/detail.asp?AltRef=RB2026%2F0053","access_utc":"2026-10-06T04:03:00Z","source_data_date":"2026-04-22","license":"Open Government Licence v3.0","geometry_role":"official planning detail page exposes no machine-readable point or building footprint; geometry null; no geometry inferred","field_evidence":"Official planning detail explicitly records erection of a self build residential dwelling; decision GRANTED CONDITIONALLY dated 22/04/2026.","identity_limitation":"Exactly one self build residential dwelling is counted.","confidence_score_0_100":95,"evidence_grade":"A","fake_data":false}}]}
