{
  "features": [],
  "name": "security_public_safety_3",
  "properties": {
    "accepted_count": 0,
    "batch_id": "20261003T030334Z-ons-pfa2025-names-codes-csv-convertingdata",
    "fake_data": false,
    "lineage_id": "L24-SPS3-57442c9c2a0f429be2d2",
    "page_generation": 1,
    "partition": {
      "start": 61523,
      "end": 92283,
      "count": 30761
    },
    "schema": "AAYS_LAYER24_EVIDENCE_V1",
    "slot_id": "security_public_safety_3",
    "source_area_count": 0
  },
  "type": "FeatureCollection"
}
