{"type":"FeatureCollection","name":"building_type_2_batch_0049","features":[{"type":"Feature","id":"42162485","geometry":{"type":"MultiPolygon","coordinates":[[[[-1.132284,52.634585],[-1.132252,52.634592],[-1.132261,52.634606],[-1.132239,52.634612],[-1.132269,52.634651],[-1.132417,52.634613],[-1.132371,52.634563],[-1.132284,52.634585]]]]},"properties":{"slot_id":"building_type_2","lineage_id":"building_type_2-20260930T173100Z-newstart","batch_id":"batch-0049","page_generation":1,"source_entity":42162485,"source_reference":"DLC238_v1","source_dataset":"listed-building-outline","source_organisation":"Leicester City Council","building_evidence_status":"BUILDING_PRESENT","parcel_status":"UNPROCESSED","canonical_parcel_id":null,"building_type":"listed_building","building_use":null,"poi_accepted":false,"field_evidence":{"footprint":"official listed-building-outline MULTIPOLYGON","type":"official dataset classification: listed-building-outline","reference":"DLC238_v1","quality":"authoritative","name":"47, MARKET PLACE, LEICESTER"},"source_url":"https://www.planning.data.gov.uk/entity/42162485","final_url":"https://www.planning.data.gov.uk/entity/42162485","access_utc":"2026-10-04T07:09:36Z","data_date":"1975-03-14","licence":"Open Government Licence v3.0","evidence_slice_sha256":"16e919b39e2827b84a2599db59a576c01fadebe94b219bee46527a07e386b136","confidence_score_0_100":96,"evidence_grade":"A","fake_data":false,"local_spatial_join_required":true}}]}