{"type":"FeatureCollection","features":[{"type":"Feature","id":"gla-site-allocations:site-allocations-2jxpm","geometry":null,"properties":{"slot_id":"future_growth_4","lineage_id":"fg4-e4c9076d6f554f00","page_generation":1,"owner":"future_growth_4","partition":"future_growth","semantic_mode":"SOURCE_AREA_EXACT_IDENTIFIER","dataset":"gla-site-allocations-2jxpm","entity":"site-allocations-2jxpm","reference":"site-allocations-2jxpm","quality":"authoritative","organisation":"Greater London Authority","name":"Site Allocations","source_url":"https://data.london.gov.uk/dataset/site-allocations-2jxpm","final_url":"https://data.london.gov.uk/dataset/site-allocations-2jxpm","access_utc":"2026-10-02T03:42:27Z","data_date":"","license":"Open Government Licence v3","field_evidence":{"reference":"site-allocations-2jxpm","dataset_name":"Site Allocations","publisher":"Greater London Authority","maintainer":"GLA Planning","resource_label":"Site Allocations (5.11 MB)","resource_format":"geopackage (gpkg)","projection":"EPSG:27700, British National Grid","smallest_geography":"Custom Polygons","publisher_last_update_display":"8 months ago","source_description":"Sites allocated for particular development or use within a development plan; GIS files show indicative boundaries."},"evidence_slice_sha256":"3e767bf2eb020c6c084d9b7d7e3392769b179dfa5b9d6282267dff9ed013aa98","confidence_score_0_100":99,"confidence":0.99,"evidence_grade":"A","exact_identifier_provided":true,"coverage_polygon_provided":false,"coverage_geometry_available":true,"coverage_geometry_type":"Custom Polygons","coverage_geometry_format":"GPKG","coverage_geometry_projection":"EPSG:27700","fake_data":false,"join_mode":"LOCAL_OPENCODE_SPATIAL_JOIN_PENDING","direct_parcel":false,"source_area_count_contribution":1,"planned_building_count_contribution":0}}]}