{"type":"FeatureCollection","name":"height_difference_2","features":[],"metadata":{"slot_id":"height_difference_2","lineage_id":"height_difference_2_20260930T001051Z","page_generation":1,"partition":"source_area","schema":"AAYS_LAYER24_EVIDENCE_V1","fake_data":false,"owner":"cagdas aydin","batch_id":"batch_0079_post_batch0078_lineage_conflict_dependency_audit_blocker_20261006T005600+0300","cursor":"BLOCKED_POST_BATCH_0078_LINEAGE_ORDER_CONFLICT_NO_HD2_CANONICAL_OR_TILE_BINDING","source_area_count":0,"accepted_count":0,"unmatched_count":1,"scan_head_sha":"9b20c8c2e9b6db8836c8c1e839bd15d32cb5509c","reason":"EXACT_BLOCKER: after repeated zero-acceptance rounds, the method was materially changed from a current-head dependency-delta audit to a lineage-order conflict plus dependency/path audit from immutable batch_0078 commit 9ad0f86fe0337e614e83986a46d54317bb154bb7 through main head 9b20c8c2e9b6db8836c8c1e839bd15d32cb5509c. The 48 intervening commits do not add a valid newer-sequence height_difference_2 continuation, slot-bound non-null canonical_parcel_id materialization, parcel geometry/bbox binding, or exact official DEM/LIDAR tile selector. A post-batch_0078 write under an older batch_0045 NHLE record-map cache-miss path is a stale lower-sequence lineage artifact and is not adopted as the current continuation. The family start criterion therefore remains unsatisfied; no external DEM/LIDAR window was opened. Local OpenCode must publish a non-null height_difference_2 canonical_parcel_id with BUILDING_PRESENT plus parcel geometry/bbox or an exact official DEM/LIDAR tile selector."}}
