{"type":"FeatureCollection","features":[{"type":"Feature","id":"CHERWELL_24_01215_F_ANCILLARY_OUTBUILDING_01","geometry":null,"properties":{"slot_id":"planned_buildings_4","owner":"planned_buildings_4","lineage_id":"pb4-8debc7c8ddf348a2","page_generation":1,"partition":"layer24","schema":"AAYS_LAYER24_EVIDENCE_V1","semantic_mode":"PLANNED_BUILDINGS_OFFICIAL_REFERENCE_DISTINCT_STRUCTURE","batch_id":"20261004T060509Z-cherwell-24-01215-f-window-001","publisher":"Cherwell District Council","source_family":"CHERWELL_PLANNING_REGISTER","source_url":"https://planningregister.cherwell.gov.uk/Planning/Display/24/01215/F","final_url":"https://planningregister.cherwell.gov.uk/Planning/Display/24/01215/F","access_utc":"2026-10-04T06:05:09Z","data_date":"2024-05-14","license":"Public planning register; document copyright/usage remains governed by council register terms","planning_reference":"24/01215/F","location":"127 Warwick Road Banbury OX16 2AR","proposal":"Erection of outbuilding to provide ancillary accommodation","status":"Application Permitted","geometry_status":"NOT_MATERIALIZED_LOCAL_OPENCODE","field_evidence":"Official Cherwell District Council Planning Register application 24/01215/F. Application Type: Full Development. Status: Application Permitted. Valid date: 14/05/2024. Location: 127 Warwick Road Banbury OX16 2AR. Proposal: Erection of outbuilding to provide ancillary accommodation. Decision: Permitted. Decision Issued Date: 23/08/2024. The same official application window lists Site Plan drawing 24 016 001 (Location Plan/existing block), the Delegated Officer Report, and the Decision Notice. The official proposal and delegated report each identify a single new outbuilding providing ancillary accommodation; no second distinct new structure is stated in this source window. Geometry/materialization is deferred to local OpenCode.","evidence_slice_sha256":"d15b8d4aece0ac40be975c967bf15c62abab75fba7062bed87a5b38ab29e9cc7","confidence":0.99,"evidence_grade":"A_OFFICIAL_LOCAL_AUTHORITY_PLANNING_REGISTER_SINGLE_ANCILLARY_OUTBUILDING_PERMITTED","fake_data":false,"source_record_id":"CHERWELL_24_01215_F_ANCILLARY_OUTBUILDING_01","planned_building":"ancillary-accommodation outbuilding","official_supporting_document_reference":"24 016 001; Delegated Officer Report; Decision Notice","official_supporting_document_description":"Location Plan/existing block; delegated assessment; decision notice"}}]}
