{"type":"FeatureCollection","features":[{"type":"Feature","geometry":null,"properties":{"slot_id":"future_growth_1","lineage_id":"future_growth_1-newstart-20260927T153100+0300","page_generation":null,"accepted_as_parcel":false,"source_area_count_contribution":1,"exact_identifier":"NOR1","exact_identifier_provided":true,"coverage_polygon_provided":false,"identifier_namespace":"Hambleton Local Plan site allocation reference","site_name":"Winton Road, Northallerton","access_utc":"2026-10-07T00:02:00Z","data_date":"2025-03-31","source_url":"https://www.northyorks.gov.uk/sites/default/files/2025-10/Appendix%20B%20-%20AMR%20for%20the%20Hambleton%20Local%20Plan%20Area%202024%2025.pdf","final_url":"https://www.northyorks.gov.uk/sites/default/files/2025-10/Appendix%20B%20-%20AMR%20for%20the%20Hambleton%20Local%20Plan%20Area%202024%2025.pdf","policy_url":"https://www.northyorks.gov.uk/sites/default/files/2024-01/Hambleton%20Local%20Plan%20with%20updated%20links%20July%202023%20-%20accessible.pdf","gis_url":"https://map-services.hambleton.gov.uk/arcgis/rest/services/Portal/PlanningPolicy/MapServer/2","license":"North Yorkshire Council public planning-policy and monitoring documents; layer-specific GIS reuse licence not stated on the public service metadata","authority":"North Yorkshire Council","site_area_hectares":31.4,"approx_homes_net":485,"gross_homes":650,"monitoring_potential_capacity":650,"monitoring_completions":0,"monitoring_status":"Outline / Phase 1 - Reserved Matters","application_numbers":["20/01687/OUT","ZB24/01785/REM"],"gis_layer_id":2,"gis_layer_name":"Housing Allocations","gis_geometry_type":"esriGeometryPolygon","gis_spatial_reference_epsg":27700,"evidence_grade":"A","confidence_score_0_100":99,"evidence_scope":"exact Hambleton Local Plan allocation NOR1 plus North Yorkshire Council 2024-25 monitoring row and authority-hosted Housing Allocations polygon layer 2","evidence_slice_sha256":"fa821fa0fee8dada798b656510179eab5eda01468e40f26cff280ada5651c8bb","fake_data":false,"spatial_binding_method":"official NOR1 allocation identifier plus authority-hosted Housing Allocations polygon MapServer layer 2; exact feature retrieval, canonical parcel spatial join and materialization delegated to local OpenCode","planned_building_count_contribution":0}}]}