{"type":"FeatureCollection","name":"building_type_2_batch_0043","features":[{"type":"Feature","id":"42129327","geometry":{"type":"MultiPolygon","coordinates":[[[[-2.758343,51.421137],[-2.758356,51.421157],[-2.75832,51.42117],[-2.758358,51.421216],[-2.758651,51.421121],[-2.758585,51.421043],[-2.758403,51.421102],[-2.758409,51.421115],[-2.758343,51.421137]]]]},"properties":{"slot_id":"building_type_2","lineage_id":"building_type_2-20260930T173100Z-newstart","batch_id":"batch-0043","page_generation":1,"source_entity":42129327,"source_reference":"LSB619","source_dataset":"listed-building-outline","source_organisation":"North Somerset Council","building_evidence_status":"BUILDING_PRESENT","parcel_status":"UNPROCESSED","canonical_parcel_id":null,"building_type":"listed_building","building_use":null,"poi_accepted":false,"field_evidence":{"footprint":"official listed-building-outline MULTIPOLYGON","type":"official dataset classification: listed-building-outline","reference":"LSB619","quality":"authoritative","name":"Coombe Grange"},"source_url":"https://www.planning.data.gov.uk/entity/42129327","final_url":"https://www.planning.data.gov.uk/entity/42129327","access_utc":"2026-10-04T02:23:21Z","data_date":"2026-04-24","licence":"Open Government Licence v3.0","evidence_slice_sha256":"da647addcafd4d64b99104502a8697468b4dfd742de3fd875d71c4db7a50e0d7","confidence_score_0_100":96,"evidence_grade":"A","fake_data":false,"local_spatial_join_required":true}}]}