{"type":"FeatureCollection","features":[{"type":"Feature","id":"CHERWELL_23_00528_F_REPLACEMENT_BRICK_OUTBUILDING_01","geometry":null,"properties":{"slot_id":"planned_buildings_4","owner":"planned_buildings_4","lineage_id":"pb4-8debc7c8ddf348a2","page_generation":1,"partition":"layer24","schema":"AAYS_LAYER24_EVIDENCE_V1","semantic_mode":"PLANNED_BUILDINGS_OFFICIAL_REFERENCE_DISTINCT_STRUCTURE","batch_id":"20261003T130820Z-cherwell-23-00528-f-window-001","publisher":"Cherwell District Council","source_family":"CHERWELL_PLANNING_REGISTER","source_url":"https://planningregister.cherwell.gov.uk/Planning/Display/23/00528/F","final_url":"https://planningregister.cherwell.gov.uk/Planning/Display/23/00528/F","access_utc":"2026-10-03T13:08:20Z","data_date":"2023-03-01","license":"Public planning register; document copyright/usage remains governed by council register terms","planning_reference":"23/00528/F","location":"Poplars Cottage The Paddocks Mollington Oxfordshire OX17 1BW","proposal":"Demolish existing modern conservatory; erection of kitchen extension in place of conservatory; replace brick outbuilding; and replace garage","status":"Application Permitted","geometry_status":"NOT_MATERIALIZED_LOCAL_OPENCODE","field_evidence":"Official Cherwell District Council Planning Register application 23/00528/F. Application Type: Full Development. Status: Application Permitted. Valid date: 01/03/2023. Location: Poplars Cottage The Paddocks Mollington Oxfordshire OX17 1BW. Proposal: Demolish existing modern conservatory; erection of kitchen extension in place of conservatory; replace brick outbuilding; and replace garage. Decision: Permitted. Decision Issued Date: 30/06/2023. Official documents include Proposed Site Layout drawing WG1280 006-A, Proposed Garage Details drawing WG1280 010-A, and Proposed Outbuilding Elevations drawing WG1280 009-A. The official proposal explicitly identifies two distinct replacement structures: a brick outbuilding and a garage; the kitchen extension is an extension to the existing dwelling and is not counted as a distinct structure. The dedicated proposed garage and outbuilding drawings independently support the two structure identities. Geometry/materialization is deferred to local OpenCode.","evidence_slice_sha256":"e252f1cda0f99410e2f0498f4d77961723b85a5448c1dc4044d1d8150a2f30c2","confidence":0.99,"evidence_grade":"A_OFFICIAL_LOCAL_AUTHORITY_PLANNING_REGISTER_REPLACEMENT_OUTBUILDING_AND_GARAGE_PERMITTED","fake_data":false,"source_record_id":"CHERWELL_23_00528_F_REPLACEMENT_BRICK_OUTBUILDING_01","planned_building":"replacement brick outbuilding","official_plan_reference":"Wg1280 009 - A","official_plan_description":"Proposed outbuilding elevations"}},{"type":"Feature","id":"CHERWELL_23_00528_F_REPLACEMENT_GARAGE_02","geometry":null,"properties":{"slot_id":"planned_buildings_4","owner":"planned_buildings_4","lineage_id":"pb4-8debc7c8ddf348a2","page_generation":1,"partition":"layer24","schema":"AAYS_LAYER24_EVIDENCE_V1","semantic_mode":"PLANNED_BUILDINGS_OFFICIAL_REFERENCE_DISTINCT_STRUCTURE","batch_id":"20261003T130820Z-cherwell-23-00528-f-window-001","publisher":"Cherwell District Council","source_family":"CHERWELL_PLANNING_REGISTER","source_url":"https://planningregister.cherwell.gov.uk/Planning/Display/23/00528/F","final_url":"https://planningregister.cherwell.gov.uk/Planning/Display/23/00528/F","access_utc":"2026-10-03T13:08:20Z","data_date":"2023-03-01","license":"Public planning register; document copyright/usage remains governed by council register terms","planning_reference":"23/00528/F","location":"Poplars Cottage The Paddocks Mollington Oxfordshire OX17 1BW","proposal":"Demolish existing modern conservatory; erection of kitchen extension in place of conservatory; replace brick outbuilding; and replace garage","status":"Application Permitted","geometry_status":"NOT_MATERIALIZED_LOCAL_OPENCODE","field_evidence":"Official Cherwell District Council Planning Register application 23/00528/F. Application Type: Full Development. Status: Application Permitted. Valid date: 01/03/2023. Location: Poplars Cottage The Paddocks Mollington Oxfordshire OX17 1BW. Proposal: Demolish existing modern conservatory; erection of kitchen extension in place of conservatory; replace brick outbuilding; and replace garage. Decision: Permitted. Decision Issued Date: 30/06/2023. Official documents include Proposed Site Layout drawing WG1280 006-A, Proposed Garage Details drawing WG1280 010-A, and Proposed Outbuilding Elevations drawing WG1280 009-A. The official proposal explicitly identifies two distinct replacement structures: a brick outbuilding and a garage; the kitchen extension is an extension to the existing dwelling and is not counted as a distinct structure. The dedicated proposed garage and outbuilding drawings independently support the two structure identities. Geometry/materialization is deferred to local OpenCode.","evidence_slice_sha256":"e252f1cda0f99410e2f0498f4d77961723b85a5448c1dc4044d1d8150a2f30c2","confidence":0.99,"evidence_grade":"A_OFFICIAL_LOCAL_AUTHORITY_PLANNING_REGISTER_REPLACEMENT_OUTBUILDING_AND_GARAGE_PERMITTED","fake_data":false,"source_record_id":"CHERWELL_23_00528_F_REPLACEMENT_GARAGE_02","planned_building":"replacement garage","official_plan_reference":"Wg1280 010 - A","official_plan_description":"Proposed garage elevations/floor plans"}}]}
