{
  "type": "FeatureCollection",
  "features": [
    {
      "type": "Feature",
      "id": "rbkc-ward-profile:Campdendata.pdf",
      "geometry": null,
      "properties": {
        "evidence_scope": "coverage_area",
        "coverage_area_id": "rbkc:ward-profile:Campdendata.pdf",
        "coverage_area_name": "Campden",
        "identifier_scheme": "RBKC_OFFICIAL_WARD_PROFILE_DOCUMENT",
        "exact_official_identifier": "Campdendata.pdf",
        "source_resolution": "RBKC_OFFICIAL_CAMPDEN_WARD_PROFILE",
        "time_window": "ONS_2014_PROFILE",
        "measurement_date": "2014",
        "measurement_method": "official RBKC Campden Ward Profile exact-document evidence",
        "spatial_binding_method": "DEFERRED_TO_LOCAL_OPENCODE",
        "source_url": "https://www.rbkc.gov.uk/sites/default/files/pdfs/Campdendata.pdf",
        "final_url": "https://www.rbkc.gov.uk/sites/default/files/pdfs/Campdendata.pdf",
        "accessed_at_utc": "2026-10-02T12:21:00Z",
        "data_date": "2014",
        "licence": "Crown copyright and database rights 2012 Ordnance Survey 100021668",
        "sha256": "fedcb068f69836d378c9a2a97107febb632da65186a58b51eb19949cf892a795",
        "field_evidence": {
          "document_name": "Campdendata.pdf",
          "document_title": "Campden Ward Profile",
          "publisher": "Royal Borough of Kensington and Chelsea",
          "source_label": "ONS 2014",
          "exact_area_name": "Campden ward",
          "boundary_note": "In 2014, each ward in Kensington and Chelsea had changes made to its ward boundaries.",
          "geography_method": "Output Areas allocated using a best fit model as building blocks for the new wards",
          "copyright_notice": "Crown copyright and database rights 2012 Ordnance Survey 100021668",
          "source_url": "https://www.rbkc.gov.uk/sites/default/files/pdfs/Campdendata.pdf",
          "accessed_at_utc": "2026-10-02T12:21:00Z"
        },
        "evidence_slice_sha256": "ba249d0a85d23c1017452a3e93a89af8ad1f7c819bb566df0f97f361a5aff62c",
        "confidence_score_0_100": 99,
        "evidence_grade": "A",
        "fake_data": false,
        "source_window_id": "rbkc_campden_ward_profile_2014_sps5_20261002_v1",
        "cursor": "rbkc_campden_ward_profile_2014_sps5_20261002_v1:record=1"
      }
    }
  ]
}
