{"type":"FeatureCollection","features":[],"metadata":{"slot_id":"planned_buildings_1","batch_index":1,"source_family":"planning_data_brownfield_land","source_window":{"geometry_entity":626195,"geometry_relation":"within","limit":1,"offset":60},"source_reference_hint":"BLR062","source_evidence_status":"LAMBETH_REFERENCE_CONFIRMED_EXACT_ENTITY_POINT_NOT_RESOLVED","feature_count_before":99,"feature_count_after":99,"unique_real_site_project_before":50,"unique_real_site_project_after":50,"new_feature_count":0,"duplicate_count_new":0,"nearest_match_used":false,"fake_data":false,"mirror_only":true}}