{"features":[{"geometry":null,"id":"cheshire:chester:tattenhall-and-malpas:crime-map:000","properties":{"accepted_as_parcel":false,"access_utc":"2026-10-05T08:35:00Z","approximate_location":"Ashford Close","canonical_binding":"LOCAL_OPENCODE_PENDING_NOT_CLAIMED","confidence_score_0_100":100,"data_date":"official page access snapshot","direct_parcel":false,"duplicate":false,"evidence_grade":"A_OFFICIAL_FORCE_WEBSITE_ANONYMISED_CRIME_MAP_ROW","fake_data":false,"force_id":"cheshire","identifier":"cheshire:chester:tattenhall-and-malpas:crime-map:000","identifier_field":"source_index","identifier_version":"Cheshire Constabulary Tattenhall and Malpas crime-map row index","instances":3,"parent_area":"Chester","record_type":"SOURCE_AREA_ANONYMISED_CRIME_MAP_ROW","source_area_counted":true,"source_url":"https://www.cheshire.police.uk/area/your-area/cheshire/chester/tattenhall-and-malpas/about-us/crime-map","team":"Tattenhall and Malpas"},"type":"Feature"}],"name":"security_public_safety_3","properties":{"accepted_count":0,"batch_id":"20261005T083500Z-cheshire-tattenhall-malpas-crime-map-000","fake_data":false,"lineage_id":"L24-SPS3-57442c9c2a0f429be2d2","page_generation":1,"partition":{"count":30761,"end":92283,"start":61523},"schema":"AAYS_LAYER24_EVIDENCE_V1","slot_id":"security_public_safety_3","source_area_count":1},"type":"FeatureCollection"}
