{"type":"FeatureCollection","features":[{"type":"Feature","geometry":null,"properties":{"slot_id":"future_growth_1","lineage_id":"future_growth_1-newstart-20260927T153100+0300","page_generation":null,"accepted_as_parcel":false,"source_area_count_contribution":1,"exact_identifier":"planning_local_plan_data_25:28","exact_identifier_provided":true,"coverage_polygon_provided":false,"identifier_namespace":"ArcGIS FeatureServer service/layer","site_name":"Housing Allocations","access_utc":"2026-10-06T06:05:00Z","data_date":"2018-12-10","source_url":"https://services.arcgis.com/drifeOPKLpgnJ8Qa/arcgis/rest/services/planning_local_plan_data_25/FeatureServer","final_url":"https://services.arcgis.com/drifeOPKLpgnJ8Qa/arcgis/rest/services/planning_local_plan_data_25/FeatureServer/28","council_policy_url":"https://www.newham.gov.uk/planning-development-conservation/planning-policy-local-plan/2","license":"Publicly accessible Newham Council Local Plan and ArcGIS FeatureServer; layer-specific reuse licence is not stated in the public service metadata.","authority":"London Borough of Newham","feature_service_item_id":"1fd55b3c3ee943be874ea4927638c814","feature_service_layer_id":28,"feature_service_layer_name":"Housing Allocations","feature_service_spatial_reference_epsg":27700,"evidence_grade":"A","confidence_score_0_100":99,"evidence_scope":"Newham adopted Local Plan 2018 plus public Newham planning FeatureServer Housing Allocations layer 28","evidence_slice_sha256":"0854adfbe63b89c58ebaafcaad55e275d3f5d69347c2fe3de917a5006e2d21dc","fake_data":false,"spatial_binding_method":"official FeatureServer service/layer identifier; feature geometry retrieval, canonical parcel spatial join and materialization delegated to local OpenCode","planned_building_count_contribution":0}}]}