{"type":"FeatureCollection","features":[{"type":"Feature","geometry":null,"properties":{"slot_id":"future_growth_3","lineage_id":"future_growth_3-newstart-20261001T203100Z","page_generation":null,"accepted_as_parcel":false,"source_area_count_contribution":1,"exact_identifier":"1","exact_identifier_provided":true,"coverage_polygon_provided":false,"identifier_namespace":"OPDC Local Plan 2022 Site Allocation number","secondary_exact_identifier":"Old Oak Common Station Adjacent Station Development","source_entity":25,"access_utc":"2026-10-02T01:07:09Z","data_date":"2022-06-22","source_url":"https://data.london.gov.uk/dataset/opdc-local-plan-policies-map-e160d","final_url":"https://gis.london.gov.uk/arcgis/rest/services/apps/OPDC_public_policies_map/FeatureServer/25","license":"Ordnance Survey 'presumption to publish'; Contains OS data © Crown copyright and database rights 2022","authority":"Old Oak and Park Royal Development Corporation / Greater London Authority","site_address":"Old Oak Common Station Adjacent Station Development","field_evidence":{"reference":"1","dataset":"OPDC Local Plan Policies Map","organisation":"Old Oak and Park Royal Development Corporation / Greater London Authority","adoption_date":"2022-06-22","site_name":"Old Oak Common Station Adjacent Station Development","site_allocation_count":42,"feature_layer_id":25,"geometry_type":"esriGeometryPolygon","supported_query_formats":["JSON","geoJSON","PBF"],"official_identifier_field":"site_reference","official_name_field":"site_name","data_service":"https://gis.london.gov.uk/arcgis/rest/services/apps/OPDC_public_policies_map/FeatureServer/25","publication_note":"Policies Map illustrates geographically all site-specific policies set out in OPDC's Local Plan as adopted in June 2022"},"source_payload_sha256":"3c713ceb7ea75b4d7f13fc6094c7317407172262d64624896f2b668b61bfebbe","source_payload_sha256_basis":"canonicalized official OPDC/GLA adopted Local Plan Policies Map and Site Allocations polygon-layer metadata","evidence_slice_sha256":"46166464275d3837e6c5a1c2aefa5e59513a688f12152fffec043f292d517583","evidence_grade":"A","confidence_score_0_100":99,"evidence_scope":"exact_official_identifier_on_authoritative_polygon_service","fake_data":false,"spatial_binding_method":"official adopted Site Allocation number 1 on OPDC/GLA Site Allocations polygon service; source polygon resolution, canonical parcel spatial join and materialization delegated to local OpenCode","planned_building_count_contribution":0}}]}