{"type":"FeatureCollection","features":[{"type":"Feature","id":"CHERWELL_24_00574_F_GARAGE_01","geometry":null,"properties":{"slot_id":"planned_buildings_4","owner":"planned_buildings_4","lineage_id":"pb4-8debc7c8ddf348a2","page_generation":1,"partition":"layer24","schema":"AAYS_LAYER24_EVIDENCE_V1","semantic_mode":"PLANNED_BUILDINGS_OFFICIAL_REFERENCE_DISTINCT_STRUCTURE","batch_id":"20261003T230409Z-cherwell-24-00574-f-window-001","publisher":"Cherwell District Council","source_family":"CHERWELL_PLANNING_REGISTER","source_url":"https://planningregister.cherwell.gov.uk/Planning/Display/24/00574/F","final_url":"https://planningregister.cherwell.gov.uk/Planning/Display/24/00574/F","access_utc":"2026-10-03T23:04:09Z","data_date":"2024-03-01","license":"Public planning register; document copyright/usage remains governed by council register terms","planning_reference":"24/00574/F","location":"23 Launton Road Bicester OX26 6PY","proposal":"Proposed garage to the side, garage conversion (with replacement pitched roof) and single storey rear extension (renewal of 21/00960/F)","status":"Application Permitted","decision":"Permitted","decision_issued_date":"25/04/2024","geometry_status":"NOT_MATERIALIZED_LOCAL_OPENCODE","field_evidence":"Official Cherwell District Council Planning Register application 24/00574/F. Application Type: Full Development. Status: Application Permitted. Valid date: 01/03/2024. Location: 23 Launton Road Bicester OX26 6PY. Proposal: Proposed garage to the side, garage conversion (with replacement pitched roof) and single storey rear extension (renewal of 21/00960/F). Decision: Permitted. Decision Issued Date: 25/04/2024. Official documents include Location & Block Plan drawing S.927/00; Proposed Ground Floor Plan drawing S.927/07 revision a; and Proposed Elevations drawing S.927/09 revision a. The official proposal explicitly identifies a new side garage. The garage conversion and single-storey rear extension are works to existing structures and are not counted as additional distinct new structures. The proposed plan/elevation set supports the same single new garage. Geometry/materialization is deferred to local OpenCode.","evidence_slice_sha256":"80c27e9fe94a9d95b1d82d7130c1724b53c5aeea7d28d634a84ac32a970fcdc9","confidence":0.99,"evidence_grade":"A_OFFICIAL_LOCAL_AUTHORITY_PLANNING_REGISTER_DISTINCT_NEW_SIDE_GARAGE_PERMITTED","fake_data":false,"source_record_id":"CHERWELL_24_00574_F_GARAGE_01","planned_building":"side garage","official_plan_reference":"S.927/00; S.927/07-a; S.927/09-a","official_plan_description":"Location & Block Plan; Proposed Ground Floor Plan; Proposed Elevations"}}]}
