{"type":"FeatureCollection","features":[{"type":"Feature","geometry":null,"properties":{"slot_id":"future_growth_1","lineage_id":"future_growth_1-newstart-20260927T153100+0300","page_generation":null,"accepted_as_parcel":false,"source_area_count_contribution":1,"exact_identifier":"CW1a","exact_identifier_provided":true,"coverage_polygon_provided":false,"identifier_namespace":"Chelmsford Local Plan Strategic Growth Site Policy 1a allocation","site_name":"Former Gas Works Wharf Road Chelmsford","access_utc":"2026-10-04T03:08:00Z","data_date":"2026-07-29","source_url":"https://r.chelmsford.gov.uk/ccc/rest/services/Planning/LocalPlan2020Housing/FeatureServer/0","final_url":"https://r.chelmsford.gov.uk/ccc/rest/services/Planning/LocalPlan2020Housing/FeatureServer/0","brownfield_register_url":"https://www.chelmsford.gov.uk/planning-and-building-control/planning-policy-and-local-plan/brownfield-register/","housing_schedule_url":"https://www.chelmsford.gov.uk/media/rvzprxrg/five-year-housing-site-schedule-august-2025.pdf","local_plan_url":"https://www.chelmsford.gov.uk/media/ls2b1xbo/chelmsford-local-plan-2020.pdf","license":"Open Government Licence for the Council brownfield register data; layer-specific GIS reuse licence not stated on the public FeatureServer page","authority":"Chelmsford City Council","feature_service_layer_id":0,"housing_schedule_capacity":450,"housing_schedule_planning_status":"No application","adopted_local_plan_capacity":"around 250 homes","brownfield_register_last_updated":"2026-07-29","evidence_grade":"A","confidence_score_0_100":99,"evidence_scope":"exact Chelmsford CW1a allocation plus authority-hosted LocalPlan2020Housing GIS layer 0, current 2026 brownfield register and 2025 housing-site monitoring schedule","evidence_slice_sha256":"c1acf155f35efd20df3ba9ef94bc03eda0d92711fcaa842dec5cdb8ba98dc688","fake_data":false,"spatial_binding_method":"official dedicated CW1a allocation GIS layer plus current register/monitoring identity; exact polygon extraction, canonical parcel spatial join and materialization delegated to local OpenCode","planned_building_count_contribution":0}}]}