{"type":"FeatureCollection","features":[{"type":"Feature","id":"PLANNINGDATA_LBO_42150131","geometry":{"type":"MultiPolygon","coordinates":[[[[-2.275761,53.472222],[-2.275731,53.472262],[-2.275707,53.472257],[-2.275701,53.472271],[-2.275723,53.472275],[-2.275694,53.472331],[-2.275671,53.472327],[-2.275665,53.472338],[-2.275688,53.472343],[-2.275679,53.472357],[-2.275703,53.472362],[-2.27571,53.472347],[-2.275755,53.472355],[-2.27575,53.472366],[-2.275774,53.472371],[-2.275753,53.472413],[-2.275742,53.472412],[-2.275743,53.472429],[-2.275758,53.472426],[-2.27584,53.472447],[-2.275858,53.472433],[-2.275848,53.472432],[-2.275855,53.472418],[-2.275984,53.472442],[-2.275978,53.472452],[-2.275998,53.472455],[-2.276003,53.472445],[-2.276132,53.472469],[-2.276127,53.472479],[-2.276148,53.472483],[-2.276154,53.472473],[-2.27621,53.472487],[-2.276232,53.472445],[-2.276262,53.472451],[-2.276268,53.472439],[-2.276246,53.472436],[-2.276276,53.472379],[-2.276297,53.472382],[-2.276303,53.47237],[-2.276275,53.472364],[-2.276298,53.472321],[-2.276239,53.472315],[-2.276246,53.472302],[-2.276224,53.472297],[-2.276218,53.472311],[-2.276092,53.472288],[-2.276098,53.472274],[-2.276078,53.47227],[-2.276071,53.472284],[-2.275948,53.472261],[-2.275954,53.472248],[-2.275931,53.472244],[-2.275924,53.472257],[-2.275867,53.472246],[-2.275873,53.472235],[-2.275853,53.472232],[-2.27585,53.472238],[-2.275761,53.472222]]]]},"properties":{"slot_id":"building_type_3","lineage_id":"building_type_3-new-20260927T1328+0300","batch_id":"BT3-P70G61-20261005-PLANNINGDATA-LBO42150131","cursor":"BT3-P70G61-20261005-PLANNINGDATA-LBO42150131-p70","building_state":"BUILDING_PRESENT","source_record_id":"reference=LBOR21;outline_entity=42150131","entity":42150131,"reference":"LBOR21","name":"Church of St Clement","building_type_use":"church","type_use_evidence":"official_name_exact=Church of St Clement","dataset":"listed-building-outline","quality":"authoritative","start_date":"","entry_date":"2025-08-21","organisation":"Salford City Council","source_url":"https://www.planning.data.gov.uk/entity/42150131","final_url":"https://www.planning.data.gov.uk/entity/42150131","source_version":"Planning Data listed-building-outline entity 42150131 reference LBOR21; authoritative Salford City Council record","access_utc":"2026-10-05T02:24:40Z","data_date":"2025-08-21","license":"Open Government Licence v3.0; © Crown copyright and database right 2025","source_file_sha256":"498840857777a97ccbed1ec270eac9f171c6ca380312d2ccdeefba900672f9bc","evidence_slice_sha256":"2a2601fe7b246973d107a26adc697f1048b03d7cbc52f09bd448e962ca9ceac9","field_evidence":["entity","reference","name","quality","dataset","organisation","entry-date","geometry","point","listed-building","organisation-curie"],"confidence_score_0_100":99,"evidence_grade":"A_OFFICIAL_GOVERNMENT_BUILDING_OUTLINE_AND_NAMED_TYPE_USE","fake_data":false}}]}
