{"type":"FeatureCollection","features":[{"type":"Feature","geometry":null,"properties":{"slot_id":"future_growth_1","lineage_id":"future_growth_1-newstart-20260927T153100+0300","page_generation":null,"accepted_as_parcel":false,"source_area_count_contribution":1,"exact_identifier":"Q72456968","planning_data_entity":560006,"exact_identifier_provided":true,"coverage_polygon_provided":false,"identifier_namespace":"Planning Data development-corporation-boundary reference","site_name":"South Tees Development Corporation","access_utc":"2026-10-02T23:33:00Z","data_date":"2026-05-04","source_url":"https://www.planning.data.gov.uk/entity/560006","final_url":"https://www.planning.data.gov.uk/entity/560006","geojson_url":"https://www.planning.data.gov.uk/entity/560006.geojson","dataset_url":"https://www.planning.data.gov.uk/dataset/development-corporation-boundary","legislation_url":"https://www.legislation.gov.uk/uksi/2017/718/contents/made","license":"Open Government Licence v3.0","authority":"South Tees Development Corporation","start_date":"2017-08-01","end_date":"","geometry_type_declared_by_source":"MultiPolygon","evidence_grade":"A","confidence_score_0_100":99,"evidence_scope":"exact statutory development corporation boundary reference Q72456968 / entity 560006, official Planning Data record, public GeoJSON endpoint, establishment legislation and dataset licence","evidence_slice_sha256":"a67b1ba300a092425b46fcc681cf7b0141e9e027962a0e5a9ce6b3e98139be3a","fake_data":false,"spatial_binding_method":"official Planning Data development-corporation-boundary entity; exact source polygon retrieval, canonical parcel spatial join and materialization delegated to local OpenCode","planned_building_count_contribution":0}}]}