{"type":"FeatureCollection","features":[{"type":"Feature","id":"mps-monthly-crime-tno-snt:Campden:2026-08","geometry":null,"properties":{"evidence_scope":"coverage_area","coverage_area_id":"Campden","coverage_area_name":"Campden","identifier_scheme":"MPS_SNT_MONTHLY_TNO_BINDING","exact_official_identifier":"Campden","verified_crosswalk_ward_code":"E05009390","source_resolution":"MPS_OFFICIAL_MONTHLY_CRIME_TNO_SNT_DATASET","time_window":"2022-09/2026-08","measurement_date":"2026-08","measurement_method":"official MPS monthly TNO crime dashboard dataset binding at SNT geography","spatial_binding_method":"CAMPDEN_SNT_ROWS_AND_PARCEL_JOIN_DEFERRED_TO_LOCAL_OPENCODE","source_url":"https://data.london.gov.uk/dataset/mps-monthly-crime-dashboard-data-e5n6w","final_url":"https://data.london.gov.uk/dataset/mps-monthly-crime-dashboard-data-e5n6w","accessed_at_utc":"2026-10-07T01:12:00Z","data_date":"2026-08","licence":"Open Government Licence v2","sha256":"588535aa4e7380992bce2c29082556a3cce099f6f46c3e8184cf4db281242c4d","field_evidence":{"dataset_title":"MPS Monthly Crime Dashboard Data","publisher":"Metropolitan Police Service","maintainer":"MPS","description":"Official MPS Crime Dashboard data with Borough and Safer Neighbourhood Team (SNT) geography types.","area_type_field":"Borough or Safer Neighbourhood Team (SNT)","current_resource":"M1045_MonthlyCrimeDashboard_TNOCrimeData.csv","current_resource_period":"2022-09/2026-08","target_snt":"Campden","verified_crosswalk_ward_code":"E05009390","update_frequency":"Monthly","extraction_status":"CAMPDEN_SNT_ROWS_AND_PARCEL_JOIN_DEFERRED_TO_LOCAL_OPENCODE","source_url":"https://data.london.gov.uk/dataset/mps-monthly-crime-dashboard-data-e5n6w","accessed_at_utc":"2026-10-07T01:12:00Z"},"evidence_slice_sha256":"039854d959996bfa0243b2100e90e7c409555d82c6b1f6e91c6eac388cd7a762","confidence_score_0_100":99,"evidence_grade":"A","fake_data":false,"source_window_id":"mps_monthly_crime_dashboard_tno_snt_sep2022_aug2026_campden_sps5_20261007_v1","cursor":"mps_monthly_crime_dashboard_tno_snt_sep2022_aug2026_campden_sps5_20261007_v1:record=1"}}]}
