{"features":[{"geometry":null,"properties":{"accepted_as_parcel":false,"access_utc":"2026-10-01T21:39:53Z","confidence":0.99,"confidence_score_0_100":99,"coverage_polygon_provided":false,"current_gigabit":true,"data_date":"2026-01","evidence_grade":"A","evidence_slice_sha256":"eb2b1db8bf70af92a4659a1dda1349d83cad58e0dac75e3801d95c03a7f3e0d0","exact_identifier":"100062213359","exact_identifier_provided":true,"fake_data":false,"field_evidence":{"bduk_recognised_premises":true,"country":"England","current_gigabit":true,"future_gigabit":false,"local_authority_district_ons":"New Forest","local_authority_district_ons_code":"E07000091","lot_id":27,"lot_name":"Hampshire","postcode":"BH24 1SS","region_ons":"South East","region_ons_code":"E12000008","struprn":"str100062213359","subsidy_control_status":"Gigabit Grey/Black","uprn":"100062213359"},"final_url":"https://www.gov.uk/csv-preview/6a203e8831d692299df80d17/2026-06-02_202601_BDUK_uprn_release_sample.csv","future_gigabit":false,"identifier_namespace":"UPRN","license":"Open Government Licence v3.0","lineage_id":"internet_access_4-newstart-20261001T205200Z","local_authority_district_ons":"New Forest","local_authority_district_ons_code":"E07000091","owner":"cagdas aydin","page_generation":1,"partition":"plan0","postcode":"BH24 1SS","publication_update_date":"2026-06-04","region_ons":"South East","region_ons_code":"E12000008","semantic_mode":"SOURCE_AREA_EXACT_IDENTIFIER","sha256":"eb2b1db8bf70af92a4659a1dda1349d83cad58e0dac75e3801d95c03a7f3e0d0","slot_id":"internet_access_4","source_area_count_contribution":1,"source_url":"https://www.gov.uk/csv-preview/6a203e8831d692299df80d17/2026-06-02_202601_BDUK_uprn_release_sample.csv","spatial_binding_method":"official exact UPRN; canonical parcel spatial join/materialization delegated to local OpenCode"},"type":"Feature"},{"geometry":null,"properties":{"accepted_as_parcel":false,"access_utc":"2026-10-01T21:39:53Z","confidence":0.99,"confidence_score_0_100":99,"coverage_polygon_provided":false,"current_gigabit":true,"data_date":"2026-01","evidence_grade":"A","evidence_slice_sha256":"eb2b1db8bf70af92a4659a1dda1349d83cad58e0dac75e3801d95c03a7f3e0d0","exact_identifier":"100060496980","exact_identifier_provided":true,"fake_data":false,"field_evidence":{"bduk_recognised_premises":true,"country":"England","current_gigabit":true,"future_gigabit":false,"local_authority_district_ons":"New Forest","local_authority_district_ons_code":"E07000091","lot_id":27,"lot_name":"Hampshire","postcode":"BH24 1SU","region_ons":"South East","region_ons_code":"E12000008","struprn":"str100060496980","subsidy_control_status":"Gigabit Grey/Black","uprn":"100060496980"},"final_url":"https://www.gov.uk/csv-preview/6a203e8831d692299df80d17/2026-06-02_202601_BDUK_uprn_release_sample.csv","future_gigabit":false,"identifier_namespace":"UPRN","license":"Open Government Licence v3.0","lineage_id":"internet_access_4-newstart-20261001T205200Z","local_authority_district_ons":"New Forest","local_authority_district_ons_code":"E07000091","owner":"cagdas aydin","page_generation":1,"partition":"plan0","postcode":"BH24 1SU","publication_update_date":"2026-06-04","region_ons":"South East","region_ons_code":"E12000008","semantic_mode":"SOURCE_AREA_EXACT_IDENTIFIER","sha256":"eb2b1db8bf70af92a4659a1dda1349d83cad58e0dac75e3801d95c03a7f3e0d0","slot_id":"internet_access_4","source_area_count_contribution":1,"source_url":"https://www.gov.uk/csv-preview/6a203e8831d692299df80d17/2026-06-02_202601_BDUK_uprn_release_sample.csv","spatial_binding_method":"official exact UPRN; canonical parcel spatial join/materialization delegated to local OpenCode"},"type":"Feature"},{"geometry":null,"properties":{"accepted_as_parcel":false,"access_utc":"2026-10-01T21:39:53Z","confidence":0.99,"confidence_score_0_100":99,"coverage_polygon_provided":false,"current_gigabit":true,"data_date":"2026-01","evidence_grade":"A","evidence_slice_sha256":"eb2b1db8bf70af92a4659a1dda1349d83cad58e0dac75e3801d95c03a7f3e0d0","exact_identifier":"100060496968","exact_identifier_provided":true,"fake_data":false,"field_evidence":{"bduk_recognised_premises":true,"country":"England","current_gigabit":true,"future_gigabit":false,"local_authority_district_ons":"New Forest","local_authority_district_ons_code":"E07000091","lot_id":27,"lot_name":"Hampshire","postcode":"BH24 1SU","region_ons":"South East","region_ons_code":"E12000008","struprn":"str100060496968","subsidy_control_status":"Gigabit Grey/Black","uprn":"100060496968"},"final_url":"https://www.gov.uk/csv-preview/6a203e8831d692299df80d17/2026-06-02_202601_BDUK_uprn_release_sample.csv","future_gigabit":false,"identifier_namespace":"UPRN","license":"Open Government Licence v3.0","lineage_id":"internet_access_4-newstart-20261001T205200Z","local_authority_district_ons":"New Forest","local_authority_district_ons_code":"E07000091","owner":"cagdas aydin","page_generation":1,"partition":"plan0","postcode":"BH24 1SU","publication_update_date":"2026-06-04","region_ons":"South East","region_ons_code":"E12000008","semantic_mode":"SOURCE_AREA_EXACT_IDENTIFIER","sha256":"eb2b1db8bf70af92a4659a1dda1349d83cad58e0dac75e3801d95c03a7f3e0d0","slot_id":"internet_access_4","source_area_count_contribution":1,"source_url":"https://www.gov.uk/csv-preview/6a203e8831d692299df80d17/2026-06-02_202601_BDUK_uprn_release_sample.csv","spatial_binding_method":"official exact UPRN; canonical parcel spatial join/materialization delegated to local OpenCode"},"type":"Feature"},{"geometry":null,"properties":{"accepted_as_parcel":false,"access_utc":"2026-10-01T21:39:53Z","confidence":0.99,"confidence_score_0_100":99,"coverage_polygon_provided":false,"current_gigabit":true,"data_date":"2026-01","evidence_grade":"A","evidence_slice_sha256":"eb2b1db8bf70af92a4659a1dda1349d83cad58e0dac75e3801d95c03a7f3e0d0","exact_identifier":"100060495022","exact_identifier_provided":true,"fake_data":false,"field_evidence":{"bduk_recognised_premises":true,"country":"England","current_gigabit":true,"future_gigabit":false,"local_authority_district_ons":"New Forest","local_authority_district_ons_code":"E07000091","lot_id":27,"lot_name":"Hampshire","postcode":"BH24 1TU","region_ons":"South East","region_ons_code":"E12000008","struprn":"str100060495022","subsidy_control_status":"Gigabit Grey/Black","uprn":"100060495022"},"final_url":"https://www.gov.uk/csv-preview/6a203e8831d692299df80d17/2026-06-02_202601_BDUK_uprn_release_sample.csv","future_gigabit":false,"identifier_namespace":"UPRN","license":"Open Government Licence v3.0","lineage_id":"internet_access_4-newstart-20261001T205200Z","local_authority_district_ons":"New Forest","local_authority_district_ons_code":"E07000091","owner":"cagdas aydin","page_generation":1,"partition":"plan0","postcode":"BH24 1TU","publication_update_date":"2026-06-04","region_ons":"South East","region_ons_code":"E12000008","semantic_mode":"SOURCE_AREA_EXACT_IDENTIFIER","sha256":"eb2b1db8bf70af92a4659a1dda1349d83cad58e0dac75e3801d95c03a7f3e0d0","slot_id":"internet_access_4","source_area_count_contribution":1,"source_url":"https://www.gov.uk/csv-preview/6a203e8831d692299df80d17/2026-06-02_202601_BDUK_uprn_release_sample.csv","spatial_binding_method":"official exact UPRN; canonical parcel spatial join/materialization delegated to local OpenCode"},"type":"Feature"},{"geometry":null,"properties":{"accepted_as_parcel":false,"access_utc":"2026-10-01T21:39:53Z","confidence":0.99,"confidence_score_0_100":99,"coverage_polygon_provided":false,"current_gigabit":true,"data_date":"2026-01","evidence_grade":"A","evidence_slice_sha256":"eb2b1db8bf70af92a4659a1dda1349d83cad58e0dac75e3801d95c03a7f3e0d0","exact_identifier":"100060496322","exact_identifier_provided":true,"fake_data":false,"field_evidence":{"bduk_recognised_premises":true,"country":"England","current_gigabit":true,"future_gigabit":false,"local_authority_district_ons":"New Forest","local_authority_district_ons_code":"E07000091","lot_id":27,"lot_name":"Hampshire","postcode":"BH24 1TY","region_ons":"South East","region_ons_code":"E12000008","struprn":"str100060496322","subsidy_control_status":"Gigabit Grey/Black","uprn":"100060496322"},"final_url":"https://www.gov.uk/csv-preview/6a203e8831d692299df80d17/2026-06-02_202601_BDUK_uprn_release_sample.csv","future_gigabit":false,"identifier_namespace":"UPRN","license":"Open Government Licence v3.0","lineage_id":"internet_access_4-newstart-20261001T205200Z","local_authority_district_ons":"New Forest","local_authority_district_ons_code":"E07000091","owner":"cagdas aydin","page_generation":1,"partition":"plan0","postcode":"BH24 1TY","publication_update_date":"2026-06-04","region_ons":"South East","region_ons_code":"E12000008","semantic_mode":"SOURCE_AREA_EXACT_IDENTIFIER","sha256":"eb2b1db8bf70af92a4659a1dda1349d83cad58e0dac75e3801d95c03a7f3e0d0","slot_id":"internet_access_4","source_area_count_contribution":1,"source_url":"https://www.gov.uk/csv-preview/6a203e8831d692299df80d17/2026-06-02_202601_BDUK_uprn_release_sample.csv","spatial_binding_method":"official exact UPRN; canonical parcel spatial join/materialization delegated to local OpenCode"},"type":"Feature"},{"geometry":null,"properties":{"accepted_as_parcel":false,"access_utc":"2026-10-01T21:39:53Z","confidence":0.99,"confidence_score_0_100":99,"coverage_polygon_provided":false,"current_gigabit":true,"data_date":"2026-01","evidence_grade":"A","evidence_slice_sha256":"eb2b1db8bf70af92a4659a1dda1349d83cad58e0dac75e3801d95c03a7f3e0d0","exact_identifier":"100060495449","exact_identifier_provided":true,"fake_data":false,"field_evidence":{"bduk_recognised_premises":true,"country":"England","current_gigabit":true,"future_gigabit":false,"local_authority_district_ons":"New Forest","local_authority_district_ons_code":"E07000091","lot_id":27,"lot_name":"Hampshire","postcode":"BH24 1UQ","region_ons":"South East","region_ons_code":"E12000008","struprn":"str100060495449","subsidy_control_status":"Gigabit Grey/Black","uprn":"100060495449"},"final_url":"https://www.gov.uk/csv-preview/6a203e8831d692299df80d17/2026-06-02_202601_BDUK_uprn_release_sample.csv","future_gigabit":false,"identifier_namespace":"UPRN","license":"Open Government Licence v3.0","lineage_id":"internet_access_4-newstart-20261001T205200Z","local_authority_district_ons":"New Forest","local_authority_district_ons_code":"E07000091","owner":"cagdas aydin","page_generation":1,"partition":"plan0","postcode":"BH24 1UQ","publication_update_date":"2026-06-04","region_ons":"South East","region_ons_code":"E12000008","semantic_mode":"SOURCE_AREA_EXACT_IDENTIFIER","sha256":"eb2b1db8bf70af92a4659a1dda1349d83cad58e0dac75e3801d95c03a7f3e0d0","slot_id":"internet_access_4","source_area_count_contribution":1,"source_url":"https://www.gov.uk/csv-preview/6a203e8831d692299df80d17/2026-06-02_202601_BDUK_uprn_release_sample.csv","spatial_binding_method":"official exact UPRN; canonical parcel spatial join/materialization delegated to local OpenCode"},"type":"Feature"},{"geometry":null,"properties":{"accepted_as_parcel":false,"access_utc":"2026-10-01T21:39:53Z","confidence":0.99,"confidence_score_0_100":99,"coverage_polygon_provided":false,"current_gigabit":true,"data_date":"2026-01","evidence_grade":"A","evidence_slice_sha256":"eb2b1db8bf70af92a4659a1dda1349d83cad58e0dac75e3801d95c03a7f3e0d0","exact_identifier":"100060494806","exact_identifier_provided":true,"fake_data":false,"field_evidence":{"bduk_recognised_premises":true,"country":"England","current_gigabit":true,"future_gigabit":false,"local_authority_district_ons":"New Forest","local_authority_district_ons_code":"E07000091","lot_id":27,"lot_name":"Hampshire","postcode":"BH24 1UR","region_ons":"South East","region_ons_code":"E12000008","struprn":"str100060494806","subsidy_control_status":"Gigabit Grey/Black","uprn":"100060494806"},"final_url":"https://www.gov.uk/csv-preview/6a203e8831d692299df80d17/2026-06-02_202601_BDUK_uprn_release_sample.csv","future_gigabit":false,"identifier_namespace":"UPRN","license":"Open Government Licence v3.0","lineage_id":"internet_access_4-newstart-20261001T205200Z","local_authority_district_ons":"New Forest","local_authority_district_ons_code":"E07000091","owner":"cagdas aydin","page_generation":1,"partition":"plan0","postcode":"BH24 1UR","publication_update_date":"2026-06-04","region_ons":"South East","region_ons_code":"E12000008","semantic_mode":"SOURCE_AREA_EXACT_IDENTIFIER","sha256":"eb2b1db8bf70af92a4659a1dda1349d83cad58e0dac75e3801d95c03a7f3e0d0","slot_id":"internet_access_4","source_area_count_contribution":1,"source_url":"https://www.gov.uk/csv-preview/6a203e8831d692299df80d17/2026-06-02_202601_BDUK_uprn_release_sample.csv","spatial_binding_method":"official exact UPRN; canonical parcel spatial join/materialization delegated to local OpenCode"},"type":"Feature"},{"geometry":null,"properties":{"accepted_as_parcel":false,"access_utc":"2026-10-01T21:39:53Z","confidence":0.99,"confidence_score_0_100":99,"coverage_polygon_provided":false,"current_gigabit":true,"data_date":"2026-01","evidence_grade":"A","evidence_slice_sha256":"eb2b1db8bf70af92a4659a1dda1349d83cad58e0dac75e3801d95c03a7f3e0d0","exact_identifier":"100060494328","exact_identifier_provided":true,"fake_data":false,"field_evidence":{"bduk_recognised_premises":true,"country":"England","current_gigabit":true,"future_gigabit":false,"local_authority_district_ons":"New Forest","local_authority_district_ons_code":"E07000091","lot_id":27,"lot_name":"Hampshire","postcode":"BH24 1UX","region_ons":"South East","region_ons_code":"E12000008","struprn":"str100060494328","subsidy_control_status":"Gigabit Grey/Black","uprn":"100060494328"},"final_url":"https://www.gov.uk/csv-preview/6a203e8831d692299df80d17/2026-06-02_202601_BDUK_uprn_release_sample.csv","future_gigabit":false,"identifier_namespace":"UPRN","license":"Open Government Licence v3.0","lineage_id":"internet_access_4-newstart-20261001T205200Z","local_authority_district_ons":"New Forest","local_authority_district_ons_code":"E07000091","owner":"cagdas aydin","page_generation":1,"partition":"plan0","postcode":"BH24 1UX","publication_update_date":"2026-06-04","region_ons":"South East","region_ons_code":"E12000008","semantic_mode":"SOURCE_AREA_EXACT_IDENTIFIER","sha256":"eb2b1db8bf70af92a4659a1dda1349d83cad58e0dac75e3801d95c03a7f3e0d0","slot_id":"internet_access_4","source_area_count_contribution":1,"source_url":"https://www.gov.uk/csv-preview/6a203e8831d692299df80d17/2026-06-02_202601_BDUK_uprn_release_sample.csv","spatial_binding_method":"official exact UPRN; canonical parcel spatial join/materialization delegated to local OpenCode"},"type":"Feature"},{"geometry":null,"properties":{"accepted_as_parcel":false,"access_utc":"2026-10-01T21:39:53Z","confidence":0.99,"confidence_score_0_100":99,"coverage_polygon_provided":false,"current_gigabit":true,"data_date":"2026-01","evidence_grade":"A","evidence_slice_sha256":"eb2b1db8bf70af92a4659a1dda1349d83cad58e0dac75e3801d95c03a7f3e0d0","exact_identifier":"10093932211","exact_identifier_provided":true,"fake_data":false,"field_evidence":{"bduk_recognised_premises":true,"country":"England","current_gigabit":true,"future_gigabit":false,"local_authority_district_ons":"New Forest","local_authority_district_ons_code":"E07000091","lot_id":27,"lot_name":"Hampshire","postcode":"BH24 1WL","region_ons":"South East","region_ons_code":"E12000008","struprn":"str10093932211","subsidy_control_status":"Gigabit Grey/Black","uprn":"10093932211"},"final_url":"https://www.gov.uk/csv-preview/6a203e8831d692299df80d17/2026-06-02_202601_BDUK_uprn_release_sample.csv","future_gigabit":false,"identifier_namespace":"UPRN","license":"Open Government Licence v3.0","lineage_id":"internet_access_4-newstart-20261001T205200Z","local_authority_district_ons":"New Forest","local_authority_district_ons_code":"E07000091","owner":"cagdas aydin","page_generation":1,"partition":"plan0","postcode":"BH24 1WL","publication_update_date":"2026-06-04","region_ons":"South East","region_ons_code":"E12000008","semantic_mode":"SOURCE_AREA_EXACT_IDENTIFIER","sha256":"eb2b1db8bf70af92a4659a1dda1349d83cad58e0dac75e3801d95c03a7f3e0d0","slot_id":"internet_access_4","source_area_count_contribution":1,"source_url":"https://www.gov.uk/csv-preview/6a203e8831d692299df80d17/2026-06-02_202601_BDUK_uprn_release_sample.csv","spatial_binding_method":"official exact UPRN; canonical parcel spatial join/materialization delegated to local OpenCode"},"type":"Feature"},{"geometry":null,"properties":{"accepted_as_parcel":false,"access_utc":"2026-10-01T21:39:53Z","confidence":0.99,"confidence_score_0_100":99,"coverage_polygon_provided":false,"current_gigabit":true,"data_date":"2026-01","evidence_grade":"A","evidence_slice_sha256":"eb2b1db8bf70af92a4659a1dda1349d83cad58e0dac75e3801d95c03a7f3e0d0","exact_identifier":"100060494230","exact_identifier_provided":true,"fake_data":false,"field_evidence":{"bduk_recognised_premises":true,"country":"England","current_gigabit":true,"future_gigabit":true,"local_authority_district_ons":"New Forest","local_authority_district_ons_code":"E07000091","lot_id":27,"lot_name":"Hampshire","postcode":"BH24 3AS","region_ons":"South East","region_ons_code":"E12000008","struprn":"str100060494230","subsidy_control_status":"Gigabit Grey/Black","uprn":"100060494230"},"final_url":"https://www.gov.uk/csv-preview/6a203e8831d692299df80d17/2026-06-02_202601_BDUK_uprn_release_sample.csv","future_gigabit":true,"identifier_namespace":"UPRN","license":"Open Government Licence v3.0","lineage_id":"internet_access_4-newstart-20261001T205200Z","local_authority_district_ons":"New Forest","local_authority_district_ons_code":"E07000091","owner":"cagdas aydin","page_generation":1,"partition":"plan0","postcode":"BH24 3AS","publication_update_date":"2026-06-04","region_ons":"South East","region_ons_code":"E12000008","semantic_mode":"SOURCE_AREA_EXACT_IDENTIFIER","sha256":"eb2b1db8bf70af92a4659a1dda1349d83cad58e0dac75e3801d95c03a7f3e0d0","slot_id":"internet_access_4","source_area_count_contribution":1,"source_url":"https://www.gov.uk/csv-preview/6a203e8831d692299df80d17/2026-06-02_202601_BDUK_uprn_release_sample.csv","spatial_binding_method":"official exact UPRN; canonical parcel spatial join/materialization delegated to local OpenCode"},"type":"Feature"},{"geometry":null,"properties":{"accepted_as_parcel":false,"access_utc":"2026-10-01T21:39:53Z","confidence":0.99,"confidence_score_0_100":99,"coverage_polygon_provided":false,"current_gigabit":true,"data_date":"2026-01","evidence_grade":"A","evidence_slice_sha256":"eb2b1db8bf70af92a4659a1dda1349d83cad58e0dac75e3801d95c03a7f3e0d0","exact_identifier":"10007455205","exact_identifier_provided":true,"fake_data":false,"field_evidence":{"bduk_recognised_premises":true,"country":"England","current_gigabit":true,"future_gigabit":false,"local_authority_district_ons":"New Forest","local_authority_district_ons_code":"E07000091","lot_id":27,"lot_name":"Hampshire","postcode":"BH24 3BZ","region_ons":"South East","region_ons_code":"E12000008","struprn":"str10007455205","subsidy_control_status":"Gigabit Grey/Black","uprn":"10007455205"},"final_url":"https://www.gov.uk/csv-preview/6a203e8831d692299df80d17/2026-06-02_202601_BDUK_uprn_release_sample.csv","future_gigabit":false,"identifier_namespace":"UPRN","license":"Open Government Licence v3.0","lineage_id":"internet_access_4-newstart-20261001T205200Z","local_authority_district_ons":"New Forest","local_authority_district_ons_code":"E07000091","owner":"cagdas aydin","page_generation":1,"partition":"plan0","postcode":"BH24 3BZ","publication_update_date":"2026-06-04","region_ons":"South East","region_ons_code":"E12000008","semantic_mode":"SOURCE_AREA_EXACT_IDENTIFIER","sha256":"eb2b1db8bf70af92a4659a1dda1349d83cad58e0dac75e3801d95c03a7f3e0d0","slot_id":"internet_access_4","source_area_count_contribution":1,"source_url":"https://www.gov.uk/csv-preview/6a203e8831d692299df80d17/2026-06-02_202601_BDUK_uprn_release_sample.csv","spatial_binding_method":"official exact UPRN; canonical parcel spatial join/materialization delegated to local OpenCode"},"type":"Feature"},{"geometry":null,"properties":{"accepted_as_parcel":false,"access_utc":"2026-10-01T21:39:53Z","confidence":0.99,"confidence_score_0_100":99,"coverage_polygon_provided":false,"current_gigabit":true,"data_date":"2026-01","evidence_grade":"A","evidence_slice_sha256":"eb2b1db8bf70af92a4659a1dda1349d83cad58e0dac75e3801d95c03a7f3e0d0","exact_identifier":"10007455207","exact_identifier_provided":true,"fake_data":false,"field_evidence":{"bduk_recognised_premises":true,"country":"England","current_gigabit":true,"future_gigabit":false,"local_authority_district_ons":"New Forest","local_authority_district_ons_code":"E07000091","lot_id":27,"lot_name":"Hampshire","postcode":"BH24 3BZ","region_ons":"South East","region_ons_code":"E12000008","struprn":"str10007455207","subsidy_control_status":"Gigabit Grey/Black","uprn":"10007455207"},"final_url":"https://www.gov.uk/csv-preview/6a203e8831d692299df80d17/2026-06-02_202601_BDUK_uprn_release_sample.csv","future_gigabit":false,"identifier_namespace":"UPRN","license":"Open Government Licence v3.0","lineage_id":"internet_access_4-newstart-20261001T205200Z","local_authority_district_ons":"New Forest","local_authority_district_ons_code":"E07000091","owner":"cagdas aydin","page_generation":1,"partition":"plan0","postcode":"BH24 3BZ","publication_update_date":"2026-06-04","region_ons":"South East","region_ons_code":"E12000008","semantic_mode":"SOURCE_AREA_EXACT_IDENTIFIER","sha256":"eb2b1db8bf70af92a4659a1dda1349d83cad58e0dac75e3801d95c03a7f3e0d0","slot_id":"internet_access_4","source_area_count_contribution":1,"source_url":"https://www.gov.uk/csv-preview/6a203e8831d692299df80d17/2026-06-02_202601_BDUK_uprn_release_sample.csv","spatial_binding_method":"official exact UPRN; canonical parcel spatial join/materialization delegated to local OpenCode"},"type":"Feature"},{"geometry":null,"properties":{"accepted_as_parcel":false,"access_utc":"2026-10-01T21:39:53Z","confidence":0.99,"confidence_score_0_100":99,"coverage_polygon_provided":false,"current_gigabit":true,"data_date":"2026-01","evidence_grade":"A","evidence_slice_sha256":"eb2b1db8bf70af92a4659a1dda1349d83cad58e0dac75e3801d95c03a7f3e0d0","exact_identifier":"100060496246","exact_identifier_provided":true,"fake_data":false,"field_evidence":{"bduk_recognised_premises":true,"country":"England","current_gigabit":true,"future_gigabit":false,"local_authority_district_ons":"New Forest","local_authority_district_ons_code":"E07000091","lot_id":27,"lot_name":"Hampshire","postcode":"BH24 3DX","region_ons":"South East","region_ons_code":"E12000008","struprn":"str100060496246","subsidy_control_status":"Gigabit Grey/Black","uprn":"100060496246"},"final_url":"https://www.gov.uk/csv-preview/6a203e8831d692299df80d17/2026-06-02_202601_BDUK_uprn_release_sample.csv","future_gigabit":false,"identifier_namespace":"UPRN","license":"Open Government Licence v3.0","lineage_id":"internet_access_4-newstart-20261001T205200Z","local_authority_district_ons":"New Forest","local_authority_district_ons_code":"E07000091","owner":"cagdas aydin","page_generation":1,"partition":"plan0","postcode":"BH24 3DX","publication_update_date":"2026-06-04","region_ons":"South East","region_ons_code":"E12000008","semantic_mode":"SOURCE_AREA_EXACT_IDENTIFIER","sha256":"eb2b1db8bf70af92a4659a1dda1349d83cad58e0dac75e3801d95c03a7f3e0d0","slot_id":"internet_access_4","source_area_count_contribution":1,"source_url":"https://www.gov.uk/csv-preview/6a203e8831d692299df80d17/2026-06-02_202601_BDUK_uprn_release_sample.csv","spatial_binding_method":"official exact UPRN; canonical parcel spatial join/materialization delegated to local OpenCode"},"type":"Feature"},{"geometry":null,"properties":{"accepted_as_parcel":false,"access_utc":"2026-10-01T21:39:53Z","confidence":0.99,"confidence_score_0_100":99,"coverage_polygon_provided":false,"current_gigabit":true,"data_date":"2026-01","evidence_grade":"A","evidence_slice_sha256":"eb2b1db8bf70af92a4659a1dda1349d83cad58e0dac75e3801d95c03a7f3e0d0","exact_identifier":"100060495646","exact_identifier_provided":true,"fake_data":false,"field_evidence":{"bduk_recognised_premises":true,"country":"England","current_gigabit":true,"future_gigabit":true,"local_authority_district_ons":"New Forest","local_authority_district_ons_code":"E07000091","lot_id":27,"lot_name":"Hampshire","postcode":"BH24 3EJ","region_ons":"South East","region_ons_code":"E12000008","struprn":"str100060495646","subsidy_control_status":"Gigabit Grey/Black","uprn":"100060495646"},"final_url":"https://www.gov.uk/csv-preview/6a203e8831d692299df80d17/2026-06-02_202601_BDUK_uprn_release_sample.csv","future_gigabit":true,"identifier_namespace":"UPRN","license":"Open Government Licence v3.0","lineage_id":"internet_access_4-newstart-20261001T205200Z","local_authority_district_ons":"New Forest","local_authority_district_ons_code":"E07000091","owner":"cagdas aydin","page_generation":1,"partition":"plan0","postcode":"BH24 3EJ","publication_update_date":"2026-06-04","region_ons":"South East","region_ons_code":"E12000008","semantic_mode":"SOURCE_AREA_EXACT_IDENTIFIER","sha256":"eb2b1db8bf70af92a4659a1dda1349d83cad58e0dac75e3801d95c03a7f3e0d0","slot_id":"internet_access_4","source_area_count_contribution":1,"source_url":"https://www.gov.uk/csv-preview/6a203e8831d692299df80d17/2026-06-02_202601_BDUK_uprn_release_sample.csv","spatial_binding_method":"official exact UPRN; canonical parcel spatial join/materialization delegated to local OpenCode"},"type":"Feature"},{"geometry":null,"properties":{"accepted_as_parcel":false,"access_utc":"2026-10-01T21:39:53Z","confidence":0.99,"confidence_score_0_100":99,"coverage_polygon_provided":false,"current_gigabit":true,"data_date":"2026-01","evidence_grade":"A","evidence_slice_sha256":"eb2b1db8bf70af92a4659a1dda1349d83cad58e0dac75e3801d95c03a7f3e0d0","exact_identifier":"100060495660","exact_identifier_provided":true,"fake_data":false,"field_evidence":{"bduk_recognised_premises":true,"country":"England","current_gigabit":true,"future_gigabit":false,"local_authority_district_ons":"New Forest","local_authority_district_ons_code":"E07000091","lot_id":27,"lot_name":"Hampshire","postcode":"BH24 3EJ","region_ons":"South East","region_ons_code":"E12000008","struprn":"str100060495660","subsidy_control_status":"Gigabit Grey/Black","uprn":"100060495660"},"final_url":"https://www.gov.uk/csv-preview/6a203e8831d692299df80d17/2026-06-02_202601_BDUK_uprn_release_sample.csv","future_gigabit":false,"identifier_namespace":"UPRN","license":"Open Government Licence v3.0","lineage_id":"internet_access_4-newstart-20261001T205200Z","local_authority_district_ons":"New Forest","local_authority_district_ons_code":"E07000091","owner":"cagdas aydin","page_generation":1,"partition":"plan0","postcode":"BH24 3EJ","publication_update_date":"2026-06-04","region_ons":"South East","region_ons_code":"E12000008","semantic_mode":"SOURCE_AREA_EXACT_IDENTIFIER","sha256":"eb2b1db8bf70af92a4659a1dda1349d83cad58e0dac75e3801d95c03a7f3e0d0","slot_id":"internet_access_4","source_area_count_contribution":1,"source_url":"https://www.gov.uk/csv-preview/6a203e8831d692299df80d17/2026-06-02_202601_BDUK_uprn_release_sample.csv","spatial_binding_method":"official exact UPRN; canonical parcel spatial join/materialization delegated to local OpenCode"},"type":"Feature"},{"geometry":null,"properties":{"accepted_as_parcel":false,"access_utc":"2026-10-01T21:39:53Z","confidence":0.99,"confidence_score_0_100":99,"coverage_polygon_provided":false,"current_gigabit":true,"data_date":"2026-01","evidence_grade":"A","evidence_slice_sha256":"eb2b1db8bf70af92a4659a1dda1349d83cad58e0dac75e3801d95c03a7f3e0d0","exact_identifier":"100060494069","exact_identifier_provided":true,"fake_data":false,"field_evidence":{"bduk_recognised_premises":true,"country":"England","current_gigabit":true,"future_gigabit":false,"local_authority_district_ons":"New Forest","local_authority_district_ons_code":"E07000091","lot_id":27,"lot_name":"Hampshire","postcode":"BH24 3EU","region_ons":"South East","region_ons_code":"E12000008","struprn":"str100060494069","subsidy_control_status":"Gigabit Grey/Black","uprn":"100060494069"},"final_url":"https://www.gov.uk/csv-preview/6a203e8831d692299df80d17/2026-06-02_202601_BDUK_uprn_release_sample.csv","future_gigabit":false,"identifier_namespace":"UPRN","license":"Open Government Licence v3.0","lineage_id":"internet_access_4-newstart-20261001T205200Z","local_authority_district_ons":"New Forest","local_authority_district_ons_code":"E07000091","owner":"cagdas aydin","page_generation":1,"partition":"plan0","postcode":"BH24 3EU","publication_update_date":"2026-06-04","region_ons":"South East","region_ons_code":"E12000008","semantic_mode":"SOURCE_AREA_EXACT_IDENTIFIER","sha256":"eb2b1db8bf70af92a4659a1dda1349d83cad58e0dac75e3801d95c03a7f3e0d0","slot_id":"internet_access_4","source_area_count_contribution":1,"source_url":"https://www.gov.uk/csv-preview/6a203e8831d692299df80d17/2026-06-02_202601_BDUK_uprn_release_sample.csv","spatial_binding_method":"official exact UPRN; canonical parcel spatial join/materialization delegated to local OpenCode"},"type":"Feature"},{"geometry":null,"properties":{"accepted_as_parcel":false,"access_utc":"2026-10-01T21:39:53Z","confidence":0.99,"confidence_score_0_100":99,"coverage_polygon_provided":false,"current_gigabit":true,"data_date":"2026-01","evidence_grade":"A","evidence_slice_sha256":"eb2b1db8bf70af92a4659a1dda1349d83cad58e0dac75e3801d95c03a7f3e0d0","exact_identifier":"10090353723","exact_identifier_provided":true,"fake_data":false,"field_evidence":{"bduk_recognised_premises":true,"country":"England","current_gigabit":true,"future_gigabit":false,"local_authority_district_ons":"New Forest","local_authority_district_ons_code":"E07000091","lot_id":27,"lot_name":"Hampshire","postcode":"BH24 3FF","region_ons":"South East","region_ons_code":"E12000008","struprn":"str10090353723","subsidy_control_status":"Gigabit Grey/Black","uprn":"10090353723"},"final_url":"https://www.gov.uk/csv-preview/6a203e8831d692299df80d17/2026-06-02_202601_BDUK_uprn_release_sample.csv","future_gigabit":false,"identifier_namespace":"UPRN","license":"Open Government Licence v3.0","lineage_id":"internet_access_4-newstart-20261001T205200Z","local_authority_district_ons":"New Forest","local_authority_district_ons_code":"E07000091","owner":"cagdas aydin","page_generation":1,"partition":"plan0","postcode":"BH24 3FF","publication_update_date":"2026-06-04","region_ons":"South East","region_ons_code":"E12000008","semantic_mode":"SOURCE_AREA_EXACT_IDENTIFIER","sha256":"eb2b1db8bf70af92a4659a1dda1349d83cad58e0dac75e3801d95c03a7f3e0d0","slot_id":"internet_access_4","source_area_count_contribution":1,"source_url":"https://www.gov.uk/csv-preview/6a203e8831d692299df80d17/2026-06-02_202601_BDUK_uprn_release_sample.csv","spatial_binding_method":"official exact UPRN; canonical parcel spatial join/materialization delegated to local OpenCode"},"type":"Feature"},{"geometry":null,"properties":{"accepted_as_parcel":false,"access_utc":"2026-10-01T21:39:53Z","confidence":0.99,"confidence_score_0_100":99,"coverage_polygon_provided":false,"current_gigabit":true,"data_date":"2026-01","evidence_grade":"A","evidence_slice_sha256":"eb2b1db8bf70af92a4659a1dda1349d83cad58e0dac75e3801d95c03a7f3e0d0","exact_identifier":"10093930690","exact_identifier_provided":true,"fake_data":false,"field_evidence":{"bduk_recognised_premises":true,"country":"England","current_gigabit":true,"future_gigabit":false,"local_authority_district_ons":"New Forest","local_authority_district_ons_code":"E07000091","lot_id":27,"lot_name":"Hampshire","postcode":"BH24 3FJ","region_ons":"South East","region_ons_code":"E12000008","struprn":"str10093930690","subsidy_control_status":"Gigabit Grey/Black","uprn":"10093930690"},"final_url":"https://www.gov.uk/csv-preview/6a203e8831d692299df80d17/2026-06-02_202601_BDUK_uprn_release_sample.csv","future_gigabit":false,"identifier_namespace":"UPRN","license":"Open Government Licence v3.0","lineage_id":"internet_access_4-newstart-20261001T205200Z","local_authority_district_ons":"New Forest","local_authority_district_ons_code":"E07000091","owner":"cagdas aydin","page_generation":1,"partition":"plan0","postcode":"BH24 3FJ","publication_update_date":"2026-06-04","region_ons":"South East","region_ons_code":"E12000008","semantic_mode":"SOURCE_AREA_EXACT_IDENTIFIER","sha256":"eb2b1db8bf70af92a4659a1dda1349d83cad58e0dac75e3801d95c03a7f3e0d0","slot_id":"internet_access_4","source_area_count_contribution":1,"source_url":"https://www.gov.uk/csv-preview/6a203e8831d692299df80d17/2026-06-02_202601_BDUK_uprn_release_sample.csv","spatial_binding_method":"official exact UPRN; canonical parcel spatial join/materialization delegated to local OpenCode"},"type":"Feature"},{"geometry":null,"properties":{"accepted_as_parcel":false,"access_utc":"2026-10-01T21:39:53Z","confidence":0.99,"confidence_score_0_100":99,"coverage_polygon_provided":false,"current_gigabit":true,"data_date":"2026-01","evidence_grade":"A","evidence_slice_sha256":"eb2b1db8bf70af92a4659a1dda1349d83cad58e0dac75e3801d95c03a7f3e0d0","exact_identifier":"10093932621","exact_identifier_provided":true,"fake_data":false,"field_evidence":{"bduk_recognised_premises":true,"country":"England","current_gigabit":true,"future_gigabit":false,"local_authority_district_ons":"New Forest","local_authority_district_ons_code":"E07000091","lot_id":27,"lot_name":"Hampshire","postcode":"BH24 3FP","region_ons":"South East","region_ons_code":"E12000008","struprn":"str10093932621","subsidy_control_status":"Gigabit Grey/Black","uprn":"10093932621"},"final_url":"https://www.gov.uk/csv-preview/6a203e8831d692299df80d17/2026-06-02_202601_BDUK_uprn_release_sample.csv","future_gigabit":false,"identifier_namespace":"UPRN","license":"Open Government Licence v3.0","lineage_id":"internet_access_4-newstart-20261001T205200Z","local_authority_district_ons":"New Forest","local_authority_district_ons_code":"E07000091","owner":"cagdas aydin","page_generation":1,"partition":"plan0","postcode":"BH24 3FP","publication_update_date":"2026-06-04","region_ons":"South East","region_ons_code":"E12000008","semantic_mode":"SOURCE_AREA_EXACT_IDENTIFIER","sha256":"eb2b1db8bf70af92a4659a1dda1349d83cad58e0dac75e3801d95c03a7f3e0d0","slot_id":"internet_access_4","source_area_count_contribution":1,"source_url":"https://www.gov.uk/csv-preview/6a203e8831d692299df80d17/2026-06-02_202601_BDUK_uprn_release_sample.csv","spatial_binding_method":"official exact UPRN; canonical parcel spatial join/materialization delegated to local OpenCode"},"type":"Feature"},{"geometry":null,"properties":{"accepted_as_parcel":false,"access_utc":"2026-10-01T21:39:53Z","confidence":0.99,"confidence_score_0_100":99,"coverage_polygon_provided":false,"current_gigabit":true,"data_date":"2026-01","evidence_grade":"A","evidence_slice_sha256":"eb2b1db8bf70af92a4659a1dda1349d83cad58e0dac75e3801d95c03a7f3e0d0","exact_identifier":"100062004330","exact_identifier_provided":true,"fake_data":false,"field_evidence":{"bduk_recognised_premises":true,"country":"England","current_gigabit":true,"future_gigabit":false,"local_authority_district_ons":"New Forest","local_authority_district_ons_code":"E07000091","lot_id":27,"lot_name":"Hampshire","postcode":"BH24 3JZ","region_ons":"South East","region_ons_code":"E12000008","struprn":"str100062004330","subsidy_control_status":"Gigabit Grey/Black","uprn":"100062004330"},"final_url":"https://www.gov.uk/csv-preview/6a203e8831d692299df80d17/2026-06-02_202601_BDUK_uprn_release_sample.csv","future_gigabit":false,"identifier_namespace":"UPRN","license":"Open Government Licence v3.0","lineage_id":"internet_access_4-newstart-20261001T205200Z","local_authority_district_ons":"New Forest","local_authority_district_ons_code":"E07000091","owner":"cagdas aydin","page_generation":1,"partition":"plan0","postcode":"BH24 3JZ","publication_update_date":"2026-06-04","region_ons":"South East","region_ons_code":"E12000008","semantic_mode":"SOURCE_AREA_EXACT_IDENTIFIER","sha256":"eb2b1db8bf70af92a4659a1dda1349d83cad58e0dac75e3801d95c03a7f3e0d0","slot_id":"internet_access_4","source_area_count_contribution":1,"source_url":"https://www.gov.uk/csv-preview/6a203e8831d692299df80d17/2026-06-02_202601_BDUK_uprn_release_sample.csv","spatial_binding_method":"official exact UPRN; canonical parcel spatial join/materialization delegated to local OpenCode"},"type":"Feature"},{"geometry":null,"properties":{"accepted_as_parcel":false,"access_utc":"2026-10-01T21:39:53Z","confidence":0.99,"confidence_score_0_100":99,"coverage_polygon_provided":false,"current_gigabit":true,"data_date":"2026-01","evidence_grade":"A","evidence_slice_sha256":"eb2b1db8bf70af92a4659a1dda1349d83cad58e0dac75e3801d95c03a7f3e0d0","exact_identifier":"100060496838","exact_identifier_provided":true,"fake_data":false,"field_evidence":{"bduk_recognised_premises":true,"country":"England","current_gigabit":true,"future_gigabit":false,"local_authority_district_ons":"New Forest","local_authority_district_ons_code":"E07000091","lot_id":27,"lot_name":"Hampshire","postcode":"BH24 3LJ","region_ons":"South East","region_ons_code":"E12000008","struprn":"str100060496838","subsidy_control_status":"Gigabit Grey/Black","uprn":"100060496838"},"final_url":"https://www.gov.uk/csv-preview/6a203e8831d692299df80d17/2026-06-02_202601_BDUK_uprn_release_sample.csv","future_gigabit":false,"identifier_namespace":"UPRN","license":"Open Government Licence v3.0","lineage_id":"internet_access_4-newstart-20261001T205200Z","local_authority_district_ons":"New Forest","local_authority_district_ons_code":"E07000091","owner":"cagdas aydin","page_generation":1,"partition":"plan0","postcode":"BH24 3LJ","publication_update_date":"2026-06-04","region_ons":"South East","region_ons_code":"E12000008","semantic_mode":"SOURCE_AREA_EXACT_IDENTIFIER","sha256":"eb2b1db8bf70af92a4659a1dda1349d83cad58e0dac75e3801d95c03a7f3e0d0","slot_id":"internet_access_4","source_area_count_contribution":1,"source_url":"https://www.gov.uk/csv-preview/6a203e8831d692299df80d17/2026-06-02_202601_BDUK_uprn_release_sample.csv","spatial_binding_method":"official exact UPRN; canonical parcel spatial join/materialization delegated to local OpenCode"},"type":"Feature"},{"geometry":null,"properties":{"accepted_as_parcel":false,"access_utc":"2026-10-01T21:39:53Z","confidence":0.99,"confidence_score_0_100":99,"coverage_polygon_provided":false,"current_gigabit":true,"data_date":"2026-01","evidence_grade":"A","evidence_slice_sha256":"eb2b1db8bf70af92a4659a1dda1349d83cad58e0dac75e3801d95c03a7f3e0d0","exact_identifier":"100060496854","exact_identifier_provided":true,"fake_data":false,"field_evidence":{"bduk_recognised_premises":true,"country":"England","current_gigabit":true,"future_gigabit":false,"local_authority_district_ons":"New Forest","local_authority_district_ons_code":"E07000091","lot_id":27,"lot_name":"Hampshire","postcode":"BH24 3LJ","region_ons":"South East","region_ons_code":"E12000008","struprn":"str100060496854","subsidy_control_status":"Gigabit Grey/Black","uprn":"100060496854"},"final_url":"https://www.gov.uk/csv-preview/6a203e8831d692299df80d17/2026-06-02_202601_BDUK_uprn_release_sample.csv","future_gigabit":false,"identifier_namespace":"UPRN","license":"Open Government Licence v3.0","lineage_id":"internet_access_4-newstart-20261001T205200Z","local_authority_district_ons":"New Forest","local_authority_district_ons_code":"E07000091","owner":"cagdas aydin","page_generation":1,"partition":"plan0","postcode":"BH24 3LJ","publication_update_date":"2026-06-04","region_ons":"South East","region_ons_code":"E12000008","semantic_mode":"SOURCE_AREA_EXACT_IDENTIFIER","sha256":"eb2b1db8bf70af92a4659a1dda1349d83cad58e0dac75e3801d95c03a7f3e0d0","slot_id":"internet_access_4","source_area_count_contribution":1,"source_url":"https://www.gov.uk/csv-preview/6a203e8831d692299df80d17/2026-06-02_202601_BDUK_uprn_release_sample.csv","spatial_binding_method":"official exact UPRN; canonical parcel spatial join/materialization delegated to local OpenCode"},"type":"Feature"},{"geometry":null,"properties":{"accepted_as_parcel":false,"access_utc":"2026-10-01T21:39:53Z","confidence":0.99,"confidence_score_0_100":99,"coverage_polygon_provided":false,"current_gigabit":true,"data_date":"2026-01","evidence_grade":"A","evidence_slice_sha256":"eb2b1db8bf70af92a4659a1dda1349d83cad58e0dac75e3801d95c03a7f3e0d0","exact_identifier":"100060496857","exact_identifier_provided":true,"fake_data":false,"field_evidence":{"bduk_recognised_premises":true,"country":"England","current_gigabit":true,"future_gigabit":false,"local_authority_district_ons":"New Forest","local_authority_district_ons_code":"E07000091","lot_id":27,"lot_name":"Hampshire","postcode":"BH24 3LJ","region_ons":"South East","region_ons_code":"E12000008","struprn":"str100060496857","subsidy_control_status":"Gigabit Grey/Black","uprn":"100060496857"},"final_url":"https://www.gov.uk/csv-preview/6a203e8831d692299df80d17/2026-06-02_202601_BDUK_uprn_release_sample.csv","future_gigabit":false,"identifier_namespace":"UPRN","license":"Open Government Licence v3.0","lineage_id":"internet_access_4-newstart-20261001T205200Z","local_authority_district_ons":"New Forest","local_authority_district_ons_code":"E07000091","owner":"cagdas aydin","page_generation":1,"partition":"plan0","postcode":"BH24 3LJ","publication_update_date":"2026-06-04","region_ons":"South East","region_ons_code":"E12000008","semantic_mode":"SOURCE_AREA_EXACT_IDENTIFIER","sha256":"eb2b1db8bf70af92a4659a1dda1349d83cad58e0dac75e3801d95c03a7f3e0d0","slot_id":"internet_access_4","source_area_count_contribution":1,"source_url":"https://www.gov.uk/csv-preview/6a203e8831d692299df80d17/2026-06-02_202601_BDUK_uprn_release_sample.csv","spatial_binding_method":"official exact UPRN; canonical parcel spatial join/materialization delegated to local OpenCode"},"type":"Feature"},{"geometry":null,"properties":{"accepted_as_parcel":false,"access_utc":"2026-10-01T21:39:53Z","confidence":0.99,"confidence_score_0_100":99,"coverage_polygon_provided":false,"current_gigabit":true,"data_date":"2026-01","evidence_grade":"A","evidence_slice_sha256":"eb2b1db8bf70af92a4659a1dda1349d83cad58e0dac75e3801d95c03a7f3e0d0","exact_identifier":"100062214067","exact_identifier_provided":true,"fake_data":false,"field_evidence":{"bduk_recognised_premises":true,"country":"England","current_gigabit":true,"future_gigabit":false,"local_authority_district_ons":"New Forest","local_authority_district_ons_code":"E07000091","lot_id":27,"lot_name":"Hampshire","postcode":"BH24 3LU","region_ons":"South East","region_ons_code":"E12000008","struprn":"str100062214067","subsidy_control_status":"Gigabit Grey/Black","uprn":"100062214067"},"final_url":"https://www.gov.uk/csv-preview/6a203e8831d692299df80d17/2026-06-02_202601_BDUK_uprn_release_sample.csv","future_gigabit":false,"identifier_namespace":"UPRN","license":"Open Government Licence v3.0","lineage_id":"internet_access_4-newstart-20261001T205200Z","local_authority_district_ons":"New Forest","local_authority_district_ons_code":"E07000091","owner":"cagdas aydin","page_generation":1,"partition":"plan0","postcode":"BH24 3LU","publication_update_date":"2026-06-04","region_ons":"South East","region_ons_code":"E12000008","semantic_mode":"SOURCE_AREA_EXACT_IDENTIFIER","sha256":"eb2b1db8bf70af92a4659a1dda1349d83cad58e0dac75e3801d95c03a7f3e0d0","slot_id":"internet_access_4","source_area_count_contribution":1,"source_url":"https://www.gov.uk/csv-preview/6a203e8831d692299df80d17/2026-06-02_202601_BDUK_uprn_release_sample.csv","spatial_binding_method":"official exact UPRN; canonical parcel spatial join/materialization delegated to local OpenCode"},"type":"Feature"},{"geometry":null,"properties":{"accepted_as_parcel":false,"access_utc":"2026-10-01T21:39:53Z","confidence":0.99,"confidence_score_0_100":99,"coverage_polygon_provided":false,"current_gigabit":true,"data_date":"2026-01","evidence_grade":"A","evidence_slice_sha256":"eb2b1db8bf70af92a4659a1dda1349d83cad58e0dac75e3801d95c03a7f3e0d0","exact_identifier":"10007455392","exact_identifier_provided":true,"fake_data":false,"field_evidence":{"bduk_recognised_premises":true,"country":"England","current_gigabit":true,"future_gigabit":false,"local_authority_district_ons":"New Forest","local_authority_district_ons_code":"E07000091","lot_id":27,"lot_name":"Hampshire","postcode":"BH24 3NL","region_ons":"South East","region_ons_code":"E12000008","struprn":"str10007455392","subsidy_control_status":"Gigabit Grey/Black","uprn":"10007455392"},"final_url":"https://www.gov.uk/csv-preview/6a203e8831d692299df80d17/2026-06-02_202601_BDUK_uprn_release_sample.csv","future_gigabit":false,"identifier_namespace":"UPRN","license":"Open Government Licence v3.0","lineage_id":"internet_access_4-newstart-20261001T205200Z","local_authority_district_ons":"New Forest","local_authority_district_ons_code":"E07000091","owner":"cagdas aydin","page_generation":1,"partition":"plan0","postcode":"BH24 3NL","publication_update_date":"2026-06-04","region_ons":"South East","region_ons_code":"E12000008","semantic_mode":"SOURCE_AREA_EXACT_IDENTIFIER","sha256":"eb2b1db8bf70af92a4659a1dda1349d83cad58e0dac75e3801d95c03a7f3e0d0","slot_id":"internet_access_4","source_area_count_contribution":1,"source_url":"https://www.gov.uk/csv-preview/6a203e8831d692299df80d17/2026-06-02_202601_BDUK_uprn_release_sample.csv","spatial_binding_method":"official exact UPRN; canonical parcel spatial join/materialization delegated to local OpenCode"},"type":"Feature"},{"geometry":null,"properties":{"accepted_as_parcel":false,"access_utc":"2026-10-01T21:39:53Z","confidence":0.99,"confidence_score_0_100":99,"coverage_polygon_provided":false,"current_gigabit":true,"data_date":"2026-01","evidence_grade":"A","evidence_slice_sha256":"eb2b1db8bf70af92a4659a1dda1349d83cad58e0dac75e3801d95c03a7f3e0d0","exact_identifier":"100060494588","exact_identifier_provided":true,"fake_data":false,"field_evidence":{"bduk_recognised_premises":true,"country":"England","current_gigabit":true,"future_gigabit":false,"local_authority_district_ons":"New Forest","local_authority_district_ons_code":"E07000091","lot_id":27,"lot_name":"Hampshire","postcode":"BH24 3NR","region_ons":"South East","region_ons_code":"E12000008","struprn":"str100060494588","subsidy_control_status":"Gigabit Grey/Black","uprn":"100060494588"},"final_url":"https://www.gov.uk/csv-preview/6a203e8831d692299df80d17/2026-06-02_202601_BDUK_uprn_release_sample.csv","future_gigabit":false,"identifier_namespace":"UPRN","license":"Open Government Licence v3.0","lineage_id":"internet_access_4-newstart-20261001T205200Z","local_authority_district_ons":"New Forest","local_authority_district_ons_code":"E07000091","owner":"cagdas aydin","page_generation":1,"partition":"plan0","postcode":"BH24 3NR","publication_update_date":"2026-06-04","region_ons":"South East","region_ons_code":"E12000008","semantic_mode":"SOURCE_AREA_EXACT_IDENTIFIER","sha256":"eb2b1db8bf70af92a4659a1dda1349d83cad58e0dac75e3801d95c03a7f3e0d0","slot_id":"internet_access_4","source_area_count_contribution":1,"source_url":"https://www.gov.uk/csv-preview/6a203e8831d692299df80d17/2026-06-02_202601_BDUK_uprn_release_sample.csv","spatial_binding_method":"official exact UPRN; canonical parcel spatial join/materialization delegated to local OpenCode"},"type":"Feature"},{"geometry":null,"properties":{"accepted_as_parcel":false,"access_utc":"2026-10-01T21:39:53Z","confidence":0.99,"confidence_score_0_100":99,"coverage_polygon_provided":false,"current_gigabit":true,"data_date":"2026-01","evidence_grade":"A","evidence_slice_sha256":"eb2b1db8bf70af92a4659a1dda1349d83cad58e0dac75e3801d95c03a7f3e0d0","exact_identifier":"100060497523","exact_identifier_provided":true,"fake_data":false,"field_evidence":{"bduk_recognised_premises":true,"country":"England","current_gigabit":true,"future_gigabit":true,"local_authority_district_ons":"New Forest","local_authority_district_ons_code":"E07000091","lot_id":27,"lot_name":"Hampshire","postcode":"BH24 3PA","region_ons":"South East","region_ons_code":"E12000008","struprn":"str100060497523","subsidy_control_status":"Gigabit Grey/Black","uprn":"100060497523"},"final_url":"https://www.gov.uk/csv-preview/6a203e8831d692299df80d17/2026-06-02_202601_BDUK_uprn_release_sample.csv","future_gigabit":true,"identifier_namespace":"UPRN","license":"Open Government Licence v3.0","lineage_id":"internet_access_4-newstart-20261001T205200Z","local_authority_district_ons":"New Forest","local_authority_district_ons_code":"E07000091","owner":"cagdas aydin","page_generation":1,"partition":"plan0","postcode":"BH24 3PA","publication_update_date":"2026-06-04","region_ons":"South East","region_ons_code":"E12000008","semantic_mode":"SOURCE_AREA_EXACT_IDENTIFIER","sha256":"eb2b1db8bf70af92a4659a1dda1349d83cad58e0dac75e3801d95c03a7f3e0d0","slot_id":"internet_access_4","source_area_count_contribution":1,"source_url":"https://www.gov.uk/csv-preview/6a203e8831d692299df80d17/2026-06-02_202601_BDUK_uprn_release_sample.csv","spatial_binding_method":"official exact UPRN; canonical parcel spatial join/materialization delegated to local OpenCode"},"type":"Feature"},{"geometry":null,"properties":{"accepted_as_parcel":false,"access_utc":"2026-10-01T21:39:53Z","confidence":0.99,"confidence_score_0_100":99,"coverage_polygon_provided":false,"current_gigabit":true,"data_date":"2026-01","evidence_grade":"A","evidence_slice_sha256":"eb2b1db8bf70af92a4659a1dda1349d83cad58e0dac75e3801d95c03a7f3e0d0","exact_identifier":"100060495956","exact_identifier_provided":true,"fake_data":false,"field_evidence":{"bduk_recognised_premises":true,"country":"England","current_gigabit":true,"future_gigabit":false,"local_authority_district_ons":"New Forest","local_authority_district_ons_code":"E07000091","lot_id":27,"lot_name":"Hampshire","postcode":"BH24 3PH","region_ons":"South East","region_ons_code":"E12000008","struprn":"str100060495956","subsidy_control_status":"Gigabit Grey/Black","uprn":"100060495956"},"final_url":"https://www.gov.uk/csv-preview/6a203e8831d692299df80d17/2026-06-02_202601_BDUK_uprn_release_sample.csv","future_gigabit":false,"identifier_namespace":"UPRN","license":"Open Government Licence v3.0","lineage_id":"internet_access_4-newstart-20261001T205200Z","local_authority_district_ons":"New Forest","local_authority_district_ons_code":"E07000091","owner":"cagdas aydin","page_generation":1,"partition":"plan0","postcode":"BH24 3PH","publication_update_date":"2026-06-04","region_ons":"South East","region_ons_code":"E12000008","semantic_mode":"SOURCE_AREA_EXACT_IDENTIFIER","sha256":"eb2b1db8bf70af92a4659a1dda1349d83cad58e0dac75e3801d95c03a7f3e0d0","slot_id":"internet_access_4","source_area_count_contribution":1,"source_url":"https://www.gov.uk/csv-preview/6a203e8831d692299df80d17/2026-06-02_202601_BDUK_uprn_release_sample.csv","spatial_binding_method":"official exact UPRN; canonical parcel spatial join/materialization delegated to local OpenCode"},"type":"Feature"},{"geometry":null,"properties":{"accepted_as_parcel":false,"access_utc":"2026-10-01T21:39:53Z","confidence":0.99,"confidence_score_0_100":99,"coverage_polygon_provided":false,"current_gigabit":true,"data_date":"2026-01","evidence_grade":"A","evidence_slice_sha256":"eb2b1db8bf70af92a4659a1dda1349d83cad58e0dac75e3801d95c03a7f3e0d0","exact_identifier":"10007454384","exact_identifier_provided":true,"fake_data":false,"field_evidence":{"bduk_recognised_premises":true,"country":"England","current_gigabit":true,"future_gigabit":false,"local_authority_district_ons":"New Forest","local_authority_district_ons_code":"E07000091","lot_id":27,"lot_name":"Hampshire","postcode":"BH24 3PS","region_ons":"South East","region_ons_code":"E12000008","struprn":"str10007454384","subsidy_control_status":"Gigabit Grey/Black","uprn":"10007454384"},"final_url":"https://www.gov.uk/csv-preview/6a203e8831d692299df80d17/2026-06-02_202601_BDUK_uprn_release_sample.csv","future_gigabit":false,"identifier_namespace":"UPRN","license":"Open Government Licence v3.0","lineage_id":"internet_access_4-newstart-20261001T205200Z","local_authority_district_ons":"New Forest","local_authority_district_ons_code":"E07000091","owner":"cagdas aydin","page_generation":1,"partition":"plan0","postcode":"BH24 3PS","publication_update_date":"2026-06-04","region_ons":"South East","region_ons_code":"E12000008","semantic_mode":"SOURCE_AREA_EXACT_IDENTIFIER","sha256":"eb2b1db8bf70af92a4659a1dda1349d83cad58e0dac75e3801d95c03a7f3e0d0","slot_id":"internet_access_4","source_area_count_contribution":1,"source_url":"https://www.gov.uk/csv-preview/6a203e8831d692299df80d17/2026-06-02_202601_BDUK_uprn_release_sample.csv","spatial_binding_method":"official exact UPRN; canonical parcel spatial join/materialization delegated to local OpenCode"},"type":"Feature"},{"geometry":null,"properties":{"accepted_as_parcel":false,"access_utc":"2026-10-01T21:39:53Z","confidence":0.99,"confidence_score_0_100":99,"coverage_polygon_provided":false,"current_gigabit":true,"data_date":"2026-01","evidence_grade":"A","evidence_slice_sha256":"eb2b1db8bf70af92a4659a1dda1349d83cad58e0dac75e3801d95c03a7f3e0d0","exact_identifier":"10007456950","exact_identifier_provided":true,"fake_data":false,"field_evidence":{"bduk_recognised_premises":true,"country":"England","current_gigabit":true,"future_gigabit":false,"local_authority_district_ons":"New Forest","local_authority_district_ons_code":"E07000091","lot_id":14,"lot_name":"Dorset","postcode":"BH24 3QG","region_ons":"South East","region_ons_code":"E12000008","struprn":"str10007456950","subsidy_control_status":"Gigabit Grey/Black","uprn":"10007456950"},"final_url":"https://www.gov.uk/csv-preview/6a203e8831d692299df80d17/2026-06-02_202601_BDUK_uprn_release_sample.csv","future_gigabit":false,"identifier_namespace":"UPRN","license":"Open Government Licence v3.0","lineage_id":"internet_access_4-newstart-20261001T205200Z","local_authority_district_ons":"New Forest","local_authority_district_ons_code":"E07000091","owner":"cagdas aydin","page_generation":1,"partition":"plan0","postcode":"BH24 3QG","publication_update_date":"2026-06-04","region_ons":"South East","region_ons_code":"E12000008","semantic_mode":"SOURCE_AREA_EXACT_IDENTIFIER","sha256":"eb2b1db8bf70af92a4659a1dda1349d83cad58e0dac75e3801d95c03a7f3e0d0","slot_id":"internet_access_4","source_area_count_contribution":1,"source_url":"https://www.gov.uk/csv-preview/6a203e8831d692299df80d17/2026-06-02_202601_BDUK_uprn_release_sample.csv","spatial_binding_method":"official exact UPRN; canonical parcel spatial join/materialization delegated to local OpenCode"},"type":"Feature"},{"geometry":null,"properties":{"accepted_as_parcel":false,"access_utc":"2026-10-01T21:39:53Z","confidence":0.99,"confidence_score_0_100":99,"coverage_polygon_provided":false,"current_gigabit":true,"data_date":"2026-01","evidence_grade":"A","evidence_slice_sha256":"eb2b1db8bf70af92a4659a1dda1349d83cad58e0dac75e3801d95c03a7f3e0d0","exact_identifier":"10007455006","exact_identifier_provided":true,"fake_data":false,"field_evidence":{"bduk_recognised_premises":true,"country":"England","current_gigabit":true,"future_gigabit":false,"local_authority_district_ons":"New Forest","local_authority_district_ons_code":"E07000091","lot_id":27,"lot_name":"Hampshire","postcode":"BH24 3QX","region_ons":"South East","region_ons_code":"E12000008","struprn":"str10007455006","subsidy_control_status":"Gigabit Grey/Black","uprn":"10007455006"},"final_url":"https://www.gov.uk/csv-preview/6a203e8831d692299df80d17/2026-06-02_202601_BDUK_uprn_release_sample.csv","future_gigabit":false,"identifier_namespace":"UPRN","license":"Open Government Licence v3.0","lineage_id":"internet_access_4-newstart-20261001T205200Z","local_authority_district_ons":"New Forest","local_authority_district_ons_code":"E07000091","owner":"cagdas aydin","page_generation":1,"partition":"plan0","postcode":"BH24 3QX","publication_update_date":"2026-06-04","region_ons":"South East","region_ons_code":"E12000008","semantic_mode":"SOURCE_AREA_EXACT_IDENTIFIER","sha256":"eb2b1db8bf70af92a4659a1dda1349d83cad58e0dac75e3801d95c03a7f3e0d0","slot_id":"internet_access_4","source_area_count_contribution":1,"source_url":"https://www.gov.uk/csv-preview/6a203e8831d692299df80d17/2026-06-02_202601_BDUK_uprn_release_sample.csv","spatial_binding_method":"official exact UPRN; canonical parcel spatial join/materialization delegated to local OpenCode"},"type":"Feature"},{"geometry":null,"properties":{"accepted_as_parcel":false,"access_utc":"2026-10-01T21:39:53Z","confidence":0.99,"confidence_score_0_100":99,"coverage_polygon_provided":false,"current_gigabit":true,"data_date":"2026-01","evidence_grade":"A","evidence_slice_sha256":"eb2b1db8bf70af92a4659a1dda1349d83cad58e0dac75e3801d95c03a7f3e0d0","exact_identifier":"100060497254","exact_identifier_provided":true,"fake_data":false,"field_evidence":{"bduk_recognised_premises":true,"country":"England","current_gigabit":true,"future_gigabit":false,"local_authority_district_ons":"New Forest","local_authority_district_ons_code":"E07000091","lot_id":27,"lot_name":"Hampshire","postcode":"BH24 3RH","region_ons":"South East","region_ons_code":"E12000008","struprn":"str100060497254","subsidy_control_status":"Gigabit Grey/Black","uprn":"100060497254"},"final_url":"https://www.gov.uk/csv-preview/6a203e8831d692299df80d17/2026-06-02_202601_BDUK_uprn_release_sample.csv","future_gigabit":false,"identifier_namespace":"UPRN","license":"Open Government Licence v3.0","lineage_id":"internet_access_4-newstart-20261001T205200Z","local_authority_district_ons":"New Forest","local_authority_district_ons_code":"E07000091","owner":"cagdas aydin","page_generation":1,"partition":"plan0","postcode":"BH24 3RH","publication_update_date":"2026-06-04","region_ons":"South East","region_ons_code":"E12000008","semantic_mode":"SOURCE_AREA_EXACT_IDENTIFIER","sha256":"eb2b1db8bf70af92a4659a1dda1349d83cad58e0dac75e3801d95c03a7f3e0d0","slot_id":"internet_access_4","source_area_count_contribution":1,"source_url":"https://www.gov.uk/csv-preview/6a203e8831d692299df80d17/2026-06-02_202601_BDUK_uprn_release_sample.csv","spatial_binding_method":"official exact UPRN; canonical parcel spatial join/materialization delegated to local OpenCode"},"type":"Feature"},{"geometry":null,"properties":{"accepted_as_parcel":false,"access_utc":"2026-10-01T21:39:53Z","confidence":0.99,"confidence_score_0_100":99,"coverage_polygon_provided":false,"current_gigabit":true,"data_date":"2026-01","evidence_grade":"A","evidence_slice_sha256":"eb2b1db8bf70af92a4659a1dda1349d83cad58e0dac75e3801d95c03a7f3e0d0","exact_identifier":"10007447222","exact_identifier_provided":true,"fake_data":false,"field_evidence":{"bduk_recognised_premises":true,"country":"England","current_gigabit":true,"future_gigabit":false,"local_authority_district_ons":"New Forest","local_authority_district_ons_code":"E07000091","lot_id":27,"lot_name":"Hampshire","postcode":"BH24 4DB","region_ons":"South East","region_ons_code":"E12000008","struprn":"str10007447222","subsidy_control_status":"Gigabit Grey/Black","uprn":"10007447222"},"final_url":"https://www.gov.uk/csv-preview/6a203e8831d692299df80d17/2026-06-02_202601_BDUK_uprn_release_sample.csv","future_gigabit":false,"identifier_namespace":"UPRN","license":"Open Government Licence v3.0","lineage_id":"internet_access_4-newstart-20261001T205200Z","local_authority_district_ons":"New Forest","local_authority_district_ons_code":"E07000091","owner":"cagdas aydin","page_generation":1,"partition":"plan0","postcode":"BH24 4DB","publication_update_date":"2026-06-04","region_ons":"South East","region_ons_code":"E12000008","semantic_mode":"SOURCE_AREA_EXACT_IDENTIFIER","sha256":"eb2b1db8bf70af92a4659a1dda1349d83cad58e0dac75e3801d95c03a7f3e0d0","slot_id":"internet_access_4","source_area_count_contribution":1,"source_url":"https://www.gov.uk/csv-preview/6a203e8831d692299df80d17/2026-06-02_202601_BDUK_uprn_release_sample.csv","spatial_binding_method":"official exact UPRN; canonical parcel spatial join/materialization delegated to local OpenCode"},"type":"Feature"},{"geometry":null,"properties":{"accepted_as_parcel":false,"access_utc":"2026-10-01T21:39:53Z","confidence":0.99,"confidence_score_0_100":99,"coverage_polygon_provided":false,"current_gigabit":true,"data_date":"2026-01","evidence_grade":"A","evidence_slice_sha256":"eb2b1db8bf70af92a4659a1dda1349d83cad58e0dac75e3801d95c03a7f3e0d0","exact_identifier":"10007452155","exact_identifier_provided":true,"fake_data":false,"field_evidence":{"bduk_recognised_premises":true,"country":"England","current_gigabit":true,"future_gigabit":true,"local_authority_district_ons":"New Forest","local_authority_district_ons_code":"E07000091","lot_id":27,"lot_name":"Hampshire","postcode":"BH25 5AT","region_ons":"South East","region_ons_code":"E12000008","struprn":"str10007452155","subsidy_control_status":"Gigabit Grey/Black","uprn":"10007452155"},"final_url":"https://www.gov.uk/csv-preview/6a203e8831d692299df80d17/2026-06-02_202601_BDUK_uprn_release_sample.csv","future_gigabit":true,"identifier_namespace":"UPRN","license":"Open Government Licence v3.0","lineage_id":"internet_access_4-newstart-20261001T205200Z","local_authority_district_ons":"New Forest","local_authority_district_ons_code":"E07000091","owner":"cagdas aydin","page_generation":1,"partition":"plan0","postcode":"BH25 5AT","publication_update_date":"2026-06-04","region_ons":"South East","region_ons_code":"E12000008","semantic_mode":"SOURCE_AREA_EXACT_IDENTIFIER","sha256":"eb2b1db8bf70af92a4659a1dda1349d83cad58e0dac75e3801d95c03a7f3e0d0","slot_id":"internet_access_4","source_area_count_contribution":1,"source_url":"https://www.gov.uk/csv-preview/6a203e8831d692299df80d17/2026-06-02_202601_BDUK_uprn_release_sample.csv","spatial_binding_method":"official exact UPRN; canonical parcel spatial join/materialization delegated to local OpenCode"},"type":"Feature"},{"geometry":null,"properties":{"accepted_as_parcel":false,"access_utc":"2026-10-01T21:39:53Z","confidence":0.99,"confidence_score_0_100":99,"coverage_polygon_provided":false,"current_gigabit":true,"data_date":"2026-01","evidence_grade":"A","evidence_slice_sha256":"eb2b1db8bf70af92a4659a1dda1349d83cad58e0dac75e3801d95c03a7f3e0d0","exact_identifier":"100060486446","exact_identifier_provided":true,"fake_data":false,"field_evidence":{"bduk_recognised_premises":true,"country":"England","current_gigabit":true,"future_gigabit":true,"local_authority_district_ons":"New Forest","local_authority_district_ons_code":"E07000091","lot_id":27,"lot_name":"Hampshire","postcode":"BH25 5AZ","region_ons":"South East","region_ons_code":"E12000008","struprn":"str100060486446","subsidy_control_status":"Gigabit Grey/Black","uprn":"100060486446"},"final_url":"https://www.gov.uk/csv-preview/6a203e8831d692299df80d17/2026-06-02_202601_BDUK_uprn_release_sample.csv","future_gigabit":true,"identifier_namespace":"UPRN","license":"Open Government Licence v3.0","lineage_id":"internet_access_4-newstart-20261001T205200Z","local_authority_district_ons":"New Forest","local_authority_district_ons_code":"E07000091","owner":"cagdas aydin","page_generation":1,"partition":"plan0","postcode":"BH25 5AZ","publication_update_date":"2026-06-04","region_ons":"South East","region_ons_code":"E12000008","semantic_mode":"SOURCE_AREA_EXACT_IDENTIFIER","sha256":"eb2b1db8bf70af92a4659a1dda1349d83cad58e0dac75e3801d95c03a7f3e0d0","slot_id":"internet_access_4","source_area_count_contribution":1,"source_url":"https://www.gov.uk/csv-preview/6a203e8831d692299df80d17/2026-06-02_202601_BDUK_uprn_release_sample.csv","spatial_binding_method":"official exact UPRN; canonical parcel spatial join/materialization delegated to local OpenCode"},"type":"Feature"},{"geometry":null,"properties":{"accepted_as_parcel":false,"access_utc":"2026-10-01T21:39:53Z","confidence":0.99,"confidence_score_0_100":99,"coverage_polygon_provided":false,"current_gigabit":true,"data_date":"2026-01","evidence_grade":"A","evidence_slice_sha256":"eb2b1db8bf70af92a4659a1dda1349d83cad58e0dac75e3801d95c03a7f3e0d0","exact_identifier":"100060486458","exact_identifier_provided":true,"fake_data":false,"field_evidence":{"bduk_recognised_premises":true,"country":"England","current_gigabit":true,"future_gigabit":true,"local_authority_district_ons":"New Forest","local_authority_district_ons_code":"E07000091","lot_id":27,"lot_name":"Hampshire","postcode":"BH25 5AZ","region_ons":"South East","region_ons_code":"E12000008","struprn":"str100060486458","subsidy_control_status":"Gigabit Grey/Black","uprn":"100060486458"},"final_url":"https://www.gov.uk/csv-preview/6a203e8831d692299df80d17/2026-06-02_202601_BDUK_uprn_release_sample.csv","future_gigabit":true,"identifier_namespace":"UPRN","license":"Open Government Licence v3.0","lineage_id":"internet_access_4-newstart-20261001T205200Z","local_authority_district_ons":"New Forest","local_authority_district_ons_code":"E07000091","owner":"cagdas aydin","page_generation":1,"partition":"plan0","postcode":"BH25 5AZ","publication_update_date":"2026-06-04","region_ons":"South East","region_ons_code":"E12000008","semantic_mode":"SOURCE_AREA_EXACT_IDENTIFIER","sha256":"eb2b1db8bf70af92a4659a1dda1349d83cad58e0dac75e3801d95c03a7f3e0d0","slot_id":"internet_access_4","source_area_count_contribution":1,"source_url":"https://www.gov.uk/csv-preview/6a203e8831d692299df80d17/2026-06-02_202601_BDUK_uprn_release_sample.csv","spatial_binding_method":"official exact UPRN; canonical parcel spatial join/materialization delegated to local OpenCode"},"type":"Feature"},{"geometry":null,"properties":{"accepted_as_parcel":false,"access_utc":"2026-10-01T21:39:53Z","confidence":0.99,"confidence_score_0_100":99,"coverage_polygon_provided":false,"current_gigabit":true,"data_date":"2026-01","evidence_grade":"A","evidence_slice_sha256":"eb2b1db8bf70af92a4659a1dda1349d83cad58e0dac75e3801d95c03a7f3e0d0","exact_identifier":"100060493549","exact_identifier_provided":true,"fake_data":false,"field_evidence":{"bduk_recognised_premises":true,"country":"England","current_gigabit":true,"future_gigabit":true,"local_authority_district_ons":"New Forest","local_authority_district_ons_code":"E07000091","lot_id":27,"lot_name":"Hampshire","postcode":"BH25 5BA","region_ons":"South East","region_ons_code":"E12000008","struprn":"str100060493549","subsidy_control_status":"Gigabit Grey/Black","uprn":"100060493549"},"final_url":"https://www.gov.uk/csv-preview/6a203e8831d692299df80d17/2026-06-02_202601_BDUK_uprn_release_sample.csv","future_gigabit":true,"identifier_namespace":"UPRN","license":"Open Government Licence v3.0","lineage_id":"internet_access_4-newstart-20261001T205200Z","local_authority_district_ons":"New Forest","local_authority_district_ons_code":"E07000091","owner":"cagdas aydin","page_generation":1,"partition":"plan0","postcode":"BH25 5BA","publication_update_date":"2026-06-04","region_ons":"South East","region_ons_code":"E12000008","semantic_mode":"SOURCE_AREA_EXACT_IDENTIFIER","sha256":"eb2b1db8bf70af92a4659a1dda1349d83cad58e0dac75e3801d95c03a7f3e0d0","slot_id":"internet_access_4","source_area_count_contribution":1,"source_url":"https://www.gov.uk/csv-preview/6a203e8831d692299df80d17/2026-06-02_202601_BDUK_uprn_release_sample.csv","spatial_binding_method":"official exact UPRN; canonical parcel spatial join/materialization delegated to local OpenCode"},"type":"Feature"},{"geometry":null,"properties":{"accepted_as_parcel":false,"access_utc":"2026-10-01T21:39:53Z","confidence":0.99,"confidence_score_0_100":99,"coverage_polygon_provided":false,"current_gigabit":true,"data_date":"2026-01","evidence_grade":"A","evidence_slice_sha256":"eb2b1db8bf70af92a4659a1dda1349d83cad58e0dac75e3801d95c03a7f3e0d0","exact_identifier":"100060491101","exact_identifier_provided":true,"fake_data":false,"field_evidence":{"bduk_recognised_premises":true,"country":"England","current_gigabit":true,"future_gigabit":true,"local_authority_district_ons":"New Forest","local_authority_district_ons_code":"E07000091","lot_id":27,"lot_name":"Hampshire","postcode":"BH25 5BE","region_ons":"South East","region_ons_code":"E12000008","struprn":"str100060491101","subsidy_control_status":"Gigabit Grey/Black","uprn":"100060491101"},"final_url":"https://www.gov.uk/csv-preview/6a203e8831d692299df80d17/2026-06-02_202601_BDUK_uprn_release_sample.csv","future_gigabit":true,"identifier_namespace":"UPRN","license":"Open Government Licence v3.0","lineage_id":"internet_access_4-newstart-20261001T205200Z","local_authority_district_ons":"New Forest","local_authority_district_ons_code":"E07000091","owner":"cagdas aydin","page_generation":1,"partition":"plan0","postcode":"BH25 5BE","publication_update_date":"2026-06-04","region_ons":"South East","region_ons_code":"E12000008","semantic_mode":"SOURCE_AREA_EXACT_IDENTIFIER","sha256":"eb2b1db8bf70af92a4659a1dda1349d83cad58e0dac75e3801d95c03a7f3e0d0","slot_id":"internet_access_4","source_area_count_contribution":1,"source_url":"https://www.gov.uk/csv-preview/6a203e8831d692299df80d17/2026-06-02_202601_BDUK_uprn_release_sample.csv","spatial_binding_method":"official exact UPRN; canonical parcel spatial join/materialization delegated to local OpenCode"},"type":"Feature"},{"geometry":null,"properties":{"accepted_as_parcel":false,"access_utc":"2026-10-01T21:39:53Z","confidence":0.99,"confidence_score_0_100":99,"coverage_polygon_provided":false,"current_gigabit":true,"data_date":"2026-01","evidence_grade":"A","evidence_slice_sha256":"eb2b1db8bf70af92a4659a1dda1349d83cad58e0dac75e3801d95c03a7f3e0d0","exact_identifier":"100060493078","exact_identifier_provided":true,"fake_data":false,"field_evidence":{"bduk_recognised_premises":true,"country":"England","current_gigabit":true,"future_gigabit":true,"local_authority_district_ons":"New Forest","local_authority_district_ons_code":"E07000091","lot_id":27,"lot_name":"Hampshire","postcode":"BH25 5BH","region_ons":"South East","region_ons_code":"E12000008","struprn":"str100060493078","subsidy_control_status":"Gigabit Grey/Black","uprn":"100060493078"},"final_url":"https://www.gov.uk/csv-preview/6a203e8831d692299df80d17/2026-06-02_202601_BDUK_uprn_release_sample.csv","future_gigabit":true,"identifier_namespace":"UPRN","license":"Open Government Licence v3.0","lineage_id":"internet_access_4-newstart-20261001T205200Z","local_authority_district_ons":"New Forest","local_authority_district_ons_code":"E07000091","owner":"cagdas aydin","page_generation":1,"partition":"plan0","postcode":"BH25 5BH","publication_update_date":"2026-06-04","region_ons":"South East","region_ons_code":"E12000008","semantic_mode":"SOURCE_AREA_EXACT_IDENTIFIER","sha256":"eb2b1db8bf70af92a4659a1dda1349d83cad58e0dac75e3801d95c03a7f3e0d0","slot_id":"internet_access_4","source_area_count_contribution":1,"source_url":"https://www.gov.uk/csv-preview/6a203e8831d692299df80d17/2026-06-02_202601_BDUK_uprn_release_sample.csv","spatial_binding_method":"official exact UPRN; canonical parcel spatial join/materialization delegated to local OpenCode"},"type":"Feature"},{"geometry":null,"properties":{"accepted_as_parcel":false,"access_utc":"2026-10-01T21:39:53Z","confidence":0.99,"confidence_score_0_100":99,"coverage_polygon_provided":false,"current_gigabit":true,"data_date":"2026-01","evidence_grade":"A","evidence_slice_sha256":"eb2b1db8bf70af92a4659a1dda1349d83cad58e0dac75e3801d95c03a7f3e0d0","exact_identifier":"100060485507","exact_identifier_provided":true,"fake_data":false,"field_evidence":{"bduk_recognised_premises":true,"country":"England","current_gigabit":true,"future_gigabit":true,"local_authority_district_ons":"New Forest","local_authority_district_ons_code":"E07000091","lot_id":27,"lot_name":"Hampshire","postcode":"BH25 5BL","region_ons":"South East","region_ons_code":"E12000008","struprn":"str100060485507","subsidy_control_status":"Gigabit Grey/Black","uprn":"100060485507"},"final_url":"https://www.gov.uk/csv-preview/6a203e8831d692299df80d17/2026-06-02_202601_BDUK_uprn_release_sample.csv","future_gigabit":true,"identifier_namespace":"UPRN","license":"Open Government Licence v3.0","lineage_id":"internet_access_4-newstart-20261001T205200Z","local_authority_district_ons":"New Forest","local_authority_district_ons_code":"E07000091","owner":"cagdas aydin","page_generation":1,"partition":"plan0","postcode":"BH25 5BL","publication_update_date":"2026-06-04","region_ons":"South East","region_ons_code":"E12000008","semantic_mode":"SOURCE_AREA_EXACT_IDENTIFIER","sha256":"eb2b1db8bf70af92a4659a1dda1349d83cad58e0dac75e3801d95c03a7f3e0d0","slot_id":"internet_access_4","source_area_count_contribution":1,"source_url":"https://www.gov.uk/csv-preview/6a203e8831d692299df80d17/2026-06-02_202601_BDUK_uprn_release_sample.csv","spatial_binding_method":"official exact UPRN; canonical parcel spatial join/materialization delegated to local OpenCode"},"type":"Feature"},{"geometry":null,"properties":{"accepted_as_parcel":false,"access_utc":"2026-10-01T21:39:53Z","confidence":0.99,"confidence_score_0_100":99,"coverage_polygon_provided":false,"current_gigabit":true,"data_date":"2026-01","evidence_grade":"A","evidence_slice_sha256":"eb2b1db8bf70af92a4659a1dda1349d83cad58e0dac75e3801d95c03a7f3e0d0","exact_identifier":"100060485479","exact_identifier_provided":true,"fake_data":false,"field_evidence":{"bduk_recognised_premises":true,"country":"England","current_gigabit":true,"future_gigabit":true,"local_authority_district_ons":"New Forest","local_authority_district_ons_code":"E07000091","lot_id":27,"lot_name":"Hampshire","postcode":"BH25 5BP","region_ons":"South East","region_ons_code":"E12000008","struprn":"str100060485479","subsidy_control_status":"Gigabit Grey/Black","uprn":"100060485479"},"final_url":"https://www.gov.uk/csv-preview/6a203e8831d692299df80d17/2026-06-02_202601_BDUK_uprn_release_sample.csv","future_gigabit":true,"identifier_namespace":"UPRN","license":"Open Government Licence v3.0","lineage_id":"internet_access_4-newstart-20261001T205200Z","local_authority_district_ons":"New Forest","local_authority_district_ons_code":"E07000091","owner":"cagdas aydin","page_generation":1,"partition":"plan0","postcode":"BH25 5BP","publication_update_date":"2026-06-04","region_ons":"South East","region_ons_code":"E12000008","semantic_mode":"SOURCE_AREA_EXACT_IDENTIFIER","sha256":"eb2b1db8bf70af92a4659a1dda1349d83cad58e0dac75e3801d95c03a7f3e0d0","slot_id":"internet_access_4","source_area_count_contribution":1,"source_url":"https://www.gov.uk/csv-preview/6a203e8831d692299df80d17/2026-06-02_202601_BDUK_uprn_release_sample.csv","spatial_binding_method":"official exact UPRN; canonical parcel spatial join/materialization delegated to local OpenCode"},"type":"Feature"},{"geometry":null,"properties":{"accepted_as_parcel":false,"access_utc":"2026-10-01T21:39:53Z","confidence":0.99,"confidence_score_0_100":99,"coverage_polygon_provided":false,"current_gigabit":true,"data_date":"2026-01","evidence_grade":"A","evidence_slice_sha256":"eb2b1db8bf70af92a4659a1dda1349d83cad58e0dac75e3801d95c03a7f3e0d0","exact_identifier":"100060485487","exact_identifier_provided":true,"fake_data":false,"field_evidence":{"bduk_recognised_premises":true,"country":"England","current_gigabit":true,"future_gigabit":true,"local_authority_district_ons":"New Forest","local_authority_district_ons_code":"E07000091","lot_id":27,"lot_name":"Hampshire","postcode":"BH25 5BP","region_ons":"South East","region_ons_code":"E12000008","struprn":"str100060485487","subsidy_control_status":"Gigabit Grey/Black","uprn":"100060485487"},"final_url":"https://www.gov.uk/csv-preview/6a203e8831d692299df80d17/2026-06-02_202601_BDUK_uprn_release_sample.csv","future_gigabit":true,"identifier_namespace":"UPRN","license":"Open Government Licence v3.0","lineage_id":"internet_access_4-newstart-20261001T205200Z","local_authority_district_ons":"New Forest","local_authority_district_ons_code":"E07000091","owner":"cagdas aydin","page_generation":1,"partition":"plan0","postcode":"BH25 5BP","publication_update_date":"2026-06-04","region_ons":"South East","region_ons_code":"E12000008","semantic_mode":"SOURCE_AREA_EXACT_IDENTIFIER","sha256":"eb2b1db8bf70af92a4659a1dda1349d83cad58e0dac75e3801d95c03a7f3e0d0","slot_id":"internet_access_4","source_area_count_contribution":1,"source_url":"https://www.gov.uk/csv-preview/6a203e8831d692299df80d17/2026-06-02_202601_BDUK_uprn_release_sample.csv","spatial_binding_method":"official exact UPRN; canonical parcel spatial join/materialization delegated to local OpenCode"},"type":"Feature"},{"geometry":null,"properties":{"accepted_as_parcel":false,"access_utc":"2026-10-01T21:39:53Z","confidence":0.99,"confidence_score_0_100":99,"coverage_polygon_provided":false,"current_gigabit":true,"data_date":"2026-01","evidence_grade":"A","evidence_slice_sha256":"eb2b1db8bf70af92a4659a1dda1349d83cad58e0dac75e3801d95c03a7f3e0d0","exact_identifier":"10007452195","exact_identifier_provided":true,"fake_data":false,"field_evidence":{"bduk_recognised_premises":true,"country":"England","current_gigabit":true,"future_gigabit":true,"local_authority_district_ons":"New Forest","local_authority_district_ons_code":"E07000091","lot_id":27,"lot_name":"Hampshire","postcode":"BH25 5BT","region_ons":"South East","region_ons_code":"E12000008","struprn":"str10007452195","subsidy_control_status":"Gigabit Grey/Black","uprn":"10007452195"},"final_url":"https://www.gov.uk/csv-preview/6a203e8831d692299df80d17/2026-06-02_202601_BDUK_uprn_release_sample.csv","future_gigabit":true,"identifier_namespace":"UPRN","license":"Open Government Licence v3.0","lineage_id":"internet_access_4-newstart-20261001T205200Z","local_authority_district_ons":"New Forest","local_authority_district_ons_code":"E07000091","owner":"cagdas aydin","page_generation":1,"partition":"plan0","postcode":"BH25 5BT","publication_update_date":"2026-06-04","region_ons":"South East","region_ons_code":"E12000008","semantic_mode":"SOURCE_AREA_EXACT_IDENTIFIER","sha256":"eb2b1db8bf70af92a4659a1dda1349d83cad58e0dac75e3801d95c03a7f3e0d0","slot_id":"internet_access_4","source_area_count_contribution":1,"source_url":"https://www.gov.uk/csv-preview/6a203e8831d692299df80d17/2026-06-02_202601_BDUK_uprn_release_sample.csv","spatial_binding_method":"official exact UPRN; canonical parcel spatial join/materialization delegated to local OpenCode"},"type":"Feature"},{"geometry":null,"properties":{"accepted_as_parcel":false,"access_utc":"2026-10-01T21:39:53Z","confidence":0.99,"confidence_score_0_100":99,"coverage_polygon_provided":false,"current_gigabit":true,"data_date":"2026-01","evidence_grade":"A","evidence_slice_sha256":"eb2b1db8bf70af92a4659a1dda1349d83cad58e0dac75e3801d95c03a7f3e0d0","exact_identifier":"10007452217","exact_identifier_provided":true,"fake_data":false,"field_evidence":{"bduk_recognised_premises":true,"country":"England","current_gigabit":true,"future_gigabit":true,"local_authority_district_ons":"New Forest","local_authority_district_ons_code":"E07000091","lot_id":27,"lot_name":"Hampshire","postcode":"BH25 5BU","region_ons":"South East","region_ons_code":"E12000008","struprn":"str10007452217","subsidy_control_status":"Gigabit Grey/Black","uprn":"10007452217"},"final_url":"https://www.gov.uk/csv-preview/6a203e8831d692299df80d17/2026-06-02_202601_BDUK_uprn_release_sample.csv","future_gigabit":true,"identifier_namespace":"UPRN","license":"Open Government Licence v3.0","lineage_id":"internet_access_4-newstart-20261001T205200Z","local_authority_district_ons":"New Forest","local_authority_district_ons_code":"E07000091","owner":"cagdas aydin","page_generation":1,"partition":"plan0","postcode":"BH25 5BU","publication_update_date":"2026-06-04","region_ons":"South East","region_ons_code":"E12000008","semantic_mode":"SOURCE_AREA_EXACT_IDENTIFIER","sha256":"eb2b1db8bf70af92a4659a1dda1349d83cad58e0dac75e3801d95c03a7f3e0d0","slot_id":"internet_access_4","source_area_count_contribution":1,"source_url":"https://www.gov.uk/csv-preview/6a203e8831d692299df80d17/2026-06-02_202601_BDUK_uprn_release_sample.csv","spatial_binding_method":"official exact UPRN; canonical parcel spatial join/materialization delegated to local OpenCode"},"type":"Feature"},{"geometry":null,"properties":{"accepted_as_parcel":false,"access_utc":"2026-10-01T21:39:53Z","confidence":0.99,"confidence_score_0_100":99,"coverage_polygon_provided":false,"current_gigabit":true,"data_date":"2026-01","evidence_grade":"A","evidence_slice_sha256":"eb2b1db8bf70af92a4659a1dda1349d83cad58e0dac75e3801d95c03a7f3e0d0","exact_identifier":"10007452224","exact_identifier_provided":true,"fake_data":false,"field_evidence":{"bduk_recognised_premises":true,"country":"England","current_gigabit":true,"future_gigabit":true,"local_authority_district_ons":"New Forest","local_authority_district_ons_code":"E07000091","lot_id":27,"lot_name":"Hampshire","postcode":"BH25 5BU","region_ons":"South East","region_ons_code":"E12000008","struprn":"str10007452224","subsidy_control_status":"Gigabit Grey/Black","uprn":"10007452224"},"final_url":"https://www.gov.uk/csv-preview/6a203e8831d692299df80d17/2026-06-02_202601_BDUK_uprn_release_sample.csv","future_gigabit":true,"identifier_namespace":"UPRN","license":"Open Government Licence v3.0","lineage_id":"internet_access_4-newstart-20261001T205200Z","local_authority_district_ons":"New Forest","local_authority_district_ons_code":"E07000091","owner":"cagdas aydin","page_generation":1,"partition":"plan0","postcode":"BH25 5BU","publication_update_date":"2026-06-04","region_ons":"South East","region_ons_code":"E12000008","semantic_mode":"SOURCE_AREA_EXACT_IDENTIFIER","sha256":"eb2b1db8bf70af92a4659a1dda1349d83cad58e0dac75e3801d95c03a7f3e0d0","slot_id":"internet_access_4","source_area_count_contribution":1,"source_url":"https://www.gov.uk/csv-preview/6a203e8831d692299df80d17/2026-06-02_202601_BDUK_uprn_release_sample.csv","spatial_binding_method":"official exact UPRN; canonical parcel spatial join/materialization delegated to local OpenCode"},"type":"Feature"},{"geometry":null,"properties":{"accepted_as_parcel":false,"access_utc":"2026-10-01T21:39:53Z","confidence":0.99,"confidence_score_0_100":99,"coverage_polygon_provided":false,"current_gigabit":true,"data_date":"2026-01","evidence_grade":"A","evidence_slice_sha256":"eb2b1db8bf70af92a4659a1dda1349d83cad58e0dac75e3801d95c03a7f3e0d0","exact_identifier":"100060493389","exact_identifier_provided":true,"fake_data":false,"field_evidence":{"bduk_recognised_premises":true,"country":"England","current_gigabit":true,"future_gigabit":true,"local_authority_district_ons":"New Forest","local_authority_district_ons_code":"E07000091","lot_id":27,"lot_name":"Hampshire","postcode":"BH25 5BX","region_ons":"South East","region_ons_code":"E12000008","struprn":"str100060493389","subsidy_control_status":"Gigabit Grey/Black","uprn":"100060493389"},"final_url":"https://www.gov.uk/csv-preview/6a203e8831d692299df80d17/2026-06-02_202601_BDUK_uprn_release_sample.csv","future_gigabit":true,"identifier_namespace":"UPRN","license":"Open Government Licence v3.0","lineage_id":"internet_access_4-newstart-20261001T205200Z","local_authority_district_ons":"New Forest","local_authority_district_ons_code":"E07000091","owner":"cagdas aydin","page_generation":1,"partition":"plan0","postcode":"BH25 5BX","publication_update_date":"2026-06-04","region_ons":"South East","region_ons_code":"E12000008","semantic_mode":"SOURCE_AREA_EXACT_IDENTIFIER","sha256":"eb2b1db8bf70af92a4659a1dda1349d83cad58e0dac75e3801d95c03a7f3e0d0","slot_id":"internet_access_4","source_area_count_contribution":1,"source_url":"https://www.gov.uk/csv-preview/6a203e8831d692299df80d17/2026-06-02_202601_BDUK_uprn_release_sample.csv","spatial_binding_method":"official exact UPRN; canonical parcel spatial join/materialization delegated to local OpenCode"},"type":"Feature"},{"geometry":null,"properties":{"accepted_as_parcel":false,"access_utc":"2026-10-01T21:39:53Z","confidence":0.99,"confidence_score_0_100":99,"coverage_polygon_provided":false,"current_gigabit":true,"data_date":"2026-01","evidence_grade":"A","evidence_slice_sha256":"eb2b1db8bf70af92a4659a1dda1349d83cad58e0dac75e3801d95c03a7f3e0d0","exact_identifier":"100060491158","exact_identifier_provided":true,"fake_data":false,"field_evidence":{"bduk_recognised_premises":true,"country":"England","current_gigabit":true,"future_gigabit":true,"local_authority_district_ons":"New Forest","local_authority_district_ons_code":"E07000091","lot_id":27,"lot_name":"Hampshire","postcode":"BH25 5DY","region_ons":"South East","region_ons_code":"E12000008","struprn":"str100060491158","subsidy_control_status":"Gigabit Grey/Black","uprn":"100060491158"},"final_url":"https://www.gov.uk/csv-preview/6a203e8831d692299df80d17/2026-06-02_202601_BDUK_uprn_release_sample.csv","future_gigabit":true,"identifier_namespace":"UPRN","license":"Open Government Licence v3.0","lineage_id":"internet_access_4-newstart-20261001T205200Z","local_authority_district_ons":"New Forest","local_authority_district_ons_code":"E07000091","owner":"cagdas aydin","page_generation":1,"partition":"plan0","postcode":"BH25 5DY","publication_update_date":"2026-06-04","region_ons":"South East","region_ons_code":"E12000008","semantic_mode":"SOURCE_AREA_EXACT_IDENTIFIER","sha256":"eb2b1db8bf70af92a4659a1dda1349d83cad58e0dac75e3801d95c03a7f3e0d0","slot_id":"internet_access_4","source_area_count_contribution":1,"source_url":"https://www.gov.uk/csv-preview/6a203e8831d692299df80d17/2026-06-02_202601_BDUK_uprn_release_sample.csv","spatial_binding_method":"official exact UPRN; canonical parcel spatial join/materialization delegated to local OpenCode"},"type":"Feature"},{"geometry":null,"properties":{"accepted_as_parcel":false,"access_utc":"2026-10-01T21:39:53Z","confidence":0.99,"confidence_score_0_100":99,"coverage_polygon_provided":false,"current_gigabit":true,"data_date":"2026-01","evidence_grade":"A","evidence_slice_sha256":"eb2b1db8bf70af92a4659a1dda1349d83cad58e0dac75e3801d95c03a7f3e0d0","exact_identifier":"100060493461","exact_identifier_provided":true,"fake_data":false,"field_evidence":{"bduk_recognised_premises":true,"country":"England","current_gigabit":true,"future_gigabit":true,"local_authority_district_ons":"New Forest","local_authority_district_ons_code":"E07000091","lot_id":27,"lot_name":"Hampshire","postcode":"BH25 5EB","region_ons":"South East","region_ons_code":"E12000008","struprn":"str100060493461","subsidy_control_status":"Gigabit Grey/Black","uprn":"100060493461"},"final_url":"https://www.gov.uk/csv-preview/6a203e8831d692299df80d17/2026-06-02_202601_BDUK_uprn_release_sample.csv","future_gigabit":true,"identifier_namespace":"UPRN","license":"Open Government Licence v3.0","lineage_id":"internet_access_4-newstart-20261001T205200Z","local_authority_district_ons":"New Forest","local_authority_district_ons_code":"E07000091","owner":"cagdas aydin","page_generation":1,"partition":"plan0","postcode":"BH25 5EB","publication_update_date":"2026-06-04","region_ons":"South East","region_ons_code":"E12000008","semantic_mode":"SOURCE_AREA_EXACT_IDENTIFIER","sha256":"eb2b1db8bf70af92a4659a1dda1349d83cad58e0dac75e3801d95c03a7f3e0d0","slot_id":"internet_access_4","source_area_count_contribution":1,"source_url":"https://www.gov.uk/csv-preview/6a203e8831d692299df80d17/2026-06-02_202601_BDUK_uprn_release_sample.csv","spatial_binding_method":"official exact UPRN; canonical parcel spatial join/materialization delegated to local OpenCode"},"type":"Feature"},{"geometry":null,"properties":{"accepted_as_parcel":false,"access_utc":"2026-10-01T21:39:53Z","confidence":0.99,"confidence_score_0_100":99,"coverage_polygon_provided":false,"current_gigabit":true,"data_date":"2026-01","evidence_grade":"A","evidence_slice_sha256":"eb2b1db8bf70af92a4659a1dda1349d83cad58e0dac75e3801d95c03a7f3e0d0","exact_identifier":"100060486497","exact_identifier_provided":true,"fake_data":false,"field_evidence":{"bduk_recognised_premises":true,"country":"England","current_gigabit":true,"future_gigabit":true,"local_authority_district_ons":"New Forest","local_authority_district_ons_code":"E07000091","lot_id":27,"lot_name":"Hampshire","postcode":"BH25 5EG","region_ons":"South East","region_ons_code":"E12000008","struprn":"str100060486497","subsidy_control_status":"Gigabit Grey/Black","uprn":"100060486497"},"final_url":"https://www.gov.uk/csv-preview/6a203e8831d692299df80d17/2026-06-02_202601_BDUK_uprn_release_sample.csv","future_gigabit":true,"identifier_namespace":"UPRN","license":"Open Government Licence v3.0","lineage_id":"internet_access_4-newstart-20261001T205200Z","local_authority_district_ons":"New Forest","local_authority_district_ons_code":"E07000091","owner":"cagdas aydin","page_generation":1,"partition":"plan0","postcode":"BH25 5EG","publication_update_date":"2026-06-04","region_ons":"South East","region_ons_code":"E12000008","semantic_mode":"SOURCE_AREA_EXACT_IDENTIFIER","sha256":"eb2b1db8bf70af92a4659a1dda1349d83cad58e0dac75e3801d95c03a7f3e0d0","slot_id":"internet_access_4","source_area_count_contribution":1,"source_url":"https://www.gov.uk/csv-preview/6a203e8831d692299df80d17/2026-06-02_202601_BDUK_uprn_release_sample.csv","spatial_binding_method":"official exact UPRN; canonical parcel spatial join/materialization delegated to local OpenCode"},"type":"Feature"},{"geometry":null,"properties":{"accepted_as_parcel":false,"access_utc":"2026-10-01T21:39:53Z","confidence":0.99,"confidence_score_0_100":99,"coverage_polygon_provided":false,"current_gigabit":true,"data_date":"2026-01","evidence_grade":"A","evidence_slice_sha256":"eb2b1db8bf70af92a4659a1dda1349d83cad58e0dac75e3801d95c03a7f3e0d0","exact_identifier":"100060490317","exact_identifier_provided":true,"fake_data":false,"field_evidence":{"bduk_recognised_premises":true,"country":"England","current_gigabit":true,"future_gigabit":true,"local_authority_district_ons":"New Forest","local_authority_district_ons_code":"E07000091","lot_id":27,"lot_name":"Hampshire","postcode":"BH25 5EJ","region_ons":"South East","region_ons_code":"E12000008","struprn":"str100060490317","subsidy_control_status":"Gigabit Grey/Black","uprn":"100060490317"},"final_url":"https://www.gov.uk/csv-preview/6a203e8831d692299df80d17/2026-06-02_202601_BDUK_uprn_release_sample.csv","future_gigabit":true,"identifier_namespace":"UPRN","license":"Open Government Licence v3.0","lineage_id":"internet_access_4-newstart-20261001T205200Z","local_authority_district_ons":"New Forest","local_authority_district_ons_code":"E07000091","owner":"cagdas aydin","page_generation":1,"partition":"plan0","postcode":"BH25 5EJ","publication_update_date":"2026-06-04","region_ons":"South East","region_ons_code":"E12000008","semantic_mode":"SOURCE_AREA_EXACT_IDENTIFIER","sha256":"eb2b1db8bf70af92a4659a1dda1349d83cad58e0dac75e3801d95c03a7f3e0d0","slot_id":"internet_access_4","source_area_count_contribution":1,"source_url":"https://www.gov.uk/csv-preview/6a203e8831d692299df80d17/2026-06-02_202601_BDUK_uprn_release_sample.csv","spatial_binding_method":"official exact UPRN; canonical parcel spatial join/materialization delegated to local OpenCode"},"type":"Feature"}],"name":"internet_access_4","type":"FeatureCollection"}