{"type":"FeatureCollection","features":[{"type":"Feature","geometry":null,"properties":{"slot_id":"future_growth_1","lineage_id":"future_growth_1-newstart-20260927T153100+0300","page_generation":null,"accepted_as_parcel":false,"source_area_count_contribution":1,"exact_identifier":"Site 17","exact_identifier_provided":true,"coverage_polygon_provided":false,"identifier_namespace":"Lambeth SADPD proposed site allocation","site_name":"330-336 Brixton Road SW9","access_utc":"2026-10-02T04:45:00Z","data_date":"2026-03-03","source_url":"https://www.lambeth.gov.uk/planning-building-control/planning-policy-guidance/site-allocations-development-plan-document","final_url":"https://www.lambeth.gov.uk/planning-building-control/planning-policy-guidance/site-allocations-development-plan-document","inspector_report_url":"https://www.lambeth.gov.uk/sites/default/files/2026-04/Lambeth%20SADPD%20-%20Inspector%27s%20Final%20Report%20-%203%20March%202026_0.pdf","submission_documents_url":"https://www.lambeth.gov.uk/planning-building-control/planning-policy-guidance/sadpd-examination-library/submission-documents","license":"Publicly accessible Lambeth Council planning-policy and examination documents; document-specific reuse licence not stated on the source page","authority":"London Borough of Lambeth","site_area_hectares":0.52,"allocation_status":"new allocation","plan_stage":"Inspector's Final Report received 3 March 2026; SADPD not yet adopted on current council status page","ownership":"mixed private ownership","specific_ownership_note":"Nos. 332-334 Brixton Road owned by South London and Maudsley NHS Foundation Trust","evidence_grade":"A","confidence_score_0_100":99,"evidence_scope":"exact Lambeth SADPD proposed allocation Site 17 plus Inspector's Final Report and current council SADPD status page","evidence_slice_sha256":"5cb471df91157afcffa27de61da50f08681093094d1f741448bfd82c869f2568","fake_data":false,"spatial_binding_method":"official Site 17 allocation identifier and Inspector-confirmed new-allocation record; exact boundary resolution, canonical parcel spatial join and materialization delegated to local OpenCode","planned_building_count_contribution":0}}]}