{"type":"FeatureCollection","features":[{"type":"Feature","geometry":{"type":"MultiPolygon","coordinates":[[[[-1.012064,53.489347],[-1.011939,53.489353],[-1.012088,53.489649],[-1.012209,53.489829],[-1.012313,53.489942],[-1.012641,53.49009],[-1.013285,53.490095],[-1.013183,53.489334],[-1.012064,53.489347]]]]},"properties":{"slot_id":"future_growth_1","lineage_id":"future_growth_1-newstart-20260927T153100+0300","page_generation":null,"semantic_mode":"AREA_JOIN","source_window":"mhclg_doncaster_brownfield_site_93_entity1802760_2025-12-03_official_html_WKT","semantic_identity":"brownfield-site:93|local-authority:DNC|entity:1802760|entry:2025-12-03","source_url":"https://www.planning.data.gov.uk/entity/1802760","final_url":"https://www.planning.data.gov.uk/entity/1802760","final_url_status":"Official public entity HTML opened successfully, no-login; GeoJSON download returned cache miss","http_status":null,"http_status_reason":"Official HTML browser retrieval lacked numeric origin status","access_utc":"2026-10-09T10:07:30.662Z","data_date":"2025-12-03","data_date_basis":"Official entity entry-date","license":"Open Government Licence v3.0","license_evidence_url":"https://www.planning.data.gov.uk/dataset/brownfield-site","field_evidence":{"entry-date":"2025-12-03","start-date":"","end-date":"","entity":1802760,"name":"Land At First Avenue/Hayfield Lane, Auckley, Doncaster, DN9 3GA","dataset":"brownfield-site","typology":"geography","reference":"93","prefix":"brownfield-site","organisation-entity":"109","geometry":"MULTIPOLYGON (((-1.012064 53.489347, -1.011939 53.489353, -1.012088 53.489649, -1.012209 53.489829, -1.012313 53.489942, -1.012641 53.49009, -1.013285 53.490095, -1.013183 53.489334, -1.012064 53.489347)))","point":"POINT (-1.012692 53.489687)","quality":"authoritative","brownfield-site":"93"},"evidence_slice_sha256":"32cc7b2f595dc34a7dd445eb6e78a65ce19a0fc0f59fb50f1de5e5c476e9916a","confidence_score_0_100":95,"evidence_grade":"A","fake_data":false,"source_area_count_contribution":1,"accepted_as_parcel":false,"exact_identifier":"93","exact_identifier_provided":true,"identifier_namespace":"brownfield-site:local-authority:DNC","coverage_polygon_provided":true,"geometry_type":"MultiPolygon","geometry_crs":"EPSG:4326","source_file_sha256":null,"source_file_sha256_reason":"Official .geojson download attempted; cache miss so original bytes unavailable; no source raw hash asserted","spatial_binding_method":"Official MHCLG public entity HTML full WKT MultiPolygon EPSG:4326; local OpenCode canonical parcel spatial join pending","planned_building_count_contribution":0}}]}