{"type":"FeatureCollection","name":"building_type_9_batch_0026","features":[{"type":"Feature","id":"42213903","geometry":{"type":"MultiPolygon","coordinates":[[[[-0.267823,52.224532],[-0.267691,52.224732],[-0.267689,52.224733],[-0.267828,52.224768],[-0.267828,52.224772],[-0.267889,52.224791],[-0.267859,52.22484],[-0.267995,52.224866],[-0.267984,52.224892],[-0.267947,52.224885],[-0.267933,52.224912],[-0.267916,52.224952],[-0.267878,52.224943],[-0.267859,52.224975],[-0.267953,52.224999],[-0.268043,52.225016],[-0.268096,52.224884],[-0.26814,52.224766],[-0.268048,52.224752],[-0.268057,52.224754],[-0.268047,52.224774],[-0.268016,52.224768],[-0.268012,52.224755],[-0.268022,52.224739],[-0.267995,52.224732],[-0.267993,52.224734],[-0.267945,52.224721],[-0.26794,52.224728],[-0.267795,52.224691],[-0.267812,52.224665],[-0.267863,52.224678],[-0.267941,52.224562],[-0.267823,52.224532]]]]},"properties":{"slot_id":"building_type_9","lineage_id":"building_type_9-20261001T200900Z-newstart","batch_id":"batch-0026","page_generation":1,"source_entity":42213903,"source_reference":"1009","source_dataset":"listed-building-outline","source_organisation":"Huntingdonshire District Council","building_evidence_status":"BUILDING_PRESENT","parcel_status":"UNPROCESSED","canonical_parcel_id":null,"building_type":"listed_building","building_use":null,"poi_accepted":false,"field_evidence":{"footprint":"official listed-building-outline MULTIPOLYGON","type":"official dataset classification: listed-building-outline","name":"Nos 23, 25, 27 and 29, ST MARYS STREET, EYNESBURY","reference":"1009","use":"no use inferred"},"source_url":"https://www.planning.data.gov.uk/entity/42213903","final_url":"https://www.planning.data.gov.uk/entity/42213903","access_utc":"2026-10-05T10:40:00Z","data_date":"2026-08-13","licence":"Open Government Licence v3.0","evidence_slice_sha256":"eeae1e2d34a1352d96b0edc3d0784af4cec9c544d34a780c1eee50ec6ead55d1","confidence_score_0_100":94,"evidence_grade":"A","fake_data":false,"local_spatial_join_required":true}},{"type":"Feature","id":"42214005","geometry":{"type":"MultiPolygon","coordinates":[[[[-0.270231,52.227013],[-0.270165,52.227024],[-0.270187,52.227073],[-0.270224,52.227163],[-0.270262,52.22727],[-0.270208,52.227276],[-0.270234,52.227346],[-0.270304,52.22734],[-0.270307,52.227342],[-0.270355,52.227339],[-0.270358,52.227335],[-0.270361,52.227335],[-0.270331,52.227244],[-0.270265,52.227063],[-0.270254,52.227064],[-0.270231,52.227013]]]]},"properties":{"slot_id":"building_type_9","lineage_id":"building_type_9-20261001T200900Z-newstart","batch_id":"batch-0026","page_generation":1,"source_entity":42214005,"source_reference":"1001","source_dataset":"listed-building-outline","source_organisation":"Huntingdonshire District Council","building_evidence_status":"BUILDING_PRESENT","parcel_status":"UNPROCESSED","canonical_parcel_id":null,"building_type":"listed_building","building_use":null,"poi_accepted":false,"field_evidence":{"footprint":"official listed-building-outline MULTIPOLYGON","type":"official dataset classification: listed-building-outline","name":"No 30, MARKET SQUARE","reference":"1001","use":"no use inferred"},"source_url":"https://www.planning.data.gov.uk/entity/42214005","final_url":"https://www.planning.data.gov.uk/entity/42214005","access_utc":"2026-10-05T10:40:00Z","data_date":"2026-08-13","licence":"Open Government Licence v3.0","evidence_slice_sha256":"cba4ebd68e897d01543633554bb460c88f5c7187db22d552cbb0b7eadfaca5e4","confidence_score_0_100":94,"evidence_grade":"A","fake_data":false,"local_spatial_join_required":true}},{"type":"Feature","id":"42213538","geometry":{"type":"MultiPolygon","coordinates":[[[[-0.076332,52.324822],[-0.076378,52.32485],[-0.07646,52.324805],[-0.07677,52.324641],[-0.076724,52.324606],[-0.076687,52.324624],[-0.076324,52.324817],[-0.076332,52.324822]]]]},"properties":{"slot_id":"building_type_9","lineage_id":"building_type_9-20261001T200900Z-newstart","batch_id":"batch-0026","page_generation":1,"source_entity":42213538,"source_reference":"792","source_dataset":"listed-building-outline","source_organisation":"Huntingdonshire District Council","building_evidence_status":"BUILDING_PRESENT","parcel_status":"UNPROCESSED","canonical_parcel_id":null,"building_type":"listed_building","building_use":null,"poi_accepted":false,"field_evidence":{"footprint":"official listed-building-outline MULTIPOLYGON","type":"official dataset classification: listed-building-outline","name":"No 27, BROADWAY","reference":"792","use":"no use inferred"},"source_url":"https://www.planning.data.gov.uk/entity/42213538","final_url":"https://www.planning.data.gov.uk/entity/42213538","access_utc":"2026-10-05T10:40:00Z","data_date":"2007-07-25","licence":"Open Government Licence v3.0","evidence_slice_sha256":"40ba8edeeff874feaec50f3cac6acc6a03cf9a126cfdaa97112ed4fb00dd0bb0","confidence_score_0_100":94,"evidence_grade":"A","fake_data":false,"local_spatial_join_required":true}},{"type":"Feature","id":"42213986","geometry":{"type":"MultiPolygon","coordinates":[[[[-0.253449,52.513953],[-0.253599,52.513915],[-0.253562,52.513865],[-0.253483,52.513885],[-0.253444,52.513837],[-0.253369,52.513858],[-0.253449,52.513953]]]]},"properties":{"slot_id":"building_type_9","lineage_id":"building_type_9-20261001T200900Z-newstart","batch_id":"batch-0026","page_generation":1,"source_entity":42213986,"source_reference":"2172","source_dataset":"listed-building-outline","source_organisation":"Huntingdonshire District Council","building_evidence_status":"BUILDING_PRESENT","parcel_status":"UNPROCESSED","canonical_parcel_id":null,"building_type":"listed_building","building_use":null,"poi_accepted":false,"field_evidence":{"footprint":"official listed-building-outline MULTIPOLYGON","type":"official dataset classification: listed-building-outline","name":"No.47 MAIN STREET","reference":"2172","use":"no use inferred"},"source_url":"https://www.planning.data.gov.uk/entity/42213986","final_url":"https://www.planning.data.gov.uk/entity/42213986","access_utc":"2026-10-05T10:40:00Z","data_date":"2007-07-23","licence":"Open Government Licence v3.0","evidence_slice_sha256":"dbbe91ca7b312097c0972c4656df02ee5331901c6f3c4a9d5434afdc2a25af3b","confidence_score_0_100":94,"evidence_grade":"A","fake_data":false,"local_spatial_join_required":true}},{"type":"Feature","id":"42214196","geometry":{"type":"MultiPolygon","coordinates":[[[[-0.286892,52.48963],[-0.28683,52.489638],[-0.286849,52.48968],[-0.287086,52.489643],[-0.287066,52.489594],[-0.286888,52.489619],[-0.286892,52.48963]]]]},"properties":{"slot_id":"building_type_9","lineage_id":"building_type_9-20261001T200900Z-newstart","batch_id":"batch-0026","page_generation":1,"source_entity":42214196,"source_reference":"2098","source_dataset":"listed-building-outline","source_organisation":"Huntingdonshire District Council","building_evidence_status":"BUILDING_PRESENT","parcel_status":"UNPROCESSED","canonical_parcel_id":null,"building_type":"listed_building","building_use":null,"poi_accepted":false,"field_evidence":{"footprint":"official listed-building-outline MULTIPOLYGON","type":"official dataset classification: listed-building-outline","name":"No 8, FEN STREET","reference":"2098","use":"no use inferred"},"source_url":"https://www.planning.data.gov.uk/entity/42214196","final_url":"https://www.planning.data.gov.uk/entity/42214196","access_utc":"2026-10-05T10:40:00Z","data_date":"2007-07-23","licence":"Open Government Licence v3.0","evidence_slice_sha256":"0d39eb15a795f093c96d8bb7a4e44671318567c839c015b3b0ff0df97c4bb93b","confidence_score_0_100":94,"evidence_grade":"A","fake_data":false,"local_spatial_join_required":true}},{"type":"Feature","id":"42214464","geometry":{"type":"MultiPolygon","coordinates":[[[[-0.077807,52.319972],[-0.077844,52.319987],[-0.077829,52.320003],[-0.077931,52.320045],[-0.078042,52.319938],[-0.077892,52.319876],[-0.077861,52.319907],[-0.077896,52.319921],[-0.077871,52.319944],[-0.077847,52.319934],[-0.077807,52.319972]]]]},"properties":{"slot_id":"building_type_9","lineage_id":"building_type_9-20261001T200900Z-newstart","batch_id":"batch-0026","page_generation":1,"source_entity":42214464,"source_reference":"2199","source_dataset":"listed-building-outline","source_organisation":"Huntingdonshire District Council","building_evidence_status":"BUILDING_PRESENT","parcel_status":"UNPROCESSED","canonical_parcel_id":null,"building_type":"listed_building","building_use":null,"poi_accepted":false,"field_evidence":{"footprint":"official listed-building-outline MULTIPOLYGON","type":"official dataset classification: listed-building-outline","name":"Nos 8, 9 and 10, LONDON ROAD","reference":"2199","use":"no use inferred"},"source_url":"https://www.planning.data.gov.uk/entity/42214464","final_url":"https://www.planning.data.gov.uk/entity/42214464","access_utc":"2026-10-05T10:40:00Z","data_date":"2007-07-23","licence":"Open Government Licence v3.0","evidence_slice_sha256":"72d51cd88b691155060c405d8bbaa7dee6e72ecd371dc283284b1deca75fbd2b","confidence_score_0_100":94,"evidence_grade":"A","fake_data":false,"local_spatial_join_required":true}}]}