{"features":[{"geometry":null,"properties":{"accepted_as_parcel":false,"access_utc":"2026-10-01T20:44:00Z","confidence":0.98,"confidence_score_0_100":98,"coverage_polygon_provided":false,"data_date":"2016-11-07","dataset":"brownfield-land","evidence_grade":"A_EXACT_OFFICIAL_IDENTIFIER","evidence_slice_sha256":"a2f81808290e268735d52ba9f85342f38216e2e9f9250af397fde4742d37189e","exact_identifier":"SHL00064","exact_identifier_provided":true,"fake_data":false,"field_evidence":{"dataset":"brownfield-land","entity":1700909,"entry_date":"2016-11-07","notes":"Erection of four buildings varying in height from 23 to 40 storeys over two podiums incorporating 636 residential units (Class C3); 99 serviced apartments (Class C1); 108 long-stay hotel apartments (Class C1); 204 bedroom hotel (C1); 4347sqm retail (Class A1); 3427sqm health spa, gymnasium and swimming pool (Classes D1/D2); 2524sqm landscaping and public open space; 635 car parking spaces over 3 basement levels; related access and serviced facilities.","organisation":"Leeds City Council","point":"POINT (-1.534843 53.800569)","quality":"authoritative","reference":"SHL00064","start_date":"2016-11-07"},"final_url":"https://www.planning.data.gov.uk/entity/1700909","identifier_namespace":"brownfield-land","license":"Open Government Licence v3.0","lineage_id":"future_growth_ 9-newstart-20261001T204400Z","official_entity_id":1700909,"official_reference":"SHL00064","organisation":"Leeds City Council","owner":"cagdas aydin","page_generation":1,"partition":"plan0","publisher":"Planning Data / Ministry of Housing, Communities & Local Government","semantic_mode":"SOURCE_AREA_EXACT_IDENTIFIER","sha256":"a2f81808290e268735d52ba9f85342f38216e2e9f9250af397fde4742d37189e","sha256_scope":"normalized_evidence_slice","slot_id":"future_growth_ 9","source_area_count_contribution":1,"source_url":"https://www.planning.data.gov.uk/entity/1700909","spatial_binding_method":"official exact brownfield-land identifier; canonical parcel spatial join/materialization delegated to local OpenCode"},"type":"Feature"}],"name":"future_growth_ 9","type":"FeatureCollection"}