{"type":"FeatureCollection","features":[{"type":"Feature","geometry":null,"properties":{"slot_id":"future_growth_1","lineage_id":"future_growth_1-newstart-20260927T153100+0300","page_generation":null,"accepted_as_parcel":false,"source_area_count_contribution":1,"exact_identifier":"SBC090","exact_identifier_provided":true,"coverage_polygon_provided":false,"identifier_namespace":"South Tyneside Local Plan Appendix 6 SHLAA reference","site_name":"Vacant former Mayflower Glass","access_utc":"2026-10-03T02:29:00Z","data_date":"2026-07","source_url":"https://publications.southtyneside.gov.uk/plans/local-plan-2023-2040/","final_url":"https://publications.southtyneside.gov.uk/plans/local-plan-2023-2040/","license":"Publicly accessible South Tyneside Council adopted Local Plan publication; no document-specific reuse licence is stated on the publication page.","authority":"South Tyneside Council","planning_application":"ST/0389/22/FUL","total_site_capacity":9,"dwellings_built_to_date":0,"remaining_capacity":9,"planning_status":"Permitted - not started","years_1_5_capacity":9,"trajectory_2025_26":9,"plan_status":"Adopted July 2026","evidence_grade":"A","confidence_score_0_100":99,"evidence_scope":"exact South Tyneside adopted Local Plan Appendix 6 Housing Trajectory row SBC090 and planning application ST/0389/22/FUL","evidence_slice_sha256":"c845ce4c3fb28950c73be247199890b8e80f490c8f68769e769e1b74f1384d76","fake_data":false,"spatial_binding_method":"official adopted Local Plan SHLAA reference plus planning-application identifier; canonical parcel resolution and materialization delegated to local OpenCode","planned_building_count_contribution":0}}]}