{"type":"FeatureCollection","name":"future_growth_6","features":[{"type":"Feature","id":"development-policy-area:local-authority-eng:BUC:LPEM17:2021-01-08","geometry":{"type":"MultiPolygon","coordinates":[[[[-0.773451,51.626446],[-0.770237,51.6264],[-0.770134,51.625659],[-0.770051,51.625292],[-0.77044,51.623486],[-0.766919,51.621869],[-0.767196,51.621204],[-0.767461,51.62121],[-0.76831,51.619909],[-0.768403,51.619781],[-0.768495,51.619813],[-0.7688,51.619356],[-0.768558,51.619147],[-0.768482,51.618991],[-0.768901,51.618544],[-0.771363,51.619353],[-0.77213,51.61907],[-0.772078,51.619585],[-0.773348,51.619816],[-0.773757,51.619824],[-0.77403,51.619761],[-0.774702,51.619698],[-0.774889,51.61794],[-0.774845,51.617939],[-0.775008,51.616853],[-0.778389,51.616905],[-0.782156,51.617103],[-0.783284,51.620432],[-0.783601,51.620395],[-0.783703,51.620741],[-0.782899,51.620848],[-0.782077,51.621363],[-0.781599,51.621847],[-0.781149,51.622452],[-0.781057,51.622613],[-0.781044,51.622824],[-0.779494,51.622978],[-0.779195,51.622978],[-0.778446,51.62287],[-0.777857,51.622984],[-0.777857,51.622669],[-0.776227,51.622863],[-0.774948,51.622426],[-0.774061,51.622786],[-0.774033,51.623033],[-0.773943,51.623661],[-0.773854,51.62436],[-0.773841,51.624471],[-0.773855,51.624359],[-0.774483,51.624418],[-0.773451,51.626446]]]]},"properties":{"semantic_identity":"development-policy-area:local-authority-eng:BUC:LPEM17:2021-01-08","source_area_id":"LPEM17","source_area_type":"adopted_local_plan_strategic_employment_regeneration_coverage","name":"Cressex Business Park","allocated_use":"Strategic employment and regeneration/improvement; not a housing allocation","policy":"HW17","organisation":"local-authority-eng:BUC","coverage_scope":"Full existing strategic employment area; not new-buildings or undeveloped parcel geometry","source_url":"https://github.com/digital-land/development-policy-area/blob/111f7b992aa0c7efe39611b4003607141631a4f2/docs/local-authority-eng/BUC/LPEM17/geometry.geojson","source_final_url":"https://raw.githubusercontent.com/digital-land/development-policy-area/111f7b992aa0c7efe39611b4003607141631a4f2/docs/local-authority-eng/BUC/LPEM17/geometry.geojson","http_status":200,"source_data_date":"2021-01-08","plan_adopted_date":"2019-08","source_version":"111f7b992aa0c7efe39611b4003607141631a4f2:git-blob:db3b1fec1ff4b4f50f645b2a1719fe8d2c80532f","licence":"Open Government Licence v3.0 (Digital Land; subject to original source rights)","source_sha256":"94c0250b3c9bfc3e0fa172aa1b4c71c1fcaa2c3b0750af97c14354c2781093e0","evidence_slice_sha256":"abcc11f608d7cc8e591ab9a9f5f8e7c278c4e4a0cd99ed1912065a3ecab26fa4","field_evidence":{"geometry":"docs/local-authority-eng/BUC/LPEM17/geometry.geojson:geometry","official_identifier":"docs/local-authority-eng/BUC/LPEM17/geometry.geojson:properties.geography","site_name":"docs/local-authority-eng/BUC/LPEM17/geometry.geojson:properties.name","data_date":"docs/local-authority-eng/BUC/LPEM17/geometry.geojson:properties.entry-date","strategic_employment_policy":"https://www.buckinghamshire.gov.uk/documents/9736/Wycombe-District-Local-Plan-Adopted-August-2019-accessible.pdf#policy-HW17","adopted_area_list":"https://www.buckinghamshire.gov.uk/documents/9736/Wycombe-District-Local-Plan-Adopted-August-2019-accessible.pdf#appendix-G"},"confidence":0.98,"evidence_grade":"A_OFFICIAL_GIS_AND_ADOPTED_PLAN_EMPLOYMENT_REGENERATION","fake_data":false}},{"type":"Feature","id":"development-policy-area:local-authority-eng:BUC:LPEM7:2021-01-08","geometry":{"type":"MultiPolygon","coordinates":[[[[-0.760664,51.570699],[-0.762775,51.57097],[-0.762799,51.570904],[-0.764094,51.570873],[-0.76461,51.570895],[-0.765188,51.570965],[-0.765206,51.570751],[-0.766137,51.570761],[-0.766643,51.570825],[-0.767128,51.57067],[-0.767241,51.570803],[-0.767288,51.57079],[-0.767519,51.571052],[-0.767336,51.57111],[-0.767453,51.571226],[-0.768584,51.571385],[-0.768615,51.571529],[-0.768557,51.571729],[-0.768052,51.571956],[-0.767871,51.571794],[-0.767816,51.571818],[-0.767671,51.571673],[-0.767632,51.571668],[-0.76704,51.571929],[-0.767334,51.572268],[-0.765639,51.572993],[-0.765534,51.572992],[-0.76507,51.572552],[-0.763146,51.573332],[-0.763111,51.5733],[-0.762027,51.573603],[-0.762296,51.573953],[-0.762215,51.574027],[-0.759067,51.57489],[-0.759171,51.575037],[-0.75912,51.575053],[-0.757157,51.575394],[-0.756835,51.575407],[-0.757443,51.574075],[-0.757851,51.573331],[-0.757591,51.573271],[-0.758896,51.571221],[-0.759056,51.570907],[-0.75932,51.570497],[-0.760664,51.570699]]]]},"properties":{"semantic_identity":"development-policy-area:local-authority-eng:BUC:LPEM7:2021-01-08","source_area_id":"LPEM7","source_area_type":"adopted_local_plan_strategic_employment_regeneration_coverage","name":"Globe Park","allocated_use":"Strategic employment and regeneration/improvement; not a housing allocation","policy":"MR7","organisation":"local-authority-eng:BUC","coverage_scope":"Full existing strategic employment area; not new-buildings or undeveloped parcel geometry","source_url":"https://github.com/digital-land/development-policy-area/blob/111f7b992aa0c7efe39611b4003607141631a4f2/docs/local-authority-eng/BUC/LPEM7/geometry.geojson","source_final_url":"https://raw.githubusercontent.com/digital-land/development-policy-area/111f7b992aa0c7efe39611b4003607141631a4f2/docs/local-authority-eng/BUC/LPEM7/geometry.geojson","http_status":200,"source_data_date":"2021-01-08","plan_adopted_date":"2019-08","source_version":"111f7b992aa0c7efe39611b4003607141631a4f2:git-blob:771d380195a9cdd855a7d553d73c1250fdaceb18","licence":"Open Government Licence v3.0 (Digital Land; subject to original source rights)","source_sha256":"d7ba51230302032cb0f6b96c7bdeb5c633c59424ff935272251d8e599c5bd6f4","evidence_slice_sha256":"abcc11f608d7cc8e591ab9a9f5f8e7c278c4e4a0cd99ed1912065a3ecab26fa4","field_evidence":{"geometry":"docs/local-authority-eng/BUC/LPEM7/geometry.geojson:geometry","official_identifier":"docs/local-authority-eng/BUC/LPEM7/geometry.geojson:properties.geography","site_name":"docs/local-authority-eng/BUC/LPEM7/geometry.geojson:properties.name","data_date":"docs/local-authority-eng/BUC/LPEM7/geometry.geojson:properties.entry-date","strategic_employment_policy":"https://www.buckinghamshire.gov.uk/documents/9736/Wycombe-District-Local-Plan-Adopted-August-2019-accessible.pdf#policy-MR7","adopted_area_list":"https://www.buckinghamshire.gov.uk/documents/9736/Wycombe-District-Local-Plan-Adopted-August-2019-accessible.pdf#appendix-G"},"confidence":0.98,"evidence_grade":"A_OFFICIAL_GIS_AND_ADOPTED_PLAN_EMPLOYMENT_REGENERATION","fake_data":false}}],"properties":{"state":"SOURCE_AREAS_PRODUCED_LOCAL_BINDING_PENDING","source_area_count":107,"source_area_count_delta":2,"accepted_count":0,"duplicate_count":0,"rejected_count":0,"unmatched_count":13,"materialized_parcel_count":0,"direct_parcel_count":0,"verified_no_building_count":0,"unprocessed_count":13,"planned_building_count":0,"producer_before_count":105,"producer_delta":2,"producer_after_count":107,"cursor":"OFFICIAL_BUC_STRATEGIC_EMPLOYMENT:HW17_MR7:5c190871c47c11dd","first_missing_criterion":"LOCAL_CANONICAL_PARCEL_IDENTIFIER_BINDING_MATERIALIZATION","fake_data":false}}
