{"type":"FeatureCollection","name":"security_public_safety_6","features":[],"metadata":{"slot_id":"security_public_safety_6","lineage_id":"SECPS6_20260930T003421Z_01","page_generation":1,"batch_id":"BATCH_20261005T092146Z_NPT_AUG2026_DIRECT_DOWNLOAD_BLOCKER","source_window_id":"data_police_npt_boundaries_2026-08_zip_direct_download","source_url":"https://data.police.uk/data/boundaries/2026-08.zip","final_url":"https://data.police.uk/data/boundaries/2026-08.zip","landing_url":"https://data.police.uk/data/boundaries/","accessed_utc":"2026-10-05T09:21:46Z","data_date":"2026-08","license":"Open Government Licence v3.0","publisher_size":"41.8 MB","publisher_md5":"4b221621d5baaa2d3be97ca0f77cc081","new_source_records":0,"source_area_count_delta":0,"cumulative_source_area_count":58,"accepted_count":0,"duplicate_count":0,"rejected_count":0,"unmatched_count":0,"materialized_parcel_count":0,"direct_parcel_count":0,"planned_building_count":0,"cursor":null,"window_complete":false,"dataset_complete":false,"exact_blocker":"OFFICIAL_NPT_BOUNDARY_AUGUST2026_ZIP_DIRECT_BYTE_DOWNLOAD_FAILED","local_spatial_join_required":true,"fake_data":false}}
