{"type":"FeatureCollection","features":[{"type":"Feature","id":"nottingham-brownfield-register-arcgis-metadata-2026:38f61ce47bc648d783835e1d72a2cbec","geometry":null,"properties":{"slot_id":"future_growth_4","lineage_id":"fg4-e4c9076d6f554f00","page_generation":1,"owner":"future_growth_4","partition":"future_growth","semantic_mode":"SOURCE_AREA_EXACT_IDENTIFIER","dataset":"nottingham-brownfield-register-arcgis-metadata-2026","entity":"38f61ce47bc648d783835e1d72a2cbec","reference":"38f61ce47bc648d783835e1d72a2cbec","quality":"authoritative","organisation":"Nottingham City Council","name":"Brownfield Register","source_url":"https://www.arcgis.com/sharing/rest/content/items/38f61ce47bc648d783835e1d72a2cbec/info/metadata/metadata.xml?format=default&output=html","final_url":"https://www.arcgis.com/sharing/rest/content/items/38f61ce47bc648d783835e1d72a2cbec/info/metadata/metadata.xml?format=default&output=html","access_utc":"2026-10-03T00:48:00Z","data_date":"2026-02-18","license":"Open Government Licence","field_evidence":{"reference":"38f61ce47bc648d783835e1d72a2cbec","title":"Brownfield Register","alternate_title":"Brownfield Land Register - Parts 1 and 2","revision_date":"2026-02-18","publisher":"Nottingham City Council","update_frequency":"annually","license":"Open Government Licence","spatial_representation_type":"vector","object_type":"composite","object_count":164,"crs_epsg":27700,"west_longitude":-1.246959,"east_longitude":-1.083094,"north_latitude":53.018663,"south_latitude":52.888001,"lineage":"Data is derived from Nottingham City Council's Strategic Housing Land Availability Assessment (SHLAA)."},"evidence_slice_sha256":"955af167592174bd0101da545da2ca1bd6fbb8ae62a557e0612d6af9bd6aaa89","confidence_score_0_100":99,"confidence":0.99,"evidence_grade":"A","exact_identifier_provided":true,"coverage_polygon_provided":false,"coverage_geometry_available":true,"coverage_geometry_source":"official ISO metadata describes vector composite geometry objects","fake_data":false,"join_mode":"LOCAL_OPENCODE_SPATIAL_JOIN_PENDING","direct_parcel":false,"source_area_count_contribution":1,"planned_building_count_contribution":0}}]}