{
  "type": "FeatureCollection",
  "name": "Future Growth official brownfield source-area",
  "features": [
    {
      "type": "Feature",
      "id": "brownfield-site:BR4",
      "geometry": {
        "type": "MultiPolygon",
        "coordinates": [
          [
            [
              [
                -5.289394,
                50.223986
              ],
              [
                -5.289383,
                50.223888
              ],
              [
                -5.289301,
                50.223569
              ],
              [
                -5.289138,
                50.223582
              ],
              [
                -5.288974,
                50.223601
              ],
              [
                -5.288739,
                50.223625
              ],
              [
                -5.288733,
                50.223628
              ],
              [
                -5.288719,
                50.223642
              ],
              [
                -5.288695,
                50.223669
              ],
              [
                -5.288654,
                50.223709
              ],
              [
                -5.288621,
                50.223745
              ],
              [
                -5.288518,
                50.223848
              ],
              [
                -5.2885,
                50.223869
              ],
              [
                -5.288459,
                50.223908
              ],
              [
                -5.28844,
                50.223929
              ],
              [
                -5.28842,
                50.223947
              ],
              [
                -5.288411,
                50.223958
              ],
              [
                -5.288377,
                50.223991
              ],
              [
                -5.288367,
                50.224004
              ],
              [
                -5.288334,
                50.224035
              ],
              [
                -5.288327,
                50.224045
              ],
              [
                -5.288305,
                50.224065
              ],
              [
                -5.288194,
                50.224183
              ],
              [
                -5.288188,
                50.224193
              ],
              [
                -5.288184,
                50.224209
              ],
              [
                -5.288185,
                50.224241
              ],
              [
                -5.288187,
                50.224252
              ],
              [
                -5.288195,
                50.224276
              ],
              [
                -5.288206,
                50.224294
              ],
              [
                -5.288216,
                50.224306
              ],
              [
                -5.288228,
                50.224316
              ],
              [
                -5.288249,
                50.224329
              ],
              [
                -5.288258,
                50.224333
              ],
              [
                -5.288262,
                50.224333
              ],
              [
                -5.288285,
                50.22434
              ],
              [
                -5.288306,
                50.224342
              ],
              [
                -5.288342,
                50.224341
              ],
              [
                -5.288368,
                50.224337
              ],
              [
                -5.288438,
                50.224314
              ],
              [
                -5.288536,
                50.224288
              ],
              [
                -5.288644,
                50.224268
              ],
              [
                -5.288679,
                50.22426
              ],
              [
                -5.288842,
                50.224236
              ],
              [
                -5.288885,
                50.224227
              ],
              [
                -5.288928,
                50.224204
              ],
              [
                -5.288942,
                50.224193
              ],
              [
                -5.288944,
                50.224188
              ],
              [
                -5.288953,
                50.224178
              ],
              [
                -5.288956,
                50.224168
              ],
              [
                -5.288959,
                50.224165
              ],
              [
                -5.288963,
                50.224149
              ],
              [
                -5.288964,
                50.224136
              ],
              [
                -5.28901,
                50.224128
              ],
              [
                -5.289029,
                50.224129
              ],
              [
                -5.289046,
                50.224142
              ],
              [
                -5.289104,
                50.224168
              ],
              [
                -5.289116,
                50.224171
              ],
              [
                -5.289162,
                50.224177
              ],
              [
                -5.289195,
                50.224179
              ],
              [
                -5.289224,
                50.224178
              ],
              [
                -5.289249,
                50.224173
              ],
              [
                -5.289293,
                50.224167
              ],
              [
                -5.289339,
                50.224157
              ],
              [
                -5.289404,
                50.22414
              ],
              [
                -5.289394,
                50.223986
              ]
            ]
          ]
        ]
      },
      "properties": {
        "slot_id": "future_growth_2",
        "lineage_id": "d409404e-c2b6-4d79-b904-d05e944a949e",
        "page_generation": 4,
        "batch_id": "batch-20261008T032633Z_mhclg_BR4_official_geometry",
        "schema": "AAYS_LAYER24_EVIDENCE_V1",
        "source_dataset": "brownfield-site",
        "source_provider": "MHCLG Planning Data / Cornwall Council",
        "source_exact_identifier": "brownfield-site:BR4",
        "category": "brownfield-site",
        "source_url": "https://www.planning.data.gov.uk/entity/1800002",
        "final_url": "https://www.planning.data.gov.uk/entity/1800002",
        "accessed_utc": "2026-10-08T03:26:33.528Z",
        "http_status": null,
        "data_date": "2023-10-16",
        "data_version": "entity:1800002/entry-date:2023-10-16",
        "license": "Open Government Licence v3.0",
        "source_file_sha256": "353549ab91a0af30d8e0e163d79b6fb88525d16758dfd84fce29551fa90eeb2c",
        "source_file_sha256_scope": "normalized_official_evidence_slice_not_raw_source_bytes",
        "evidence_slice_sha256": "353549ab91a0af30d8e0e163d79b6fb88525d16758dfd84fce29551fa90eeb2c",
        "field_evidence": {
          "dataset": "brownfield-site",
          "entity": 1800002,
          "curie": "brownfield-site:BR4",
          "reference": "BR4",
          "name": "Forge Industrial Park North Roskear Camborne TR14 0AW",
          "organisation": "Cornwall Council",
          "quality": "authoritative",
          "start_date": "2017-12-12",
          "entry_date": "2023-10-16",
          "geometry_type": "MultiPolygon",
          "geometry_source_field": "geometry",
          "point": "POINT (-5.288854 50.223962)",
          "notes": "Any proposals must be referred to the WHS team as part of Development Management consultation at both PIP and TDC stages."
        },
        "confidence_score_0_100": 88,
        "evidence_grade": "B_OFFICIAL_INDEXED_WKT",
        "geometry_crs": "EPSG:4326",
        "direct_parcel": false,
        "canonical_join_status": "PENDING_LOCAL_SPATIAL_JOIN",
        "fake_data": false
      }
    }
  ]
}
