{
  "type": "FeatureCollection",
  "features": [
    {
      "type": "Feature",
      "geometry": null,
      "properties": {
        "schema": "AAYS_LAYER24_EVIDENCE_V1",
        "slot_id": "security_public_safety_4",
        "lineage_id": "L24-SPS4-57de1ed0eaf0f860383f",
        "page_generation": 10,
        "criterion": "security_public_safety_official_coverage_identifier",
        "record_role": "source_area_identifier",
        "source_record_index": 56,
        "area_name": "Royal Hospital",
        "major_text": "force=metropolitan",
        "minor_text": "neighbourhood_id=E05009403",
        "series_start": null,
        "series_end": null,
        "series_month_count": 0,
        "visible_nonzero_evidence": true,
        "source_url": "https://data.police.uk/api/metropolitan/neighbourhoods",
        "final_url": "https://data.police.uk/api/metropolitan/neighbourhoods",
        "access_utc": "2026-10-07T00:36:10Z",
        "data_date": "current official neighbourhood listing observed 2026-10-07; endpoint carries no intrinsic effective date",
        "license": "Open Government Licence v3.0",
        "source_payload_sha256": "d642fe11608af8747155b7b639e220d25b6af22d10ecefeabd5ea30a6c1b8d1e",
        "field_evidence": {
          "id": "official API response field id; documentation defines it as a police-force-specific team identifier",
          "name": "official API response field name; documentation defines it as the neighbourhood name",
          "force_context": "endpoint path metropolitan/neighbourhoods fixes the police-force context",
          "window": "non-overlapping response record 56; prior processed windows were records 0-55",
          "authentication": "data.police.uk API authentication is not required",
          "license": "data.police.uk publishes the relevant data under Open Government Licence v3.0"
        },
        "evidence_slice_sha256": "17ed0e79902365730ae962638716b06c13da8bc66dc84dd209e0a6d4b4b7f7b8",
        "confidence_score_0_100": 100,
        "evidence_grade": "A_OFFICIAL_API_EXACT_IDENTIFIER",
        "join_state": "UNPROCESSED",
        "fake_data": false
      }
    }
  ]
}
