{"type":"FeatureCollection","name":"height_difference_4","features":[{"type":"Feature","id":"source_area:EA_LIDAR_COMPOSITE_DTM_1M_2022_GETESTIMATES_LAYER2","geometry":{"type":"Polygon","coordinates":[[[-6.461524009,49.839875354],[1.590417407,49.870195082],[2.118361299,55.818186528],[-7.116493017,55.78060952],[-6.461524009,49.839875354]]]},"properties":{"slot_id":"height_difference_4","owner":"height_difference_4","lineage_id":"84540dd6-8165-4353-aac0-f6212875d643","record_role":"source_area","receipt_category":"AAYS_SOURCE_AREA_V1","evidence_scope":"coverage_area","coverage_area_id":"EA_LIDAR_COMPOSITE_DTM_1M_2022_GETESTIMATES_LAYER2","source_resolution":"1m","time_window":"2022 composite extents","source_url":"https://environment.data.gov.uk/KB6uNVj5ZcJr7jUP/ArcGIS/rest/services/LIDAR_Composite_Catalogues/FeatureServer/getEstimates","measurement_date":"2022","measurement_method":"Environment Agency ArcGIS REST FeatureServer getEstimates; layer 2 LIDAR Composite 1m DTM 2022 extents","spatial_binding_method":"Official layer extent in EPSG:27700 transformed to EPSG:4326 Polygon; coverage-area evidence only, no parcel join","confidence_score_0_100":100,"evidence_grade":"A_OFFICIAL_SERVICE_RESPONSE","field_evidence":{"publisher":"Environment Agency","service":"LIDAR_Composite_Catalogues FeatureServer","operation":"getEstimates","layer_id":2,"layer_name":"LIDAR Composite 1m DTM 2022 extents","feature_count":21380,"source_extent":{"xmin":79336.0,"ymin":2843.0,"xmax":658081.8635,"ymax":666000.0,"crs":"EPSG:27700"},"geometry_transform":"EPSG:27700 -> EPSG:4326 using pyproj/PROJ","source_response_semantics":"official service-reported layer count and extent"},"canonical_parcel_id":null,"building_presence_verified":false,"height_min_m":null,"height_max_m":null,"height_mean_m":null,"height_range_m":null,"accepted_count_contribution":0,"source_area_count_contribution":1,"first_missing_criterion":"LOCAL_CANONICAL_BUILDING_PARCEL_JOIN_AND_DEM_STATISTICS"}}]}
