{"type":"FeatureCollection","features":[{"type":"Feature","geometry":null,"properties":{"evidence_scope":"authoritative_exact_identifier_adopted_plan","coverage_area_id":"Tunbridge Wells Local Plan policy AL/RTW 5","official_identifier":"AL/RTW 5","source_resolution":"exact adopted Tunbridge Wells Local Plan policy identifier captured from the council's official adopted-plan window; polygon coordinates were not captured by this retrieval path","source_url":"https://tunbridgewells.gov.uk/planning/planning-policy/local-plan/adoption-borough-local-plan-documents","final_url":"https://tunbridgewells.gov.uk/planning/planning-policy/local-plan/adoption-borough-local-plan-documents","access_utc":"2026-10-03T15:40:23Z","data_date":"2025-12-10","licence":"Tunbridge Wells Borough Council public Local Plan webpage; no explicit open reuse licence identified on the retrieved page","measurement_method":"official Tunbridge Wells Borough Council adopted Local Plan policy identifier","spatial_binding_method":"local OpenCode spatial/identifier binding against canonical parcel polygons; not performed here","confidence_score_0_100":100,"evidence_grade":"authoritative_exact_identifier_adopted_plan","fake_data":false,"upstream_file_sha256":null,"upstream_file_sha256_reason":"raw adopted-plan webpage bytes were not exposed by the available retrieval path; no hash invented","source_window_payload_sha256":"4569486bbc12b35c2914e9c9fd32a8c0ed9d724ca71fb87c7e341abd25a256d6","field_evidence":{"entry-date":"2025-12-10","start-date":"2025-12-10","end-date":"","entity":null,"name":"Land to the south of Speldhurst Road and west of Reynolds Lane at Caenwood Farm, Speldhurst Road","dataset":"tunbridge-wells-local-plan-2020-2038-site-allocation","typology":"geography","reference":"AL/RTW 5","prefix":"local-plan-site-allocation","organisation-entity":"Tunbridge Wells Borough Council","geometry":"","point":"","quality":"authoritative","policy-status":"adopted","adoption-date":"2025-12-10","approximate-dwellings":100,"affordable-housing-percent":40,"minimum-self-build-custom-housebuilding-percent":5,"plan-period":"2020-2038"}}}]}
