{"type":"FeatureCollection","name":"future_growth_6","features":[{"type":"Feature","id":"development-policy-area:local-authority-eng:BUC:LPHW7:2021-01-08","geometry":{"type":"MultiPolygon","coordinates":[[[[-0.729116,51.646187],[-0.729244,51.646144],[-0.730575,51.646617],[-0.730667,51.646483],[-0.730717,51.646495],[-0.731668,51.645169],[-0.732888,51.645517],[-0.734198,51.645984],[-0.734331,51.646078],[-0.734367,51.646191],[-0.733773,51.647525],[-0.732704,51.648063],[-0.732659,51.648119],[-0.732227,51.648382],[-0.731295,51.649171],[-0.730388,51.649694],[-0.728959,51.650288],[-0.727953,51.650504],[-0.726271,51.650744],[-0.723864,51.650948],[-0.72325,51.648421],[-0.724162,51.648308],[-0.724924,51.648175],[-0.725583,51.647995],[-0.726225,51.647921],[-0.726392,51.647882],[-0.726457,51.647836],[-0.726547,51.647858],[-0.72667,51.647747],[-0.726856,51.647657],[-0.727435,51.647271],[-0.727675,51.647168],[-0.728379,51.646618],[-0.728769,51.646461],[-0.729116,51.646187]]]]},"properties":{"semantic_identity":"development-policy-area:local-authority-eng:BUC:LPHW7:2021-01-08","source_area_id":"LPHW7","source_area_type":"adopted_local_plan_housing_allocation","name":"Terriers Farm and Terriers House","allocated_use":"Residential","policy":"HW7","organisation":"local-authority-eng:BUC","source_url":"https://github.com/digital-land/development-policy-area/blob/111f7b992aa0c7efe39611b4003607141631a4f2/docs/local-authority-eng/BUC/LPHW7/geometry.geojson","source_final_url":"https://raw.githubusercontent.com/digital-land/development-policy-area/111f7b992aa0c7efe39611b4003607141631a4f2/docs/local-authority-eng/BUC/LPHW7/geometry.geojson","http_status":200,"source_data_date":"2021-01-08","plan_adopted_date":"2019-08","source_version":"111f7b992aa0c7efe39611b4003607141631a4f2:blob:bc58c3c71e108067aa5e2b73c33dfd1a870a7440","licence":"Open Government Licence v3.0 (Digital Land data subject to source-specific rights)","source_sha256":"3bea7e80187168255492d770cc171a8ba9ebe6b0400771ebf5fd064c8327400a","evidence_slice_sha256":"5dc3e4b8900b98ede22dedb38513cfb2d1af88036ef8f81d614dc7d1343537de","field_evidence":{"geometry":"docs/local-authority-eng/BUC/LPHW7/geometry.geojson:geometry","identifier":"docs/local-authority-eng/BUC/LPHW7/geometry.geojson:properties.geography","name":"docs/local-authority-eng/BUC/LPHW7/geometry.geojson:properties.name","data_date":"docs/local-authority-eng/BUC/LPHW7/geometry.geojson:properties.entry-date","allocation":"https://www.buckinghamshire.gov.uk/documents/9736/Wycombe-District-Local-Plan-Adopted-August-2019-accessible.pdf#policy-HW7"},"confidence":0.97,"evidence_grade":"A_OFFICIAL_POLYGON_AND_ADOPTED_PLAN","fake_data":false}},{"type":"Feature","id":"development-policy-area:local-authority-eng:BUC:LPHW9:2021-01-08","geometry":{"type":"MultiPolygon","coordinates":[[[[-0.749873,51.643423],[-0.748054,51.643213],[-0.748109,51.642168],[-0.748249,51.642186],[-0.748254,51.642163],[-0.748816,51.642136],[-0.749089,51.64218],[-0.749758,51.642103],[-0.749805,51.642242],[-0.749932,51.643047],[-0.749873,51.643423]]]]},"properties":{"semantic_identity":"development-policy-area:local-authority-eng:BUC:LPHW9:2021-01-08","source_area_id":"LPHW9","source_area_type":"adopted_local_plan_housing_allocation","name":"Part of Greens Farm Glynswood","allocated_use":"Residential","policy":"HW9","organisation":"local-authority-eng:BUC","source_url":"https://github.com/digital-land/development-policy-area/blob/111f7b992aa0c7efe39611b4003607141631a4f2/docs/local-authority-eng/BUC/LPHW9/geometry.geojson","source_final_url":"https://raw.githubusercontent.com/digital-land/development-policy-area/111f7b992aa0c7efe39611b4003607141631a4f2/docs/local-authority-eng/BUC/LPHW9/geometry.geojson","http_status":200,"source_data_date":"2021-01-08","plan_adopted_date":"2019-08","source_version":"111f7b992aa0c7efe39611b4003607141631a4f2:blob:41dab0a5e223a94cc33e33ac618cf71c55ada788","licence":"Open Government Licence v3.0 (Digital Land data subject to source-specific rights)","source_sha256":"6181723ceb9a021ae5d5cc67fdfbe9155465ee6922ffc19273bd591ce4996597","evidence_slice_sha256":"5dc3e4b8900b98ede22dedb38513cfb2d1af88036ef8f81d614dc7d1343537de","field_evidence":{"geometry":"docs/local-authority-eng/BUC/LPHW9/geometry.geojson:geometry","identifier":"docs/local-authority-eng/BUC/LPHW9/geometry.geojson:properties.geography","name":"docs/local-authority-eng/BUC/LPHW9/geometry.geojson:properties.name","data_date":"docs/local-authority-eng/BUC/LPHW9/geometry.geojson:properties.entry-date","allocation":"https://www.buckinghamshire.gov.uk/documents/9736/Wycombe-District-Local-Plan-Adopted-August-2019-accessible.pdf#policy-HW9"},"confidence":0.97,"evidence_grade":"A_OFFICIAL_POLYGON_AND_ADOPTED_PLAN","fake_data":false}},{"type":"Feature","id":"development-policy-area:local-authority-eng:BUC:LPHW10:2021-01-08","geometry":{"type":"MultiPolygon","coordinates":[[[[-0.796856,51.614656],[-0.796288,51.614654],[-0.79626,51.614257],[-0.796194,51.613991],[-0.795848,51.613563],[-0.795417,51.613113],[-0.795953,51.612856],[-0.796636,51.613035],[-0.798139,51.613542],[-0.798431,51.613711],[-0.798785,51.613974],[-0.797834,51.614091],[-0.796817,51.614092],[-0.796856,51.614656]]]]},"properties":{"semantic_identity":"development-policy-area:local-authority-eng:BUC:LPHW10:2021-01-08","source_area_id":"LPHW10","source_area_type":"adopted_local_plan_housing_allocation","name":"Horns Lane","allocated_use":"Residential","policy":"HW10","organisation":"local-authority-eng:BUC","source_url":"https://github.com/digital-land/development-policy-area/blob/111f7b992aa0c7efe39611b4003607141631a4f2/docs/local-authority-eng/BUC/LPHW10/geometry.geojson","source_final_url":"https://raw.githubusercontent.com/digital-land/development-policy-area/111f7b992aa0c7efe39611b4003607141631a4f2/docs/local-authority-eng/BUC/LPHW10/geometry.geojson","http_status":200,"source_data_date":"2021-01-08","plan_adopted_date":"2019-08","source_version":"111f7b992aa0c7efe39611b4003607141631a4f2:blob:2e0f16dfff7565823fc6dba5e3d68da917656417","licence":"Open Government Licence v3.0 (Digital Land data subject to source-specific rights)","source_sha256":"4e9acd90577ba21bea8a8af0e6fbce6de6d4d3e70ad5322d087e05a4a2ad80ac","evidence_slice_sha256":"5dc3e4b8900b98ede22dedb38513cfb2d1af88036ef8f81d614dc7d1343537de","field_evidence":{"geometry":"docs/local-authority-eng/BUC/LPHW10/geometry.geojson:geometry","identifier":"docs/local-authority-eng/BUC/LPHW10/geometry.geojson:properties.geography","name":"docs/local-authority-eng/BUC/LPHW10/geometry.geojson:properties.name","data_date":"docs/local-authority-eng/BUC/LPHW10/geometry.geojson:properties.entry-date","allocation":"https://www.buckinghamshire.gov.uk/documents/9736/Wycombe-District-Local-Plan-Adopted-August-2019-accessible.pdf#policy-HW10"},"confidence":0.97,"evidence_grade":"A_OFFICIAL_POLYGON_AND_ADOPTED_PLAN","fake_data":false}},{"type":"Feature","id":"development-policy-area:local-authority-eng:BUC:LPHW11:2021-01-08","geometry":{"type":"MultiPolygon","coordinates":[[[[-0.798545,51.609759],[-0.797955,51.609779],[-0.795386,51.609306],[-0.795695,51.608605],[-0.795804,51.608619],[-0.795994,51.608581],[-0.797256,51.60881],[-0.797395,51.608894],[-0.797424,51.609046],[-0.79764,51.609053],[-0.797677,51.608972],[-0.798447,51.608965],[-0.79881,51.609021],[-0.798858,51.609151],[-0.798853,51.609276],[-0.798545,51.609759]]]]},"properties":{"semantic_identity":"development-policy-area:local-authority-eng:BUC:LPHW11:2021-01-08","source_area_id":"LPHW11","source_area_type":"adopted_local_plan_housing_allocation","name":"Clay Lane","allocated_use":"Residential","policy":"HW11","organisation":"local-authority-eng:BUC","source_url":"https://github.com/digital-land/development-policy-area/blob/111f7b992aa0c7efe39611b4003607141631a4f2/docs/local-authority-eng/BUC/LPHW11/geometry.geojson","source_final_url":"https://raw.githubusercontent.com/digital-land/development-policy-area/111f7b992aa0c7efe39611b4003607141631a4f2/docs/local-authority-eng/BUC/LPHW11/geometry.geojson","http_status":200,"source_data_date":"2021-01-08","plan_adopted_date":"2019-08","source_version":"111f7b992aa0c7efe39611b4003607141631a4f2:blob:d7ea04ae211f44ea33f33e35dfb6fa127d94c50e","licence":"Open Government Licence v3.0 (Digital Land data subject to source-specific rights)","source_sha256":"01cde7d759eba6793864048265736a3d101ddaed34289c7b128d78b9e26def02","evidence_slice_sha256":"5dc3e4b8900b98ede22dedb38513cfb2d1af88036ef8f81d614dc7d1343537de","field_evidence":{"geometry":"docs/local-authority-eng/BUC/LPHW11/geometry.geojson:geometry","identifier":"docs/local-authority-eng/BUC/LPHW11/geometry.geojson:properties.geography","name":"docs/local-authority-eng/BUC/LPHW11/geometry.geojson:properties.name","data_date":"docs/local-authority-eng/BUC/LPHW11/geometry.geojson:properties.entry-date","allocation":"https://www.buckinghamshire.gov.uk/documents/9736/Wycombe-District-Local-Plan-Adopted-August-2019-accessible.pdf#policy-HW11"},"confidence":0.97,"evidence_grade":"A_OFFICIAL_POLYGON_AND_ADOPTED_PLAN","fake_data":false}},{"type":"Feature","id":"development-policy-area:local-authority-eng:BUC:LPHW12:2021-01-08","geometry":{"type":"MultiPolygon","coordinates":[[[[-0.765398,51.631822],[-0.765181,51.63174],[-0.76491,51.631977],[-0.764791,51.632042],[-0.764786,51.632093],[-0.764715,51.632152],[-0.764561,51.632091],[-0.7646,51.632051],[-0.764472,51.632009],[-0.76412,51.631974],[-0.764203,51.631973],[-0.76453,51.631817],[-0.763884,51.631285],[-0.763188,51.6311],[-0.763248,51.631022],[-0.763331,51.631042],[-0.763372,51.630975],[-0.763486,51.631005],[-0.76369,51.63063],[-0.764319,51.630781],[-0.764527,51.630864],[-0.76446,51.630929],[-0.765631,51.631382],[-0.765672,51.631342],[-0.765826,51.631401],[-0.765398,51.631822]]]]},"properties":{"semantic_identity":"development-policy-area:local-authority-eng:BUC:LPHW12:2021-01-08","source_area_id":"LPHW12","source_area_type":"adopted_local_plan_housing_allocation","name":"Leigh Street","allocated_use":"Residential","policy":"HW12","organisation":"local-authority-eng:BUC","source_url":"https://github.com/digital-land/development-policy-area/blob/111f7b992aa0c7efe39611b4003607141631a4f2/docs/local-authority-eng/BUC/LPHW12/geometry.geojson","source_final_url":"https://raw.githubusercontent.com/digital-land/development-policy-area/111f7b992aa0c7efe39611b4003607141631a4f2/docs/local-authority-eng/BUC/LPHW12/geometry.geojson","http_status":200,"source_data_date":"2021-01-08","plan_adopted_date":"2019-08","source_version":"111f7b992aa0c7efe39611b4003607141631a4f2:blob:9f59b0c7143e07b8ed0e66109d6384a0892e445b","licence":"Open Government Licence v3.0 (Digital Land data subject to source-specific rights)","source_sha256":"968cdd150ba31ec4416fb1dbdb8a5f57b1446a8634d0ac433109db6e16eda2e3","evidence_slice_sha256":"5dc3e4b8900b98ede22dedb38513cfb2d1af88036ef8f81d614dc7d1343537de","field_evidence":{"geometry":"docs/local-authority-eng/BUC/LPHW12/geometry.geojson:geometry","identifier":"docs/local-authority-eng/BUC/LPHW12/geometry.geojson:properties.geography","name":"docs/local-authority-eng/BUC/LPHW12/geometry.geojson:properties.name","data_date":"docs/local-authority-eng/BUC/LPHW12/geometry.geojson:properties.entry-date","allocation":"https://www.buckinghamshire.gov.uk/documents/9736/Wycombe-District-Local-Plan-Adopted-August-2019-accessible.pdf#policy-HW12"},"confidence":0.97,"evidence_grade":"A_OFFICIAL_POLYGON_AND_ADOPTED_PLAN","fake_data":false}},{"type":"Feature","id":"development-policy-area:local-authority-eng:BUC:LPHW13:2021-01-08","geometry":{"type":"MultiPolygon","coordinates":[[[[-0.729194,51.621289],[-0.729108,51.621359],[-0.728203,51.620298],[-0.727292,51.619354],[-0.728764,51.61958],[-0.729171,51.619702],[-0.72923,51.619778],[-0.729323,51.619806],[-0.729476,51.619797],[-0.730472,51.620103],[-0.730544,51.620149],[-0.730436,51.62031],[-0.730378,51.620287],[-0.729194,51.621289]]]]},"properties":{"semantic_identity":"development-policy-area:local-authority-eng:BUC:LPHW13:2021-01-08","source_area_id":"LPHW13","source_area_type":"adopted_local_plan_housing_allocation","name":"Former Bassetsbury Allotments","allocated_use":"Residential","policy":"HW13","organisation":"local-authority-eng:BUC","source_url":"https://github.com/digital-land/development-policy-area/blob/111f7b992aa0c7efe39611b4003607141631a4f2/docs/local-authority-eng/BUC/LPHW13/geometry.geojson","source_final_url":"https://raw.githubusercontent.com/digital-land/development-policy-area/111f7b992aa0c7efe39611b4003607141631a4f2/docs/local-authority-eng/BUC/LPHW13/geometry.geojson","http_status":200,"source_data_date":"2021-01-08","plan_adopted_date":"2019-08","source_version":"111f7b992aa0c7efe39611b4003607141631a4f2:blob:91df1ef96c1845ecbcdb5652192ccda201a29430","licence":"Open Government Licence v3.0 (Digital Land data subject to source-specific rights)","source_sha256":"4811c562b27815b8cede648d257fd3dff27e2c82741014bbc25ae17c2bacb83c","evidence_slice_sha256":"5dc3e4b8900b98ede22dedb38513cfb2d1af88036ef8f81d614dc7d1343537de","field_evidence":{"geometry":"docs/local-authority-eng/BUC/LPHW13/geometry.geojson:geometry","identifier":"docs/local-authority-eng/BUC/LPHW13/geometry.geojson:properties.geography","name":"docs/local-authority-eng/BUC/LPHW13/geometry.geojson:properties.name","data_date":"docs/local-authority-eng/BUC/LPHW13/geometry.geojson:properties.entry-date","allocation":"https://www.buckinghamshire.gov.uk/documents/9736/Wycombe-District-Local-Plan-Adopted-August-2019-accessible.pdf#policy-HW13"},"confidence":0.97,"evidence_grade":"A_OFFICIAL_POLYGON_AND_ADOPTED_PLAN","fake_data":false}},{"type":"Feature","id":"development-policy-area:local-authority-eng:BUC:LPHW14:2021-01-08","geometry":{"type":"MultiPolygon","coordinates":[[[[-0.70587,51.65784],[-0.705263,51.658225],[-0.704111,51.657483],[-0.704145,51.657413],[-0.704391,51.657491],[-0.704851,51.657197],[-0.705224,51.657402],[-0.70587,51.65784]]]]},"properties":{"semantic_identity":"development-policy-area:local-authority-eng:BUC:LPHW14:2021-01-08","source_area_id":"LPHW14","source_area_type":"adopted_local_plan_housing_allocation","name":"Highbury Works / Hazlemere Coach Works","allocated_use":"Residential","policy":"HW14","organisation":"local-authority-eng:BUC","source_url":"https://github.com/digital-land/development-policy-area/blob/111f7b992aa0c7efe39611b4003607141631a4f2/docs/local-authority-eng/BUC/LPHW14/geometry.geojson","source_final_url":"https://raw.githubusercontent.com/digital-land/development-policy-area/111f7b992aa0c7efe39611b4003607141631a4f2/docs/local-authority-eng/BUC/LPHW14/geometry.geojson","http_status":200,"source_data_date":"2021-01-08","plan_adopted_date":"2019-08","source_version":"111f7b992aa0c7efe39611b4003607141631a4f2:blob:726a9b97f4d9c03ceff7ece4c7907e640483c4f7","licence":"Open Government Licence v3.0 (Digital Land data subject to source-specific rights)","source_sha256":"94b77c7b3234ce49fdb0aad5fec613fdf6ce10fdf762d89702b4bb79b371360c","evidence_slice_sha256":"5dc3e4b8900b98ede22dedb38513cfb2d1af88036ef8f81d614dc7d1343537de","field_evidence":{"geometry":"docs/local-authority-eng/BUC/LPHW14/geometry.geojson:geometry","identifier":"docs/local-authority-eng/BUC/LPHW14/geometry.geojson:properties.geography","name":"docs/local-authority-eng/BUC/LPHW14/geometry.geojson:properties.name","data_date":"docs/local-authority-eng/BUC/LPHW14/geometry.geojson:properties.entry-date","allocation":"https://www.buckinghamshire.gov.uk/documents/9736/Wycombe-District-Local-Plan-Adopted-August-2019-accessible.pdf#policy-HW14"},"confidence":0.97,"evidence_grade":"A_OFFICIAL_POLYGON_AND_ADOPTED_PLAN","fake_data":false}}],"properties":{"state":"SOURCE_AREAS_PRODUCED_LOCAL_BINDING_PENDING","source_area_count":84,"source_area_count_delta":7,"accepted_count":0,"duplicate_count":0,"rejected_count":0,"unmatched_count":13,"materialized_parcel_count":0,"direct_parcel_count":0,"verified_no_building_count":0,"unprocessed_count":13,"planned_building_count":0,"producer_before_count":77,"producer_delta":7,"producer_after_count":84,"cursor":"OFFICIAL_WYCOMBE_ALLOCATIONS:HW7_HW9_HW14:0fc869ee744db196","first_missing_criterion":"LOCAL_CANONICAL_PARCEL_IDENTIFIER_BINDING_MATERIALIZATION","fake_data":false}}
