{"type":"FeatureCollection","features":[{"type":"Feature","geometry":null,"properties":{"slot_id":"future_growth_3","lineage_id":"future_growth_3-newstart-20261001T203100Z","page_generation":null,"accepted_as_parcel":false,"source_area_count_contribution":1,"exact_identifier":"AL/RTW 5","exact_identifier_provided":true,"coverage_polygon_provided":false,"identifier_namespace":"Tunbridge Wells Borough Local Plan 2020-2038 site allocation policy reference","secondary_exact_identifier":"Caenwood Farm / Speldhurst Road","source_entity":"AL/RTW 5 - Land to the south of Speldhurst Road and west of Reynolds Lane at Caenwood Farm, Speldhurst Road","access_utc":"2026-10-03T01:27:35Z","data_date":"2025-12-10","source_url":"https://tunbridgewells.gov.uk/__data/assets/pdf_file/0008/511991/Adopted-Local-Plan-2020-2038.pdf","final_url":"https://tunbridgewells.gov.uk/__data/assets/pdf_file/0008/511991/Adopted-Local-Plan-2020-2038.pdf","license":"Tunbridge Wells Borough Council copyright; no explicit open licence asserted in the adopted-plan source window.","authority":"Tunbridge Wells Borough Council","site_address":"Land to the south of Speldhurst Road and west of Reynolds Lane at Caenwood Farm, Speldhurst Road","field_evidence":{"reference":"AL/RTW 5","dataset":"Tunbridge Wells Borough Local Plan 2020-2038","organisation":"Tunbridge Wells Borough Council","adoption_date":"2025-12-10","site_name":"Land to the south of Speldhurst Road and west of Reynolds Lane at Caenwood Farm, Speldhurst Road","policies_map":"Royal Tunbridge Wells and Southborough Policies Map (Inset Maps 1a - 1d and 2)","allocated_use":"Residential development","approx_residential_dwellings":100,"affordable_housing_percent":40,"self_build_custom_housebuilding_percent_min":5},"source_payload_sha256":"e0a8070f8cd6758c64c5b0381d5b50a609ccbe286b8793b4e3ed0c20a725863d","source_payload_sha256_basis":"canonicalized official Tunbridge Wells Borough Council Policy AL/RTW 5 evidence fields","evidence_slice_sha256":"4d1c00f31a00aab0a49911b0b40ecff0ccd416bec6c59cde132f2d3b6a82ad46","evidence_grade":"A","confidence_score_0_100":99,"evidence_scope":"exact_official_identifier_from_adopted_council_local_plan_site_allocation","fake_data":false,"spatial_binding_method":"official Tunbridge Wells Borough Council adopted Policy AL/RTW 5 and referenced Royal Tunbridge Wells and Southborough Policies Map; canonical parcel spatial join and materialization delegated to local OpenCode","planned_building_count_contribution":0}}]}