{"type":"FeatureCollection","name":"height_difference_5","metadata":{"slot_id":"height_difference_5","owner":"height_difference_5","lineage_id":"height_difference_5-eb56f92ed3f0514c","page_generation":1,"schema":"AAYS_LAYER24_EVIDENCE_V1","partition":"layer24","semantic_mode_state":"ABSENT_IN_PRIOR_PHYSICAL_STATE_PRESERVED_BY_OMISSION","batch_id":"20261003T194200Z_spatialni_data_supply_metadata_crs_template_blocked","record_policy":"Official Spatial NI generic metadata-standard evidence only; no Belfast-specific CRS, tile/file, geometry or parcel binding synthesized.","fake_data":false},"features":[{"type":"Feature","geometry":null,"properties":{"slot_id":"height_difference_5","owner":"height_difference_5","lineage_id":"height_difference_5-eb56f92ed3f0514c","page_generation":1,"schema":"AAYS_LAYER24_EVIDENCE_V1","partition":"layer24","batch_id":"20261003T194200Z_spatialni_data_supply_metadata_crs_template_blocked","source_record_id":"SPATIALNI:DATA_SUPPLY_METADATA_FORM:SRS","source_url":"https://support.spatialni.gov.uk/nima/DownloadDocs/Guidance/SpatialNI_Data_Supply_Metadata_Form.pdf","access_utc":"2026-10-03T19:42:00Z","required_building_state":"BUILDING_PRESENT","binding_status":"LOCAL_OPENCODE_BUILDING_PRESENT_EXACT_TILE_BIND_REQUIRED","metadata_field":"Data Supply Spatial Reference System","observed_supply_srs_option":"Irish Grid (TM65) [EPSG:29902]","dataset_specific_binding":false,"exact_tile_identifier":null,"crs":null,"evidence_slice_sha256":"ce0b25033f4cbf2d54197bed14b50d735d857ec236f23acfd77f19ffca75da51","accepted_count_contribution":0,"source_area_count_contribution":0,"fake_data":false}}]}
