{"features":[{"geometry":null,"properties":{"accepted_count_contribution":0,"access_utc":"2026-10-01T16:19:00Z","binding_status":"LOCAL_OPENCODE_BUILDING_PRESENT_EXACT_RASTER_TILE_BIND_REQUIRED","canonical_parcel_id":null,"confidence_score_0_100":97,"crs":"EPSG:3857","crs_evidence":"ArcGIS sourceSpatialReference latestWkid=3857","dataset_role":"official airborne LiDAR DTM raster-service evidence","dataset_url":"https://www.data.gov.uk/dataset/f64dddd6-dbcc-4419-b80f-772b3fa69b04/2021-ni-3d-coastal-survey-topographic-lidar-digital-terrain-model4-1","evidence_grade":"A_OFFICIAL_RASTER_SERVICE_B_MISSING_NATIVE_RESOLUTION_TILE_DATE_BYTES","evidence_slice_sha256":"3825f556332f6e0bce82096a873fc99b035d7c11df781342640a306af651b655","fake_data":false,"final_url":"https://tiles-eu1.arcgis.com/kswen6BYexuc1SUk/arcgis/rest/services/Topographic_LiDAR_DTM_TPK/MapServer/3","licence":"UK Open Government Licence (OGL)","native_resolution_m":null,"per_tile_acquisition_date":null,"publisher":"OpenDataNI / DAERA","required_building_state":"BUILDING_PRESENT","source_area_count_contribution":0,"source_record_id":"OPENDATANI_NI3D_2021_TOPO_LIDAR_DTM:MAPSERVER_3","source_url":"https://tiles-eu1.arcgis.com/kswen6BYexuc1SUk/arcgis/rest/services/Topographic_LiDAR_DTM_TPK/MapServer/3","survey_year":2021},"type":"Feature"}],"name":"height_difference_1","type":"FeatureCollection"}
