{"type":"FeatureCollection","features":[{"type":"Feature","properties":{"slot_id":"building_type_3","lineage_id":"building_type_3-new-20260927T1328+0300","batch_id":"BT3-P84G61-20261006-PLANNINGDATA-LBO42153126","cursor":"BT3-P84G61-20261006-PLANNINGDATA-LBO42153126-p84","building_state":"BUILDING_PRESENT","source_record_id":"reference=1041296;outline_entity=42153126","entity":42153126,"reference":"1041296","name":"Church Of St Michael","building_type_use":"church","type_use_evidence":"official_name_exact=Church Of St Michael","dataset":"listed-building-outline","quality":"authoritative","start_date":"1953-10-21","entry_date":"2013-01-29","organisation":"Northumberland County Council","listed_building":"1041296","source_url":"https://www.planning.data.gov.uk/entity/42153126","final_url":"https://www.planning.data.gov.uk/entity/42153126","source_version":"Planning Data listed-building-outline entity 42153126 reference 1041296; authoritative Northumberland County Council record; entry-date 2013-01-29","access_utc":"2026-10-06T05:10:30Z","data_date":"1953-10-21","license":"Open Government Licence v3.0; © Crown copyright and database right 2026","source_file_sha256":"0a0951032fa4b5b377a2c4f0d5944558a98918dcff7a3e18f7e6cec5606e1730","evidence_slice_sha256":"b9f0137cf513c5d9325e586618076a420eac24eca4ac091ed8f8f60e8dacadaf","field_evidence":["entity","reference","name","quality","dataset","organisation","start-date","entry-date","geometry","listed-building"],"confidence_score_0_100":99,"evidence_grade":"A_OFFICIAL_GOVERNMENT_BUILDING_OUTLINE_AND_NAMED_TYPE_USE","fake_data":false},"geometry":{"type":"MultiPolygon","coordinates":[[[[-2.121061,55.345999],[-2.1211,55.346058],[-2.121151,55.346047],[-2.121166,55.34607],[-2.121237,55.346054],[-2.12122,55.346029],[-2.121277,55.346016],[-2.1213,55.34605],[-2.121519,55.346001],[-2.121435,55.345877],[-2.121294,55.345909],[-2.121262,55.345862],[-2.121186,55.345878],[-2.12124,55.345959],[-2.121061,55.345999]]]]}}]}
