{"type":"FeatureCollection","name":"security_public_safety_1_batch_exact_identifiers","features":[{"type":"Feature","geometry":null,"properties":{"slot_id":"security_public_safety_1","evidence_scope":"coverage_exact_identifier","coverage_area_id":"London","exact_identifier":"London","exact_identifier_type":"gov.uk.local_resilience_forum.region","coverage_area_name":"London Resilience Forum","source_url":"https://www.gov.uk/guidance/local-resilience-forums-contact-details","final_url":"https://www.gov.uk/guidance/local-resilience-forums-contact-details","access_utc":"2026-10-05T08:34:00Z","data_date":"2026-02-11","data_date_basis":"GOV.UK page last-updated date","license":"Open Government Licence v3.0","file_sha256":"d649ff61c8e61324e3756a054c719c92b55fc128c4db3e97042bb2cc7a31bc28","file_sha256_scope":"normalized official London LRF row; not raw HTML bytes","evidence_slice_sha256":"4c1aa73485f627d690a9c8501e228fd02df70411e58a7eb23a1acbee7ffaffdc","field_evidence":{"page_title":"Local resilience forums: contact details","publisher":"Cabinet Office","published":"2013-02-20","last_updated":"2026-02-11","section":"London","region":"London","geography_statement":"The geographical area the forums cover is based on police areas.","contact_organisation":"London Resilience Unit, Greater London Authority","record_count":1},"confidence_score_0_100":100,"evidence_grade":"A_OFFICIAL_EXACT_IDENTIFIER","fake_data":false,"spatial_binding_method":"DEFERRED_TO_LOCAL_OPENCODE","canonical_parcel_id":null,"materialized_parcel_count":0,"direct_parcel_count":0}}],"metadata":{"slot_id":"security_public_safety_1","source_area_count":200,"source_area_delta_this_turn":1,"latest_evidence_window":"GOVUK_LOCAL_RESILIENCE_FORUMS_LONDON_20261005T083400Z","latest_status":"1_NEW_OFFICIAL_EXACT_IDENTIFIER_ACCEPTED","exact_blocker":"LOCAL_OPENCODE_EXACT_IDENTIFIER_TO_CANONICAL_SPATIAL_BINDING_REQUIRED","first_missing_criterion":"LOCAL_OPENCODE_EXACT_IDENTIFIER_TO_CANONICAL_SPATIAL_BINDING"}}
