{"type":"FeatureCollection","name":"gas_emissions_4","slot_schema_family":"AAYS_LAYER24_EVIDENCE_V1","package_category":"AAYS_SOURCE_AREA_V1","semantic_mode":"AREA_JOIN","slot_id":"gas_emissions_4","owner":"gas_emissions_4","partition":"UNVERIFIED_UNRESOLVED","lineage_id":"GE4-d738674f-dbc5-4a78-bb2a-1132f6d738fd","page_generation":1,"batch_id":"batch_20261001T131300+0300_dft_transport_ghg_2020_2021_hartlepool_0001","source_area_count":1,"new_source_area_delta":0,"new_source_record_count":1,"accepted_count":0,"features":[{"type":"Feature","id":"DFT_GHG_TRANSPORT_E06000001_2020_2021","geometry":null,"properties":{"slot_id":"gas_emissions_4","owner":"gas_emissions_4","partition":"UNVERIFIED_UNRESOLVED","lineage_id":"GE4-d738674f-dbc5-4a78-bb2a-1132f6d738fd","page_generation":1,"batch_id":"batch_20261001T131300+0300_dft_transport_ghg_2020_2021_hartlepool_0001","schema_family":"AAYS_LAYER24_EVIDENCE_V1","category":"AAYS_SOURCE_AREA_V1","semantic_mode":"AREA_JOIN","authority":"Department for Transport","source_family":"Greenhouse gas emissions from transport by local authority","source_url":"https://maps.dft.gov.uk/ghg-emissions-by-local-authority/index.html","accessed_at_utc":"2026-10-01T10:13:00Z","record_index":1,"local_authority":"Hartlepool","local_authority_code":"E06000001","transport_emissions_2020_ktco2e":118.7,"transport_emissions_2021_ktco2e":126.3,"percentage_change_2020_2021":6.4,"evidence_slice_sha256":"76873850afd20a657beb0c0756593cd090a10ae3f46ca6194ce34bbec83be0a8","confidence_score_0_100":100,"evidence_grade":"A_OFFICIAL_DFT_EXACT_IDENTIFIER_TABLE_ROW","accepted_as_source_area":false,"accepted_as_parcel":false,"source_area_recount_suppressed":true,"fake_data":false}}]}
