{"type":"FeatureCollection","features":[{"type":"Feature","geometry":{"type":"MultiPolygon","coordinates":[[[[-0.098861,51.492361],[-0.098753,51.492401],[-0.098857,51.492506],[-0.098958,51.492584],[-0.098997,51.492574],[-0.09901,51.492446],[-0.098962,51.49246],[-0.098952,51.492456],[-0.098861,51.492361]]]]},"properties":{"evidence_scope":"authoritative_polygon_geometry","coverage_area_id":"planning-data:brownfield-site:14-AP-4042","official_identifier":"brownfield-site:14-AP-4042","source_resolution":"official authoritative MultiPolygon geometry captured from Planning Data entity record","source_url":"https://www.planning.data.gov.uk/entity/1800452","final_url":"https://www.planning.data.gov.uk/entity/1800452","access_utc":"2026-10-01T22:13:00Z","data_date":"2017-12-20","licence":"Open Government Licence v3.0","measurement_method":"official Planning Data entity record","spatial_binding_method":"local OpenCode spatial join/materialization against canonical parcel polygons; not performed here","confidence_score_0_100":100,"evidence_grade":"authoritative_polygon_geometry","fake_data":false,"upstream_file_sha256":null,"upstream_file_sha256_reason":"raw upstream entity/geojson response bytes were not exposed by available retrieval path; no hash invented","source_window_payload_sha256":"5e7beb08b2339b2c349b40227651076e44da988ed05e9d3a0bb017b577b5954b","field_evidence":{"entry-date":"2017-12-20","start-date":"2017-12-20","end-date":"","entity":1800452,"name":"6-8 Hampton Street SE1 6SN","dataset":"brownfield-site","typology":"geography","reference":"14-AP-4042","prefix":"brownfield-site","organisation-entity":"329","geometry":"MULTIPOLYGON (((-0.098861 51.492361, -0.098753 51.492401, -0.098857 51.492506, -0.098958 51.492584, -0.098997 51.492574, -0.09901 51.492446, -0.098962 51.49246, -0.098952 51.492456, -0.098861 51.492361)))","point":"POINT (-0.098898 51.492469)","quality":"authoritative","brownfield-site":"14-AP-4042"}}}]}
