{"type":"FeatureCollection","features":[{"type":"Feature","geometry":null,"properties":{"slot_id":"future_growth_3","lineage_id":"future_growth_3-newstart-20261001T203100Z","page_generation":null,"accepted_as_parcel":false,"source_area_count_contribution":1,"exact_identifier":"PT3","exact_identifier_provided":true,"coverage_polygon_provided":false,"identifier_namespace":"Lewes Local Plan Regulation 18 Phase 2 site-allocation policy reference","secondary_exact_identifier":"LAA:19PT","source_entity":"PT3 / 19PT - Motel, 1 South Coast Road, Peacehaven","access_utc":"2026-10-03T02:38:05Z","data_date":"2025-12-18","source_url":"https://planningpolicyconsult.lewes-eastbourne.gov.uk/LP_SpatialStrategyandSites/viewCompoundDoc?docid=16596660&partId=16600436&sessionid=&voteid=","final_url":"https://planningpolicyconsult.lewes-eastbourne.gov.uk/LP_SpatialStrategyandSites/viewCompoundDoc?docid=16596660&partId=16600436&sessionid=&voteid=","license":"Lewes District Council / Ordnance Survey mapping licence LA 100019275; mapping reproduction is subject to Crown copyright restrictions.","authority":"Lewes District Council","site_address":"Motel, 1 South Coast Road, Peacehaven","field_evidence":{"reference":"PT3","laa_site_reference":"19PT","dataset":"Lewes Local Plan Regulation 18 Phase 2 - A Spatial Strategy for Development and Site Allocations","organisation":"Lewes District Council","consultation_open_date":"2025-12-18","consultation_close_date":"2026-02-28","site_name":"Motel, 1 South Coast Road, Peacehaven","site_area_ha":0.42,"use":"Residential","indicative_net_yield_homes":32,"previous_early_site_allocation_reference":"ESAP16","previous_planning_permission":"LW/12/0240","live_planning_application":"LW/23/0276"},"source_payload_sha256":"284e40b079256735341cf21c59683cc403d19038f1c7e67bee82f4a031715d75","source_payload_sha256_basis":"canonicalized official Lewes District Council Policy PT3 evidence fields","evidence_slice_sha256":"df74893c07d8fd6615e878948f53f6d426bd7ba8581a43beb5897ebc8c91e534","evidence_grade":"A","confidence_score_0_100":99,"evidence_scope":"exact_official_identifier_from_council_regulation18_phase2_site_allocation","fake_data":false,"spatial_binding_method":"official Lewes District Council Policy PT3 / LAA 19PT and site plan; canonical parcel spatial join and materialization delegated to local OpenCode","planned_building_count_contribution":0}}]}