{"type":"FeatureCollection","features":[{"type":"Feature","id":"CHERWELL_20_01906_F_DETACHED_BUNGALOW_01","geometry":null,"properties":{"slot_id":"planned_buildings_4","owner":"planned_buildings_4","lineage_id":"pb4-8debc7c8ddf348a2","page_generation":1,"partition":"layer24","schema":"AAYS_LAYER24_EVIDENCE_V1","semantic_mode":"PLANNED_BUILDINGS_OFFICIAL_REFERENCE_DISTINCT_STRUCTURE","batch_id":"20261006T194217Z-cherwell-20-01906-f-window-001","publisher":"Cherwell District Council","source_family":"CHERWELL_PLANNING_REGISTER","source_url":"https://planningregister.cherwell.gov.uk/Planning/Display/20/01906/F","final_url":"https://planningregister.cherwell.gov.uk/Planning/Display/20/01906/F","access_utc":"2026-10-06T19:42:17Z","data_date":"2020-07-30","license":"Public planning register; document copyright/usage remains governed by council register terms","planning_reference":"20/01906/F","location":"113 The Moors Kidlington OX5 2AQ","proposal":"Erection of detached bungalow and detached garage in land to the rear of the existing bungalow (revised scheme of 20/01100/F)","status":"Application Permitted","geometry_status":"NOT_MATERIALIZED_LOCAL_OPENCODE","field_evidence":"Official Cherwell District Council Planning Register application 20/01906/F. Application Type: Full Development. Status: Application Permitted. Valid date: 30/07/2020. Location: 113 The Moors Kidlington OX5 2AQ. Proposal: Erection of detached bungalow and detached garage in land to the rear of the existing bungalow (revised scheme of 20/01100/F). Decision: Permitted. Decision Issued Date: 14/10/2020. Official documents include Block Plan BP1, dedicated Garage Plan PP1, bungalow floorplan PFP1, roof & drainage plan R1, and amended Proposed Elevations PE2. The official proposal explicitly identifies two distinct new structures: one detached bungalow and one detached garage. The dedicated garage plan independently supports the garage identity; the floorplan/elevations and block plan support the bungalow, and the same official register page lists Building Control application 20/01041/FP for erection of a detached bungalow and detached garage. The existing bungalow is not counted as a new structure. Geometry/materialization is deferred to local OpenCode.","evidence_slice_sha256":"5196927db49e77d5093aaf644d7b11f4e61a302817d4ec831ba00cc4a13b1698","confidence":0.99,"evidence_grade":"A_OFFICIAL_LOCAL_AUTHORITY_PLANNING_REGISTER_DETACHED_BUNGALOW_AND_GARAGE_PERMITTED","fake_data":false,"source_record_id":"CHERWELL_20_01906_F_DETACHED_BUNGALOW_01","planned_building":"detached bungalow","official_plan_reference":"BP1; PFP1; R1; PE2","official_plan_description":"Block Plan; floorplan; roof & drainage plan; amended Proposed Elevations"}},{"type":"Feature","id":"CHERWELL_20_01906_F_DETACHED_GARAGE_02","geometry":null,"properties":{"slot_id":"planned_buildings_4","owner":"planned_buildings_4","lineage_id":"pb4-8debc7c8ddf348a2","page_generation":1,"partition":"layer24","schema":"AAYS_LAYER24_EVIDENCE_V1","semantic_mode":"PLANNED_BUILDINGS_OFFICIAL_REFERENCE_DISTINCT_STRUCTURE","batch_id":"20261006T194217Z-cherwell-20-01906-f-window-001","publisher":"Cherwell District Council","source_family":"CHERWELL_PLANNING_REGISTER","source_url":"https://planningregister.cherwell.gov.uk/Planning/Display/20/01906/F","final_url":"https://planningregister.cherwell.gov.uk/Planning/Display/20/01906/F","access_utc":"2026-10-06T19:42:17Z","data_date":"2020-07-30","license":"Public planning register; document copyright/usage remains governed by council register terms","planning_reference":"20/01906/F","location":"113 The Moors Kidlington OX5 2AQ","proposal":"Erection of detached bungalow and detached garage in land to the rear of the existing bungalow (revised scheme of 20/01100/F)","status":"Application Permitted","geometry_status":"NOT_MATERIALIZED_LOCAL_OPENCODE","field_evidence":"Official Cherwell District Council Planning Register application 20/01906/F. Application Type: Full Development. Status: Application Permitted. Valid date: 30/07/2020. Location: 113 The Moors Kidlington OX5 2AQ. Proposal: Erection of detached bungalow and detached garage in land to the rear of the existing bungalow (revised scheme of 20/01100/F). Decision: Permitted. Decision Issued Date: 14/10/2020. Official documents include Block Plan BP1, dedicated Garage Plan PP1, bungalow floorplan PFP1, roof & drainage plan R1, and amended Proposed Elevations PE2. The official proposal explicitly identifies two distinct new structures: one detached bungalow and one detached garage. The dedicated garage plan independently supports the garage identity; the floorplan/elevations and block plan support the bungalow, and the same official register page lists Building Control application 20/01041/FP for erection of a detached bungalow and detached garage. The existing bungalow is not counted as a new structure. Geometry/materialization is deferred to local OpenCode.","evidence_slice_sha256":"5196927db49e77d5093aaf644d7b11f4e61a302817d4ec831ba00cc4a13b1698","confidence":0.99,"evidence_grade":"A_OFFICIAL_LOCAL_AUTHORITY_PLANNING_REGISTER_DETACHED_BUNGALOW_AND_GARAGE_PERMITTED","fake_data":false,"source_record_id":"CHERWELL_20_01906_F_DETACHED_GARAGE_02","planned_building":"detached garage","official_plan_reference":"BP1; PP1; PE2","official_plan_description":"Block Plan; Garage plan; amended Proposed Elevations"}}]}