{"type":"FeatureCollection","name":"building_type_2_batch_0053","features":[{"type":"Feature","id":"42227836","geometry":{"type":"MultiPolygon","coordinates":[[[[-1.25805,51.753651],[-1.257918,51.753681],[-1.257969,51.753761],[-1.258056,51.75381],[-1.258098,51.753801],[-1.258078,51.753735],[-1.258086,51.753734],[-1.25805,51.753651]]]]},"properties":{"slot_id":"building_type_2","lineage_id":"building_type_2-20260930T173100Z-newstart","batch_id":"batch-0053","page_generation":1,"source_entity":42227836,"source_reference":"1425","source_dataset":"listed-building-outline","source_organisation":"Oxford City Council","building_evidence_status":"BUILDING_PRESENT","parcel_status":"UNPROCESSED","canonical_parcel_id":null,"building_type":"listed_building","building_use":null,"poi_accepted":false,"field_evidence":{"footprint":"official listed-building-outline MULTIPOLYGON","type":"official dataset classification: listed-building-outline","reference":"1425","quality":"authoritative","name":"1 and 2 Ship Street"},"source_url":"https://www.planning.data.gov.uk/entity/42227836","final_url":"https://www.planning.data.gov.uk/entity/42227836","access_utc":"2026-10-06T02:43:39Z","data_date":"1954-01-12","licence":"Open Government Licence v3.0","evidence_slice_sha256":"926652b6bf3a3e986c0eac78b43704d7b8c2233d1f4d24478b4022afb021b384","confidence_score_0_100":96,"evidence_grade":"A","fake_data":false,"local_spatial_join_required":true}}]}