{"type":"FeatureCollection","name":"building_type_2_batch_0046","features":[{"type":"Feature","id":"42122995","geometry":{"type":"MultiPolygon","coordinates":[[[[-1.504409,51.493548],[-1.504525,51.493442],[-1.504444,51.493408],[-1.504326,51.493514],[-1.504409,51.493548]]]]},"properties":{"slot_id":"building_type_2","lineage_id":"building_type_2-20260930T173100Z-newstart","batch_id":"batch-0046","page_generation":1,"source_entity":42122995,"source_reference":"1136126","source_dataset":"listed-building-outline","source_organisation":"West Berkshire Council","building_evidence_status":"BUILDING_PRESENT","parcel_status":"UNPROCESSED","canonical_parcel_id":null,"building_type":"listed_building","building_use":null,"poi_accepted":false,"field_evidence":{"footprint":"official listed-building-outline MULTIPOLYGON","type":"official dataset classification: listed-building-outline","reference":"1136126","quality":"authoritative","name":"No given name"},"source_url":"https://www.planning.data.gov.uk/entity/42122995","final_url":"https://www.planning.data.gov.uk/entity/42122995","access_utc":"2026-10-05T13:30:37Z","data_date":"2026-07-23","licence":"Open Government Licence v3.0","evidence_slice_sha256":"861bb91b3fa025c974e29b92f962f100db0dd82dc1af4f0bdd144d516e161160","confidence_score_0_100":96,"evidence_grade":"A","fake_data":false,"local_spatial_join_required":true}}]}