{"type":"FeatureCollection","features":[{"type":"Feature","id":"CHERWELL_24_03098_F_OUTBUILDING_01","geometry":null,"properties":{"slot_id":"planned_buildings_4","owner":"planned_buildings_4","lineage_id":"pb4-8debc7c8ddf348a2","page_generation":1,"partition":"layer24","schema":"AAYS_LAYER24_EVIDENCE_V1","semantic_mode":"PLANNED_BUILDINGS_OFFICIAL_REFERENCE_DISTINCT_STRUCTURE","batch_id":"20261004T053224Z-cherwell-24-03098-f-window-001","publisher":"Cherwell District Council","source_family":"CHERWELL_PLANNING_REGISTER","source_url":"https://planningregister.cherwell.gov.uk/Planning/Display/24/03098/F","final_url":"https://planningregister.cherwell.gov.uk/Planning/Display/24/03098/F","access_utc":"2026-10-04T05:32:24Z","data_date":"2024-11-18","license":"Public planning register; document copyright/usage remains governed by council register terms","planning_reference":"24/03098/F","location":"99 Oxford Road Kidlington OX5 2NP","proposal":"Single storey rear extension, front porch extension and outbuilding to the dwelling","status":"Application Permitted","decision":"Permitted","decision_issued_date":"07/01/2025","geometry_status":"NOT_MATERIALIZED_LOCAL_OPENCODE","field_evidence":"Official Cherwell District Council Planning Register application 24/03098/F. Application Type: Full Development. Status: Application Permitted. Valid date: 18/11/2024. Location: 99 Oxford Road Kidlington OX5 2NP. Proposal: Single storey rear extension, front porch extension and outbuilding to the dwelling. Decision: Permitted. Decision Issued Date: 07/01/2025. Official documents include Proposed Site Plan drawing 2472 P102 and Proposed Outbuilding Plans and Elevations drawing 2472 P202. The official proposal explicitly identifies one distinct new structure: an outbuilding to the dwelling. The proposed site plan and dedicated proposed outbuilding plans/elevations independently support the structure identity; the rear and porch extensions are alterations to the existing dwelling and are not counted as distinct structures. Geometry/materialization is deferred to local OpenCode.","evidence_slice_sha256":"ed16aa329ceda92841ec02127f0cc9f00c07e4fa37a959bb661ed608c3b7682f","confidence":0.99,"evidence_grade":"A_OFFICIAL_LOCAL_AUTHORITY_PLANNING_REGISTER_DISTINCT_OUTBUILDING_PERMITTED","fake_data":false,"official_plan_reference":"2472 P202","official_plan_description":"Proposed Outbuilding Plans and Elevations","source_record_id":"CHERWELL_24_03098_F_OUTBUILDING_01","planned_building":"outbuilding"}}]}
