{"type":"FeatureCollection","features":[{"type":"Feature","geometry":null,"properties":{"slot_id":"future_growth_3","lineage_id":"future_growth_3-newstart-20261001T203100Z","page_generation":null,"accepted_as_parcel":false,"source_area_count_contribution":1,"exact_identifier":"209","exact_identifier_provided":true,"coverage_polygon_provided":false,"identifier_namespace":"Planning Data brownfield-land reference","secondary_exact_identifier":"entity:1730717","source_entity":"209 - 26-28 Westgate Road","access_utc":"2026-10-05T09:09:01Z","data_date":"2025-12-18","source_url":"https://www.planning.data.gov.uk/entity/1730717","final_url":"https://www.planning.data.gov.uk/entity/1730717","license":"Open Government Licence v3.0; attribution © Crown copyright and database right 2026.","authority":"Dartford Borough Council","site_address":"26-28 Westgate Road, Dartford DA1 2AN","field_evidence":{"reference":"209","entity":1730717,"dataset":"Brownfield land","organisation":"Dartford Borough Council","entry_date":"2025-12-18","site_address":"26-28 Westgate Road, Dartford DA1 2AN","point":"POINT (0.214496 51.446759)","hectares":0.07,"deliverable":"yes","ownership_status":"not-owned-by-a-public-authority","minimum_net_dwellings":9,"maximum_net_dwellings":9,"planning_permission_date":"2024-03-13","planning_permission_type":"full-planning-permission","planning_permission_status":"permissioned","notes":"Permissioned 23/01176/FUL","site_plan_url":"https://www.dartford.gov.uk/downloads/file/2510/209-26-28-westgate-road","organisation_curie":"local-authority:DAR"},"source_payload_sha256":"8bddff0ccc74589f0edb138e4631d7668ed6f558e850bf52323cda2eb3573578","source_payload_sha256_basis":"canonicalized official Planning Data entity 1730717 / reference 209 evidence fields","evidence_slice_sha256":"eb9261c10c22d2a8f8016e0128d2351218bb2e545db97b61478f4ffa40bfe98a","evidence_grade":"A","confidence_score_0_100":99,"evidence_scope":"exact_official_identifier_from_authoritative_planning_data_brownfield_entity","fake_data":false,"spatial_binding_method":"official Planning Data brownfield reference 209 / entity 1730717 and Dartford Borough Council site-plan URL; canonical parcel spatial join and materialization delegated to local OpenCode","planned_building_count_contribution":0}}]}