{"type":"FeatureCollection","features":[{"type":"Feature","geometry":null,"properties":{"slot_id":"future_growth_3","lineage_id":"future_growth_3-newstart-20261001T203100Z","page_generation":null,"accepted_as_parcel":false,"source_area_count_contribution":1,"exact_identifier":"4HA","exact_identifier_provided":true,"coverage_polygon_provided":false,"identifier_namespace":"St Helens Local Plan site allocation reference","secondary_exact_identifier":"Policy LPA11","source_entity":"4HA / Policy LPA11 - Bold Forest Garden Village","access_utc":"2026-10-03T13:11:09Z","data_date":"2026-01-21","source_url":"https://www.sthelens.gov.uk/BoldForestGardenVillage","final_url":"https://www.sthelens.gov.uk/BoldForestGardenVillage","license":"© 2026 St Helens Borough Council; website and masterplan content reuse subject to Council copyright and applicable third-party rights.","authority":"St Helens Borough Council","site_address":"Bold Forest Garden Village, St Helens","field_evidence":{"reference":"4HA","policy":"LPA11","dataset":"Bold Forest Garden Village Masterplan Framework / St Helens Local Plan","organisation":"St Helens Borough Council","site_name":"Bold Forest Garden Village","masterplan_adopted_date":"2026-01-21","site_area_ha":128,"target_homes_approx":3000,"affordable_housing_percent":30,"community_infrastructure":["new primary school","on-site health care provision","strategic open space"],"page_last_modified":"2026-03-25"},"source_payload_sha256":"f18a0139f11cb460099ef31936cfa5e1f1366acbcf787f59924f0c3d49bac31a","source_payload_sha256_basis":"canonicalized official St Helens Borough Council Bold Forest Garden Village evidence fields","evidence_slice_sha256":"0c3c2637108a40fbe9eebdc8ea31d1d891419c81dcb111c7ef7e7534abe12c1a","evidence_grade":"A","confidence_score_0_100":99,"evidence_scope":"exact_official_identifier_from_council_adopted_masterplan_and_local_plan_site_allocation","fake_data":false,"spatial_binding_method":"official St Helens Borough Council site allocation 4HA / Policy LPA11 and adopted Bold Forest Garden Village Masterplan Framework; canonical parcel spatial join and materialization delegated to local OpenCode","planned_building_count_contribution":0}}]}