{"type":"FeatureCollection","features":[{"type":"Feature","id":"planned_buildings_1-planning-data-brownfield-1717262","geometry":{"type":"Point","coordinates":[-0.095347,51.428773]},"properties":{"slot_id":"planned_buildings_1","source_entity":1717262,"official_site_key":"BLR040","canonical_record_key":"planning-data:brownfield-land:1717262","planned_project_name":"31-37 Auckland Hill","planned_project_status":"permissioned","planned_building_capacity_net_dwellings":7,"planned_building_value":null,"planned_building_probability":null,"planned_building_complete_month":null,"matching_method":"direct_official_site_record_no_parcel_match","source_quality":"authoritative","source_license":"Open Government Licence v3.0","fake_data":false,"demo_only":true,"final_ready":false,"production_merge":false}}],"metadata":{"slot_id":"planned_buildings_1","batch_index":3,"source_window":{"geometry_entity":626195,"geometry_relation":"within","limit":1,"offset":38},"feature_count_before":88,"feature_count_after":89,"unique_real_site_project_before":39,"unique_real_site_project_after":40,"duplicate_count_new":0,"nearest_match_used":false,"fake_data":false,"mirror_only":true}}