{"type":"FeatureCollection","features":[],"metadata":{"slot_id":"planned_buildings_1","batch_index":6,"source_window":{"geometry_entity":626195,"geometry_relation":"within","limit":1,"offset":41},"source_reference_hint":"BLR043","source_evidence_status":"AUTHORITATIVE_BROWNFIELD_LAND_ENTITY_NOT_FULLY_RESOLVED","linked_brownfield_site_entity":1800543,"linked_brownfield_site_quality":"some","linked_site_name":"12G Leigham Court Road","feature_count_before":91,"feature_count_after":91,"unique_real_site_project_before":42,"unique_real_site_project_after":42,"new_feature_count":0,"duplicate_count_new":0,"nearest_match_used":false,"fake_data":false,"mirror_only":true}}