{"type":"FeatureCollection","features":[{"type":"Feature","id":"planned_buildings_1-planning-data-brownfield-1717260","geometry":{"type":"Point","coordinates":[-0.131703,51.436606]},"properties":{"slot_id":"planned_buildings_1","source_entity":1717260,"official_site_key":"BLR038","canonical_record_key":"planning-data:brownfield-land:1717260","planned_project_name":"Land to the rear of Colin Court at Woodfield Avenue","source_quality":"authoritative","fake_data":false}},{"type":"Feature","id":"planned_buildings_1-planning-data-brownfield-1717261","geometry":{"type":"Point","coordinates":[-0.130281,51.423484]},"properties":{"slot_id":"planned_buildings_1","source_entity":1717261,"official_site_key":"BLR039","canonical_record_key":"planning-data:brownfield-land:1717261","planned_project_name":"Land at 396 Streatham High Road","source_quality":"authoritative","fake_data":false}},{"type":"Feature","id":"planned_buildings_1-planning-data-brownfield-1717262","geometry":{"type":"Point","coordinates":[-0.095347,51.428773]},"properties":{"slot_id":"planned_buildings_1","source_entity":1717262,"official_site_key":"BLR040","canonical_record_key":"planning-data:brownfield-land:1717262","planned_project_name":"31-37 Auckland Hill","source_quality":"authoritative","fake_data":false}},{"type":"Feature","id":"planned_buildings_1-planning-data-brownfield-1717263","geometry":{"type":"Point","coordinates":[-0.108367,51.493821]},"properties":{"slot_id":"planned_buildings_1","source_entity":1717263,"official_site_key":"BLR041","canonical_record_key":"planning-data:brownfield-land:1717263","planned_project_name":"Garages at Walcot Square","source_quality":"authoritative","fake_data":false}},{"type":"Feature","id":"planned_buildings_1-planning-data-brownfield-1717264","geometry":{"type":"Point","coordinates":[-0.104101,51.440261]},"properties":{"slot_id":"planned_buildings_1","source_entity":1717264,"official_site_key":"BLR042","canonical_record_key":"planning-data:brownfield-land:1717264","planned_project_name":"341 - 343 Norwood Road","source_quality":"authoritative","fake_data":false}},{"type":"Feature","id":"planned_buildings_1-planning-data-brownfield-1717267","geometry":{"type":"Point","coordinates":[-0.116661,51.449965]},"properties":{"slot_id":"planned_buildings_1","source_entity":1717267,"official_site_key":"BLR045","canonical_record_key":"planning-data:brownfield-land:1717267","planned_project_name":"Land between 33 and 35 Medora Road","source_quality":"authoritative","fake_data":false}},{"type":"Feature","id":"planned_buildings_1-planning-data-brownfield-1719388","geometry":{"type":"Point","coordinates":[-0.09004,51.421585]},"properties":{"slot_id":"planned_buildings_1","source_entity":1719388,"official_site_key":"BLR046","canonical_record_key":"planning-data:brownfield-land:1719388","planned_project_name":"2 Roman Rise","source_quality":"authoritative","fake_data":false}},{"type":"Feature","id":"planned_buildings_1-planning-data-brownfield-1719378","geometry":{"type":"Point","coordinates":[-0.11001,51.445507]},"properties":{"slot_id":"planned_buildings_1","source_entity":1719378,"official_site_key":"BLR047","canonical_record_key":"planning-data:brownfield-land:1719378","planned_project_name":"Cressingham Gardens Estate - Ropers Walk","source_quality":"authoritative","fake_data":false}},{"type":"Feature","id":"planned_buildings_1-planning-data-brownfield-1719365","geometry":{"type":"Point","coordinates":[-0.128521,51.464741]},"properties":{"slot_id":"planned_buildings_1","source_entity":1719365,"official_site_key":"BLR048","canonical_record_key":"planning-data:brownfield-land:1719365","planned_project_name":"Flats 24 To 66 Fenwick Place","source_quality":"authoritative","fake_data":false}}],"metadata":{"slot_id":"planned_buildings_1","run_id":"20260818T030300Z","source_family":"planning_data_brownfield_land","processed_offsets":[36,37,38,39,40,41,42,43,44,45,46,47],"no_add_evidence_insufficient_offsets":[41,42,47],"next_unused_window":{"geometry_entity":626195,"geometry_relation":"within","limit":1,"offset":48},"bounded_batch_count":12,"zero_result_windows":0,"evidence_insufficient_windows":3,"feature_count_before":86,"feature_count_added":9,"feature_count_after_logical":95,"unique_real_site_project_before":37,"unique_real_site_project_added":9,"unique_real_site_project_after":46,"duplicate_count_new":0,"reprocessed_window_count":0,"nearest_match_used":false,"parcel_match_used":false,"fake_data":false,"demo_only":true,"final_ready":false,"production_merge":false,"mirror_only":true,"canonical_latest_overwritten":false}}