{"type":"FeatureCollection","features":[{"type":"Feature","geometry":{"type":"MultiPolygon","coordinates":[[[[-0.140415,51.541419],[-0.14041,51.541397],[-0.140428,51.541357],[-0.140164,51.541051],[-0.139706,51.541208],[-0.139969,51.54153],[-0.140007,51.541553],[-0.140415,51.541419]]]]},"properties":{"slot_id":"future_growth_3","lineage_id":"future_growth_3-newstart-20261001T203100Z","page_generation":null,"accepted_as_parcel":false,"source_area_count_contribution":1,"exact_identifier":"LBCBLR071","exact_identifier_provided":true,"coverage_polygon_provided":true,"identifier_namespace":"Planning Data brownfield-site reference","secondary_exact_identifier":"entity:1801508","source_entity":"LBCBLR071 - 140-146 Camden Street London NW1 9PF","access_utc":"2026-10-04T18:27:36Z","data_date":"2020-12-22","source_url":"https://www.planning.data.gov.uk/entity/1801508","final_url":"https://www.planning.data.gov.uk/entity/1801508","license":"Open Government Licence v3.0; attribution © Crown copyright and database right 2026.","authority":"London Borough of Camden","site_address":"140-146 Camden Street London NW1 9PF","field_evidence":{"reference":"LBCBLR071","entity":1801508,"dataset":"Brownfield site","organisation":"London Borough of Camden","entry_date":"2020-12-22","site_name":"140-146 Camden Street London NW1 9PF","geometry":"MULTIPOLYGON (((-0.140415 51.541419, -0.14041 51.541397, -0.140428 51.541357, -0.140164 51.541051, -0.139706 51.541208, -0.139969 51.54153, -0.140007 51.541553, -0.140415 51.541419)))","point":"POINT (-0.140081 51.541304)","quality":"some","brownfield_site":"LBCBLR071"},"source_payload_sha256":"3f4b136e303038a07775a571ebc7d02d279fd92cf14cd466939d8785d235b96e","source_payload_sha256_basis":"canonicalized official Planning Data brownfield-site LBCBLR071 evidence fields","evidence_slice_sha256":"8151bb1ee93437e92630e2165ebf34b19068a13afa03b9f7a829c1c008c05094","evidence_grade":"B","confidence_score_0_100":95,"evidence_scope":"official_public_no_login_planning_data_brownfield_site_explicit_multipolygon","fake_data":false,"spatial_binding_method":"official Planning Data brownfield-site entity 1801508 supplies an explicit MultiPolygon boundary; canonical parcel spatial join and materialization delegated to local OpenCode","planned_building_count_contribution":0}}]}