{"type":"FeatureCollection","name":"height_difference_5","metadata":{"slot_id":"height_difference_5","owner":"height_difference_5","lineage_id":"height_difference_5-eb56f92ed3f0514c","page_generation":1,"schema":"AAYS_LAYER24_EVIDENCE_V1","partition":"layer24","semantic_mode_state":"ABSENT_IN_PRIOR_PHYSICAL_STATE_PRESERVED_BY_OMISSION","batch_id":"20261003T121600Z_osni_10k_grid_irish_grid_reference","record_policy":"Official OSNI 10K grid reference metadata only; Irish Grid is not assigned to Belfast 2006 LiDAR without dataset-specific evidence; no parcel binding, tile/file or geometry synthesized.","fake_data":false},"features":[{"type":"Feature","geometry":null,"properties":{"slot_id":"height_difference_5","owner":"height_difference_5","lineage_id":"height_difference_5-eb56f92ed3f0514c","page_generation":1,"schema":"AAYS_LAYER24_EVIDENCE_V1","partition":"layer24","batch_id":"20261003T121600Z_osni_10k_grid_irish_grid_reference","source_record_id":"OSNI_COVERAGE_GRID_10K:DATASET_METADATA","source_url":"https://www.data.gov.uk/dataset/0070a895-96eb-4a6e-b8e7-cf563b59b82a/osni-open-data-coverage-grid-10k","access_utc":"2026-10-03T12:16:00Z","required_building_state":"BUILDING_PRESENT","binding_status":"LOCAL_OPENCODE_BUILDING_PRESENT_EXACT_TILE_BIND_REQUIRED","reference_grid_crs_label":"Irish Grid","belfast_2006_dataset_specific_crs_proven":false,"exact_tile_identifier":null,"crs":null,"evidence_slice_sha256":"d791b967bfcf0c254bff8a173e90577b9bf14fdc7ec19ba9f3a5b211fb263a55","accepted_count_contribution":0,"source_area_count_contribution":0,"fake_data":false}}]}
