{"type":"FeatureCollection","features":[{"type":"Feature","geometry":{"type":"MultiPolygon","coordinates":[[[[-0.107338,51.499514],[-0.107162,51.499388],[-0.106936,51.499499],[-0.107135,51.499665],[-0.107334,51.499513],[-0.107338,51.499514]]]]},"properties":{"slot_id":"future_growth_1","lineage_id":"future_growth_1-newstart-20260927T153100+0300","page_generation":null,"evidence_scope":"coverage_polygon_and_exact_identifier","exact_identifier":"brownfield-site:16-AP-3090","coverage_area_id":"brownfield-site:16-AP-3090","entity":1800773,"reference":"16-AP-3090","name":"256-260 Waterloo Road SE1 8RF","dataset":"brownfield-site","organisation":"London Borough of Southwark","organisation_curie":"local-authority:SWK","source_url":"https://www.planning.data.gov.uk/entity/1800773","final_url":"https://www.planning.data.gov.uk/entity/1800773","access_utc":"2026-09-30T19:16:00Z","data_date":"2017-12-20","license":"Open Government Licence v3.0","source_file_sha256":"d508df085f37ce6005cae75f2dea3d27b9082f7e3d56bbd66b4c612b25d52d9f","source_file_sha256_basis":"captured source_snapshot.json for official entity record","evidence_slice_sha256":"ce03740c6afcb0a9cca22883d43e644e4c9fec25047ccca7608811338103139b","field_evidence":{"entity":1800773,"curie":"brownfield-site:16-AP-3090","reference":"16-AP-3090","name":"256-260 Waterloo Road SE1 8RF","quality":"authoritative","organisation":"London Borough of Southwark","organisation_curie":"local-authority:SWK","geometry_wkt":"MULTIPOLYGON (((-0.107338 51.499514, -0.107162 51.499388, -0.106936 51.499499, -0.107135 51.499665, -0.107334 51.499513, -0.107338 51.499514)))","point_wkt":"POINT (-0.107139 51.499519)"},"confidence_score_0_100":96,"evidence_grade":"A","fake_data":false,"coverage_polygon_provided":true,"exact_identifier_provided":true,"spatial_binding_method":"source-provided authoritative multipolygon plus exact official identifier; canonical parcel spatial join/materialization delegated to local OpenCode","accepted_as_parcel":false}}]}
