{"type":"FeatureCollection","features":[{"type":"Feature","geometry":null,"properties":{"slot_id":"future_growth_1","lineage_id":"future_growth_1-newstart-20260927T153100+0300","page_generation":null,"accepted_as_parcel":false,"source_area_count_contribution":1,"exact_identifier":"S.I. 2015/747, article 2(1)","exact_identifier_provided":true,"coverage_polygon_provided":false,"identifier_namespace":"UK Statutory Instrument / Urban Development Area designation","site_name":"Ebbsfleet Urban Development Area","access_utc":"2026-10-05T03:43:00Z","data_date":"2015-04-20","source_url":"https://www.gov.uk/government/consultations/ebbsfleet-development","final_url":"https://www.gov.uk/government/consultations/ebbsfleet-development","legal_instrument_url":"https://www.legislation.gov.uk/uksi/2015/747/pdfs/uksiem_20150747_en.pdf","planning_functions_url":"https://www.legislation.gov.uk/uksi/2015/748/pdfs/uksi_20150748_en.pdf","development_area_url":"https://ebbsfleetdc.org.uk/planning-and-design/","license":"Open Government Licence applies to legislation.gov.uk and GOV.UK Crown copyright content unless otherwise stated; boundary-map Ordnance Survey rights are separately noted on the official consultation material.","authority":"Ebbsfleet Development Corporation","area_structure":"three areas","garden_city_capacity_homes":"up to 15000","announced_infrastructure_funding_gbp":"up to 200 million","evidence_grade":"A","confidence_score_0_100":99,"evidence_scope":"statutory S.I. 2015/747 Urban Development Area designation plus official GOV.UK development/boundary-map evidence","evidence_slice_sha256":"d1d888546e07cfe7948feb8f706fccac462ed166902036e4ecd1c02cd39571d9","fake_data":false,"spatial_binding_method":"exact statutory Urban Development Area identifier S.I. 2015/747 article 2(1) plus official boundary map; polygon resolution, canonical parcel spatial join and materialization delegated to local OpenCode","planned_building_count_contribution":0}}]}
