{"type":"FeatureCollection","features":[{"type":"Feature","geometry":{"type":"MultiPolygon","coordinates":[[[[-0.141353,51.547219],[-0.141385,51.547203],[-0.141416,51.547095],[-0.141104,51.547078],[-0.141184,51.546836],[-0.141163,51.546835],[-0.14117,51.5468],[-0.141102,51.546797],[-0.14098,51.5472],[-0.141353,51.547219]]]]},"properties":{"slot_id":"future_growth_3","lineage_id":"future_growth_3-newstart-20261001T203100Z","page_generation":null,"accepted_as_parcel":false,"source_area_count_contribution":1,"exact_identifier":"LBCBLR065","exact_identifier_provided":true,"coverage_polygon_provided":true,"identifier_namespace":"Planning Data brownfield-site reference","secondary_exact_identifier":"entity:1800922","source_entity":"LBCBLR065 - 174 - 178 Kentish Town Road London NW5 2AG","access_utc":"2026-10-04T11:57:00Z","data_date":"2020-12-22","source_url":"https://www.planning.data.gov.uk/entity/1800922","final_url":"https://www.planning.data.gov.uk/entity/1800922","license":"Open Government Licence v3.0; attribution © Crown copyright and database right 2026.","authority":"London Borough of Camden","site_address":"174 - 178 Kentish Town Road London NW5 2AG","field_evidence":{"reference":"LBCBLR065","entity":1800922,"dataset":"Brownfield site","organisation":"London Borough of Camden","organisation_entity":90,"entry_date":"2020-12-22","site_name":"174 - 178 Kentish Town Road London NW5 2AG","geometry":"MULTIPOLYGON (((-0.141353 51.547219, -0.141385 51.547203, -0.141416 51.547095, -0.141104 51.547078, -0.141184 51.546836, -0.141163 51.546835, -0.14117 51.5468, -0.141102 51.546797, -0.14098 51.5472, -0.141353 51.547219)))","point":"POINT (-0.141167 51.54708)","quality":"some","brownfield_site":"LBCBLR065"},"source_payload_sha256":"c99aee48975beaa6ede97968dfff6a90971738a81be71840c09712587b8ea8eb","source_payload_sha256_basis":"canonicalized official Planning Data brownfield-site entity fields","evidence_slice_sha256":"52944855bb4e868f8dccbd9d293dfd3aea251055dce41909b55cc038537f806b","evidence_grade":"B","confidence_score_0_100":94,"evidence_scope":"explicit_official_source_area_multipolygon_from_planning_data_brownfield_site_entity","fake_data":false,"spatial_binding_method":"official Planning Data brownfield-site entity 1800922 explicit MultiPolygon geometry; canonical parcel spatial join and materialization delegated to local OpenCode","planned_building_count_contribution":0}}]}