{"type":"FeatureCollection","name":"future_growth_6","features":[{"type":"Feature","id":"local-plan-policy-map:SA3","geometry":null,"properties":{"source_area_id":"local-plan-policy-map:SA3","source_area_name":"East of Arlesey","source_reference":"SA3","organisation":"Central Bedfordshire Council","dataset":"Central Bedfordshire Council Local Plan proposal map","typology":"strategic-allocation-proposal-map","quality":"authoritative","map_date":"2017-12-22","allocation_status":"Proposed Allocation","map_scale":"1:20000","boundary_reference":"official proposal-map polygon","evidence_type":"exact_official_strategic_allocation_policy_identifier_with_explicit_mapped_allocation_polygon","confidence_score_0_100":100,"evidence_grade":"A_OFFICIAL_AUTHORITATIVE","fake_data":false,"canonical_parcel_id":null,"parcel_match_status":"DEFERRED_TO_LOCAL_OPENCODE"}}]}
