{"type":"FeatureCollection","name":"security_public_safety_2_exact_identifier_batch","features":[{"type":"Feature","geometry":null,"properties":{"exact_identifier":"E05011101","coverage_area_name":"Dulwich Wood","exact_identifier_type":"data.police.uk.metropolitan.neighbourhood.id","parent_force_id":"metropolitan"}}],"metadata":{"slot_id":"security_public_safety_2","evidence_scope":"coverage_exact_identifier","source_area_count":68,"source_area_delta_this_turn":1,"latest_evidence_window":"POLICEUK_METROPOLITAN_NEIGHBOURHOODS_065_065","latest_status":"SOURCE_AREA_EXACT_IDENTIFIER_CAPTURED_LOCAL_BINDING_PENDING","first_missing_criterion":"LOCAL_OPENCODE_EXACT_IDENTIFIER_TO_CANONICAL_SPATIAL_BINDING","spatial_binding_method":"DEFERRED_TO_LOCAL_OPENCODE","fake_data":false,"materialized_parcel_count":0,"direct_parcel_count":0}}
