{
  "type": "FeatureCollection",
  "metadata": {
    "slot_id": "security_public_safety_1",
    "lineage_id": null,
    "owner": null,
    "partition": {
      "start": 1,
      "end": 30761,
      "count": 30761
    },
    "source_area_count": 209,
    "source_area_delta_this_turn": 1,
    "latest_evidence_window": "BTP_STRUCTURE_B_DIVISION_CURRENT_20261005T120800Z",
    "latest_status": "1_NEW_OFFICIAL_EXACT_IDENTIFIER_ACCEPTED",
    "exact_blocker": "LOCAL_OPENCODE_EXACT_IDENTIFIER_TO_CANONICAL_SPATIAL_BINDING_REQUIRED",
    "first_missing_criterion": "LOCAL_OPENCODE_EXACT_IDENTIFIER_TO_CANONICAL_SPATIAL_BINDING",
    "materialized_parcel_count": 0,
    "direct_parcel_count": 0,
    "planned_building_count": 0,
    "batch_scope": "CURRENT_BATCH_DELTA"
  },
  "features": [
    {
      "type": "Feature",
      "geometry": null,
      "properties": {
        "slot_id": "security_public_safety_1",
        "evidence_scope": "coverage_exact_identifier",
        "coverage_area_id": "B Division",
        "exact_identifier": "B Division",
        "exact_identifier_type": "btp.police.uk.geographic_division.official_name",
        "coverage_area_name": "B Division",
        "source_url": "https://www.btp.police.uk/police-forces/british-transport-police/areas/about-us/about-us/our-structure/",
        "final_url": "https://www.btp.police.uk/police-forces/british-transport-police/areas/about-us/about-us/our-structure/",
        "access_utc": "2026-10-05T12:08:00Z",
        "data_date": "2026-10-05",
        "data_date_basis": "Current official British Transport Police structure page snapshot observed on access date",
        "license": "British Transport Police website; explicit reuse licence not asserted in extracted source window",
        "file_sha256": "0b901d9efb10df58fe7de9abf26530b73c23da962114d1744a34a97b884d2ab8",
        "file_sha256_scope": "normalized one official division-name/coverage record; not raw HTML bytes",
        "evidence_slice_sha256": "5c2824cc402d36df748a715482a422f59630edc5d66a8c703639cb7a87f5d6ba",
        "field_evidence": {
          "ordinal": 1,
          "id": "B Division",
          "coverage": "London and the South East of England"
        },
        "confidence_score_0_100": 100,
        "evidence_grade": "A_OFFICIAL_EXACT_IDENTIFIER",
        "fake_data": false,
        "spatial_binding_method": "DEFERRED_TO_LOCAL_OPENCODE",
        "canonical_parcel_id": null,
        "materialized_parcel_count": 0,
        "direct_parcel_count": 0
      }
    }
  ]
}
