{"type":"FeatureCollection","features":[{"type":"Feature","id":"CHERWELL_26_02409_F_DETACHED_DWELLING_01","geometry":null,"properties":{"slot_id":"planned_buildings_4","owner":"planned_buildings_4","lineage_id":"pb4-8debc7c8ddf348a2","page_generation":1,"partition":"layer24","schema":"AAYS_LAYER24_EVIDENCE_V1","semantic_mode":"PLANNED_BUILDINGS_OFFICIAL_REFERENCE_DISTINCT_STRUCTURE","batch_id":"20261006T205747Z-cherwell-26-02409-f-window-001","publisher":"Cherwell District Council","source_family":"CHERWELL_PLANNING_REGISTER","source_url":"https://planningregister.cherwell.gov.uk/Planning/Display/26/02409/F","final_url":"https://planningregister.cherwell.gov.uk/Planning/Display/26/02409/F","access_utc":"2026-10-06T20:57:47Z","data_date":"2026-09-14","license":"Public planning register; document copyright/usage remains governed by council register terms","planning_reference":"26/02409/F","location":"1 Barretts Row Main Street Wendlebury OX25 2PH","proposal":"Demolition of existing garage and erection of one detached dwelling, with associated access alterations, parking, landscaping and associated works.","status":"Under Consultation","geometry_status":"NOT_MATERIALIZED_LOCAL_OPENCODE","field_evidence":"Official register proposal explicitly identifies one new detached dwelling after demolition of the existing garage. Site Plan As Proposed 2432 P03, Site Section And Proposed Floor Levels 2432 P04, Floor Plan As Proposed 2432 PH01, and Elevations As Proposed 2432 PH02 support the same single planned structure. Access alterations, parking, landscaping and associated works are not counted as additional distinct structures.","evidence_slice_sha256":"f28e3a6c89a1ed3d35d2c117ff794e77ab548874c6eed95963534ea3c731ed9d","confidence":0.99,"evidence_grade":"A_OFFICIAL_LOCAL_AUTHORITY_PLANNING_REGISTER_SINGLE_DETACHED_DWELLING_UNDER_CONSULTATION","fake_data":false,"source_record_id":"CHERWELL_26_02409_F_DETACHED_DWELLING_01","planned_building":"detached dwelling","official_plan_reference":"2432 P03; 2432 P04; 2432 PH01; 2432 PH02","official_plan_description":"Site Plan As Proposed; Site Section And Proposed Floor Levels; Floor Plan As Proposed; Elevations As Proposed"}}]}
