{"type":"FeatureCollection","name":"gas_emissions_2_desnz_preview_source_records","metadata":{"schema_family":"AAYS_LAYER24_EVIDENCE_V1","package_category":"AAYS_SOURCE_AREA_V1","slot_id":"gas_emissions_2","lineage_id":"L24-GE2-600c3339868ccb329689","page_generation":4,"owner":"gas_emissions_2","partition":{"start":15382,"end":30762},"batch_id":"20260930T182400Z_DESNZ_PREVIEW_0001_0004","semantic_mode_preservation":"No explicit semantic_mode field existed in the verified predecessor; no new semantic_mode value is asserted.","url":"https://www.data.gov.uk/dataset/723c243d-2f1a-4d27-8b61-cdb93e5b10ff/local_authority_carbon_dioxide_emissions/datafile/899d4613-20b6-49bc-a953-4fc13efdef12/preview","final_url":"https://www.data.gov.uk/dataset/723c243d-2f1a-4d27-8b61-cdb93e5b10ff/local_authority_carbon_dioxide_emissions/datafile/899d4613-20b6-49bc-a953-4fc13efdef12/preview","upstream_data_url":"https://assets.publishing.service.gov.uk/media/6a3bacc9d52550a19950f2f5/2005-24-local-authority-ghg-emissions-csv-dataset.csv","publication_url":"https://www.gov.uk/government/statistics/uk-local-authority-and-regional-greenhouse-gas-emissions-statistics-2005-to-2024","accessed_at_utc":"2026-09-30T18:24:00Z","data_date":"2005","publication_date":"2026-06-25","metadata_last_updated":"2026-06-30","license":"Open Government Licence v3.0","license_url":"https://www.nationalarchives.gov.uk/doc/open-government-licence/version/3/","evidence_slice_sha256":"63c50310b56b890440e5037b4e292f2fdf116c15ac28746f7143004030f95910","confidence_score_0_100":92,"evidence_grade":"A_OFFICIAL_GOV_DATA_PREVIEW_EXACT_IDENTIFIER","fake_data":false},"features":[{"type":"Feature","geometry":null,"properties":{"Country":"England","Country Code":"E92000001","Region":"North East","Region Code":"E12000001","Second Tier Authority":"Hartlepool","Local Authority":"Hartlepool","Local Authority Code":"E06000001","Calendar Year":"2005","LA GHG Sector":"Agriculture","LA GHG Sub-sector":"Agriculture Electricity","Greenhouse gas":"CO2","Territorial emissions (kt CO2e)":"1.692170216","Emissions within the scope of influence of LAs (kt CO2)":"1.692170216","Mid-year Population (thousands)":"90.457","Area (km2)":"98.3466","source_window_row":1,"official_identifier":"E06000001"}},{"type":"Feature","geometry":null,"properties":{"Country":"England","Country Code":"E92000001","Region":"North East","Region Code":"E12000001","Second Tier Authority":"Hartlepool","Local Authority":"Hartlepool","Local Authority Code":"E06000001","Calendar Year":"2005","LA GHG Sector":"Agriculture","LA GHG Sub-sector":"Agriculture Electricity","Greenhouse gas":"CH4","Territorial emissions (kt CO2e)":"5.36E-02","Emissions within the scope of influence of LAs (kt CO2)":"0","Mid-year Population (thousands)":"90.457","Area (km2)":"98.3466","source_window_row":2,"official_identifier":"E06000001"}},{"type":"Feature","geometry":null,"properties":{"Country":"England","Country Code":"E92000001","Region":"North East","Region Code":"E12000001","Second Tier Authority":"Hartlepool","Local Authority":"Hartlepool","Local Authority Code":"E06000001","Calendar Year":"2005","LA GHG Sector":"Agriculture","LA GHG Sub-sector":"Agriculture Electricity","Greenhouse gas":"N2O","Territorial emissions (kt CO2e)":"6.83E-03","Emissions within the scope of influence of LAs (kt CO2)":"0","Mid-year Population (thousands)":"90.457","Area (km2)":"98.3466","source_window_row":3,"official_identifier":"E06000001"}},{"type":"Feature","geometry":null,"properties":{"Country":"England","Country Code":"E92000001","Region":"North East","Region Code":"E12000001","Second Tier Authority":"Hartlepool","Local Authority":"Hartlepool","Local Authority Code":"E06000001","Calendar Year":"2005","LA GHG Sector":"Agriculture","LA GHG Sub-sector":"Agriculture Gas","Greenhouse gas":"CO2","Territorial emissions (kt CO2e)":"0.277495195","Emissions within the scope of influence of LAs (kt CO2)":"0.277495195","Mid-year Population (thousands)":"90.457","Area (km2)":"98.3466","source_window_row":4,"official_identifier":"E06000001"}}]}
