{"features":[{"geometry":null,"id":"cheshire:ellesmere-port:ellesmere-port-town","properties":{"accepted_as_parcel":false,"access_utc":"2026-10-05T20:56:00Z","canonical_binding":"LOCAL_OPENCODE_PENDING_NOT_CLAIMED","canonical_url":"https://www.cheshire.police.uk/area/your-area/cheshire/ellesmere-port/ellesmere-port-town/","confidence_score_0_100":100,"data_date":"2026-10-05 access snapshot","direct_parcel":false,"duplicate":false,"evidence_grade":"A_OFFICIAL_FORCE_WEBSITE_EXACT_AREA_SLUG","fake_data":false,"force_id":"cheshire","identifier":"ellesmere-port-town","identifier_field":"canonical_team_slug","identifier_version":"Cheshire Constabulary Ellesmere Port team URL slug","name":"Ellesmere Port Town","parent_area":"Ellesmere Port","record_type":"SOURCE_AREA_EXACT_IDENTIFIER","source_area_counted":true,"source_url":"https://www.cheshire.police.uk/area/your-area/cheshire/ellesmere-port/"},"type":"Feature"},{"geometry":null,"id":"cheshire:ellesmere-port:grange---ellesmere-port","properties":{"accepted_as_parcel":false,"access_utc":"2026-10-05T20:56:00Z","canonical_binding":"LOCAL_OPENCODE_PENDING_NOT_CLAIMED","canonical_url":"https://www.cheshire.police.uk/area/your-area/cheshire/ellesmere-port/grange---ellesmere-port/","confidence_score_0_100":100,"data_date":"2026-10-05 access snapshot","direct_parcel":false,"duplicate":false,"evidence_grade":"A_OFFICIAL_FORCE_WEBSITE_EXACT_AREA_SLUG","fake_data":false,"force_id":"cheshire","identifier":"grange---ellesmere-port","identifier_field":"canonical_team_slug","identifier_version":"Cheshire Constabulary Ellesmere Port team URL slug","name":"Grange - Ellesmere Port","parent_area":"Ellesmere Port","record_type":"SOURCE_AREA_EXACT_IDENTIFIER","source_area_counted":true,"source_url":"https://www.cheshire.police.uk/area/your-area/cheshire/ellesmere-port/"},"type":"Feature"},{"geometry":null,"id":"cheshire:ellesmere-port:neston-and-parkgate","properties":{"accepted_as_parcel":false,"access_utc":"2026-10-05T20:56:00Z","canonical_binding":"LOCAL_OPENCODE_PENDING_NOT_CLAIMED","canonical_url":"https://www.cheshire.police.uk/area/your-area/cheshire/ellesmere-port/neston-and-parkgate/","confidence_score_0_100":100,"data_date":"2026-10-05 access snapshot","direct_parcel":false,"duplicate":false,"evidence_grade":"A_OFFICIAL_FORCE_WEBSITE_EXACT_AREA_SLUG","fake_data":false,"force_id":"cheshire","identifier":"neston-and-parkgate","identifier_field":"canonical_team_slug","identifier_version":"Cheshire Constabulary Ellesmere Port team URL slug","name":"Neston and Parkgate","parent_area":"Ellesmere Port","record_type":"SOURCE_AREA_EXACT_IDENTIFIER","source_area_counted":true,"source_url":"https://www.cheshire.police.uk/area/your-area/cheshire/ellesmere-port/"},"type":"Feature"},{"geometry":null,"id":"cheshire:ellesmere-port:rossmore","properties":{"accepted_as_parcel":false,"access_utc":"2026-10-05T20:56:00Z","canonical_binding":"LOCAL_OPENCODE_PENDING_NOT_CLAIMED","canonical_url":"https://www.cheshire.police.uk/area/your-area/cheshire/ellesmere-port/rossmore/","confidence_score_0_100":100,"data_date":"2026-10-05 access snapshot","direct_parcel":false,"duplicate":false,"evidence_grade":"A_OFFICIAL_FORCE_WEBSITE_EXACT_AREA_SLUG","fake_data":false,"force_id":"cheshire","identifier":"rossmore","identifier_field":"canonical_team_slug","identifier_version":"Cheshire Constabulary Ellesmere Port team URL slug","name":"Rossmore","parent_area":"Ellesmere Port","record_type":"SOURCE_AREA_EXACT_IDENTIFIER","source_area_counted":true,"source_url":"https://www.cheshire.police.uk/area/your-area/cheshire/ellesmere-port/"},"type":"Feature"},{"geometry":null,"id":"cheshire:ellesmere-port:st-pauls","properties":{"accepted_as_parcel":false,"access_utc":"2026-10-05T20:56:00Z","canonical_binding":"LOCAL_OPENCODE_PENDING_NOT_CLAIMED","canonical_url":"https://www.cheshire.police.uk/area/your-area/cheshire/ellesmere-port/st-pauls/","confidence_score_0_100":100,"data_date":"2026-10-05 access snapshot","direct_parcel":false,"duplicate":false,"evidence_grade":"A_OFFICIAL_FORCE_WEBSITE_EXACT_AREA_SLUG","fake_data":false,"force_id":"cheshire","identifier":"st-pauls","identifier_field":"canonical_team_slug","identifier_version":"Cheshire Constabulary Ellesmere Port team URL slug","name":"St Paul's","parent_area":"Ellesmere Port","record_type":"SOURCE_AREA_EXACT_IDENTIFIER","source_area_counted":true,"source_url":"https://www.cheshire.police.uk/area/your-area/cheshire/ellesmere-port/"},"type":"Feature"},{"geometry":null,"id":"cheshire:ellesmere-port:sutton","properties":{"accepted_as_parcel":false,"access_utc":"2026-10-05T20:56:00Z","canonical_binding":"LOCAL_OPENCODE_PENDING_NOT_CLAIMED","canonical_url":"https://www.cheshire.police.uk/area/your-area/cheshire/ellesmere-port/sutton/","confidence_score_0_100":100,"data_date":"2026-10-05 access snapshot","direct_parcel":false,"duplicate":false,"evidence_grade":"A_OFFICIAL_FORCE_WEBSITE_EXACT_AREA_SLUG","fake_data":false,"force_id":"cheshire","identifier":"sutton","identifier_field":"canonical_team_slug","identifier_version":"Cheshire Constabulary Ellesmere Port team URL slug","name":"Sutton","parent_area":"Ellesmere Port","record_type":"SOURCE_AREA_EXACT_IDENTIFIER","source_area_counted":true,"source_url":"https://www.cheshire.police.uk/area/your-area/cheshire/ellesmere-port/"},"type":"Feature"},{"geometry":null,"id":"cheshire:ellesmere-port:whitby","properties":{"accepted_as_parcel":false,"access_utc":"2026-10-05T20:56:00Z","canonical_binding":"LOCAL_OPENCODE_PENDING_NOT_CLAIMED","canonical_url":"https://www.cheshire.police.uk/area/your-area/cheshire/ellesmere-port/whitby/","confidence_score_0_100":100,"data_date":"2026-10-05 access snapshot","direct_parcel":false,"duplicate":false,"evidence_grade":"A_OFFICIAL_FORCE_WEBSITE_EXACT_AREA_SLUG","fake_data":false,"force_id":"cheshire","identifier":"whitby","identifier_field":"canonical_team_slug","identifier_version":"Cheshire Constabulary Ellesmere Port team URL slug","name":"Whitby","parent_area":"Ellesmere Port","record_type":"SOURCE_AREA_EXACT_IDENTIFIER","source_area_counted":true,"source_url":"https://www.cheshire.police.uk/area/your-area/cheshire/ellesmere-port/"},"type":"Feature"}],"name":"security_public_safety_3","properties":{"accepted_count":0,"batch_id":"20261005T205600Z-cheshire-ellesmere-port-snt-slugs-000-006","fake_data":false,"lineage_id":"L24-SPS3-57442c9c2a0f429be2d2","page_generation":1,"partition":{"count":30761,"end":92283,"start":61523},"schema":"AAYS_LAYER24_EVIDENCE_V1","slot_id":"security_public_safety_3","source_area_count":7},"type":"FeatureCollection"}
