{"type":"FeatureCollection","features":[{"type":"Feature","geometry":{"type":"MultiPolygon","coordinates":[[[[-0.098966,51.504587],[-0.098975,51.504586],[-0.09905,51.505083],[-0.099111,51.505078],[-0.100038,51.505028],[-0.100481,51.505085],[-0.100565,51.505087],[-0.100634,51.505095],[-0.100711,51.504754],[-0.100741,51.504608],[-0.100752,51.504608],[-0.100754,51.504605],[-0.100898,51.504617],[-0.100927,51.504623],[-0.101083,51.504647],[-0.101276,51.504682],[-0.101427,51.504707],[-0.101458,51.504643],[-0.101441,51.504521],[-0.10143,51.504423],[-0.101402,51.504328],[-0.101301,51.504303],[-0.101207,51.504283],[-0.101057,51.504255],[-0.101059,51.504247],[-0.100988,51.504256],[-0.100961,51.504256],[-0.100911,51.504249],[-0.100715,51.504255],[-0.100653,51.504246],[-0.100543,51.504244],[-0.100125,51.504231],[-0.099831,51.504227],[-0.098825,51.504243],[-0.098836,51.504268],[-0.098851,51.50432],[-0.098906,51.50442],[-0.098966,51.504587]]]]},"properties":{"slot_id":"future_growth_ 2","lineage_id":"future_growth_ 2-newstart-20261001T203100Z","page_generation":1,"owner":"future_growth_ 2","partition":"future_growth","semantic_mode":"SOURCE_AREA_EXACT_IDENTIFIER","accepted_as_parcel":false,"source_area_count_contribution":1,"exact_identifier":"147","exact_identifier_provided":true,"coverage_polygon_provided":true,"identifier_namespace":"Planning Data article-4-direction-area reference for Southwark site allocation NSP02","access_utc":"2026-10-06T17:13:00Z","data_date":"2025-05-21","source_url":"https://www.planning.data.gov.uk/entity/7010003563","final_url":"https://www.planning.data.gov.uk/entity/7010003563","dataset_url":"https://www.planning.data.gov.uk/dataset/article-4-direction-area","license":"Open Government Licence v3.0","authority":"London Borough of Southwark","site_address":"Site Bordering Great Suffolk Street and Ewer Street","hectares":null,"point":null,"maximum_net_dwellings":null,"minimum_net_dwellings":null,"planning_permission_status":null,"confidence_score_0_100":99,"confidence":0.99,"evidence_grade":"A","evidence_scope":"official_polygon_and_exact_identifier","field_evidence":{"dataset":"Article 4 direction area","entry_date":"2025-05-21","geometry_type":"MULTIPOLYGON","name":"Site allocation NSP02: Site Bordering Great Suffolk Street and Ewer Street","organisation":"London Borough of Southwark","planning_data_entity":7010003563,"reference":"147","site_allocation_code":"NSP02","typology":"geography"},"evidence_slice_sha256":"3b6c291211af713434ec2d24a86dfd695ffae8225b3eb7de9f56cb1288c9e544","fake_data":false,"spatial_binding_method":"official Planning Data MultiPolygon coverage for Southwark site allocation NSP02; canonical parcel spatial join/materialization delegated to local OpenCode","planned_building_count_contribution":0}}]}