{
  "type": "FeatureCollection",
  "features": [
    {
      "type": "Feature",
      "id": "met-campden-meetings-priorities:2026-10-02",
      "geometry": null,
      "properties": {
        "evidence_scope": "coverage_area",
        "coverage_area_id": "/area/your-area/met/kensington-and-chelsea/campden/meetings-and-events/our-priorities",
        "coverage_area_name": "Campden",
        "identifier_scheme": "MET_POLICE_AREA_SCOPED_MEETINGS_PRIORITIES_ROUTE",
        "exact_official_identifier": "/area/your-area/met/kensington-and-chelsea/campden/meetings-and-events/our-priorities",
        "source_resolution": "MET_POLICE_OFFICIAL_CAMPDEN_MEETINGS_PRIORITIES_PAGE",
        "time_window": "CURRENT_OFFICIAL_PAGE_SNAPSHOT",
        "measurement_date": "2026-10-02",
        "measurement_method": "official Metropolitan Police Campden area-scoped meetings and priorities page",
        "spatial_binding_method": "DEFERRED_TO_LOCAL_OPENCODE",
        "source_url": "https://www.met.police.uk/area/your-area/met/kensington-and-chelsea/campden/meetings-and-events/our-priorities",
        "final_url": "https://www.met.police.uk/area/your-area/met/kensington-and-chelsea/campden/meetings-and-events/our-priorities",
        "accessed_at_utc": "2026-10-02T15:43:00Z",
        "data_date": "2026-10-02",
        "licence": "NOT_STATED_ON_CAPTURED_PAGE",
        "sha256": "0c1d185347b3094839b7afba0a31ccc0d3655c05322c2c045c7cbe98fc18e0f1",
        "field_evidence": {
          "page_title": "Campden | Your area | Metropolitan Police",
          "heading": "Campden",
          "team_heading": "Your Safer Neighbourhoods Team",
          "section": "Meetings and events",
          "exact_official_identifier": "/area/your-area/met/kensington-and-chelsea/campden/meetings-and-events/our-priorities",
          "meetings": [
            {
              "name": "Campden & Holland ward panel meeting",
              "date": "2026-11-04",
              "time": "18:00-19:30",
              "venue": "Kensington Town Hall, Hornton Street London"
            },
            {
              "name": "Campden & Holland ward panel meeting",
              "date": "2027-03-10",
              "time": "18:00-19:30",
              "venue": "Kensington Town Hall, Hornton Street London"
            },
            {
              "name": "Campden & Holland ward panel meeting",
              "date": "2027-07-07",
              "time": "18:00-20:00",
              "venue": "Kensington Town Hall, Hornton Street London"
            }
          ],
          "priority": "Burglary",
          "priority_scope": "To reduce residential burglary offences in the streets between Kensington Church Street and Campden Hill Road.",
          "source_url": "https://www.met.police.uk/area/your-area/met/kensington-and-chelsea/campden/meetings-and-events/our-priorities",
          "accessed_at_utc": "2026-10-02T15:43:00Z"
        },
        "evidence_slice_sha256": "de23c5ddb3828eb308a4dfc43ed60f279fa88eaa9b4dc0abceb857412488e24a",
        "confidence_score_0_100": 100,
        "evidence_grade": "A",
        "fake_data": false,
        "source_window_id": "met_campden_meetings_priorities_sps5_20261002_v1",
        "cursor": "met_campden_meetings_priorities_sps5_20261002_v1:record=1"
      }
    }
  ]
}
