{"type":"FeatureCollection","name":"internet_access_6_bduk_sep2025_uprn_window_0001_0050","features":[{"type":"Feature","geometry":null,"properties":{"source_row":1,"official_identifier_type":"UPRN","uprn":"10023108378","postcode":"BA1 1AR","current_gigabit":true,"future_gigabit":false,"bduk_recognised_premises":true,"lot_id":6,"lot_name":"Devon & Somerset","local_authority_district_ons_code":"E06000022","local_authority_district_ons":"Bath and North East Somerset","region_ons_code":"E12000009","region_ons":"South West","data_date":"2025-09","source_url":"https://www.gov.uk/government/publications/september-2025-omr-and-premises-in-bduk-plans-england-and-wales","final_url":"https://www.gov.uk/csv-preview/697cf18d01dffa646558006d/202509_BDUK_uprn_release_sample_v2.csv","accessed_at_utc":"2026-09-30T00:50:00Z","licence":"Open Government Licence v3.0","file_sha256":"6708a322052d0fd26de01f921af9db29101424335231f991aca797bfa61deb80","file_sha256_scope":"normalized_50_row_evidence_slice_materialized_from_official_preview","upstream_raw_csv_sha256":null,"upstream_raw_csv_sha256_status":"UNAVAILABLE_IN_RUNTIME_BINARY_FETCH","field_evidence":{"UPRN":"official CSV preview column 'UPRN'","current_gigabit":"official CSV preview column; technical note defines existing gigabit-capable connection","future_gigabit":"official CSV preview column; technical note defines future gigabit-capable plans","postcode":"official CSV preview column"},"evidence_slice_sha256":"6708a322052d0fd26de01f921af9db29101424335231f991aca797bfa61deb80","confidence_score_0_100":94,"evidence_grade":"A-","fake_data":false,"canonical_join_status":"UNPROCESSED_LOCAL_OPENCODE_JOIN_REQUIRED"}},{"type":"Feature","geometry":null,"properties":{"source_row":2,"official_identifier_type":"UPRN","uprn":"10001148313","postcode":"BA1 1EN","current_gigabit":true,"future_gigabit":false,"bduk_recognised_premises":false,"lot_id":6,"lot_name":"Devon & Somerset","local_authority_district_ons_code":"E06000022","local_authority_district_ons":"Bath and North East Somerset","region_ons_code":"E12000009","region_ons":"South West","data_date":"2025-09","source_url":"https://www.gov.uk/government/publications/september-2025-omr-and-premises-in-bduk-plans-england-and-wales","final_url":"https://www.gov.uk/csv-preview/697cf18d01dffa646558006d/202509_BDUK_uprn_release_sample_v2.csv","accessed_at_utc":"2026-09-30T00:50:00Z","licence":"Open Government Licence v3.0","file_sha256":"6708a322052d0fd26de01f921af9db29101424335231f991aca797bfa61deb80","file_sha256_scope":"normalized_50_row_evidence_slice_materialized_from_official_preview","upstream_raw_csv_sha256":null,"upstream_raw_csv_sha256_status":"UNAVAILABLE_IN_RUNTIME_BINARY_FETCH","field_evidence":{"UPRN":"official CSV preview column 'UPRN'","current_gigabit":"official CSV preview column; technical note defines existing gigabit-capable connection","future_gigabit":"official CSV preview column; technical note defines future gigabit-capable plans","postcode":"official CSV preview column"},"evidence_slice_sha256":"6708a322052d0fd26de01f921af9db29101424335231f991aca797bfa61deb80","confidence_score_0_100":94,"evidence_grade":"A-","fake_data":false,"canonical_join_status":"UNPROCESSED_LOCAL_OPENCODE_JOIN_REQUIRED"}},{"type":"Feature","geometry":null,"properties":{"source_row":3,"official_identifier_type":"UPRN","uprn":"100121170104","postcode":"BA1 1RG","current_gigabit":true,"future_gigabit":false,"bduk_recognised_premises":true,"lot_id":6,"lot_name":"Devon & Somerset","local_authority_district_ons_code":"E06000022","local_authority_district_ons":"Bath and North East Somerset","region_ons_code":"E12000009","region_ons":"South West","data_date":"2025-09","source_url":"https://www.gov.uk/government/publications/september-2025-omr-and-premises-in-bduk-plans-england-and-wales","final_url":"https://www.gov.uk/csv-preview/697cf18d01dffa646558006d/202509_BDUK_uprn_release_sample_v2.csv","accessed_at_utc":"2026-09-30T00:50:00Z","licence":"Open Government Licence v3.0","file_sha256":"6708a322052d0fd26de01f921af9db29101424335231f991aca797bfa61deb80","file_sha256_scope":"normalized_50_row_evidence_slice_materialized_from_official_preview","upstream_raw_csv_sha256":null,"upstream_raw_csv_sha256_status":"UNAVAILABLE_IN_RUNTIME_BINARY_FETCH","field_evidence":{"UPRN":"official CSV preview column 'UPRN'","current_gigabit":"official CSV preview column; technical note defines existing gigabit-capable connection","future_gigabit":"official CSV preview column; technical note defines future gigabit-capable plans","postcode":"official CSV preview column"},"evidence_slice_sha256":"6708a322052d0fd26de01f921af9db29101424335231f991aca797bfa61deb80","confidence_score_0_100":94,"evidence_grade":"A-","fake_data":false,"canonical_join_status":"UNPROCESSED_LOCAL_OPENCODE_JOIN_REQUIRED"}},{"type":"Feature","geometry":null,"properties":{"source_row":4,"official_identifier_type":"UPRN","uprn":"10001138641","postcode":"BA1 2EU","current_gigabit":true,"future_gigabit":false,"bduk_recognised_premises":true,"lot_id":6,"lot_name":"Devon & Somerset","local_authority_district_ons_code":"E06000022","local_authority_district_ons":"Bath and North East Somerset","region_ons_code":"E12000009","region_ons":"South West","data_date":"2025-09","source_url":"https://www.gov.uk/government/publications/september-2025-omr-and-premises-in-bduk-plans-england-and-wales","final_url":"https://www.gov.uk/csv-preview/697cf18d01dffa646558006d/202509_BDUK_uprn_release_sample_v2.csv","accessed_at_utc":"2026-09-30T00:50:00Z","licence":"Open Government Licence v3.0","file_sha256":"6708a322052d0fd26de01f921af9db29101424335231f991aca797bfa61deb80","file_sha256_scope":"normalized_50_row_evidence_slice_materialized_from_official_preview","upstream_raw_csv_sha256":null,"upstream_raw_csv_sha256_status":"UNAVAILABLE_IN_RUNTIME_BINARY_FETCH","field_evidence":{"UPRN":"official CSV preview column 'UPRN'","current_gigabit":"official CSV preview column; technical note defines existing gigabit-capable connection","future_gigabit":"official CSV preview column; technical note defines future gigabit-capable plans","postcode":"official CSV preview column"},"evidence_slice_sha256":"6708a322052d0fd26de01f921af9db29101424335231f991aca797bfa61deb80","confidence_score_0_100":94,"evidence_grade":"A-","fake_data":false,"canonical_join_status":"UNPROCESSED_LOCAL_OPENCODE_JOIN_REQUIRED"}},{"type":"Feature","geometry":null,"properties":{"source_row":5,"official_identifier_type":"UPRN","uprn":"10001134282","postcode":"BA1 2JU","current_gigabit":true,"future_gigabit":true,"bduk_recognised_premises":false,"lot_id":6,"lot_name":"Devon & Somerset","local_authority_district_ons_code":"E06000022","local_authority_district_ons":"Bath and North East Somerset","region_ons_code":"E12000009","region_ons":"South West","data_date":"2025-09","source_url":"https://www.gov.uk/government/publications/september-2025-omr-and-premises-in-bduk-plans-england-and-wales","final_url":"https://www.gov.uk/csv-preview/697cf18d01dffa646558006d/202509_BDUK_uprn_release_sample_v2.csv","accessed_at_utc":"2026-09-30T00:50:00Z","licence":"Open Government Licence v3.0","file_sha256":"6708a322052d0fd26de01f921af9db29101424335231f991aca797bfa61deb80","file_sha256_scope":"normalized_50_row_evidence_slice_materialized_from_official_preview","upstream_raw_csv_sha256":null,"upstream_raw_csv_sha256_status":"UNAVAILABLE_IN_RUNTIME_BINARY_FETCH","field_evidence":{"UPRN":"official CSV preview column 'UPRN'","current_gigabit":"official CSV preview column; technical note defines existing gigabit-capable connection","future_gigabit":"official CSV preview column; technical note defines future gigabit-capable plans","postcode":"official CSV preview column"},"evidence_slice_sha256":"6708a322052d0fd26de01f921af9db29101424335231f991aca797bfa61deb80","confidence_score_0_100":94,"evidence_grade":"A-","fake_data":false,"canonical_join_status":"UNPROCESSED_LOCAL_OPENCODE_JOIN_REQUIRED"}},{"type":"Feature","geometry":null,"properties":{"source_row":6,"official_identifier_type":"UPRN","uprn":"10001138944","postcode":"BA1 2PR","current_gigabit":true,"future_gigabit":true,"bduk_recognised_premises":true,"lot_id":6,"lot_name":"Devon & Somerset","local_authority_district_ons_code":"E06000022","local_authority_district_ons":"Bath and North East Somerset","region_ons_code":"E12000009","region_ons":"South West","data_date":"2025-09","source_url":"https://www.gov.uk/government/publications/september-2025-omr-and-premises-in-bduk-plans-england-and-wales","final_url":"https://www.gov.uk/csv-preview/697cf18d01dffa646558006d/202509_BDUK_uprn_release_sample_v2.csv","accessed_at_utc":"2026-09-30T00:50:00Z","licence":"Open Government Licence v3.0","file_sha256":"6708a322052d0fd26de01f921af9db29101424335231f991aca797bfa61deb80","file_sha256_scope":"normalized_50_row_evidence_slice_materialized_from_official_preview","upstream_raw_csv_sha256":null,"upstream_raw_csv_sha256_status":"UNAVAILABLE_IN_RUNTIME_BINARY_FETCH","field_evidence":{"UPRN":"official CSV preview column 'UPRN'","current_gigabit":"official CSV preview column; technical note defines existing gigabit-capable connection","future_gigabit":"official CSV preview column; technical note defines future gigabit-capable plans","postcode":"official CSV preview column"},"evidence_slice_sha256":"6708a322052d0fd26de01f921af9db29101424335231f991aca797bfa61deb80","confidence_score_0_100":94,"evidence_grade":"A-","fake_data":false,"canonical_join_status":"UNPROCESSED_LOCAL_OPENCODE_JOIN_REQUIRED"}},{"type":"Feature","geometry":null,"properties":{"source_row":7,"official_identifier_type":"UPRN","uprn":"100121171079","postcode":"BA1 2SX","current_gigabit":true,"future_gigabit":true,"bduk_recognised_premises":true,"lot_id":6,"lot_name":"Devon & Somerset","local_authority_district_ons_code":"E06000022","local_authority_district_ons":"Bath and North East Somerset","region_ons_code":"E12000009","region_ons":"South West","data_date":"2025-09","source_url":"https://www.gov.uk/government/publications/september-2025-omr-and-premises-in-bduk-plans-england-and-wales","final_url":"https://www.gov.uk/csv-preview/697cf18d01dffa646558006d/202509_BDUK_uprn_release_sample_v2.csv","accessed_at_utc":"2026-09-30T00:50:00Z","licence":"Open Government Licence v3.0","file_sha256":"6708a322052d0fd26de01f921af9db29101424335231f991aca797bfa61deb80","file_sha256_scope":"normalized_50_row_evidence_slice_materialized_from_official_preview","upstream_raw_csv_sha256":null,"upstream_raw_csv_sha256_status":"UNAVAILABLE_IN_RUNTIME_BINARY_FETCH","field_evidence":{"UPRN":"official CSV preview column 'UPRN'","current_gigabit":"official CSV preview column; technical note defines existing gigabit-capable connection","future_gigabit":"official CSV preview column; technical note defines future gigabit-capable plans","postcode":"official CSV preview column"},"evidence_slice_sha256":"6708a322052d0fd26de01f921af9db29101424335231f991aca797bfa61deb80","confidence_score_0_100":94,"evidence_grade":"A-","fake_data":false,"canonical_join_status":"UNPROCESSED_LOCAL_OPENCODE_JOIN_REQUIRED"}},{"type":"Feature","geometry":null,"properties":{"source_row":8,"official_identifier_type":"UPRN","uprn":"100120007349","postcode":"BA1 2YE","current_gigabit":true,"future_gigabit":true,"bduk_recognised_premises":true,"lot_id":6,"lot_name":"Devon & Somerset","local_authority_district_ons_code":"E06000022","local_authority_district_ons":"Bath and North East Somerset","region_ons_code":"E12000009","region_ons":"South West","data_date":"2025-09","source_url":"https://www.gov.uk/government/publications/september-2025-omr-and-premises-in-bduk-plans-england-and-wales","final_url":"https://www.gov.uk/csv-preview/697cf18d01dffa646558006d/202509_BDUK_uprn_release_sample_v2.csv","accessed_at_utc":"2026-09-30T00:50:00Z","licence":"Open Government Licence v3.0","file_sha256":"6708a322052d0fd26de01f921af9db29101424335231f991aca797bfa61deb80","file_sha256_scope":"normalized_50_row_evidence_slice_materialized_from_official_preview","upstream_raw_csv_sha256":null,"upstream_raw_csv_sha256_status":"UNAVAILABLE_IN_RUNTIME_BINARY_FETCH","field_evidence":{"UPRN":"official CSV preview column 'UPRN'","current_gigabit":"official CSV preview column; technical note defines existing gigabit-capable connection","future_gigabit":"official CSV preview column; technical note defines future gigabit-capable plans","postcode":"official CSV preview column"},"evidence_slice_sha256":"6708a322052d0fd26de01f921af9db29101424335231f991aca797bfa61deb80","confidence_score_0_100":94,"evidence_grade":"A-","fake_data":false,"canonical_join_status":"UNPROCESSED_LOCAL_OPENCODE_JOIN_REQUIRED"}},{"type":"Feature","geometry":null,"properties":{"source_row":9,"official_identifier_type":"UPRN","uprn":"100120007357","postcode":"BA1 2YE","current_gigabit":true,"future_gigabit":true,"bduk_recognised_premises":true,"lot_id":6,"lot_name":"Devon & Somerset","local_authority_district_ons_code":"E06000022","local_authority_district_ons":"Bath and North East Somerset","region_ons_code":"E12000009","region_ons":"South West","data_date":"2025-09","source_url":"https://www.gov.uk/government/publications/september-2025-omr-and-premises-in-bduk-plans-england-and-wales","final_url":"https://www.gov.uk/csv-preview/697cf18d01dffa646558006d/202509_BDUK_uprn_release_sample_v2.csv","accessed_at_utc":"2026-09-30T00:50:00Z","licence":"Open Government Licence v3.0","file_sha256":"6708a322052d0fd26de01f921af9db29101424335231f991aca797bfa61deb80","file_sha256_scope":"normalized_50_row_evidence_slice_materialized_from_official_preview","upstream_raw_csv_sha256":null,"upstream_raw_csv_sha256_status":"UNAVAILABLE_IN_RUNTIME_BINARY_FETCH","field_evidence":{"UPRN":"official CSV preview column 'UPRN'","current_gigabit":"official CSV preview column; technical note defines existing gigabit-capable connection","future_gigabit":"official CSV preview column; technical note defines future gigabit-capable plans","postcode":"official CSV preview column"},"evidence_slice_sha256":"6708a322052d0fd26de01f921af9db29101424335231f991aca797bfa61deb80","confidence_score_0_100":94,"evidence_grade":"A-","fake_data":false,"canonical_join_status":"UNPROCESSED_LOCAL_OPENCODE_JOIN_REQUIRED"}},{"type":"Feature","geometry":null,"properties":{"source_row":10,"official_identifier_type":"UPRN","uprn":"100121171653","postcode":"BA1 3ED","current_gigabit":true,"future_gigabit":false,"bduk_recognised_premises":false,"lot_id":6,"lot_name":"Devon & Somerset","local_authority_district_ons_code":"E06000022","local_authority_district_ons":"Bath and North East Somerset","region_ons_code":"E12000009","region_ons":"South West","data_date":"2025-09","source_url":"https://www.gov.uk/government/publications/september-2025-omr-and-premises-in-bduk-plans-england-and-wales","final_url":"https://www.gov.uk/csv-preview/697cf18d01dffa646558006d/202509_BDUK_uprn_release_sample_v2.csv","accessed_at_utc":"2026-09-30T00:50:00Z","licence":"Open Government Licence v3.0","file_sha256":"6708a322052d0fd26de01f921af9db29101424335231f991aca797bfa61deb80","file_sha256_scope":"normalized_50_row_evidence_slice_materialized_from_official_preview","upstream_raw_csv_sha256":null,"upstream_raw_csv_sha256_status":"UNAVAILABLE_IN_RUNTIME_BINARY_FETCH","field_evidence":{"UPRN":"official CSV preview column 'UPRN'","current_gigabit":"official CSV preview column; technical note defines existing gigabit-capable connection","future_gigabit":"official CSV preview column; technical note defines future gigabit-capable plans","postcode":"official CSV preview column"},"evidence_slice_sha256":"6708a322052d0fd26de01f921af9db29101424335231f991aca797bfa61deb80","confidence_score_0_100":94,"evidence_grade":"A-","fake_data":false,"canonical_join_status":"UNPROCESSED_LOCAL_OPENCODE_JOIN_REQUIRED"}},{"type":"Feature","geometry":null,"properties":{"source_row":11,"official_identifier_type":"UPRN","uprn":"100120006245","postcode":"BA1 3EW","current_gigabit":true,"future_gigabit":true,"bduk_recognised_premises":true,"lot_id":6,"lot_name":"Devon & Somerset","local_authority_district_ons_code":"E06000022","local_authority_district_ons":"Bath and North East Somerset","region_ons_code":"E12000009","region_ons":"South West","data_date":"2025-09","source_url":"https://www.gov.uk/government/publications/september-2025-omr-and-premises-in-bduk-plans-england-and-wales","final_url":"https://www.gov.uk/csv-preview/697cf18d01dffa646558006d/202509_BDUK_uprn_release_sample_v2.csv","accessed_at_utc":"2026-09-30T00:50:00Z","licence":"Open Government Licence v3.0","file_sha256":"6708a322052d0fd26de01f921af9db29101424335231f991aca797bfa61deb80","file_sha256_scope":"normalized_50_row_evidence_slice_materialized_from_official_preview","upstream_raw_csv_sha256":null,"upstream_raw_csv_sha256_status":"UNAVAILABLE_IN_RUNTIME_BINARY_FETCH","field_evidence":{"UPRN":"official CSV preview column 'UPRN'","current_gigabit":"official CSV preview column; technical note defines existing gigabit-capable connection","future_gigabit":"official CSV preview column; technical note defines future gigabit-capable plans","postcode":"official CSV preview column"},"evidence_slice_sha256":"6708a322052d0fd26de01f921af9db29101424335231f991aca797bfa61deb80","confidence_score_0_100":94,"evidence_grade":"A-","fake_data":false,"canonical_join_status":"UNPROCESSED_LOCAL_OPENCODE_JOIN_REQUIRED"}},{"type":"Feature","geometry":null,"properties":{"source_row":12,"official_identifier_type":"UPRN","uprn":"100120050754","postcode":"BA1 4EW","current_gigabit":true,"future_gigabit":false,"bduk_recognised_premises":true,"lot_id":6,"lot_name":"Devon & Somerset","local_authority_district_ons_code":"E06000022","local_authority_district_ons":"Bath and North East Somerset","region_ons_code":"E12000009","region_ons":"South West","data_date":"2025-09","source_url":"https://www.gov.uk/government/publications/september-2025-omr-and-premises-in-bduk-plans-england-and-wales","final_url":"https://www.gov.uk/csv-preview/697cf18d01dffa646558006d/202509_BDUK_uprn_release_sample_v2.csv","accessed_at_utc":"2026-09-30T00:50:00Z","licence":"Open Government Licence v3.0","file_sha256":"6708a322052d0fd26de01f921af9db29101424335231f991aca797bfa61deb80","file_sha256_scope":"normalized_50_row_evidence_slice_materialized_from_official_preview","upstream_raw_csv_sha256":null,"upstream_raw_csv_sha256_status":"UNAVAILABLE_IN_RUNTIME_BINARY_FETCH","field_evidence":{"UPRN":"official CSV preview column 'UPRN'","current_gigabit":"official CSV preview column; technical note defines existing gigabit-capable connection","future_gigabit":"official CSV preview column; technical note defines future gigabit-capable plans","postcode":"official CSV preview column"},"evidence_slice_sha256":"6708a322052d0fd26de01f921af9db29101424335231f991aca797bfa61deb80","confidence_score_0_100":94,"evidence_grade":"A-","fake_data":false,"canonical_join_status":"UNPROCESSED_LOCAL_OPENCODE_JOIN_REQUIRED"}},{"type":"Feature","geometry":null,"properties":{"source_row":13,"official_identifier_type":"UPRN","uprn":"10001136589","postcode":"BA1 5BD","current_gigabit":true,"future_gigabit":true,"bduk_recognised_premises":true,"lot_id":6,"lot_name":"Devon & Somerset","local_authority_district_ons_code":"E06000022","local_authority_district_ons":"Bath and North East Somerset","region_ons_code":"E12000009","region_ons":"South West","data_date":"2025-09","source_url":"https://www.gov.uk/government/publications/september-2025-omr-and-premises-in-bduk-plans-england-and-wales","final_url":"https://www.gov.uk/csv-preview/697cf18d01dffa646558006d/202509_BDUK_uprn_release_sample_v2.csv","accessed_at_utc":"2026-09-30T00:50:00Z","licence":"Open Government Licence v3.0","file_sha256":"6708a322052d0fd26de01f921af9db29101424335231f991aca797bfa61deb80","file_sha256_scope":"normalized_50_row_evidence_slice_materialized_from_official_preview","upstream_raw_csv_sha256":null,"upstream_raw_csv_sha256_status":"UNAVAILABLE_IN_RUNTIME_BINARY_FETCH","field_evidence":{"UPRN":"official CSV preview column 'UPRN'","current_gigabit":"official CSV preview column; technical note defines existing gigabit-capable connection","future_gigabit":"official CSV preview column; technical note defines future gigabit-capable plans","postcode":"official CSV preview column"},"evidence_slice_sha256":"6708a322052d0fd26de01f921af9db29101424335231f991aca797bfa61deb80","confidence_score_0_100":94,"evidence_grade":"A-","fake_data":false,"canonical_join_status":"UNPROCESSED_LOCAL_OPENCODE_JOIN_REQUIRED"}},{"type":"Feature","geometry":null,"properties":{"source_row":14,"official_identifier_type":"UPRN","uprn":"100120012061","postcode":"BA1 5NB","current_gigabit":true,"future_gigabit":true,"bduk_recognised_premises":true,"lot_id":6,"lot_name":"Devon & Somerset","local_authority_district_ons_code":"E06000022","local_authority_district_ons":"Bath and North East Somerset","region_ons_code":"E12000009","region_ons":"South West","data_date":"2025-09","source_url":"https://www.gov.uk/government/publications/september-2025-omr-and-premises-in-bduk-plans-england-and-wales","final_url":"https://www.gov.uk/csv-preview/697cf18d01dffa646558006d/202509_BDUK_uprn_release_sample_v2.csv","accessed_at_utc":"2026-09-30T00:50:00Z","licence":"Open Government Licence v3.0","file_sha256":"6708a322052d0fd26de01f921af9db29101424335231f991aca797bfa61deb80","file_sha256_scope":"normalized_50_row_evidence_slice_materialized_from_official_preview","upstream_raw_csv_sha256":null,"upstream_raw_csv_sha256_status":"UNAVAILABLE_IN_RUNTIME_BINARY_FETCH","field_evidence":{"UPRN":"official CSV preview column 'UPRN'","current_gigabit":"official CSV preview column; technical note defines existing gigabit-capable connection","future_gigabit":"official CSV preview column; technical note defines future gigabit-capable plans","postcode":"official CSV preview column"},"evidence_slice_sha256":"6708a322052d0fd26de01f921af9db29101424335231f991aca797bfa61deb80","confidence_score_0_100":94,"evidence_grade":"A-","fake_data":false,"canonical_join_status":"UNPROCESSED_LOCAL_OPENCODE_JOIN_REQUIRED"}},{"type":"Feature","geometry":null,"properties":{"source_row":15,"official_identifier_type":"UPRN","uprn":"100120025786","postcode":"BA1 6DY","current_gigabit":true,"future_gigabit":true,"bduk_recognised_premises":true,"lot_id":6,"lot_name":"Devon & Somerset","local_authority_district_ons_code":"E06000022","local_authority_district_ons":"Bath and North East Somerset","region_ons_code":"E12000009","region_ons":"South West","data_date":"2025-09","source_url":"https://www.gov.uk/government/publications/september-2025-omr-and-premises-in-bduk-plans-england-and-wales","final_url":"https://www.gov.uk/csv-preview/697cf18d01dffa646558006d/202509_BDUK_uprn_release_sample_v2.csv","accessed_at_utc":"2026-09-30T00:50:00Z","licence":"Open Government Licence v3.0","file_sha256":"6708a322052d0fd26de01f921af9db29101424335231f991aca797bfa61deb80","file_sha256_scope":"normalized_50_row_evidence_slice_materialized_from_official_preview","upstream_raw_csv_sha256":null,"upstream_raw_csv_sha256_status":"UNAVAILABLE_IN_RUNTIME_BINARY_FETCH","field_evidence":{"UPRN":"official CSV preview column 'UPRN'","current_gigabit":"official CSV preview column; technical note defines existing gigabit-capable connection","future_gigabit":"official CSV preview column; technical note defines future gigabit-capable plans","postcode":"official CSV preview column"},"evidence_slice_sha256":"6708a322052d0fd26de01f921af9db29101424335231f991aca797bfa61deb80","confidence_score_0_100":94,"evidence_grade":"A-","fake_data":false,"canonical_join_status":"UNPROCESSED_LOCAL_OPENCODE_JOIN_REQUIRED"}},{"type":"Feature","geometry":null,"properties":{"source_row":16,"official_identifier_type":"UPRN","uprn":"10001135025","postcode":"BA1 6ET","current_gigabit":true,"future_gigabit":false,"bduk_recognised_premises":true,"lot_id":6,"lot_name":"Devon & Somerset","local_authority_district_ons_code":"E06000022","local_authority_district_ons":"Bath and North East Somerset","region_ons_code":"E12000009","region_ons":"South West","data_date":"2025-09","source_url":"https://www.gov.uk/government/publications/september-2025-omr-and-premises-in-bduk-plans-england-and-wales","final_url":"https://www.gov.uk/csv-preview/697cf18d01dffa646558006d/202509_BDUK_uprn_release_sample_v2.csv","accessed_at_utc":"2026-09-30T00:50:00Z","licence":"Open Government Licence v3.0","file_sha256":"6708a322052d0fd26de01f921af9db29101424335231f991aca797bfa61deb80","file_sha256_scope":"normalized_50_row_evidence_slice_materialized_from_official_preview","upstream_raw_csv_sha256":null,"upstream_raw_csv_sha256_status":"UNAVAILABLE_IN_RUNTIME_BINARY_FETCH","field_evidence":{"UPRN":"official CSV preview column 'UPRN'","current_gigabit":"official CSV preview column; technical note defines existing gigabit-capable connection","future_gigabit":"official CSV preview column; technical note defines future gigabit-capable plans","postcode":"official CSV preview column"},"evidence_slice_sha256":"6708a322052d0fd26de01f921af9db29101424335231f991aca797bfa61deb80","confidence_score_0_100":94,"evidence_grade":"A-","fake_data":false,"canonical_join_status":"UNPROCESSED_LOCAL_OPENCODE_JOIN_REQUIRED"}},{"type":"Feature","geometry":null,"properties":{"source_row":17,"official_identifier_type":"UPRN","uprn":"10001136774","postcode":"BA1 6HY","current_gigabit":true,"future_gigabit":true,"bduk_recognised_premises":true,"lot_id":6,"lot_name":"Devon & Somerset","local_authority_district_ons_code":"E06000022","local_authority_district_ons":"Bath and North East Somerset","region_ons_code":"E12000009","region_ons":"South West","data_date":"2025-09","source_url":"https://www.gov.uk/government/publications/september-2025-omr-and-premises-in-bduk-plans-england-and-wales","final_url":"https://www.gov.uk/csv-preview/697cf18d01dffa646558006d/202509_BDUK_uprn_release_sample_v2.csv","accessed_at_utc":"2026-09-30T00:50:00Z","licence":"Open Government Licence v3.0","file_sha256":"6708a322052d0fd26de01f921af9db29101424335231f991aca797bfa61deb80","file_sha256_scope":"normalized_50_row_evidence_slice_materialized_from_official_preview","upstream_raw_csv_sha256":null,"upstream_raw_csv_sha256_status":"UNAVAILABLE_IN_RUNTIME_BINARY_FETCH","field_evidence":{"UPRN":"official CSV preview column 'UPRN'","current_gigabit":"official CSV preview column; technical note defines existing gigabit-capable connection","future_gigabit":"official CSV preview column; technical note defines future gigabit-capable plans","postcode":"official CSV preview column"},"evidence_slice_sha256":"6708a322052d0fd26de01f921af9db29101424335231f991aca797bfa61deb80","confidence_score_0_100":94,"evidence_grade":"A-","fake_data":false,"canonical_join_status":"UNPROCESSED_LOCAL_OPENCODE_JOIN_REQUIRED"}},{"type":"Feature","geometry":null,"properties":{"source_row":18,"official_identifier_type":"UPRN","uprn":"100120046701","postcode":"BA1 6RU","current_gigabit":true,"future_gigabit":true,"bduk_recognised_premises":true,"lot_id":6,"lot_name":"Devon & Somerset","local_authority_district_ons_code":"E06000022","local_authority_district_ons":"Bath and North East Somerset","region_ons_code":"E12000009","region_ons":"South West","data_date":"2025-09","source_url":"https://www.gov.uk/government/publications/september-2025-omr-and-premises-in-bduk-plans-england-and-wales","final_url":"https://www.gov.uk/csv-preview/697cf18d01dffa646558006d/202509_BDUK_uprn_release_sample_v2.csv","accessed_at_utc":"2026-09-30T00:50:00Z","licence":"Open Government Licence v3.0","file_sha256":"6708a322052d0fd26de01f921af9db29101424335231f991aca797bfa61deb80","file_sha256_scope":"normalized_50_row_evidence_slice_materialized_from_official_preview","upstream_raw_csv_sha256":null,"upstream_raw_csv_sha256_status":"UNAVAILABLE_IN_RUNTIME_BINARY_FETCH","field_evidence":{"UPRN":"official CSV preview column 'UPRN'","current_gigabit":"official CSV preview column; technical note defines existing gigabit-capable connection","future_gigabit":"official CSV preview column; technical note defines future gigabit-capable plans","postcode":"official CSV preview column"},"evidence_slice_sha256":"6708a322052d0fd26de01f921af9db29101424335231f991aca797bfa61deb80","confidence_score_0_100":94,"evidence_grade":"A-","fake_data":false,"canonical_join_status":"UNPROCESSED_LOCAL_OPENCODE_JOIN_REQUIRED"}},{"type":"Feature","geometry":null,"properties":{"source_row":19,"official_identifier_type":"UPRN","uprn":"100120007603","postcode":"BA1 6SG","current_gigabit":true,"future_gigabit":true,"bduk_recognised_premises":true,"lot_id":6,"lot_name":"Devon & Somerset","local_authority_district_ons_code":"E06000022","local_authority_district_ons":"Bath and North East Somerset","region_ons_code":"E12000009","region_ons":"South West","data_date":"2025-09","source_url":"https://www.gov.uk/government/publications/september-2025-omr-and-premises-in-bduk-plans-england-and-wales","final_url":"https://www.gov.uk/csv-preview/697cf18d01dffa646558006d/202509_BDUK_uprn_release_sample_v2.csv","accessed_at_utc":"2026-09-30T00:50:00Z","licence":"Open Government Licence v3.0","file_sha256":"6708a322052d0fd26de01f921af9db29101424335231f991aca797bfa61deb80","file_sha256_scope":"normalized_50_row_evidence_slice_materialized_from_official_preview","upstream_raw_csv_sha256":null,"upstream_raw_csv_sha256_status":"UNAVAILABLE_IN_RUNTIME_BINARY_FETCH","field_evidence":{"UPRN":"official CSV preview column 'UPRN'","current_gigabit":"official CSV preview column; technical note defines existing gigabit-capable connection","future_gigabit":"official CSV preview column; technical note defines future gigabit-capable plans","postcode":"official CSV preview column"},"evidence_slice_sha256":"6708a322052d0fd26de01f921af9db29101424335231f991aca797bfa61deb80","confidence_score_0_100":94,"evidence_grade":"A-","fake_data":false,"canonical_join_status":"UNPROCESSED_LOCAL_OPENCODE_JOIN_REQUIRED"}},{"type":"Feature","geometry":null,"properties":{"source_row":20,"official_identifier_type":"UPRN","uprn":"100120007561","postcode":"BA1 6SW","current_gigabit":true,"future_gigabit":true,"bduk_recognised_premises":true,"lot_id":6,"lot_name":"Devon & Somerset","local_authority_district_ons_code":"E06000022","local_authority_district_ons":"Bath and North East Somerset","region_ons_code":"E12000009","region_ons":"South West","data_date":"2025-09","source_url":"https://www.gov.uk/government/publications/september-2025-omr-and-premises-in-bduk-plans-england-and-wales","final_url":"https://www.gov.uk/csv-preview/697cf18d01dffa646558006d/202509_BDUK_uprn_release_sample_v2.csv","accessed_at_utc":"2026-09-30T00:50:00Z","licence":"Open Government Licence v3.0","file_sha256":"6708a322052d0fd26de01f921af9db29101424335231f991aca797bfa61deb80","file_sha256_scope":"normalized_50_row_evidence_slice_materialized_from_official_preview","upstream_raw_csv_sha256":null,"upstream_raw_csv_sha256_status":"UNAVAILABLE_IN_RUNTIME_BINARY_FETCH","field_evidence":{"UPRN":"official CSV preview column 'UPRN'","current_gigabit":"official CSV preview column; technical note defines existing gigabit-capable connection","future_gigabit":"official CSV preview column; technical note defines future gigabit-capable plans","postcode":"official CSV preview column"},"evidence_slice_sha256":"6708a322052d0fd26de01f921af9db29101424335231f991aca797bfa61deb80","confidence_score_0_100":94,"evidence_grade":"A-","fake_data":false,"canonical_join_status":"UNPROCESSED_LOCAL_OPENCODE_JOIN_REQUIRED"}},{"type":"Feature","geometry":null,"properties":{"source_row":21,"official_identifier_type":"UPRN","uprn":"100120007586","postcode":"BA1 6SW","current_gigabit":true,"future_gigabit":true,"bduk_recognised_premises":true,"lot_id":6,"lot_name":"Devon & Somerset","local_authority_district_ons_code":"E06000022","local_authority_district_ons":"Bath and North East Somerset","region_ons_code":"E12000009","region_ons":"South West","data_date":"2025-09","source_url":"https://www.gov.uk/government/publications/september-2025-omr-and-premises-in-bduk-plans-england-and-wales","final_url":"https://www.gov.uk/csv-preview/697cf18d01dffa646558006d/202509_BDUK_uprn_release_sample_v2.csv","accessed_at_utc":"2026-09-30T00:50:00Z","licence":"Open Government Licence v3.0","file_sha256":"6708a322052d0fd26de01f921af9db29101424335231f991aca797bfa61deb80","file_sha256_scope":"normalized_50_row_evidence_slice_materialized_from_official_preview","upstream_raw_csv_sha256":null,"upstream_raw_csv_sha256_status":"UNAVAILABLE_IN_RUNTIME_BINARY_FETCH","field_evidence":{"UPRN":"official CSV preview column 'UPRN'","current_gigabit":"official CSV preview column; technical note defines existing gigabit-capable connection","future_gigabit":"official CSV preview column; technical note defines future gigabit-capable plans","postcode":"official CSV preview column"},"evidence_slice_sha256":"6708a322052d0fd26de01f921af9db29101424335231f991aca797bfa61deb80","confidence_score_0_100":94,"evidence_grade":"A-","fake_data":false,"canonical_join_status":"UNPROCESSED_LOCAL_OPENCODE_JOIN_REQUIRED"}},{"type":"Feature","geometry":null,"properties":{"source_row":22,"official_identifier_type":"UPRN","uprn":"100121173492","postcode":"BA1 7NW","current_gigabit":true,"future_gigabit":true,"bduk_recognised_premises":true,"lot_id":6,"lot_name":"Devon & Somerset","local_authority_district_ons_code":"E06000022","local_authority_district_ons":"Bath and North East Somerset","region_ons_code":"E12000009","region_ons":"South West","data_date":"2025-09","source_url":"https://www.gov.uk/government/publications/september-2025-omr-and-premises-in-bduk-plans-england-and-wales","final_url":"https://www.gov.uk/csv-preview/697cf18d01dffa646558006d/202509_BDUK_uprn_release_sample_v2.csv","accessed_at_utc":"2026-09-30T00:50:00Z","licence":"Open Government Licence v3.0","file_sha256":"6708a322052d0fd26de01f921af9db29101424335231f991aca797bfa61deb80","file_sha256_scope":"normalized_50_row_evidence_slice_materialized_from_official_preview","upstream_raw_csv_sha256":null,"upstream_raw_csv_sha256_status":"UNAVAILABLE_IN_RUNTIME_BINARY_FETCH","field_evidence":{"UPRN":"official CSV preview column 'UPRN'","current_gigabit":"official CSV preview column; technical note defines existing gigabit-capable connection","future_gigabit":"official CSV preview column; technical note defines future gigabit-capable plans","postcode":"official CSV preview column"},"evidence_slice_sha256":"6708a322052d0fd26de01f921af9db29101424335231f991aca797bfa61deb80","confidence_score_0_100":94,"evidence_grade":"A-","fake_data":false,"canonical_join_status":"UNPROCESSED_LOCAL_OPENCODE_JOIN_REQUIRED"}},{"type":"Feature","geometry":null,"properties":{"source_row":23,"official_identifier_type":"UPRN","uprn":"100120046316","postcode":"BA2 0BH","current_gigabit":true,"future_gigabit":true,"bduk_recognised_premises":true,"lot_id":6,"lot_name":"Devon & Somerset","local_authority_district_ons_code":"E06000022","local_authority_district_ons":"Bath and North East Somerset","region_ons_code":"E12000009","region_ons":"South West","data_date":"2025-09","source_url":"https://www.gov.uk/government/publications/september-2025-omr-and-premises-in-bduk-plans-england-and-wales","final_url":"https://www.gov.uk/csv-preview/697cf18d01dffa646558006d/202509_BDUK_uprn_release_sample_v2.csv","accessed_at_utc":"2026-09-30T00:50:00Z","licence":"Open Government Licence v3.0","file_sha256":"6708a322052d0fd26de01f921af9db29101424335231f991aca797bfa61deb80","file_sha256_scope":"normalized_50_row_evidence_slice_materialized_from_official_preview","upstream_raw_csv_sha256":null,"upstream_raw_csv_sha256_status":"UNAVAILABLE_IN_RUNTIME_BINARY_FETCH","field_evidence":{"UPRN":"official CSV preview column 'UPRN'","current_gigabit":"official CSV preview column; technical note defines existing gigabit-capable connection","future_gigabit":"official CSV preview column; technical note defines future gigabit-capable plans","postcode":"official CSV preview column"},"evidence_slice_sha256":"6708a322052d0fd26de01f921af9db29101424335231f991aca797bfa61deb80","confidence_score_0_100":94,"evidence_grade":"A-","fake_data":false,"canonical_join_status":"UNPROCESSED_LOCAL_OPENCODE_JOIN_REQUIRED"}},{"type":"Feature","geometry":null,"properties":{"source_row":24,"official_identifier_type":"UPRN","uprn":"100120042614","postcode":"BA2 0BZ","current_gigabit":true,"future_gigabit":true,"bduk_recognised_premises":true,"lot_id":6,"lot_name":"Devon & Somerset","local_authority_district_ons_code":"E06000022","local_authority_district_ons":"Bath and North East Somerset","region_ons_code":"E12000009","region_ons":"South West","data_date":"2025-09","source_url":"https://www.gov.uk/government/publications/september-2025-omr-and-premises-in-bduk-plans-england-and-wales","final_url":"https://www.gov.uk/csv-preview/697cf18d01dffa646558006d/202509_BDUK_uprn_release_sample_v2.csv","accessed_at_utc":"2026-09-30T00:50:00Z","licence":"Open Government Licence v3.0","file_sha256":"6708a322052d0fd26de01f921af9db29101424335231f991aca797bfa61deb80","file_sha256_scope":"normalized_50_row_evidence_slice_materialized_from_official_preview","upstream_raw_csv_sha256":null,"upstream_raw_csv_sha256_status":"UNAVAILABLE_IN_RUNTIME_BINARY_FETCH","field_evidence":{"UPRN":"official CSV preview column 'UPRN'","current_gigabit":"official CSV preview column; technical note defines existing gigabit-capable connection","future_gigabit":"official CSV preview column; technical note defines future gigabit-capable plans","postcode":"official CSV preview column"},"evidence_slice_sha256":"6708a322052d0fd26de01f921af9db29101424335231f991aca797bfa61deb80","confidence_score_0_100":94,"evidence_grade":"A-","fake_data":false,"canonical_join_status":"UNPROCESSED_LOCAL_OPENCODE_JOIN_REQUIRED"}},{"type":"Feature","geometry":null,"properties":{"source_row":25,"official_identifier_type":"UPRN","uprn":"100120027260","postcode":"BA2 0HB","current_gigabit":true,"future_gigabit":false,"bduk_recognised_premises":true,"lot_id":6,"lot_name":"Devon & Somerset","local_authority_district_ons_code":"E06000022","local_authority_district_ons":"Bath and North East Somerset","region_ons_code":"E12000009","region_ons":"South West","data_date":"2025-09","source_url":"https://www.gov.uk/government/publications/september-2025-omr-and-premises-in-bduk-plans-england-and-wales","final_url":"https://www.gov.uk/csv-preview/697cf18d01dffa646558006d/202509_BDUK_uprn_release_sample_v2.csv","accessed_at_utc":"2026-09-30T00:50:00Z","licence":"Open Government Licence v3.0","file_sha256":"6708a322052d0fd26de01f921af9db29101424335231f991aca797bfa61deb80","file_sha256_scope":"normalized_50_row_evidence_slice_materialized_from_official_preview","upstream_raw_csv_sha256":null,"upstream_raw_csv_sha256_status":"UNAVAILABLE_IN_RUNTIME_BINARY_FETCH","field_evidence":{"UPRN":"official CSV preview column 'UPRN'","current_gigabit":"official CSV preview column; technical note defines existing gigabit-capable connection","future_gigabit":"official CSV preview column; technical note defines future gigabit-capable plans","postcode":"official CSV preview column"},"evidence_slice_sha256":"6708a322052d0fd26de01f921af9db29101424335231f991aca797bfa61deb80","confidence_score_0_100":94,"evidence_grade":"A-","fake_data":false,"canonical_join_status":"UNPROCESSED_LOCAL_OPENCODE_JOIN_REQUIRED"}},{"type":"Feature","geometry":null,"properties":{"source_row":26,"official_identifier_type":"UPRN","uprn":"10001146039","postcode":"BA2 0NR","current_gigabit":true,"future_gigabit":true,"bduk_recognised_premises":true,"lot_id":6,"lot_name":"Devon & Somerset","local_authority_district_ons_code":"E06000022","local_authority_district_ons":"Bath and North East Somerset","region_ons_code":"E12000009","region_ons":"South West","data_date":"2025-09","source_url":"https://www.gov.uk/government/publications/september-2025-omr-and-premises-in-bduk-plans-england-and-wales","final_url":"https://www.gov.uk/csv-preview/697cf18d01dffa646558006d/202509_BDUK_uprn_release_sample_v2.csv","accessed_at_utc":"2026-09-30T00:50:00Z","licence":"Open Government Licence v3.0","file_sha256":"6708a322052d0fd26de01f921af9db29101424335231f991aca797bfa61deb80","file_sha256_scope":"normalized_50_row_evidence_slice_materialized_from_official_preview","upstream_raw_csv_sha256":null,"upstream_raw_csv_sha256_status":"UNAVAILABLE_IN_RUNTIME_BINARY_FETCH","field_evidence":{"UPRN":"official CSV preview column 'UPRN'","current_gigabit":"official CSV preview column; technical note defines existing gigabit-capable connection","future_gigabit":"official CSV preview column; technical note defines future gigabit-capable plans","postcode":"official CSV preview column"},"evidence_slice_sha256":"6708a322052d0fd26de01f921af9db29101424335231f991aca797bfa61deb80","confidence_score_0_100":94,"evidence_grade":"A-","fake_data":false,"canonical_join_status":"UNPROCESSED_LOCAL_OPENCODE_JOIN_REQUIRED"}},{"type":"Feature","geometry":null,"properties":{"source_row":27,"official_identifier_type":"UPRN","uprn":"100120010922","postcode":"BA2 1DR","current_gigabit":true,"future_gigabit":true,"bduk_recognised_premises":true,"lot_id":6,"lot_name":"Devon & Somerset","local_authority_district_ons_code":"E06000022","local_authority_district_ons":"Bath and North East Somerset","region_ons_code":"E12000009","region_ons":"South West","data_date":"2025-09","source_url":"https://www.gov.uk/government/publications/september-2025-omr-and-premises-in-bduk-plans-england-and-wales","final_url":"https://www.gov.uk/csv-preview/697cf18d01dffa646558006d/202509_BDUK_uprn_release_sample_v2.csv","accessed_at_utc":"2026-09-30T00:50:00Z","licence":"Open Government Licence v3.0","file_sha256":"6708a322052d0fd26de01f921af9db29101424335231f991aca797bfa61deb80","file_sha256_scope":"normalized_50_row_evidence_slice_materialized_from_official_preview","upstream_raw_csv_sha256":null,"upstream_raw_csv_sha256_status":"UNAVAILABLE_IN_RUNTIME_BINARY_FETCH","field_evidence":{"UPRN":"official CSV preview column 'UPRN'","current_gigabit":"official CSV preview column; technical note defines existing gigabit-capable connection","future_gigabit":"official CSV preview column; technical note defines future gigabit-capable plans","postcode":"official CSV preview column"},"evidence_slice_sha256":"6708a322052d0fd26de01f921af9db29101424335231f991aca797bfa61deb80","confidence_score_0_100":94,"evidence_grade":"A-","fake_data":false,"canonical_join_status":"UNPROCESSED_LOCAL_OPENCODE_JOIN_REQUIRED"}},{"type":"Feature","geometry":null,"properties":{"source_row":28,"official_identifier_type":"UPRN","uprn":"100120019517","postcode":"BA2 1HZ","current_gigabit":true,"future_gigabit":true,"bduk_recognised_premises":true,"lot_id":6,"lot_name":"Devon & Somerset","local_authority_district_ons_code":"E06000022","local_authority_district_ons":"Bath and North East Somerset","region_ons_code":"E12000009","region_ons":"South West","data_date":"2025-09","source_url":"https://www.gov.uk/government/publications/september-2025-omr-and-premises-in-bduk-plans-england-and-wales","final_url":"https://www.gov.uk/csv-preview/697cf18d01dffa646558006d/202509_BDUK_uprn_release_sample_v2.csv","accessed_at_utc":"2026-09-30T00:50:00Z","licence":"Open Government Licence v3.0","file_sha256":"6708a322052d0fd26de01f921af9db29101424335231f991aca797bfa61deb80","file_sha256_scope":"normalized_50_row_evidence_slice_materialized_from_official_preview","upstream_raw_csv_sha256":null,"upstream_raw_csv_sha256_status":"UNAVAILABLE_IN_RUNTIME_BINARY_FETCH","field_evidence":{"UPRN":"official CSV preview column 'UPRN'","current_gigabit":"official CSV preview column; technical note defines existing gigabit-capable connection","future_gigabit":"official CSV preview column; technical note defines future gigabit-capable plans","postcode":"official CSV preview column"},"evidence_slice_sha256":"6708a322052d0fd26de01f921af9db29101424335231f991aca797bfa61deb80","confidence_score_0_100":94,"evidence_grade":"A-","fake_data":false,"canonical_join_status":"UNPROCESSED_LOCAL_OPENCODE_JOIN_REQUIRED"}},{"type":"Feature","geometry":null,"properties":{"source_row":29,"official_identifier_type":"UPRN","uprn":"100120020419","postcode":"BA2 1JX","current_gigabit":true,"future_gigabit":true,"bduk_recognised_premises":true,"lot_id":6,"lot_name":"Devon & Somerset","local_authority_district_ons_code":"E06000022","local_authority_district_ons":"Bath and North East Somerset","region_ons_code":"E12000009","region_ons":"South West","data_date":"2025-09","source_url":"https://www.gov.uk/government/publications/september-2025-omr-and-premises-in-bduk-plans-england-and-wales","final_url":"https://www.gov.uk/csv-preview/697cf18d01dffa646558006d/202509_BDUK_uprn_release_sample_v2.csv","accessed_at_utc":"2026-09-30T00:50:00Z","licence":"Open Government Licence v3.0","file_sha256":"6708a322052d0fd26de01f921af9db29101424335231f991aca797bfa61deb80","file_sha256_scope":"normalized_50_row_evidence_slice_materialized_from_official_preview","upstream_raw_csv_sha256":null,"upstream_raw_csv_sha256_status":"UNAVAILABLE_IN_RUNTIME_BINARY_FETCH","field_evidence":{"UPRN":"official CSV preview column 'UPRN'","current_gigabit":"official CSV preview column; technical note defines existing gigabit-capable connection","future_gigabit":"official CSV preview column; technical note defines future gigabit-capable plans","postcode":"official CSV preview column"},"evidence_slice_sha256":"6708a322052d0fd26de01f921af9db29101424335231f991aca797bfa61deb80","confidence_score_0_100":94,"evidence_grade":"A-","fake_data":false,"canonical_join_status":"UNPROCESSED_LOCAL_OPENCODE_JOIN_REQUIRED"}},{"type":"Feature","geometry":null,"properties":{"source_row":30,"official_identifier_type":"UPRN","uprn":"10001130900","postcode":"BA2 1SA","current_gigabit":true,"future_gigabit":true,"bduk_recognised_premises":true,"lot_id":6,"lot_name":"Devon & Somerset","local_authority_district_ons_code":"E06000022","local_authority_district_ons":"Bath and North East Somerset","region_ons_code":"E12000009","region_ons":"South West","data_date":"2025-09","source_url":"https://www.gov.uk/government/publications/september-2025-omr-and-premises-in-bduk-plans-england-and-wales","final_url":"https://www.gov.uk/csv-preview/697cf18d01dffa646558006d/202509_BDUK_uprn_release_sample_v2.csv","accessed_at_utc":"2026-09-30T00:50:00Z","licence":"Open Government Licence v3.0","file_sha256":"6708a322052d0fd26de01f921af9db29101424335231f991aca797bfa61deb80","file_sha256_scope":"normalized_50_row_evidence_slice_materialized_from_official_preview","upstream_raw_csv_sha256":null,"upstream_raw_csv_sha256_status":"UNAVAILABLE_IN_RUNTIME_BINARY_FETCH","field_evidence":{"UPRN":"official CSV preview column 'UPRN'","current_gigabit":"official CSV preview column; technical note defines existing gigabit-capable connection","future_gigabit":"official CSV preview column; technical note defines future gigabit-capable plans","postcode":"official CSV preview column"},"evidence_slice_sha256":"6708a322052d0fd26de01f921af9db29101424335231f991aca797bfa61deb80","confidence_score_0_100":94,"evidence_grade":"A-","fake_data":false,"canonical_join_status":"UNPROCESSED_LOCAL_OPENCODE_JOIN_REQUIRED"}},{"type":"Feature","geometry":null,"properties":{"source_row":31,"official_identifier_type":"UPRN","uprn":"100120002780","postcode":"BA2 2BG","current_gigabit":true,"future_gigabit":false,"bduk_recognised_premises":true,"lot_id":6,"lot_name":"Devon & Somerset","local_authority_district_ons_code":"E06000022","local_authority_district_ons":"Bath and North East Somerset","region_ons_code":"E12000009","region_ons":"South West","data_date":"2025-09","source_url":"https://www.gov.uk/government/publications/september-2025-omr-and-premises-in-bduk-plans-england-and-wales","final_url":"https://www.gov.uk/csv-preview/697cf18d01dffa646558006d/202509_BDUK_uprn_release_sample_v2.csv","accessed_at_utc":"2026-09-30T00:50:00Z","licence":"Open Government Licence v3.0","file_sha256":"6708a322052d0fd26de01f921af9db29101424335231f991aca797bfa61deb80","file_sha256_scope":"normalized_50_row_evidence_slice_materialized_from_official_preview","upstream_raw_csv_sha256":null,"upstream_raw_csv_sha256_status":"UNAVAILABLE_IN_RUNTIME_BINARY_FETCH","field_evidence":{"UPRN":"official CSV preview column 'UPRN'","current_gigabit":"official CSV preview column; technical note defines existing gigabit-capable connection","future_gigabit":"official CSV preview column; technical note defines future gigabit-capable plans","postcode":"official CSV preview column"},"evidence_slice_sha256":"6708a322052d0fd26de01f921af9db29101424335231f991aca797bfa61deb80","confidence_score_0_100":94,"evidence_grade":"A-","fake_data":false,"canonical_join_status":"UNPROCESSED_LOCAL_OPENCODE_JOIN_REQUIRED"}},{"type":"Feature","geometry":null,"properties":{"source_row":32,"official_identifier_type":"UPRN","uprn":"100120031686","postcode":"BA2 2EB","current_gigabit":true,"future_gigabit":true,"bduk_recognised_premises":true,"lot_id":6,"lot_name":"Devon & Somerset","local_authority_district_ons_code":"E06000022","local_authority_district_ons":"Bath and North East Somerset","region_ons_code":"E12000009","region_ons":"South West","data_date":"2025-09","source_url":"https://www.gov.uk/government/publications/september-2025-omr-and-premises-in-bduk-plans-england-and-wales","final_url":"https://www.gov.uk/csv-preview/697cf18d01dffa646558006d/202509_BDUK_uprn_release_sample_v2.csv","accessed_at_utc":"2026-09-30T00:50:00Z","licence":"Open Government Licence v3.0","file_sha256":"6708a322052d0fd26de01f921af9db29101424335231f991aca797bfa61deb80","file_sha256_scope":"normalized_50_row_evidence_slice_materialized_from_official_preview","upstream_raw_csv_sha256":null,"upstream_raw_csv_sha256_status":"UNAVAILABLE_IN_RUNTIME_BINARY_FETCH","field_evidence":{"UPRN":"official CSV preview column 'UPRN'","current_gigabit":"official CSV preview column; technical note defines existing gigabit-capable connection","future_gigabit":"official CSV preview column; technical note defines future gigabit-capable plans","postcode":"official CSV preview column"},"evidence_slice_sha256":"6708a322052d0fd26de01f921af9db29101424335231f991aca797bfa61deb80","confidence_score_0_100":94,"evidence_grade":"A-","fake_data":false,"canonical_join_status":"UNPROCESSED_LOCAL_OPENCODE_JOIN_REQUIRED"}},{"type":"Feature","geometry":null,"properties":{"source_row":33,"official_identifier_type":"UPRN","uprn":"10001129126","postcode":"BA2 2HE","current_gigabit":true,"future_gigabit":false,"bduk_recognised_premises":true,"lot_id":6,"lot_name":"Devon & Somerset","local_authority_district_ons_code":"E06000022","local_authority_district_ons":"Bath and North East Somerset","region_ons_code":"E12000009","region_ons":"South West","data_date":"2025-09","source_url":"https://www.gov.uk/government/publications/september-2025-omr-and-premises-in-bduk-plans-england-and-wales","final_url":"https://www.gov.uk/csv-preview/697cf18d01dffa646558006d/202509_BDUK_uprn_release_sample_v2.csv","accessed_at_utc":"2026-09-30T00:50:00Z","licence":"Open Government Licence v3.0","file_sha256":"6708a322052d0fd26de01f921af9db29101424335231f991aca797bfa61deb80","file_sha256_scope":"normalized_50_row_evidence_slice_materialized_from_official_preview","upstream_raw_csv_sha256":null,"upstream_raw_csv_sha256_status":"UNAVAILABLE_IN_RUNTIME_BINARY_FETCH","field_evidence":{"UPRN":"official CSV preview column 'UPRN'","current_gigabit":"official CSV preview column; technical note defines existing gigabit-capable connection","future_gigabit":"official CSV preview column; technical note defines future gigabit-capable plans","postcode":"official CSV preview column"},"evidence_slice_sha256":"6708a322052d0fd26de01f921af9db29101424335231f991aca797bfa61deb80","confidence_score_0_100":94,"evidence_grade":"A-","fake_data":false,"canonical_join_status":"UNPROCESSED_LOCAL_OPENCODE_JOIN_REQUIRED"}},{"type":"Feature","geometry":null,"properties":{"source_row":34,"official_identifier_type":"UPRN","uprn":"100120013094","postcode":"BA2 2JE","current_gigabit":true,"future_gigabit":false,"bduk_recognised_premises":true,"lot_id":6,"lot_name":"Devon & Somerset","local_authority_district_ons_code":"E06000022","local_authority_district_ons":"Bath and North East Somerset","region_ons_code":"E12000009","region_ons":"South West","data_date":"2025-09","source_url":"https://www.gov.uk/government/publications/september-2025-omr-and-premises-in-bduk-plans-england-and-wales","final_url":"https://www.gov.uk/csv-preview/697cf18d01dffa646558006d/202509_BDUK_uprn_release_sample_v2.csv","accessed_at_utc":"2026-09-30T00:50:00Z","licence":"Open Government Licence v3.0","file_sha256":"6708a322052d0fd26de01f921af9db29101424335231f991aca797bfa61deb80","file_sha256_scope":"normalized_50_row_evidence_slice_materialized_from_official_preview","upstream_raw_csv_sha256":null,"upstream_raw_csv_sha256_status":"UNAVAILABLE_IN_RUNTIME_BINARY_FETCH","field_evidence":{"UPRN":"official CSV preview column 'UPRN'","current_gigabit":"official CSV preview column; technical note defines existing gigabit-capable connection","future_gigabit":"official CSV preview column; technical note defines future gigabit-capable plans","postcode":"official CSV preview column"},"evidence_slice_sha256":"6708a322052d0fd26de01f921af9db29101424335231f991aca797bfa61deb80","confidence_score_0_100":94,"evidence_grade":"A-","fake_data":false,"canonical_join_status":"UNPROCESSED_LOCAL_OPENCODE_JOIN_REQUIRED"}},{"type":"Feature","geometry":null,"properties":{"source_row":35,"official_identifier_type":"UPRN","uprn":"100120006725","postcode":"BA2 2JT","current_gigabit":true,"future_gigabit":true,"bduk_recognised_premises":true,"lot_id":6,"lot_name":"Devon & Somerset","local_authority_district_ons_code":"E06000022","local_authority_district_ons":"Bath and North East Somerset","region_ons_code":"E12000009","region_ons":"South West","data_date":"2025-09","source_url":"https://www.gov.uk/government/publications/september-2025-omr-and-premises-in-bduk-plans-england-and-wales","final_url":"https://www.gov.uk/csv-preview/697cf18d01dffa646558006d/202509_BDUK_uprn_release_sample_v2.csv","accessed_at_utc":"2026-09-30T00:50:00Z","licence":"Open Government Licence v3.0","file_sha256":"6708a322052d0fd26de01f921af9db29101424335231f991aca797bfa61deb80","file_sha256_scope":"normalized_50_row_evidence_slice_materialized_from_official_preview","upstream_raw_csv_sha256":null,"upstream_raw_csv_sha256_status":"UNAVAILABLE_IN_RUNTIME_BINARY_FETCH","field_evidence":{"UPRN":"official CSV preview column 'UPRN'","current_gigabit":"official CSV preview column; technical note defines existing gigabit-capable connection","future_gigabit":"official CSV preview column; technical note defines future gigabit-capable plans","postcode":"official CSV preview column"},"evidence_slice_sha256":"6708a322052d0fd26de01f921af9db29101424335231f991aca797bfa61deb80","confidence_score_0_100":94,"evidence_grade":"A-","fake_data":false,"canonical_join_status":"UNPROCESSED_LOCAL_OPENCODE_JOIN_REQUIRED"}},{"type":"Feature","geometry":null,"properties":{"source_row":36,"official_identifier_type":"UPRN","uprn":"100120026653","postcode":"BA2 2PG","current_gigabit":true,"future_gigabit":false,"bduk_recognised_premises":true,"lot_id":6,"lot_name":"Devon & Somerset","local_authority_district_ons_code":"E06000022","local_authority_district_ons":"Bath and North East Somerset","region_ons_code":"E12000009","region_ons":"South West","data_date":"2025-09","source_url":"https://www.gov.uk/government/publications/september-2025-omr-and-premises-in-bduk-plans-england-and-wales","final_url":"https://www.gov.uk/csv-preview/697cf18d01dffa646558006d/202509_BDUK_uprn_release_sample_v2.csv","accessed_at_utc":"2026-09-30T00:50:00Z","licence":"Open Government Licence v3.0","file_sha256":"6708a322052d0fd26de01f921af9db29101424335231f991aca797bfa61deb80","file_sha256_scope":"normalized_50_row_evidence_slice_materialized_from_official_preview","upstream_raw_csv_sha256":null,"upstream_raw_csv_sha256_status":"UNAVAILABLE_IN_RUNTIME_BINARY_FETCH","field_evidence":{"UPRN":"official CSV preview column 'UPRN'","current_gigabit":"official CSV preview column; technical note defines existing gigabit-capable connection","future_gigabit":"official CSV preview column; technical note defines future gigabit-capable plans","postcode":"official CSV preview column"},"evidence_slice_sha256":"6708a322052d0fd26de01f921af9db29101424335231f991aca797bfa61deb80","confidence_score_0_100":94,"evidence_grade":"A-","fake_data":false,"canonical_join_status":"UNPROCESSED_LOCAL_OPENCODE_JOIN_REQUIRED"}},{"type":"Feature","geometry":null,"properties":{"source_row":37,"official_identifier_type":"UPRN","uprn":"10023112820","postcode":"BA2 2QB","current_gigabit":true,"future_gigabit":false,"bduk_recognised_premises":true,"lot_id":6,"lot_name":"Devon & Somerset","local_authority_district_ons_code":"E06000022","local_authority_district_ons":"Bath and North East Somerset","region_ons_code":"E12000009","region_ons":"South West","data_date":"2025-09","source_url":"https://www.gov.uk/government/publications/september-2025-omr-and-premises-in-bduk-plans-england-and-wales","final_url":"https://www.gov.uk/csv-preview/697cf18d01dffa646558006d/202509_BDUK_uprn_release_sample_v2.csv","accessed_at_utc":"2026-09-30T00:50:00Z","licence":"Open Government Licence v3.0","file_sha256":"6708a322052d0fd26de01f921af9db29101424335231f991aca797bfa61deb80","file_sha256_scope":"normalized_50_row_evidence_slice_materialized_from_official_preview","upstream_raw_csv_sha256":null,"upstream_raw_csv_sha256_status":"UNAVAILABLE_IN_RUNTIME_BINARY_FETCH","field_evidence":{"UPRN":"official CSV preview column 'UPRN'","current_gigabit":"official CSV preview column; technical note defines existing gigabit-capable connection","future_gigabit":"official CSV preview column; technical note defines future gigabit-capable plans","postcode":"official CSV preview column"},"evidence_slice_sha256":"6708a322052d0fd26de01f921af9db29101424335231f991aca797bfa61deb80","confidence_score_0_100":94,"evidence_grade":"A-","fake_data":false,"canonical_join_status":"UNPROCESSED_LOCAL_OPENCODE_JOIN_REQUIRED"}},{"type":"Feature","geometry":null,"properties":{"source_row":38,"official_identifier_type":"UPRN","uprn":"100120006181","postcode":"BA2 2SD","current_gigabit":true,"future_gigabit":false,"bduk_recognised_premises":true,"lot_id":6,"lot_name":"Devon & Somerset","local_authority_district_ons_code":"E06000022","local_authority_district_ons":"Bath and North East Somerset","region_ons_code":"E12000009","region_ons":"South West","data_date":"2025-09","source_url":"https://www.gov.uk/government/publications/september-2025-omr-and-premises-in-bduk-plans-england-and-wales","final_url":"https://www.gov.uk/csv-preview/697cf18d01dffa646558006d/202509_BDUK_uprn_release_sample_v2.csv","accessed_at_utc":"2026-09-30T00:50:00Z","licence":"Open Government Licence v3.0","file_sha256":"6708a322052d0fd26de01f921af9db29101424335231f991aca797bfa61deb80","file_sha256_scope":"normalized_50_row_evidence_slice_materialized_from_official_preview","upstream_raw_csv_sha256":null,"upstream_raw_csv_sha256_status":"UNAVAILABLE_IN_RUNTIME_BINARY_FETCH","field_evidence":{"UPRN":"official CSV preview column 'UPRN'","current_gigabit":"official CSV preview column; technical note defines existing gigabit-capable connection","future_gigabit":"official CSV preview column; technical note defines future gigabit-capable plans","postcode":"official CSV preview column"},"evidence_slice_sha256":"6708a322052d0fd26de01f921af9db29101424335231f991aca797bfa61deb80","confidence_score_0_100":94,"evidence_grade":"A-","fake_data":false,"canonical_join_status":"UNPROCESSED_LOCAL_OPENCODE_JOIN_REQUIRED"}},{"type":"Feature","geometry":null,"properties":{"source_row":39,"official_identifier_type":"UPRN","uprn":"10001128725","postcode":"BA2 3AN","current_gigabit":true,"future_gigabit":false,"bduk_recognised_premises":false,"lot_id":6,"lot_name":"Devon & Somerset","local_authority_district_ons_code":"E06000022","local_authority_district_ons":"Bath and North East Somerset","region_ons_code":"E12000009","region_ons":"South West","data_date":"2025-09","source_url":"https://www.gov.uk/government/publications/september-2025-omr-and-premises-in-bduk-plans-england-and-wales","final_url":"https://www.gov.uk/csv-preview/697cf18d01dffa646558006d/202509_BDUK_uprn_release_sample_v2.csv","accessed_at_utc":"2026-09-30T00:50:00Z","licence":"Open Government Licence v3.0","file_sha256":"6708a322052d0fd26de01f921af9db29101424335231f991aca797bfa61deb80","file_sha256_scope":"normalized_50_row_evidence_slice_materialized_from_official_preview","upstream_raw_csv_sha256":null,"upstream_raw_csv_sha256_status":"UNAVAILABLE_IN_RUNTIME_BINARY_FETCH","field_evidence":{"UPRN":"official CSV preview column 'UPRN'","current_gigabit":"official CSV preview column; technical note defines existing gigabit-capable connection","future_gigabit":"official CSV preview column; technical note defines future gigabit-capable plans","postcode":"official CSV preview column"},"evidence_slice_sha256":"6708a322052d0fd26de01f921af9db29101424335231f991aca797bfa61deb80","confidence_score_0_100":94,"evidence_grade":"A-","fake_data":false,"canonical_join_status":"UNPROCESSED_LOCAL_OPENCODE_JOIN_REQUIRED"}},{"type":"Feature","geometry":null,"properties":{"source_row":40,"official_identifier_type":"UPRN","uprn":"100120032050","postcode":"BA2 3LF","current_gigabit":true,"future_gigabit":true,"bduk_recognised_premises":true,"lot_id":6,"lot_name":"Devon & Somerset","local_authority_district_ons_code":"E06000022","local_authority_district_ons":"Bath and North East Somerset","region_ons_code":"E12000009","region_ons":"South West","data_date":"2025-09","source_url":"https://www.gov.uk/government/publications/september-2025-omr-and-premises-in-bduk-plans-england-and-wales","final_url":"https://www.gov.uk/csv-preview/697cf18d01dffa646558006d/202509_BDUK_uprn_release_sample_v2.csv","accessed_at_utc":"2026-09-30T00:50:00Z","licence":"Open Government Licence v3.0","file_sha256":"6708a322052d0fd26de01f921af9db29101424335231f991aca797bfa61deb80","file_sha256_scope":"normalized_50_row_evidence_slice_materialized_from_official_preview","upstream_raw_csv_sha256":null,"upstream_raw_csv_sha256_status":"UNAVAILABLE_IN_RUNTIME_BINARY_FETCH","field_evidence":{"UPRN":"official CSV preview column 'UPRN'","current_gigabit":"official CSV preview column; technical note defines existing gigabit-capable connection","future_gigabit":"official CSV preview column; technical note defines future gigabit-capable plans","postcode":"official CSV preview column"},"evidence_slice_sha256":"6708a322052d0fd26de01f921af9db29101424335231f991aca797bfa61deb80","confidence_score_0_100":94,"evidence_grade":"A-","fake_data":false,"canonical_join_status":"UNPROCESSED_LOCAL_OPENCODE_JOIN_REQUIRED"}},{"type":"Feature","geometry":null,"properties":{"source_row":41,"official_identifier_type":"UPRN","uprn":"100120014518","postcode":"BA2 3NU","current_gigabit":true,"future_gigabit":false,"bduk_recognised_premises":true,"lot_id":6,"lot_name":"Devon & Somerset","local_authority_district_ons_code":"E06000022","local_authority_district_ons":"Bath and North East Somerset","region_ons_code":"E12000009","region_ons":"South West","data_date":"2025-09","source_url":"https://www.gov.uk/government/publications/september-2025-omr-and-premises-in-bduk-plans-england-and-wales","final_url":"https://www.gov.uk/csv-preview/697cf18d01dffa646558006d/202509_BDUK_uprn_release_sample_v2.csv","accessed_at_utc":"2026-09-30T00:50:00Z","licence":"Open Government Licence v3.0","file_sha256":"6708a322052d0fd26de01f921af9db29101424335231f991aca797bfa61deb80","file_sha256_scope":"normalized_50_row_evidence_slice_materialized_from_official_preview","upstream_raw_csv_sha256":null,"upstream_raw_csv_sha256_status":"UNAVAILABLE_IN_RUNTIME_BINARY_FETCH","field_evidence":{"UPRN":"official CSV preview column 'UPRN'","current_gigabit":"official CSV preview column; technical note defines existing gigabit-capable connection","future_gigabit":"official CSV preview column; technical note defines future gigabit-capable plans","postcode":"official CSV preview column"},"evidence_slice_sha256":"6708a322052d0fd26de01f921af9db29101424335231f991aca797bfa61deb80","confidence_score_0_100":94,"evidence_grade":"A-","fake_data":false,"canonical_join_status":"UNPROCESSED_LOCAL_OPENCODE_JOIN_REQUIRED"}},{"type":"Feature","geometry":null,"properties":{"source_row":42,"official_identifier_type":"UPRN","uprn":"100120003773","postcode":"BA2 3RS","current_gigabit":true,"future_gigabit":true,"bduk_recognised_premises":true,"lot_id":6,"lot_name":"Devon & Somerset","local_authority_district_ons_code":"E06000022","local_authority_district_ons":"Bath and North East Somerset","region_ons_code":"E12000009","region_ons":"South West","data_date":"2025-09","source_url":"https://www.gov.uk/government/publications/september-2025-omr-and-premises-in-bduk-plans-england-and-wales","final_url":"https://www.gov.uk/csv-preview/697cf18d01dffa646558006d/202509_BDUK_uprn_release_sample_v2.csv","accessed_at_utc":"2026-09-30T00:50:00Z","licence":"Open Government Licence v3.0","file_sha256":"6708a322052d0fd26de01f921af9db29101424335231f991aca797bfa61deb80","file_sha256_scope":"normalized_50_row_evidence_slice_materialized_from_official_preview","upstream_raw_csv_sha256":null,"upstream_raw_csv_sha256_status":"UNAVAILABLE_IN_RUNTIME_BINARY_FETCH","field_evidence":{"UPRN":"official CSV preview column 'UPRN'","current_gigabit":"official CSV preview column; technical note defines existing gigabit-capable connection","future_gigabit":"official CSV preview column; technical note defines future gigabit-capable plans","postcode":"official CSV preview column"},"evidence_slice_sha256":"6708a322052d0fd26de01f921af9db29101424335231f991aca797bfa61deb80","confidence_score_0_100":94,"evidence_grade":"A-","fake_data":false,"canonical_join_status":"UNPROCESSED_LOCAL_OPENCODE_JOIN_REQUIRED"}},{"type":"Feature","geometry":null,"properties":{"source_row":43,"official_identifier_type":"UPRN","uprn":"100120026823","postcode":"BA2 3RW","current_gigabit":true,"future_gigabit":true,"bduk_recognised_premises":true,"lot_id":6,"lot_name":"Devon & Somerset","local_authority_district_ons_code":"E06000022","local_authority_district_ons":"Bath and North East Somerset","region_ons_code":"E12000009","region_ons":"South West","data_date":"2025-09","source_url":"https://www.gov.uk/government/publications/september-2025-omr-and-premises-in-bduk-plans-england-and-wales","final_url":"https://www.gov.uk/csv-preview/697cf18d01dffa646558006d/202509_BDUK_uprn_release_sample_v2.csv","accessed_at_utc":"2026-09-30T00:50:00Z","licence":"Open Government Licence v3.0","file_sha256":"6708a322052d0fd26de01f921af9db29101424335231f991aca797bfa61deb80","file_sha256_scope":"normalized_50_row_evidence_slice_materialized_from_official_preview","upstream_raw_csv_sha256":null,"upstream_raw_csv_sha256_status":"UNAVAILABLE_IN_RUNTIME_BINARY_FETCH","field_evidence":{"UPRN":"official CSV preview column 'UPRN'","current_gigabit":"official CSV preview column; technical note defines existing gigabit-capable connection","future_gigabit":"official CSV preview column; technical note defines future gigabit-capable plans","postcode":"official CSV preview column"},"evidence_slice_sha256":"6708a322052d0fd26de01f921af9db29101424335231f991aca797bfa61deb80","confidence_score_0_100":94,"evidence_grade":"A-","fake_data":false,"canonical_join_status":"UNPROCESSED_LOCAL_OPENCODE_JOIN_REQUIRED"}},{"type":"Feature","geometry":null,"properties":{"source_row":44,"official_identifier_type":"UPRN","uprn":"10001144120","postcode":"BA2 5HG","current_gigabit":true,"future_gigabit":true,"bduk_recognised_premises":true,"lot_id":6,"lot_name":"Devon & Somerset","local_authority_district_ons_code":"E06000022","local_authority_district_ons":"Bath and North East Somerset","region_ons_code":"E12000009","region_ons":"South West","data_date":"2025-09","source_url":"https://www.gov.uk/government/publications/september-2025-omr-and-premises-in-bduk-plans-england-and-wales","final_url":"https://www.gov.uk/csv-preview/697cf18d01dffa646558006d/202509_BDUK_uprn_release_sample_v2.csv","accessed_at_utc":"2026-09-30T00:50:00Z","licence":"Open Government Licence v3.0","file_sha256":"6708a322052d0fd26de01f921af9db29101424335231f991aca797bfa61deb80","file_sha256_scope":"normalized_50_row_evidence_slice_materialized_from_official_preview","upstream_raw_csv_sha256":null,"upstream_raw_csv_sha256_status":"UNAVAILABLE_IN_RUNTIME_BINARY_FETCH","field_evidence":{"UPRN":"official CSV preview column 'UPRN'","current_gigabit":"official CSV preview column; technical note defines existing gigabit-capable connection","future_gigabit":"official CSV preview column; technical note defines future gigabit-capable plans","postcode":"official CSV preview column"},"evidence_slice_sha256":"6708a322052d0fd26de01f921af9db29101424335231f991aca797bfa61deb80","confidence_score_0_100":94,"evidence_grade":"A-","fake_data":false,"canonical_join_status":"UNPROCESSED_LOCAL_OPENCODE_JOIN_REQUIRED"}},{"type":"Feature","geometry":null,"properties":{"source_row":45,"official_identifier_type":"UPRN","uprn":"10001144121","postcode":"BA2 5HG","current_gigabit":true,"future_gigabit":true,"bduk_recognised_premises":true,"lot_id":6,"lot_name":"Devon & Somerset","local_authority_district_ons_code":"E06000022","local_authority_district_ons":"Bath and North East Somerset","region_ons_code":"E12000009","region_ons":"South West","data_date":"2025-09","source_url":"https://www.gov.uk/government/publications/september-2025-omr-and-premises-in-bduk-plans-england-and-wales","final_url":"https://www.gov.uk/csv-preview/697cf18d01dffa646558006d/202509_BDUK_uprn_release_sample_v2.csv","accessed_at_utc":"2026-09-30T00:50:00Z","licence":"Open Government Licence v3.0","file_sha256":"6708a322052d0fd26de01f921af9db29101424335231f991aca797bfa61deb80","file_sha256_scope":"normalized_50_row_evidence_slice_materialized_from_official_preview","upstream_raw_csv_sha256":null,"upstream_raw_csv_sha256_status":"UNAVAILABLE_IN_RUNTIME_BINARY_FETCH","field_evidence":{"UPRN":"official CSV preview column 'UPRN'","current_gigabit":"official CSV preview column; technical note defines existing gigabit-capable connection","future_gigabit":"official CSV preview column; technical note defines future gigabit-capable plans","postcode":"official CSV preview column"},"evidence_slice_sha256":"6708a322052d0fd26de01f921af9db29101424335231f991aca797bfa61deb80","confidence_score_0_100":94,"evidence_grade":"A-","fake_data":false,"canonical_join_status":"UNPROCESSED_LOCAL_OPENCODE_JOIN_REQUIRED"}},{"type":"Feature","geometry":null,"properties":{"source_row":46,"official_identifier_type":"UPRN","uprn":"100120043038","postcode":"BA2 5JU","current_gigabit":true,"future_gigabit":true,"bduk_recognised_premises":true,"lot_id":6,"lot_name":"Devon & Somerset","local_authority_district_ons_code":"E06000022","local_authority_district_ons":"Bath and North East Somerset","region_ons_code":"E12000009","region_ons":"South West","data_date":"2025-09","source_url":"https://www.gov.uk/government/publications/september-2025-omr-and-premises-in-bduk-plans-england-and-wales","final_url":"https://www.gov.uk/csv-preview/697cf18d01dffa646558006d/202509_BDUK_uprn_release_sample_v2.csv","accessed_at_utc":"2026-09-30T00:50:00Z","licence":"Open Government Licence v3.0","file_sha256":"6708a322052d0fd26de01f921af9db29101424335231f991aca797bfa61deb80","file_sha256_scope":"normalized_50_row_evidence_slice_materialized_from_official_preview","upstream_raw_csv_sha256":null,"upstream_raw_csv_sha256_status":"UNAVAILABLE_IN_RUNTIME_BINARY_FETCH","field_evidence":{"UPRN":"official CSV preview column 'UPRN'","current_gigabit":"official CSV preview column; technical note defines existing gigabit-capable connection","future_gigabit":"official CSV preview column; technical note defines future gigabit-capable plans","postcode":"official CSV preview column"},"evidence_slice_sha256":"6708a322052d0fd26de01f921af9db29101424335231f991aca797bfa61deb80","confidence_score_0_100":94,"evidence_grade":"A-","fake_data":false,"canonical_join_status":"UNPROCESSED_LOCAL_OPENCODE_JOIN_REQUIRED"}},{"type":"Feature","geometry":null,"properties":{"source_row":47,"official_identifier_type":"UPRN","uprn":"100120044519","postcode":"BA2 6BY","current_gigabit":true,"future_gigabit":true,"bduk_recognised_premises":true,"lot_id":6,"lot_name":"Devon & Somerset","local_authority_district_ons_code":"E06000022","local_authority_district_ons":"Bath and North East Somerset","region_ons_code":"E12000009","region_ons":"South West","data_date":"2025-09","source_url":"https://www.gov.uk/government/publications/september-2025-omr-and-premises-in-bduk-plans-england-and-wales","final_url":"https://www.gov.uk/csv-preview/697cf18d01dffa646558006d/202509_BDUK_uprn_release_sample_v2.csv","accessed_at_utc":"2026-09-30T00:50:00Z","licence":"Open Government Licence v3.0","file_sha256":"6708a322052d0fd26de01f921af9db29101424335231f991aca797bfa61deb80","file_sha256_scope":"normalized_50_row_evidence_slice_materialized_from_official_preview","upstream_raw_csv_sha256":null,"upstream_raw_csv_sha256_status":"UNAVAILABLE_IN_RUNTIME_BINARY_FETCH","field_evidence":{"UPRN":"official CSV preview column 'UPRN'","current_gigabit":"official CSV preview column; technical note defines existing gigabit-capable connection","future_gigabit":"official CSV preview column; technical note defines future gigabit-capable plans","postcode":"official CSV preview column"},"evidence_slice_sha256":"6708a322052d0fd26de01f921af9db29101424335231f991aca797bfa61deb80","confidence_score_0_100":94,"evidence_grade":"A-","fake_data":false,"canonical_join_status":"UNPROCESSED_LOCAL_OPENCODE_JOIN_REQUIRED"}},{"type":"Feature","geometry":null,"properties":{"source_row":48,"official_identifier_type":"UPRN","uprn":"100120028225","postcode":"BA2 6BZ","current_gigabit":true,"future_gigabit":true,"bduk_recognised_premises":true,"lot_id":6,"lot_name":"Devon & Somerset","local_authority_district_ons_code":"E06000022","local_authority_district_ons":"Bath and North East Somerset","region_ons_code":"E12000009","region_ons":"South West","data_date":"2025-09","source_url":"https://www.gov.uk/government/publications/september-2025-omr-and-premises-in-bduk-plans-england-and-wales","final_url":"https://www.gov.uk/csv-preview/697cf18d01dffa646558006d/202509_BDUK_uprn_release_sample_v2.csv","accessed_at_utc":"2026-09-30T00:50:00Z","licence":"Open Government Licence v3.0","file_sha256":"6708a322052d0fd26de01f921af9db29101424335231f991aca797bfa61deb80","file_sha256_scope":"normalized_50_row_evidence_slice_materialized_from_official_preview","upstream_raw_csv_sha256":null,"upstream_raw_csv_sha256_status":"UNAVAILABLE_IN_RUNTIME_BINARY_FETCH","field_evidence":{"UPRN":"official CSV preview column 'UPRN'","current_gigabit":"official CSV preview column; technical note defines existing gigabit-capable connection","future_gigabit":"official CSV preview column; technical note defines future gigabit-capable plans","postcode":"official CSV preview column"},"evidence_slice_sha256":"6708a322052d0fd26de01f921af9db29101424335231f991aca797bfa61deb80","confidence_score_0_100":94,"evidence_grade":"A-","fake_data":false,"canonical_join_status":"UNPROCESSED_LOCAL_OPENCODE_JOIN_REQUIRED"}},{"type":"Feature","geometry":null,"properties":{"source_row":49,"official_identifier_type":"UPRN","uprn":"10001125485","postcode":"BA2 7BY","current_gigabit":true,"future_gigabit":true,"bduk_recognised_premises":true,"lot_id":6,"lot_name":"Devon & Somerset","local_authority_district_ons_code":"E06000022","local_authority_district_ons":"Bath and North East Somerset","region_ons_code":"E12000009","region_ons":"South West","data_date":"2025-09","source_url":"https://www.gov.uk/government/publications/september-2025-omr-and-premises-in-bduk-plans-england-and-wales","final_url":"https://www.gov.uk/csv-preview/697cf18d01dffa646558006d/202509_BDUK_uprn_release_sample_v2.csv","accessed_at_utc":"2026-09-30T00:50:00Z","licence":"Open Government Licence v3.0","file_sha256":"6708a322052d0fd26de01f921af9db29101424335231f991aca797bfa61deb80","file_sha256_scope":"normalized_50_row_evidence_slice_materialized_from_official_preview","upstream_raw_csv_sha256":null,"upstream_raw_csv_sha256_status":"UNAVAILABLE_IN_RUNTIME_BINARY_FETCH","field_evidence":{"UPRN":"official CSV preview column 'UPRN'","current_gigabit":"official CSV preview column; technical note defines existing gigabit-capable connection","future_gigabit":"official CSV preview column; technical note defines future gigabit-capable plans","postcode":"official CSV preview column"},"evidence_slice_sha256":"6708a322052d0fd26de01f921af9db29101424335231f991aca797bfa61deb80","confidence_score_0_100":94,"evidence_grade":"A-","fake_data":false,"canonical_join_status":"UNPROCESSED_LOCAL_OPENCODE_JOIN_REQUIRED"}},{"type":"Feature","geometry":null,"properties":{"source_row":50,"official_identifier_type":"UPRN","uprn":"100120020285","postcode":"BA2 7HW","current_gigabit":true,"future_gigabit":true,"bduk_recognised_premises":true,"lot_id":6,"lot_name":"Devon & Somerset","local_authority_district_ons_code":"E06000022","local_authority_district_ons":"Bath and North East Somerset","region_ons_code":"E12000009","region_ons":"South West","data_date":"2025-09","source_url":"https://www.gov.uk/government/publications/september-2025-omr-and-premises-in-bduk-plans-england-and-wales","final_url":"https://www.gov.uk/csv-preview/697cf18d01dffa646558006d/202509_BDUK_uprn_release_sample_v2.csv","accessed_at_utc":"2026-09-30T00:50:00Z","licence":"Open Government Licence v3.0","file_sha256":"6708a322052d0fd26de01f921af9db29101424335231f991aca797bfa61deb80","file_sha256_scope":"normalized_50_row_evidence_slice_materialized_from_official_preview","upstream_raw_csv_sha256":null,"upstream_raw_csv_sha256_status":"UNAVAILABLE_IN_RUNTIME_BINARY_FETCH","field_evidence":{"UPRN":"official CSV preview column 'UPRN'","current_gigabit":"official CSV preview column; technical note defines existing gigabit-capable connection","future_gigabit":"official CSV preview column; technical note defines future gigabit-capable plans","postcode":"official CSV preview column"},"evidence_slice_sha256":"6708a322052d0fd26de01f921af9db29101424335231f991aca797bfa61deb80","confidence_score_0_100":94,"evidence_grade":"A-","fake_data":false,"canonical_join_status":"UNPROCESSED_LOCAL_OPENCODE_JOIN_REQUIRED"}}]}