{"features":[{"geometry":{"coordinates":[[[[-0.039866,51.779994],[-0.039849,51.779992],[-0.03983,51.779993],[-0.039784,51.779999],[-0.039761,51.780008],[-0.039748,51.780021],[-0.039742,51.780033],[-0.039738,51.780045],[-0.039723,51.780175],[-0.039741,51.780182],[-0.03974,51.780198],[-0.03973,51.780259],[-0.039703,51.780328],[-0.039702,51.780347],[-0.039705,51.780367],[-0.03971,51.78037],[-0.039717,51.780378],[-0.039749,51.780393],[-0.039812,51.780414],[-0.039882,51.78044],[-0.039917,51.780393],[-0.039942,51.780351],[-0.04002,51.78012],[-0.039954,51.780004],[-0.039866,51.779994]]]],"type":"MultiPolygon"},"id":"42177227","properties":{"access_utc":"2026-10-04T19:59:00Z","batch_id":"batch-0050","building_evidence_status":"BUILDING_PRESENT","building_type":"listed_building","building_use":null,"canonical_parcel_id":null,"confidence_score_0_100":93,"data_date":"1983-09-30","evidence_grade":"A","evidence_slice_sha256":"b7e6beb713da66c4ee27d94a0f25f930d75c6d341e3eab46e087787a180fcaee","fake_data":false,"field_evidence":{"footprint":"official listed-building-outline MULTIPOLYGON","name":"HAILEY LODGE","reference":"1342224","type":"official dataset classification: listed-building-outline","use":"no current use inferred"},"final_url":"https://www.planning.data.gov.uk/entity/42177227","licence":"Open Government Licence v3.0","lineage_id":"building_type_9-20261001T200900Z-newstart","local_spatial_join_required":true,"page_generation":1,"parcel_status":"UNPROCESSED","poi_accepted":false,"slot_id":"building_type_9","source_dataset":"listed-building-outline","source_entity":42177227,"source_organisation":"East Hertfordshire District Council","source_reference":"1342224","source_url":"https://www.planning.data.gov.uk/entity/42177227"},"type":"Feature"},{"geometry":{"coordinates":[[[[-0.043392,51.78753],[-0.04338,51.787429],[-0.0425,51.787517],[-0.042439,51.787533],[-0.042416,51.787547],[-0.042357,51.787657],[-0.042901,51.787752],[-0.042904,51.787674],[-0.042922,51.787675],[-0.042937,51.787561],[-0.043475,51.787603],[-0.04348,51.787526],[-0.043392,51.78753]]]],"type":"MultiPolygon"},"id":"42177210","properties":{"access_utc":"2026-10-04T19:59:00Z","batch_id":"batch-0050","building_evidence_status":"BUILDING_PRESENT","building_type":"listed_building","building_use":null,"canonical_parcel_id":null,"confidence_score_0_100":93,"data_date":"1988-04-20","evidence_grade":"A","evidence_slice_sha256":"38c655be1e356789964ea666919adeec35597908801f857e145f3fe466bccbb3","fake_data":false,"field_evidence":{"footprint":"official listed-building-outline MULTIPOLYGON","name":"THE GOAT INN","reference":"1177310","type":"official dataset classification: listed-building-outline","use":"no current use inferred"},"final_url":"https://www.planning.data.gov.uk/entity/42177210","licence":"Open Government Licence v3.0","lineage_id":"building_type_9-20261001T200900Z-newstart","local_spatial_join_required":true,"page_generation":1,"parcel_status":"UNPROCESSED","poi_accepted":false,"slot_id":"building_type_9","source_dataset":"listed-building-outline","source_entity":42177210,"source_organisation":"East Hertfordshire District Council","source_reference":"1177310","source_url":"https://www.planning.data.gov.uk/entity/42177210"},"type":"Feature"},{"geometry":{"coordinates":[[[[-0.120047,51.750245],[-0.119876,51.750567],[-0.119886,51.750677],[-0.119892,51.750717],[-0.119981,51.75075],[-0.120103,51.750828],[-0.120377,51.750654],[-0.120438,51.750679],[-0.120492,51.750681],[-0.120526,51.750682],[-0.120553,51.75066],[-0.12062,51.750692],[-0.120799,51.750576],[-0.120391,51.750333],[-0.120047,51.750245]]]],"type":"MultiPolygon"},"id":"42177146","properties":{"access_utc":"2026-10-04T19:59:00Z","batch_id":"batch-0050","building_evidence_status":"BUILDING_PRESENT","building_type":"listed_building","building_use":null,"canonical_parcel_id":null,"confidence_score_0_100":93,"data_date":"1973-07-19","evidence_grade":"A","evidence_slice_sha256":"f00954f76ea7e7075384ac1ab1c357c549fb123575a65031ccca302a47291572","fake_data":false,"field_evidence":{"footprint":"official listed-building-outline MULTIPOLYGON","name":"THE OLD FARMHOUSE AT BUCK'S FARM","reference":"1187153","type":"official dataset classification: listed-building-outline","use":"no current use inferred"},"final_url":"https://www.planning.data.gov.uk/entity/42177146","licence":"Open Government Licence v3.0","lineage_id":"building_type_9-20261001T200900Z-newstart","local_spatial_join_required":true,"page_generation":1,"parcel_status":"UNPROCESSED","poi_accepted":false,"slot_id":"building_type_9","source_dataset":"listed-building-outline","source_entity":42177146,"source_organisation":"East Hertfordshire District Council","source_reference":"1187153","source_url":"https://www.planning.data.gov.uk/entity/42177146"},"type":"Feature"},{"geometry":{"coordinates":[[[[-0.083205,51.755818],[-0.084001,51.755845],[-0.083982,51.755369],[-0.083963,51.755352],[-0.083883,51.755313],[-0.083785,51.755334],[-0.083659,51.755349],[-0.083228,51.755444],[-0.083205,51.755818]]]],"type":"MultiPolygon"},"id":"42177204","properties":{"access_utc":"2026-10-04T19:59:00Z","batch_id":"batch-0050","building_evidence_status":"BUILDING_PRESENT","building_type":"listed_building","building_use":null,"canonical_parcel_id":null,"confidence_score_0_100":93,"data_date":"1988-06-14","evidence_grade":"A","evidence_slice_sha256":"532b93dc989945ddb9b219048eee0769acc6543976008828b42acddfda0762e8","fake_data":false,"field_evidence":{"footprint":"official listed-building-outline MULTIPOLYGON","name":"LITTLE FARDEN","reference":"1101701","type":"official dataset classification: listed-building-outline","use":"no current use inferred"},"final_url":"https://www.planning.data.gov.uk/entity/42177204","licence":"Open Government Licence v3.0","lineage_id":"building_type_9-20261001T200900Z-newstart","local_spatial_join_required":true,"page_generation":1,"parcel_status":"UNPROCESSED","poi_accepted":false,"slot_id":"building_type_9","source_dataset":"listed-building-outline","source_entity":42177204,"source_organisation":"East Hertfordshire District Council","source_reference":"1101701","source_url":"https://www.planning.data.gov.uk/entity/42177204"},"type":"Feature"}],"name":"building_type_9_batch_0050","type":"FeatureCollection"}