{"type":"FeatureCollection","name":"future_growth_9_batch_217","demo_only":true,"metadata":{"schema_version":3,"slot_id":"future_growth_9","continuation_key":"future_growth_9_open_source_v2_20260813","run_id":"future_growth_9_bounded12_20260818T224345Z","batch_index":217,"feature_count_before":215,"feature_count_added":1,"feature_count_after":216,"source_window":{"dataset":"brownfield-land","window_index":216,"window_size":1,"entity":1712248},"source_query_variant":"bradford_official_frozen_snapshot_entity_reference_sorted","source_request_url":"https://www.planning.data.gov.uk/entity/1712248","source_result":"ADDED","fake_data":false,"final_ready":false,"production_merge":false,"duplicate_count":0,"duplicate_candidate_skipped":false,"nearest_match_used":false},"features":[{"type":"Feature","id":"future_growth_9:planning_data_bradford:sw-035a","geometry":{"type":"Point","coordinates":[-1.797734,53.795648]},"properties":{"slot_id":"future_growth_9","continuation_key":"future_growth_9_open_source_v2_20260813","source_family":"planning_data_brownfield_land_direct_identity","source_name":"Planning Data Brownfield Land — City of Bradford Metropolitan District Council","source_publisher":"City of Bradford Metropolitan District Council via Planning Data","source_feature_id":"SW/035A","planning_data_entity":1712248,"source_url":"https://www.planning.data.gov.uk/entity/1712248","source_dataset_url":"https://www.planning.data.gov.uk/dataset/brownfield-land","source_entry_date":"2019-12-01","source_start_date":"2017-11-01","source_sha256":"a7657477342daa014f647dc102a356d19ace85ecc5901745852dd4a3dd4e7c2c","source_sha256_scope":"canonical JSON of official API entity payload used in this bounded batch","license":"Open Government Licence v3.0","planning_status":"not-permissioned","future_growth_evidence_type":"area_proxy","direct_project_evidence":false,"evidence_summary":"Permission for 125 units has expired","matching_method":"direct official brownfield-land reference identity plus published WGS84 point; no nearest matching, no cross-parcel identity inference","source_query_variant":"bradford_official_frozen_snapshot_entity_reference_sorted","accuracy_scale_1_4":3,"future_growth_value":null,"future_growth_probability":null,"unknown_reason":"Numeric value/probability withheld because no approved scoring rule exists.","site_name":"Thornton Road/Mumby Street, Girlington","hectares":4.37,"net_dwellings_range_from":98,"net_dwellings_range_to":131,"planning_permission_date":null,"planning_permission_type":null,"deliverable":"yes","fake_data":false,"final_ready":false,"production_merge":false,"demo_only":true}}]}
