{"type":"FeatureCollection","name":"height_difference_5","metadata":{"slot_id":"height_difference_5","owner":"height_difference_5","lineage_id":"height_difference_5-eb56f92ed3f0514c","page_generation":1,"schema":"AAYS_LAYER24_EVIDENCE_V1","partition":"layer24","semantic_mode_state":"ABSENT_IN_PRIOR_PHYSICAL_STATE_PRESERVED_BY_OMISSION","batch_id":"20261003T153900Z_spatialni_data_supply_crs_guidance","record_policy":"Official SpatialNI platform CRS guidance only; EPSG:29902 is not asserted as Belfast City 2006 LiDAR dataset-specific CRS and no tile/file, geometry or parcel binding is synthesized.","fake_data":false},"features":[{"type":"Feature","geometry":null,"properties":{"slot_id":"height_difference_5","owner":"height_difference_5","lineage_id":"height_difference_5-eb56f92ed3f0514c","page_generation":1,"schema":"AAYS_LAYER24_EVIDENCE_V1","partition":"layer24","batch_id":"20261003T153900Z_spatialni_data_supply_crs_guidance","source_record_id":"SPATIALNI:DATA_SUPPLY_METADATA_CRS_GUIDANCE","source_url":"https://support.spatialni.gov.uk/nima/DownloadDocs/Guidance/SpatialNI_Data_Supply_Metadata_Form.pdf","document_field":"Data Supply Spatial Reference System","platform_spatial_reference_text":"Irish Grid (TM65) [EPSG:29902]","platform_epsg":29902,"dataset_specific_to_belfast_2006":false,"access_utc":"2026-10-03T15:39:00Z","required_building_state":"BUILDING_PRESENT","binding_status":"LOCAL_OPENCODE_BUILDING_PRESENT_EXACT_TILE_BIND_REQUIRED","exact_tile_identifier":null,"dataset_specific_crs":null,"evidence_slice_sha256":"27c647c1803bb9f168d2d01a7ce70d50abece721694afc53f6d0966c6aa0d6d6","accepted_count_contribution":0,"source_area_count_contribution":0,"fake_data":false}}]}
