{"type":"FeatureCollection","features":[{"type":"Feature","id":"planned_buildings_1-planning-data-brownfield-1737638","geometry":{"type":"Point","coordinates":[-0.09943,51.467726]},"properties":{"topic_id":"planned-buildings","slot_id":"planned_buildings_1","source_dataset_id":"planning_data_brownfield_land","source_entity":1737638,"official_site_key":"BLR157","canonical_record_key":"planning-data:brownfield-land:1737638","planned_project_name":"144 Coldharbour Lane London Lambeth SE5 9QH","planned_project_status":"permissioned","planned_project_owner_type":"not-owned-by-a-public-authority","planned_building_capacity_net_dwellings":2,"source_record_end_date":"2025-12-20","source_record_temporal_status":"historical_register_record","parcel_id":null,"program_parcel_id":null,"planned_building_value":null,"planned_building_probability":null,"planned_building_complete_month":null,"planned_scoring_status":"METHODOLOGY_APPROVAL_REQUIRED","matching_method":"direct_official_site_record_no_parcel_match","source_quality":"authoritative","source_license":"Open Government Licence v3.0","demo_only":true,"fake_data":false,"final_ready":false,"production_merge":false}}],"metadata":{"slot_id":"planned_buildings_1","batch_index":12,"source_window":{"geometry_entity":626195,"geometry_relation":"within","limit":1,"offset":155},"feature_count_before":160,"feature_count_after":161,"unique_real_site_project_before":111,"unique_real_site_project_after":112,"new_feature_count":1,"duplicate_count_new":0,"nearest_match_used":false,"fake_data":false,"mirror_only":true}}