{"type":"FeatureCollection","features":[{"type":"Feature","id":"planned_buildings_1-planning-data-brownfield-1737635","geometry":{"type":"Point","coordinates":[-0.135743,51.445774]},"properties":{"topic_id":"planned-buildings","slot_id":"planned_buildings_1","source_dataset_id":"planning_data_brownfield_land","source_entity":1737635,"official_site_key":"BLR154","canonical_record_key":"planning-data:brownfield-land:1737635","planned_project_name":"22 Thornton Road London Lambeth SW12 0LF","planned_project_status":"permissioned","planned_project_owner_type":"not-owned-by-a-public-authority","planned_building_capacity_net_dwellings":8,"source_record_end_date":"2025-12-20","source_record_temporal_status":"historical_register_record","parcel_id":null,"program_parcel_id":null,"planned_building_value":null,"planned_building_probability":null,"planned_building_complete_month":null,"planned_scoring_status":"METHODOLOGY_APPROVAL_REQUIRED","matching_method":"direct_official_site_record_no_parcel_match","source_quality":"authoritative","source_license":"Open Government Licence v3.0","demo_only":true,"fake_data":false,"final_ready":false,"production_merge":false}}],"metadata":{"slot_id":"planned_buildings_1","batch_index":9,"source_window":{"geometry_entity":626195,"geometry_relation":"within","limit":1,"offset":152},"feature_count_before":157,"feature_count_after":158,"unique_real_site_project_before":108,"unique_real_site_project_after":109,"new_feature_count":1,"duplicate_count_new":0,"nearest_match_used":false,"fake_data":false,"mirror_only":true}}