{"type":"FeatureCollection","features":[{"type":"Feature","id":"planned_buildings_1-planning-data-brownfield-1737627","geometry":{"type":"Point","coordinates":[-0.121272,51.453339]},"properties":{"slot_id":"planned_buildings_1","source_entity":1737627,"official_site_key":"BLR146","canonical_record_key":"planning-data:brownfield-land:1737627","planned_project_name":"122 Brixton Hill London SW2 1RS","source_record_temporal_status":"current_register_record","source_quality":"authoritative","fake_data":false}},{"type":"Feature","id":"planned_buildings_1-planning-data-brownfield-1737628","geometry":{"type":"Point","coordinates":[-0.130411,51.471677]},"properties":{"slot_id":"planned_buildings_1","source_entity":1737628,"official_site_key":"BLR147","canonical_record_key":"planning-data:brownfield-land:1737628","planned_project_name":"118-120 Larkhall Lane SW4, 56A & 56B And Land Adjoining Baptist Church, Courland Grove London SW8","source_record_temporal_status":"current_register_record","source_quality":"authoritative","fake_data":false}},{"type":"Feature","id":"planned_buildings_1-planning-data-brownfield-1737630","geometry":{"type":"Point","coordinates":[-0.144455,51.467656]},"properties":{"slot_id":"planned_buildings_1","source_entity":1737630,"official_site_key":"BLR149","canonical_record_key":"planning-data:brownfield-land:1737630","planned_project_name":"North Street Mews London SW4 0HF","source_record_temporal_status":"current_register_record","source_quality":"authoritative","fake_data":false}},{"type":"Feature","id":"planned_buildings_1-planning-data-brownfield-1737632","geometry":{"type":"Point","coordinates":[-0.104215,51.440169]},"properties":{"slot_id":"planned_buildings_1","source_entity":1737632,"official_site_key":"BLR151","canonical_record_key":"planning-data:brownfield-land:1737632","planned_project_name":"Land On The Corner Of Avenue Park Road Thurlow Park Road London","source_record_temporal_status":"current_register_record","source_quality":"authoritative","fake_data":false}},{"type":"Feature","id":"planned_buildings_1-planning-data-brownfield-1737633","geometry":{"type":"Point","coordinates":[-0.129894,51.469187]},"properties":{"slot_id":"planned_buildings_1","source_entity":1737633,"official_site_key":"BLR152","canonical_record_key":"planning-data:brownfield-land:1737633","planned_project_name":"25 Bromfelde Road London SW4 6PP","source_record_temporal_status":"current_register_record","source_quality":"authoritative","fake_data":false}},{"type":"Feature","id":"planned_buildings_1-planning-data-brownfield-1737634","geometry":{"type":"Point","coordinates":[-0.12278,51.472716]},"properties":{"slot_id":"planned_buildings_1","source_entity":1737634,"official_site_key":"BLR153","canonical_record_key":"planning-data:brownfield-land:1737634","planned_project_name":"2A Binfield Road London SW4 6TA","source_record_temporal_status":"current_register_record","source_quality":"authoritative","fake_data":false}},{"type":"Feature","id":"planned_buildings_1-planning-data-brownfield-1737635","geometry":{"type":"Point","coordinates":[-0.135743,51.445774]},"properties":{"slot_id":"planned_buildings_1","source_entity":1737635,"official_site_key":"BLR154","canonical_record_key":"planning-data:brownfield-land:1737635","planned_project_name":"22 Thornton Road London Lambeth SW12 0LF","source_record_temporal_status":"historical_register_record","source_quality":"authoritative","fake_data":false}},{"type":"Feature","id":"planned_buildings_1-planning-data-brownfield-1737636","geometry":{"type":"Point","coordinates":[-0.109977,51.493669]},"properties":{"slot_id":"planned_buildings_1","source_entity":1737636,"official_site_key":"BLR155","canonical_record_key":"planning-data:brownfield-land:1737636","planned_project_name":"Garages At Bishops Terrace London SE11 4TT","source_record_temporal_status":"current_register_record","source_quality":"authoritative","fake_data":false}},{"type":"Feature","id":"planned_buildings_1-planning-data-brownfield-1737637","geometry":{"type":"Point","coordinates":[-0.119731,51.438657]},"properties":{"slot_id":"planned_buildings_1","source_entity":1737637,"official_site_key":"BLR156","canonical_record_key":"planning-data:brownfield-land:1737637","planned_project_name":"St Margarets Church Hall Cricklade Avenue London Lambeth SW2 3HH","source_record_temporal_status":"current_register_record","source_quality":"authoritative","fake_data":false}},{"type":"Feature","id":"planned_buildings_1-planning-data-brownfield-1737638","geometry":{"type":"Point","coordinates":[-0.09943,51.467726]},"properties":{"slot_id":"planned_buildings_1","source_entity":1737638,"official_site_key":"BLR157","canonical_record_key":"planning-data:brownfield-land:1737638","planned_project_name":"144 Coldharbour Lane London Lambeth SE5 9QH","source_record_temporal_status":"historical_register_record","source_quality":"authoritative","fake_data":false}}],"metadata":{"slot_id":"planned_buildings_1","run_id":"20260818T071000Z","source_family":"planning_data_brownfield_land","processed_offsets":[144,145,146,147,148,149,150,151,152,153,154,155],"promoted_offsets":[144,145,147,149,150,151,152,153,154,155],"no_add_evidence_insufficient_offsets":[146,148],"next_unused_window":{"geometry_entity":626195,"geometry_relation":"within","limit":1,"offset":156},"bounded_batch_count":12,"zero_result_windows":0,"evidence_insufficient_windows":2,"feature_count_before":151,"feature_count_added":10,"feature_count_after_logical":161,"unique_real_site_project_before":102,"unique_real_site_project_added":10,"unique_real_site_project_after":112,"historical_register_records_promoted":2,"current_register_records_promoted":8,"duplicate_count_new":0,"reprocessed_window_count":0,"nearest_match_used":false,"parcel_match_used":false,"fake_data":false,"demo_only":true,"final_ready":false,"production_merge":false,"mirror_only":true,"canonical_latest_overwritten":false}}