{"type":"FeatureCollection","name":"building_type_2_batch_0060","features":[{"type":"Feature","id":"42122613","geometry":{"type":"MultiPolygon","coordinates":[[[[-1.341805,51.493162],[-1.341735,51.493008],[-1.34165,51.493023],[-1.341694,51.493125],[-1.341718,51.49312],[-1.341741,51.493173],[-1.341805,51.493162]]]]},"properties":{"slot_id":"building_type_2","lineage_id":"building_type_2-20260930T173100Z-newstart","batch_id":"batch-0060","page_generation":1,"source_entity":42122613,"source_reference":"1319600","source_dataset":"listed-building-outline","source_organisation":"West Berkshire Council","building_evidence_status":"BUILDING_PRESENT","parcel_status":"UNPROCESSED","canonical_parcel_id":null,"building_type":"listed_building","building_use":null,"poi_accepted":false,"field_evidence":{"footprint":"official listed-building-outline MULTIPOLYGON","type":"official dataset classification: listed-building-outline","reference":"1319600","quality":"authoritative","name":""},"source_url":"https://www.planning.data.gov.uk/entity/42122613","final_url":"https://www.planning.data.gov.uk/entity/42122613","access_utc":"2026-10-04T15:13:32Z","data_date":"2026-07-16","licence":"Open Government Licence v3.0","evidence_slice_sha256":"02b64628594e6f7a4b76ff9eee624df79157d16f1a4fb71909e88aeacf60b67c","confidence_score_0_100":96,"evidence_grade":"A","fake_data":false,"local_spatial_join_required":true}}]}