{
  "type": "FeatureCollection",
  "features": [
    {
      "type": "Feature",
      "id": "planning-data:brownfield-site:1801769",
      "properties": {
        "slot_id": "future_growth_4",
        "lineage_id": "fg4-e4c9076d6f554f00",
        "page_generation": 1,
        "owner": "future_growth_4",
        "partition": "future_growth",
        "semantic_mode": "SOURCE_AREA_EXACT_IDENTIFIER",
        "batch_id": "20261009T081707Z_b037_BROWNFIELD_1801769",
        "dataset": "brownfield-site",
        "entity": 1801769,
        "reference": "BLR006",
        "semantic_identity": "planning-data:brownfield-site:1801769",
        "name": "93 King's Avenue",
        "organisation": "London Borough of Lambeth",
        "source_url": "https://www.planning.data.gov.uk/entity/1801769",
        "final_url": "https://www.planning.data.gov.uk/entity/1801769",
        "http_status": "NOT_EXPOSED_BY_SEARCH_RETRIEVAL",
        "access_utc": "2026-10-09T08:17:07.719Z",
        "data_date": "2020-12-22",
        "license": "Open Government Licence v3.0",
        "field_evidence": {
          "entry-date": "2020-12-22",
          "start-date": "",
          "end-date": "",
          "entity": 1801769,
          "name": "93 King's Avenue",
          "dataset": "brownfield-site",
          "typology": "geography",
          "reference": "BLR006",
          "prefix": "brownfield-site",
          "organisation-entity": "192",
          "geometry": "MULTIPOLYGON (((-0.129874 51.452923, -0.129969 51.452651, -0.128648 51.452486, -0.128628 51.452485, -0.128544 51.452753, -0.128702 51.452771, -0.129217 51.45284, -0.129874 51.452925, -0.129874 51.452923)))",
          "point": "POINT (-0.129257 51.452703)",
          "quality": "some",
          "brownfield-site": "BLR006",
          "organisation-curie": "local-authority:LBH"
        },
        "evidence_slice_sha256": "686ba92850509f185f848bb6fb6f1c423a6c5f08289426ad5a497f1e9085a177",
        "geometry_sha256": "afc4275ac7058fb471231a2084585254ba4529b01ccd252e8d8e2ec23d8daba5",
        "confidence_score_0_100": 80,
        "confidence": 0.8,
        "evidence_grade": "B",
        "exact_identifier_provided": false,
        "coverage_polygon_provided": true,
        "fake_data": false,
        "join_mode": "LOCAL_OPENCODE_SPATIAL_JOIN_PENDING",
        "direct_parcel": false,
        "source_area_count_contribution": 1,
        "planned_building_count_contribution": 0
      },
      "geometry": {
        "type": "MultiPolygon",
        "coordinates": [
          [
            [
              [
                -0.129874,
                51.452923
              ],
              [
                -0.129969,
                51.452651
              ],
              [
                -0.128648,
                51.452486
              ],
              [
                -0.128628,
                51.452485
              ],
              [
                -0.128544,
                51.452753
              ],
              [
                -0.128702,
                51.452771
              ],
              [
                -0.129217,
                51.45284
              ],
              [
                -0.129874,
                51.452925
              ],
              [
                -0.129874,
                51.452923
              ]
            ]
          ]
        ]
      }
    }
  ]
}
