{
  "type": "FeatureCollection",
  "name": "Future Growth Cornwall MHCLG brownfield-site BR113",
  "features": [
    {
      "type": "Feature",
      "id": "brownfield-site:BR113",
      "geometry": {
        "type": "MultiPolygon",
        "coordinates": [
          [
            [
              [
                -5.045058,
                50.264162
              ],
              [
                -5.044823,
                50.26402
              ],
              [
                -5.04441,
                50.264015
              ],
              [
                -5.044426,
                50.263906
              ],
              [
                -5.044599,
                50.263652
              ],
              [
                -5.044609,
                50.263592
              ],
              [
                -5.044719,
                50.263363
              ],
              [
                -5.044439,
                50.263274
              ],
              [
                -5.044382,
                50.263266
              ],
              [
                -5.043406,
                50.262958
              ],
              [
                -5.04307,
                50.262871
              ],
              [
                -5.042678,
                50.26279
              ],
              [
                -5.042553,
                50.262795
              ],
              [
                -5.042221,
                50.262735
              ],
              [
                -5.041941,
                50.262675
              ],
              [
                -5.041034,
                50.26252
              ],
              [
                -5.041021,
                50.262613
              ],
              [
                -5.041025,
                50.26267
              ],
              [
                -5.041088,
                50.262943
              ],
              [
                -5.041142,
                50.263115
              ],
              [
                -5.041156,
                50.263112
              ],
              [
                -5.041186,
                50.263236
              ],
              [
                -5.041058,
                50.263305
              ],
              [
                -5.041272,
                50.264167
              ],
              [
                -5.041307,
                50.264447
              ],
              [
                -5.04135,
                50.264454
              ],
              [
                -5.041459,
                50.264849
              ],
              [
                -5.04171,
                50.264877
              ],
              [
                -5.041953,
                50.26489
              ],
              [
                -5.043104,
                50.264882
              ],
              [
                -5.043275,
                50.264901
              ],
              [
                -5.043719,
                50.265002
              ],
              [
                -5.044073,
                50.264679
              ],
              [
                -5.044411,
                50.264458
              ],
              [
                -5.044385,
                50.264443
              ],
              [
                -5.044467,
                50.264359
              ],
              [
                -5.044519,
                50.264336
              ],
              [
                -5.044569,
                50.264327
              ],
              [
                -5.044785,
                50.264325
              ],
              [
                -5.044793,
                50.264288
              ],
              [
                -5.044902,
                50.264268
              ],
              [
                -5.045058,
                50.264162
              ]
            ],
            [
              [
                -5.042394,
                50.264685
              ],
              [
                -5.042387,
                50.264692
              ],
              [
                -5.042363,
                50.264684
              ],
              [
                -5.042296,
                50.264635
              ],
              [
                -5.042249,
                50.264612
              ],
              [
                -5.042139,
                50.264589
              ],
              [
                -5.042096,
                50.264569
              ],
              [
                -5.042088,
                50.264553
              ],
              [
                -5.042075,
                50.264383
              ],
              [
                -5.042306,
                50.264384
              ],
              [
                -5.042371,
                50.264421
              ],
              [
                -5.042393,
                50.264447
              ],
              [
                -5.042402,
                50.264477
              ],
              [
                -5.042389,
                50.264543
              ],
              [
                -5.042437,
                50.264546
              ],
              [
                -5.04247,
                50.264557
              ],
              [
                -5.042487,
                50.264593
              ],
              [
                -5.042473,
                50.264614
              ],
              [
                -5.042394,
                50.264685
              ]
            ]
          ]
        ]
      },
      "properties": {
        "slot_id": "future_growth_2",
        "lineage_id": "d409404e-c2b6-4d79-b904-d05e944a949e",
        "page_generation": 4,
        "batch_id": "batch-20261008T080624Z_mhclg_cornwall_BR113_wkt",
        "schema": "AAYS_LAYER24_EVIDENCE_V1",
        "source_dataset": "brownfield-site",
        "source_provider": "MHCLG Planning Data / Cornwall Council",
        "source_exact_identifier": "brownfield-site:BR113",
        "category": "brownfield-site",
        "source_url": "https://www.planning.data.gov.uk/entity/1800051",
        "final_url": "https://www.planning.data.gov.uk/entity/1800051",
        "accessed_utc": "2026-10-08T08:06:24.983Z",
        "http_status": null,
        "data_date": "2023-10-16",
        "data_version": "entity:1800051; entry-date:2023-10-16",
        "license": "Open Government Licence v3.0",
        "source_file_sha256": "82ae469f9e9ebfc76701753f553b6b3703b6496529687d869582c961d25c205f",
        "source_file_sha256_scope": "normalized_official_HTML_WKT_evidence_slice_not_raw_network_bytes",
        "evidence_slice_sha256": "82ae469f9e9ebfc76701753f553b6b3703b6496529687d869582c961d25c205f",
        "field_evidence": {
          "entity": 1800051,
          "curie": "brownfield-site:BR113",
          "reference": "BR113",
          "name": "The Former Site Of Tregolls House, Tregolls Road, Truro, TR1 1PX",
          "dataset": "brownfield-site",
          "organisation": "Cornwall Council",
          "organisation_curie": "local-authority:CON",
          "quality": "authoritative",
          "start_date": "2017-12-12",
          "entry_date": "2023-10-16",
          "geometry_source_field": "geometry",
          "geometry_type": "MultiPolygon",
          "ring_count": 2,
          "point": "POINT (-5.042771 50.263815)",
          "notes": "Access created"
        },
        "confidence_score_0_100": 92,
        "evidence_grade": "B_OFFICIAL_MHCLG_HTML_WKT_EXPERIMENTAL",
        "geometry_crs": "EPSG:4326",
        "direct_parcel": false,
        "canonical_join_status": "PENDING_LOCAL_SPATIAL_JOIN",
        "fake_data": false
      }
    }
  ]
}
