{"type":"FeatureCollection","features":[{"type":"Feature","id":170637,"geometry":{"type":"MultiPolygon","coordinates":[[[[-73.923784346293,40.767877015016],[-73.923833086313,40.76781710879],[-73.923856229282,40.767788663653],[-73.923889304252,40.767804218302],[-73.923957737888,40.767720106872],[-73.923975293421,40.767728363473],[-73.924020599265,40.76774967047],[-73.924031134961,40.767754624787],[-73.92402886717,40.767757411253],[-73.92402083975,40.767767278187],[-73.924058138499,40.767784820283],[-73.924194959543,40.767849165854],[-73.924207605964,40.767855113899],[-73.924217956899,40.767842392082],[-73.924290285278,40.767876407547],[-73.92427956548,40.767889582983],[-73.924240015579,40.767938194113],[-73.924221257673,40.767961249991],[-73.924252185416,40.767975794559],[-73.92423489469,40.767997046794],[-73.924183259663,40.768060511876],[-73.924179616006,40.768064990387],[-73.924163136426,40.768057239708],[-73.924037078009,40.767997955728],[-73.92404833873,40.767984114298],[-73.923937751484,40.767932105673],[-73.923927714795,40.767944441356],[-73.923784346293,40.767877015016]]]]},"properties":{"source_id":"170637","building_type":"Building","building_present":true,"building_state":"BUILDING_PRESENT","DOITT_ID":"170637","BIN":"4006916","FEATURE_CODE":"2100","BASE_BBL":"4005760036","OBJECTID":844649,"construction_year":1963,"geom_source":"Photogrammetric","ground_elevation":31.0,"height_roof":63.01,"last_edited_date":"2017 Aug 22 01:40:43 PM","last_status_type":"Constructed","mappluto_bbl":"4005760036","length":172.63250515384894,"evidence_grade":"A_OFFICIAL_CITY_BUILDING_FOOTPRINT_AND_TYPE"}}]}
