{"type":"FeatureCollection","metadata":{"schema_version":3,"slot_id":"planned_buildings_3","continuation_key":"planned_buildings_3_open_source_v2_20260813","task_id":"planned_buildings_3_open_source_continuation_v2_20260813","run_id":"planned_buildings_3_bounded12_cont29_20260818T232000Z","updated_at":"2026-08-18T23:20:08Z","state":"BOUNDED_BATCH_COMPLETE","source_family":"planning_data_brownfield_direct_project_identity","batch_index":332,"feature_count":1,"aggregate_feature_count_before":331,"aggregate_feature_count_after":332,"demo_only":true,"fake_data":false,"final_ready":false,"production_merge":false,"nearest_matching_used":false,"parcel_association_attempted":false,"append_only":true,"duplicate_count":0},"features":[{"type":"Feature","id":"planned_buildings_3:planning_data_brownfield:BSA1207","geometry":{"type":"Point","coordinates":[-2.55843,51.44026]},"properties":{"topic_id":"planned-buildings","slot_id":"planned_buildings_3","parcel_id":null,"osm_id":null,"planned_building":true,"planned_building_value":null,"planned_building_probability":null,"planned_building_complete_month":null,"planned_building_scoring_status":"METHODOLOGY_APPROVAL_REQUIRED","planned_building_complete_month_reason":"No official explicit YYYY-MM completion field was evidenced.","planning_register_quality":"authoritative","matching_method":"direct official brownfield-land entity identity; no parcel association attempted","parcel_geometry_relation":null,"spatial_match_performed":false,"nearest_matching":false,"official_dataset_url":"https://www.planning.data.gov.uk/dataset/brownfield-land","source_license":"Open Government Licence v3.0","source_sha256_scope":"canonical snapshot of authoritative entity identity, point, permission fields, site name, organisation and evidence summary","evidence_level":3,"demo_only":true,"fake_data":false,"final_ready":false,"production_merge":false,"source_ref":"PLANNING_DATA_BROWNFIELD:BSA1207","project_ref":"BSA1207","planned_project_name":"493-499 Bath Road, Kensington Park, nr Arno's Vale","planned_project_status":"not-permissioned","planning_permission_type":"full-planning-permission","planning_permission_date":"2017-03-13","planning_register_ref":"BSA1207","planning_register_entity":1707247,"project_summary":"Authoritative Brownfield Land Register record identifies an active not-permissioned site with an evidenced net dwelling capacity of 85 dwellings.","organisation":"Bristol City Council","official_register_url":"https://www.planning.data.gov.uk/entity/1707247","source_accessed_at":"2026-08-18T23:20:08Z","source_sha256":"245f1a548d2ef4b841eb024d1046d6b60503feb1d733e46e6ff16e596e1d7c0f"}}]}