{"type":"FeatureCollection","metadata":{"schema_version":3,"slot_id":"planned_buildings_3","continuation_key":"planned_buildings_3_open_source_v2_20260813","task_id":"planned_buildings_3_open_source_continuation_v2_20260813","run_id":"planned_buildings_3_bounded12_cont14_20260818T102000Z","updated_at":"2026-08-18T10:29:00Z","state":"BOUNDED_BATCH_IN_PROGRESS","source_family":"planning_data_brownfield_direct_project_identity","batch_index":154,"feature_count":1,"aggregate_feature_count_before":153,"aggregate_feature_count_after":154,"demo_only":true,"fake_data":false,"final_ready":false,"production_merge":false,"nearest_matching_used":false,"parcel_association_attempted":false,"append_only":true,"duplicate_count":0},"features":[{"type":"Feature","id":"planned_buildings_3:planning_data_brownfield:BLR/IP001","geometry":{"type":"Point","coordinates":[1.161209,52.053586]},"properties":{"topic_id":"planned-buildings","slot_id":"planned_buildings_3","parcel_id":null,"osm_id":null,"planned_building":true,"planned_building_value":null,"planned_building_probability":null,"planned_building_complete_month":null,"planned_building_scoring_status":"METHODOLOGY_APPROVAL_REQUIRED","planned_building_complete_month_reason":"No official explicit YYYY-MM completion field was evidenced.","planning_register_quality":"authoritative","matching_method":"direct official brownfield-land entity identity; no parcel association attempted","parcel_geometry_relation":null,"spatial_match_performed":false,"nearest_matching":false,"official_dataset_url":"https://www.planning.data.gov.uk/dataset/brownfield-land","source_license":"Open Government Licence v3.0","source_sha256_scope":"canonical snapshot of authoritative entity identity, point, permission fields, site address, organisation and evidence summary","evidence_level":3,"demo_only":true,"fake_data":false,"final_ready":false,"production_merge":false,"source_ref":"PLANNING_DATA_BROWNFIELD:BLR/IP001","project_ref":"BLR/IP001","planned_project_name":"Land between 81-97 Fore Street","planned_project_status":"permissioned","planning_permission_type":"full-planning-permission","planning_permission_date":"2025-02-10","planning_register_ref":"BLR/IP001","planning_register_entity":1702660,"project_summary":"Application 24/00566/FUL for a single apartment block of 22 flats; the authoritative register records full planning permission dated 10 February 2025.","organisation":"Ipswich Borough Council","official_register_url":"https://www.planning.data.gov.uk/entity/1702660","source_accessed_at":"2026-08-18T10:29:00Z","source_sha256":"e48c47c0a48125bc6ebcf4694a6def0d7f023860792906a8d794bce9b71c6e9e"}}]}