{"type":"FeatureCollection","metadata":{"schema_version":3,"slot_id":"planned_buildings_3","continuation_key":"planned_buildings_3_open_source_v2_20260813","task_id":"planned_buildings_3_open_source_continuation_v2_20260813","run_id":"planned_buildings_3_bounded12_cont10_20260818T073800Z","updated_at":"2026-08-18T07:39:20Z","state":"BOUNDED_BATCH_IN_PROGRESS","source_family":"planning_data_brownfield_direct_project_identity","batch_index":105,"feature_count":1,"aggregate_feature_count_before":104,"aggregate_feature_count_after":105,"demo_only":true,"fake_data":false,"final_ready":false,"production_merge":false,"nearest_matching_used":false,"parcel_association_attempted":false,"append_only":true,"duplicate_count":0},"features":[{"type":"Feature","id":"planned_buildings_3:planning_data_brownfield:EV020","geometry":{"type":"Point","coordinates":[-0.0348,51.4885]},"properties":{"topic_id":"planned-buildings","slot_id":"planned_buildings_3","parcel_id":null,"osm_id":null,"planned_building":true,"planned_building_value":null,"planned_building_probability":null,"planned_building_complete_month":null,"planned_building_scoring_status":"METHODOLOGY_APPROVAL_REQUIRED","planned_building_complete_month_reason":"No official explicit YYYY-MM completion field was evidenced.","planning_register_quality":"authoritative","matching_method":"direct official brownfield-land entity identity; no parcel association attempted","parcel_geometry_relation":null,"spatial_match_performed":false,"nearest_matching":false,"official_dataset_url":"https://www.planning.data.gov.uk/dataset/brownfield-land","source_license":"Open Government Licence v3.0","source_sha256_scope":"canonical snapshot of authoritative entity identity, point, permission fields, site address, organisation and evidence summary","evidence_level":3,"demo_only":true,"fake_data":false,"final_ready":false,"production_merge":false,"source_ref":"PLANNING_DATA_BROWNFIELD:EV020","project_ref":"EV020","planned_project_name":"Scott House, 185 Grove Street","planned_project_status":"permissioned","planning_permission_type":"full-planning-permission","planning_permission_date":"2021-06-30","planning_register_ref":"EV020","planning_register_entity":1736060,"project_summary":"Site allocation and mixed-use development for 137 residential units with retail and office space; register records full permission.","organisation":"London Borough of Lewisham","official_register_url":"https://www.planning.data.gov.uk/entity/1736060","source_accessed_at":"2026-08-18T07:39:20Z","source_sha256":"564390daab4433294a5071174cbc76b9bfa1e26a9ad48b021a1ebfbfcb7f5950"}}]}