{"type":"FeatureCollection","metadata":{"schema_version":3,"slot_id":"planned_buildings_3","continuation_key":"planned_buildings_3_open_source_v2_20260813","task_id":"planned_buildings_3_open_source_continuation_v2_20260813","run_id":"planned_buildings_3_bounded12_cont6_20260818T055000Z","updated_at":"2026-08-18T05:51:50Z","state":"BOUNDED_BATCH_COMPLETE","source_family":"planning_data_brownfield_direct_project_identity","batch_index":72,"feature_count":1,"aggregate_feature_count_before":71,"aggregate_feature_count_after":72,"demo_only":true,"fake_data":false,"final_ready":false,"production_merge":false,"nearest_matching_used":false,"parcel_association_attempted":false,"append_only":true,"duplicate_count":0},"features":[{"type":"Feature","id":"planned_buildings_3:planning_data_brownfield:BR017","geometry":{"type":"Point","coordinates":[-2.180386,51.717551]},"properties":{"topic_id":"planned-buildings","slot_id":"planned_buildings_3","parcel_id":null,"osm_id":null,"planned_building":true,"planned_building_value":null,"planned_building_probability":null,"planned_building_complete_month":null,"planned_building_scoring_status":"METHODOLOGY_APPROVAL_REQUIRED","planned_building_complete_month_reason":"No official explicit YYYY-MM completion field was evidenced.","planning_register_quality":"authoritative","matching_method":"direct official brownfield-land entity identity; no parcel association attempted","parcel_geometry_relation":null,"spatial_match_performed":false,"nearest_matching":false,"official_dataset_url":"https://www.planning.data.gov.uk/dataset/brownfield-land","source_license":"Open Government Licence v3.0","source_sha256_scope":"canonical snapshot of authoritative entity identity, point, permission fields, site name, organisation and evidence summary","evidence_level":3,"demo_only":true,"fake_data":false,"final_ready":false,"production_merge":false,"source_ref":"PLANNING_DATA_BROWNFIELD:BR017","project_ref":"BR017","planned_project_name":"Val D'Or Works, Knapp Lane Brimscombe","planned_project_status":"not-permissioned","planning_permission_type":null,"planning_permission_date":null,"planning_register_ref":"BR017","planning_register_entity":1713833,"project_summary":"Local Plan mixed-use allocation for housing, community development, offices and employment uses.","organisation":"Stroud District Council","official_register_url":"https://www.planning.data.gov.uk/entity/1713833","source_accessed_at":"2026-08-18T05:51:50Z","source_sha256":"9bce6178c00d9eede2e5b390e6ba6b5ba0a95dc325588eb0a64a86115d3ece08"}}]}