{"type":"FeatureCollection","metadata":{"schema_version":3,"slot_id":"planned_buildings_3","continuation_key":"planned_buildings_3_open_source_v2_20260813","task_id":"planned_buildings_3_open_source_continuation_v2_20260813","run_id":"planned_buildings_3_bounded12_cont7_20260818T061800Z","updated_at":"2026-08-18T06:19:50Z","state":"BOUNDED_BATCH_COMPLETE","source_family":"planning_data_brownfield_direct_project_identity","batch_index":84,"feature_count":1,"aggregate_feature_count_before":83,"aggregate_feature_count_after":84,"demo_only":true,"fake_data":false,"final_ready":false,"production_merge":false,"nearest_matching_used":false,"parcel_association_attempted":false,"append_only":true,"duplicate_count":0},"features":[{"type":"Feature","id":"planned_buildings_3:planning_data_brownfield:LBCBLR114","geometry":{"type":"Point","coordinates":[-0.123943,51.539366]},"properties":{"topic_id":"planned-buildings","slot_id":"planned_buildings_3","parcel_id":null,"osm_id":null,"planned_building":true,"planned_building_value":null,"planned_building_probability":null,"planned_building_complete_month":null,"planned_building_scoring_status":"METHODOLOGY_APPROVAL_REQUIRED","planned_building_complete_month_reason":"No official explicit YYYY-MM completion field was evidenced.","planning_register_quality":"authoritative","matching_method":"direct official brownfield-land entity identity; no parcel association attempted","parcel_geometry_relation":null,"spatial_match_performed":false,"nearest_matching":false,"official_dataset_url":"https://www.planning.data.gov.uk/dataset/brownfield-land","source_license":"Open Government Licence v3.0","source_sha256_scope":"canonical snapshot of authoritative entity identity, point, permission fields, site name, organisation and evidence summary","evidence_level":3,"demo_only":true,"fake_data":false,"final_ready":false,"production_merge":false,"source_ref":"PLANNING_DATA_BROWNFIELD:LBCBLR114","project_ref":"LBCBLR114","planned_project_name":"Kings Cross Central Development Zone W (Buildings W1 and W2), York Way, London, N1C 4AG","planned_project_status":"permissioned","planning_permission_type":"full-planning-permission","planning_permission_date":"2016-06-06","planning_register_ref":"LBCBLR114","planning_register_entity":1735262,"project_summary":"King's Cross Development Zone W reserved-matters scheme with residential buildings and ground-floor commercial space.","organisation":"London Borough of Camden","official_register_url":"https://www.planning.data.gov.uk/entity/1735262","source_accessed_at":"2026-08-18T06:19:50Z","source_sha256":"fa6409222a669beb4c155bd7de04136eaa31d010f81e94d4af9daf1f3d9a0bb7"}}]}