{"type":"FeatureCollection","metadata":{"schema_version":3,"slot_id":"planned_buildings_3","continuation_key":"planned_buildings_3_open_source_v2_20260813","task_id":"planned_buildings_3_open_source_continuation_v2_20260813","run_id":"planned_buildings_3_bounded12_cont7_20260818T061800Z","updated_at":"2026-08-18T06:19:20Z","state":"BOUNDED_BATCH_IN_PROGRESS","source_family":"planning_data_brownfield_direct_project_identity","batch_index":81,"feature_count":1,"aggregate_feature_count_before":80,"aggregate_feature_count_after":81,"demo_only":true,"fake_data":false,"final_ready":false,"production_merge":false,"nearest_matching_used":false,"parcel_association_attempted":false,"append_only":true,"duplicate_count":0},"features":[{"type":"Feature","id":"planned_buildings_3:planning_data_brownfield:BLR0014","geometry":{"type":"Point","coordinates":[0.157406,52.674254]},"properties":{"topic_id":"planned-buildings","slot_id":"planned_buildings_3","parcel_id":null,"osm_id":null,"planned_building":true,"planned_building_value":null,"planned_building_probability":null,"planned_building_complete_month":null,"planned_building_scoring_status":"METHODOLOGY_APPROVAL_REQUIRED","planned_building_complete_month_reason":"No official explicit YYYY-MM completion field was evidenced.","planning_register_quality":"authoritative","matching_method":"direct official brownfield-land entity identity; no parcel association attempted","parcel_geometry_relation":null,"spatial_match_performed":false,"nearest_matching":false,"official_dataset_url":"https://www.planning.data.gov.uk/dataset/brownfield-land","source_license":"Open Government Licence v3.0","source_sha256_scope":"canonical snapshot of authoritative entity identity, point, permission fields, site name, organisation and evidence summary","evidence_level":3,"demo_only":true,"fake_data":false,"final_ready":false,"production_merge":false,"source_ref":"PLANNING_DATA_BROWNFIELD:BLR0014","project_ref":"BLR0014","planned_project_name":"Nene Waterfront and Port, Wisbech","planned_project_status":"not-permissioned","planning_permission_type":null,"planning_permission_date":null,"planning_register_ref":"BLR0014","planning_register_entity":1725779,"project_summary":"Local Plan mixed-use regeneration allocation for housing, leisure, retail and employment.","organisation":"Fenland District Council","official_register_url":"https://www.planning.data.gov.uk/entity/1725779","source_accessed_at":"2026-08-18T06:19:20Z","source_sha256":"97fafd97b47e8f8768932f69fe34f3f942d72a1e72f52c3e3d469339c4da4710"}}]}