{"type":"FeatureCollection","metadata":{"schema_version":3,"slot_id":"planned_buildings_3","continuation_key":"planned_buildings_3_open_source_v2_20260813","task_id":"planned_buildings_3_open_source_continuation_v2_20260813","run_id":"planned_buildings_3_bounded12_cont13_20260818T092800Z","updated_at":"2026-08-18T09:33:00Z","state":"BOUNDED_BATCH_IN_PROGRESS","source_family":"planning_data_brownfield_direct_project_identity","batch_index":138,"feature_count":1,"aggregate_feature_count_before":137,"aggregate_feature_count_after":138,"demo_only":true,"fake_data":false,"final_ready":false,"production_merge":false,"nearest_matching_used":false,"parcel_association_attempted":false,"append_only":true,"duplicate_count":0},"features":[{"type":"Feature","id":"planned_buildings_3:planning_data_brownfield:16/04426/FUL","geometry":{"type":"Point","coordinates":[-3.053411,52.858916]},"properties":{"topic_id":"planned-buildings","slot_id":"planned_buildings_3","parcel_id":null,"osm_id":null,"planned_building":true,"planned_building_value":null,"planned_building_probability":null,"planned_building_complete_month":null,"planned_building_scoring_status":"METHODOLOGY_APPROVAL_REQUIRED","planned_building_complete_month_reason":"No official explicit YYYY-MM completion field was evidenced.","planning_register_quality":"authoritative","matching_method":"direct official brownfield-land entity identity; no parcel association attempted","parcel_geometry_relation":null,"spatial_match_performed":false,"nearest_matching":false,"official_dataset_url":"https://www.planning.data.gov.uk/dataset/brownfield-land","source_license":"Open Government Licence v3.0","source_sha256_scope":"canonical snapshot of authoritative entity identity, point, permission fields, site address, organisation and evidence summary","evidence_level":3,"demo_only":true,"fake_data":false,"final_ready":false,"production_merge":false,"source_ref":"PLANNING_DATA_BROWNFIELD:16/04426/FUL","project_ref":"16/04426/FUL","planned_project_name":"The Smithfield Hotel, 1 Salop Road, Oswestry, SY11 2NR","planned_project_status":"permissioned","planning_permission_type":"full-planning-permission","planning_permission_date":"2017-03-14","planning_register_ref":"16/04426/FUL","planning_register_entity":1705536,"project_summary":"Conversion of the hotel into seven residential apartments.","organisation":"Shropshire Council","official_register_url":"https://www.planning.data.gov.uk/entity/1705536","source_accessed_at":"2026-08-18T09:33:00Z","source_sha256":"dcaf8d511425afd8f6927e74a6fafc1097922889a7621d0b584b77bc91b8de49"}}]}