{"type":"FeatureCollection","metadata":{"schema_version":3,"slot_id":"planned_buildings_3","continuation_key":"planned_buildings_3_open_source_v2_20260813","task_id":"planned_buildings_3_open_source_continuation_v2_20260813","run_id":"planned_buildings_3_bounded12_cont15_20260818T104930Z","updated_at":"2026-08-18T10:50:25Z","state":"BOUNDED_BATCH_COMPLETE","source_family":"planning_data_brownfield_direct_project_identity","batch_index":168,"feature_count":1,"aggregate_feature_count_before":167,"aggregate_feature_count_after":168,"demo_only":true,"fake_data":false,"final_ready":false,"production_merge":false,"nearest_matching_used":false,"parcel_association_attempted":false,"append_only":true,"duplicate_count":0},"features":[{"type":"Feature","id":"planned_buildings_3:planning_data_brownfield:FH024","geometry":{"type":"Point","coordinates":[-0.0529,51.443]},"properties":{"topic_id":"planned-buildings","slot_id":"planned_buildings_3","parcel_id":null,"osm_id":null,"planned_building":true,"planned_building_value":null,"planned_building_probability":null,"planned_building_complete_month":null,"planned_building_scoring_status":"METHODOLOGY_APPROVAL_REQUIRED","planned_building_complete_month_reason":"No official explicit YYYY-MM completion field was evidenced.","planning_register_quality":"authoritative","matching_method":"direct official brownfield-land entity identity; no parcel association attempted","parcel_geometry_relation":null,"spatial_match_performed":false,"nearest_matching":false,"official_dataset_url":"https://www.planning.data.gov.uk/dataset/brownfield-land","source_license":"Open Government Licence v3.0","source_sha256_scope":"canonical snapshot of authoritative entity identity, point, permission fields, site address, organisation and evidence summary","evidence_level":3,"demo_only":true,"fake_data":false,"final_ready":false,"production_merge":false,"source_ref":"PLANNING_DATA_BROWNFIELD:FH024","project_ref":"FH024","planned_project_name":"Adjacent to 7 & 9 Ewelme Road","planned_project_status":"permissioned","planning_permission_type":"full-planning-permission","planning_permission_date":"2021-11-02","planning_register_ref":"FH024","planning_register_entity":1736074,"project_summary":"Residential development adjacent to 7 and 9 Ewelme Road comprising five three-bedroom houses.","organisation":"London Borough of Lewisham","official_register_url":"https://www.planning.data.gov.uk/entity/1736074","source_accessed_at":"2026-08-18T10:50:25Z","source_sha256":"aa011b8825a06efd1e03e8149ec0ad4227df2f5add219779a51bdc51944f004b"}}]}