{"type":"FeatureCollection","metadata":{"schema_version":3,"slot_id":"planned_buildings_3","continuation_key":"planned_buildings_3_open_source_v2_20260813","task_id":"planned_buildings_3_open_source_continuation_v2_20260813","run_id":"planned_buildings_3_bounded12_cont32_20260819T004700Z","updated_at":"2026-08-19T00:47:05Z","state":"BOUNDED_BATCH_COMPLETE","source_family":"planning_data_brownfield_direct_project_identity","batch_index":365,"feature_count":1,"aggregate_feature_count_before":364,"aggregate_feature_count_after":365,"demo_only":true,"fake_data":false,"final_ready":false,"production_merge":false,"nearest_matching_used":false,"parcel_association_attempted":false,"append_only":true,"duplicate_count":0},"features":[{"type":"Feature","id":"planned_buildings_3:planning_data_brownfield:16/06594/P","geometry":{"type":"Point","coordinates":[-2.58785,51.458126]},"properties":{"topic_id":"planned-buildings","slot_id":"planned_buildings_3","parcel_id":null,"osm_id":null,"planned_building":true,"planned_building_value":null,"planned_building_probability":null,"planned_building_complete_month":null,"planned_building_scoring_status":"METHODOLOGY_APPROVAL_REQUIRED","planned_building_complete_month_reason":"No official explicit YYYY-MM completion field was evidenced.","planning_register_quality":"authoritative","matching_method":"direct official brownfield-land entity identity; no parcel association attempted","parcel_geometry_relation":null,"spatial_match_performed":false,"nearest_matching":false,"official_dataset_url":"https://www.planning.data.gov.uk/dataset/brownfield-land","source_license":"Open Government Licence v3.0","source_sha256_scope":"canonical snapshot of authoritative entity identity, point, permission fields, site name, organisation and evidence summary","evidence_level":3,"demo_only":true,"fake_data":false,"final_ready":false,"production_merge":false,"source_ref":"PLANNING_DATA_BROWNFIELD:16/06594/P","project_ref":"16/06594/P","planned_project_name":"Land At The Adjoining Callowhill Court, Broadmead & The Horsefair) Bristol BS1 3HE","planned_project_status":"permissioned","planning_permission_type":"outline-planning-permission","planning_permission_date":"2017-10-05","planning_register_ref":"16/06594/P","planning_register_entity":1707133,"project_summary":"Authoritative Brownfield Land Register record identifies an active permissioned site with an evidenced net dwelling capacity of 150 dwellings.","organisation":"Bristol City Council","official_register_url":"https://www.planning.data.gov.uk/entity/1707133","source_accessed_at":"2026-08-19T00:47:05Z","source_sha256":"b37af992b07811c7751a91c878c99fbdad3ab60d045ac162639fc337948cac6c"}}]}