{"type":"FeatureCollection","metadata":{"schema_version":3,"slot_id":"planned_buildings_3","continuation_key":"planned_buildings_3_open_source_v2_20260813","task_id":"planned_buildings_3_open_source_continuation_v2_20260813","run_id":"planned_buildings_3_bounded12_cont4_20260818T045500Z","updated_at":"2026-08-18T04:55:30Z","state":"BOUNDED_BATCH_IN_PROGRESS","source_family":"planning_data_brownfield_direct_project_identity","batch_index":40,"feature_count":1,"aggregate_feature_count_before":39,"aggregate_feature_count_after":40,"demo_only":true,"fake_data":false,"final_ready":false,"production_merge":false,"nearest_matching_used":false,"parcel_association_attempted":false,"append_only":true,"duplicate_count":0},"features":[{"type":"Feature","id":"planned_buildings_3:planning_data_brownfield:46","geometry":{"type":"Point","coordinates":[0.400742,52.739784]},"properties":{"topic_id":"planned-buildings","slot_id":"planned_buildings_3","parcel_id":null,"osm_id":null,"planned_building":true,"planned_building_value":null,"planned_building_probability":null,"planned_building_complete_month":null,"planned_building_scoring_status":"METHODOLOGY_APPROVAL_REQUIRED","planned_building_complete_month_reason":"No official explicit YYYY-MM completion field was evidenced.","planning_register_quality":"authoritative","matching_method":"direct official brownfield-land entity identity; no parcel association attempted","parcel_geometry_relation":null,"spatial_match_performed":false,"nearest_matching":false,"official_dataset_url":"https://www.planning.data.gov.uk/dataset/brownfield-land","source_license":"Open Government Licence v3.0","source_sha256_scope":"canonical snapshot of authoritative entity identity, point, permission fields, site name, organisation and evidence summary","evidence_level":3,"demo_only":true,"fake_data":false,"final_ready":false,"production_merge":false,"source_ref":"PLANNING_DATA_BROWNFIELD:46","project_ref":"46","planned_project_name":"The Nar Ouse Regeneration Area (NORA), Wisbech Road, King's Lynn","planned_project_status":"permissioned","planning_permission_type":"full-planning-permission","planning_permission_date":"2002-09-26","planning_register_ref":"46","planning_register_entity":1704947,"project_summary":"Large mixed-use regeneration area with housing, offices, business, light industry, warehouses, leisure, retail, health, education and community facilities plus infrastructure.","organisation":"Borough Council of King's Lynn and West Norfolk","official_register_url":"https://www.planning.data.gov.uk/entity/1704947","source_accessed_at":"2026-08-18T04:55:30Z","source_sha256":"f5d0885d84f81668a0f97f8e4a24391221792cef5fbff5010a2571ef52a39f42"}}]}