{"type":"FeatureCollection","metadata":{"slot_id":"planned_buildings_4","continuation_key":"planned_buildings_4_open_source_v2_20260813","task_id":"planned_buildings_4_open_source_continuation_v2_20260813","generated_at":"2026-08-18T17:00:00Z","feature_count":1,"continuation_feature_count_before":1,"continuation_new_feature_count":0,"continuation_feature_count_after":1,"unique_real_site_project_count":1,"next_source_index":3,"next_batch_index":3,"processed_windows":["LBBD78/BB","LBBD80/EA"],"last_batch":{"batch_index":2,"source_index":2,"window_key":"LBBD80/EA","source_entity":1739875,"project_name":"Barking Station","source_url":"https://www.planning.data.gov.uk/entity/1739875","identity_verified":true,"strict_geometry_pair_obtained":false,"accepted_features":0,"result":"ZERO_STRICT_MATCH_GEOMETRY_PAIR_NOT_OBTAINED","dup_count":0},"demo_only":true,"fake_data":false,"final_ready":false,"production_merge":false,"nearest_matching_used":false,"append_only":true,"dup_count":0},"features":[{"type":"Feature","id":"planned_buildings_4-gla-LBBD49-parcel_485","geometry":{"type":"Point","coordinates":[0.1512388,51.5301575]},"properties":{"topic_id":"planned-buildings","slot_id":"planned_buildings_4","parcel_id":"parcel_485","source_ref":"GLA_BROWNFIELD_REGISTER:LBBD49","project_ref":"LBBD49","osm_id":null,"planned_building":true,"planned_building_value":null,"planned_building_probability":null,"planned_building_complete_month":null,"planned_building_scoring_status":"METHODOLOGY_APPROVAL_REQUIRED","planned_building_complete_month_reason":"No official explicit YYYY-MM completion field was evidenced.","planned_project_name":"Former Ford Stamping Plant","planned_project_status":"permissioned; development commenced","planning_permission_type":"outline-planning-permission","planning_permission_date":"2022-10-10","planning_register_ref":"LBBD49/XJ","planning_register_entity":1739849,"planning_register_quality":"authoritative","planning_register_identity_note":"Planning-register metadata is supplementary; the geometry relation is proved independently against GLA polygon id LBBD49.","parcel_geometry_relation":"exact_intersection","geometry_source_ref":"LBBD49","geometry_source_layer":"GLA Brownfield Register polygon","exact_intersection_checked":true,"exact_overlap_area_m2":12111.23,"parcel_area_m2":12254.885,"overlap_pct_of_parcel":98.8278,"relation_confidence":"3/4","nearest_matching":false,"repo_relation_evidence_path":"england_map_web/data/future_growth/shards/future_growth_8_latest.geojson","repo_relation_evidence_sha":"ac8d0c5e7fb073c7a36a3977d97cea704e18ee78","parcel_polygon_evidence_ref":"HMLR_INSPIRE:63792240","parcel_source_zip_sha256":"8690C215909D4BC2E197A6938F8437ECF56185A6866C258933ADB97B5EF89140","official_register_url":"https://www.planning.data.gov.uk/entity/1739849","official_dataset_url":"https://www.planning.data.gov.uk/dataset/brownfield-land","official_geometry_catalogue_url":"https://data.london.gov.uk/dataset/brownfield-register-2og9g","source_accessed_at":"2026-08-16T15:31:41Z","source_license":"Open Government Licence v3.0","evidence_level":3,"demo_only":true,"fake_data":false,"final_ready":false,"production_merge":false}}]}