{"type":"FeatureCollection","metadata":{"schema_version":3,"slot_id":"planned_buildings_3","continuation_key":"planned_buildings_3_open_source_v2_20260813","task_id":"planned_buildings_3_open_source_continuation_v2_20260813","run_id":"planned_buildings_3_bounded12_cont5_20260818T052200Z","updated_at":"2026-08-18T05:23:20Z","state":"BOUNDED_BATCH_IN_PROGRESS","source_family":"planning_data_brownfield_direct_project_identity","batch_index":57,"feature_count":1,"aggregate_feature_count_before":56,"aggregate_feature_count_after":57,"demo_only":true,"fake_data":false,"final_ready":false,"production_merge":false,"nearest_matching_used":false,"parcel_association_attempted":false,"append_only":true,"duplicate_count":0},"features":[{"type":"Feature","id":"planned_buildings_3:planning_data_brownfield:BR005","geometry":{"type":"Point","coordinates":[-2.189743,51.719074]},"properties":{"topic_id":"planned-buildings","slot_id":"planned_buildings_3","parcel_id":null,"osm_id":null,"planned_building":true,"planned_building_value":null,"planned_building_probability":null,"planned_building_complete_month":null,"planned_building_scoring_status":"METHODOLOGY_APPROVAL_REQUIRED","planned_building_complete_month_reason":"No official explicit YYYY-MM completion field was evidenced.","planning_register_quality":"authoritative","matching_method":"direct official brownfield-land entity identity; no parcel association attempted","parcel_geometry_relation":null,"spatial_match_performed":false,"nearest_matching":false,"official_dataset_url":"https://www.planning.data.gov.uk/dataset/brownfield-land","source_license":"Open Government Licence v3.0","source_sha256_scope":"canonical snapshot of authoritative entity identity, point, permission fields, site name, organisation and evidence summary","evidence_level":3,"demo_only":true,"fake_data":false,"final_ready":false,"production_merge":false,"source_ref":"PLANNING_DATA_BROWNFIELD:BR005","project_ref":"BR005","planned_project_name":"Brimscombe Port, Port Lane Brimscombe","planned_project_status":"not-permissioned","planning_permission_type":null,"planning_permission_date":null,"planning_register_ref":"BR005","planning_register_entity":1713821,"project_summary":"Local Plan mixed-use redevelopment allocation for housing, community and tourism development, offices, light industrial and canal-related uses.","organisation":"Stroud District Council","official_register_url":"https://www.planning.data.gov.uk/entity/1713821","source_accessed_at":"2026-08-18T05:23:20Z","source_sha256":"02d3273ade72659116147ade879e27add6a95752e0765ec9df162e1a572e1ac2"}}]}