{"type":"FeatureCollection","metadata":{"schema_version":3,"slot_id":"planned_buildings_3","continuation_key":"planned_buildings_3_open_source_v2_20260813","task_id":"planned_buildings_3_open_source_continuation_v2_20260813","run_id":"planned_buildings_3_bounded12_cont16_20260818T114000Z","updated_at":"2026-08-18T11:40:45Z","state":"BOUNDED_BATCH_IN_PROGRESS","source_family":"planning_data_brownfield_direct_project_identity","batch_index":178,"feature_count":1,"aggregate_feature_count_before":177,"aggregate_feature_count_after":178,"demo_only":true,"fake_data":false,"final_ready":false,"production_merge":false,"nearest_matching_used":false,"parcel_association_attempted":false,"append_only":true,"duplicate_count":0},"features":[{"type":"Feature","id":"planned_buildings_3:planning_data_brownfield:CC/011","geometry":{"type":"Point","coordinates":[-1.765727,53.793953]},"properties":{"topic_id":"planned-buildings","slot_id":"planned_buildings_3","parcel_id":null,"osm_id":null,"planned_building":true,"planned_building_value":null,"planned_building_probability":null,"planned_building_complete_month":null,"planned_building_scoring_status":"METHODOLOGY_APPROVAL_REQUIRED","planned_building_complete_month_reason":"No official explicit YYYY-MM completion field was evidenced.","planning_register_quality":"authoritative","matching_method":"direct official brownfield-land entity identity; no parcel association attempted","parcel_geometry_relation":null,"spatial_match_performed":false,"nearest_matching":false,"official_dataset_url":"https://www.planning.data.gov.uk/dataset/brownfield-land","source_license":"Open Government Licence v3.0","source_sha256_scope":"canonical snapshot of authoritative entity identity, point, permission fields, site address, organisation and evidence summary","evidence_level":3,"demo_only":true,"fake_data":false,"final_ready":false,"production_merge":false,"source_ref":"PLANNING_DATA_BROWNFIELD:CC/011","project_ref":"CC/011","planned_project_name":"Listerhills Rd, City Centre","planned_project_status":"not-permissioned","planning_permission_type":null,"planning_permission_date":null,"planning_register_ref":"CC/011","planning_register_entity":1720437,"project_summary":"Authoritative Bradford brownfield site at Listerhills Road with a recorded capacity of 250 dwellings and no planning permission.","organisation":"City of Bradford Metropolitan District Council","official_register_url":"https://www.planning.data.gov.uk/entity/1720437","source_accessed_at":"2026-08-18T11:40:45Z","source_sha256":"b2040c14c0eebd5e477e9694647691fc93fed1a30a58c983523fa4146d6c205a"}}]}