{"type":"FeatureCollection","metadata":{"schema_version":3,"slot_id":"planned_buildings_3","continuation_key":"planned_buildings_3_open_source_v2_20260813","task_id":"planned_buildings_3_open_source_continuation_v2_20260813","run_id":"planned_buildings_3_bounded12_cont8_20260818T064400Z","updated_at":"2026-08-18T06:44:20Z","state":"BOUNDED_BATCH_IN_PROGRESS","source_family":"planning_data_brownfield_direct_project_identity","batch_index":87,"feature_count":1,"aggregate_feature_count_before":86,"aggregate_feature_count_after":87,"demo_only":true,"fake_data":false,"final_ready":false,"production_merge":false,"nearest_matching_used":false,"parcel_association_attempted":false,"append_only":true,"duplicate_count":0},"features":[{"type":"Feature","id":"planned_buildings_3:planning_data_brownfield:BLR_019","geometry":{"type":"Point","coordinates":[-0.5646,51.2575]},"properties":{"topic_id":"planned-buildings","slot_id":"planned_buildings_3","parcel_id":null,"osm_id":null,"planned_building":true,"planned_building_value":null,"planned_building_probability":null,"planned_building_complete_month":null,"planned_building_scoring_status":"METHODOLOGY_APPROVAL_REQUIRED","planned_building_complete_month_reason":"No official explicit YYYY-MM completion field was evidenced.","planning_register_quality":"authoritative","matching_method":"direct official brownfield-land entity identity; no parcel association attempted","parcel_geometry_relation":null,"spatial_match_performed":false,"nearest_matching":false,"official_dataset_url":"https://www.planning.data.gov.uk/dataset/brownfield-land","source_license":"Open Government Licence v3.0","source_sha256_scope":"canonical snapshot of authoritative entity identity, point, permission fields, site name, organisation and evidence summary","evidence_level":3,"demo_only":true,"fake_data":false,"final_ready":false,"production_merge":false,"source_ref":"PLANNING_DATA_BROWNFIELD:BLR_019","project_ref":"BLR_019","planned_project_name":"Weyside Urban Village (Slyfield Area Regeneration Project), Slyfield Green, Guildford","planned_project_status":"permissioned","planning_permission_type":"reserved-matters-approval","planning_permission_date":"2024-11-20","planning_register_ref":"BLR_019","planning_register_entity":1709432,"project_summary":"Large mixed-use regeneration allocation with retail, flexible employment, light-industrial/trade-counter and council-depot uses alongside housing.","organisation":"Guildford Borough Council","official_register_url":"https://www.planning.data.gov.uk/entity/1709432","source_accessed_at":"2026-08-18T06:44:20Z","source_sha256":"bd55f62ffb473c3455b0e174355047b3cd203e52e879d62ded3033100e4be154"}}]}