{"type":"FeatureCollection","metadata":{"schema_version":3,"slot_id":"planned_buildings_3","continuation_key":"planned_buildings_3_open_source_v2_20260813","task_id":"planned_buildings_3_open_source_continuation_v2_20260813","run_id":"planned_buildings_3_bounded12_cont4_20260818T045500Z","updated_at":"2026-08-18T04:55:10Z","state":"BOUNDED_BATCH_IN_PROGRESS","source_family":"planning_data_brownfield_direct_project_identity","batch_index":38,"feature_count":1,"aggregate_feature_count_before":37,"aggregate_feature_count_after":38,"demo_only":true,"fake_data":false,"final_ready":false,"production_merge":false,"nearest_matching_used":false,"parcel_association_attempted":false,"append_only":true,"duplicate_count":0},"features":[{"type":"Feature","id":"planned_buildings_3:planning_data_brownfield:16/10951/FULL","geometry":{"type":"Point","coordinates":[-0.125968,51.507858]},"properties":{"topic_id":"planned-buildings","slot_id":"planned_buildings_3","parcel_id":null,"osm_id":null,"planned_building":true,"planned_building_value":null,"planned_building_probability":null,"planned_building_complete_month":null,"planned_building_scoring_status":"METHODOLOGY_APPROVAL_REQUIRED","planned_building_complete_month_reason":"No official explicit YYYY-MM completion field was evidenced.","planning_register_quality":"authoritative","matching_method":"direct official brownfield-land entity identity; no parcel association attempted","parcel_geometry_relation":null,"spatial_match_performed":false,"nearest_matching":false,"official_dataset_url":"https://www.planning.data.gov.uk/dataset/brownfield-land","source_license":"Open Government Licence v3.0","source_sha256_scope":"canonical snapshot of authoritative entity identity, point, permission fields, site name, organisation and evidence summary","evidence_level":3,"demo_only":true,"fake_data":false,"final_ready":false,"production_merge":false,"source_ref":"PLANNING_DATA_BROWNFIELD:16/10951/FULL","project_ref":"16/10951/FULL","planned_project_name":"5 Strand London WC2N 5AF","planned_project_status":"pending-decision","planning_permission_type":null,"planning_permission_date":null,"planning_register_ref":"16/10951/FULL","planning_register_entity":1713760,"project_summary":"Replacement mixed-use building with retail, restaurant, office and residential floorspace across basement, lower-ground, ground and upper floors.","organisation":"City of Westminster","official_register_url":"https://www.planning.data.gov.uk/entity/1713760","source_accessed_at":"2026-08-18T04:55:10Z","source_sha256":"e10e28b9d7e774c4e3fe7ca949a57eb408047c2031c2e37744b5f289fe2ba4e8"}}]}