{"type":"FeatureCollection","metadata":{"schema_version":3,"slot_id":"planned_buildings_3","continuation_key":"planned_buildings_3_open_source_v2_20260813","task_id":"planned_buildings_3_open_source_continuation_v2_20260813","run_id":"planned_buildings_3_bounded12_cont22_20260818T191500Z","updated_at":"2026-08-18T19:15:06Z","state":"BOUNDED_BATCH_COMPLETE","source_family":"planning_data_brownfield_direct_project_identity","batch_index":246,"feature_count":1,"aggregate_feature_count_before":245,"aggregate_feature_count_after":246,"demo_only":true,"fake_data":false,"final_ready":false,"production_merge":false,"nearest_matching_used":false,"parcel_association_attempted":false,"append_only":true,"duplicate_count":0},"features":[{"type":"Feature","id":"planned_buildings_3:planning_data_brownfield:23/01407/F","geometry":{"type":"Point","coordinates":[-2.59434,51.4573]},"properties":{"topic_id":"planned-buildings","slot_id":"planned_buildings_3","parcel_id":null,"osm_id":null,"planned_building":true,"planned_building_value":null,"planned_building_probability":null,"planned_building_complete_month":null,"planned_building_scoring_status":"METHODOLOGY_APPROVAL_REQUIRED","planned_building_complete_month_reason":"No official explicit YYYY-MM completion field was evidenced.","planning_register_quality":"authoritative","matching_method":"direct official brownfield-land entity identity; no parcel association attempted","parcel_geometry_relation":null,"spatial_match_performed":false,"nearest_matching":false,"official_dataset_url":"https://www.planning.data.gov.uk/dataset/brownfield-land","source_license":"Open Government Licence v3.0","source_sha256_scope":"canonical snapshot of authoritative entity identity, point, permission fields, site name, organisation and evidence summary","evidence_level":3,"demo_only":true,"fake_data":false,"final_ready":false,"production_merge":false,"source_ref":"PLANNING_DATA_BROWNFIELD:23/01407/F","project_ref":"23/01407/F","planned_project_name":"NCP Rupert Street City Centre Bristol BS1 2PY","planned_project_status":"pending-decision","planning_permission_type":"full-planning-permission","planning_permission_date":null,"planning_register_ref":"23/01407/F","planning_register_entity":1740354,"project_summary":"Authoritative Brownfield Land Register record identifies a pending-decision site with an evidenced net dwelling capacity of 150 to 203 dwellings.","organisation":"Bristol City Council","official_register_url":"https://www.planning.data.gov.uk/entity/1740354","source_accessed_at":"2026-08-18T19:15:06Z","source_sha256":"0a21d506533360263ed64de9d55d2727c412be460520d5b9dbb1aa31af04a8a6"}}]}