{"type":"FeatureCollection","metadata":{"schema_version":3,"slot_id":"planned_buildings_3","continuation_key":"planned_buildings_3_open_source_v2_20260813","task_id":"planned_buildings_3_open_source_continuation_v2_20260813","run_id":"planned_buildings_3_bounded12_cont23_20260818T204100Z","updated_at":"2026-08-18T20:41:11Z","state":"BOUNDED_BATCH_COMPLETE","source_family":"planning_data_brownfield_direct_project_identity","batch_index":263,"feature_count":1,"aggregate_feature_count_before":262,"aggregate_feature_count_after":263,"demo_only":true,"fake_data":false,"final_ready":false,"production_merge":false,"nearest_matching_used":false,"parcel_association_attempted":false,"append_only":true,"duplicate_count":0},"features":[{"type":"Feature","id":"planned_buildings_3:planning_data_brownfield:22/06050/F","geometry":{"type":"Point","coordinates":[-2.57426,51.45146]},"properties":{"topic_id":"planned-buildings","slot_id":"planned_buildings_3","parcel_id":null,"osm_id":null,"planned_building":true,"planned_building_value":null,"planned_building_probability":null,"planned_building_complete_month":null,"planned_building_scoring_status":"METHODOLOGY_APPROVAL_REQUIRED","planned_building_complete_month_reason":"No official explicit YYYY-MM completion field was evidenced.","planning_register_quality":"authoritative","matching_method":"direct official brownfield-land entity identity; no parcel association attempted","parcel_geometry_relation":null,"spatial_match_performed":false,"nearest_matching":false,"official_dataset_url":"https://www.planning.data.gov.uk/dataset/brownfield-land","source_license":"Open Government Licence v3.0","source_sha256_scope":"canonical snapshot of authoritative entity identity, point, permission fields, site name, organisation and evidence summary","evidence_level":3,"demo_only":true,"fake_data":false,"final_ready":false,"production_merge":false,"source_ref":"PLANNING_DATA_BROWNFIELD:22/06050/F","project_ref":"22/06050/F","planned_project_name":"Land South Of Freestone Road, East Of Gas Lane And West Of Kingsland Road Bristol BS2 0QW","planned_project_status":"pending-decision","planning_permission_type":"full-planning-permission","planning_permission_date":null,"planning_register_ref":"22/06050/F","planning_register_entity":1740352,"project_summary":"Authoritative Brownfield Land Register record identifies a pending-decision site with an evidenced dwelling capacity range of 72 to 204 dwellings.","organisation":"Bristol City Council","official_register_url":"https://www.planning.data.gov.uk/entity/1740352","source_accessed_at":"2026-08-18T20:41:11Z","source_sha256":"c61c1de1dd2ddbafae1a28f78f54870989c6c533136cc6c2b73cc167ade4877a"}}]}