{"type":"FeatureCollection","metadata":{"schema_version":3,"slot_id":"planned_buildings_3","continuation_key":"planned_buildings_3_open_source_v2_20260813","task_id":"planned_buildings_3_open_source_continuation_v2_20260813","run_id":"planned_buildings_3_bounded12_cont3_20260818T042800Z","updated_at":"2026-08-18T04:29:40Z","state":"BOUNDED_BATCH_COMPLETE","source_family":"planning_data_brownfield_direct_project_identity","batch_index":35,"feature_count":1,"aggregate_feature_count_before":34,"aggregate_feature_count_after":35,"demo_only":true,"fake_data":false,"final_ready":false,"production_merge":false,"nearest_matching_used":false,"parcel_association_attempted":false,"append_only":true,"duplicate_count":0},"features":[{"type":"Feature","id":"planned_buildings_3:planning_data_brownfield:BFR_119","geometry":{"type":"Point","coordinates":[0.265757,51.13361]},"properties":{"topic_id":"planned-buildings","slot_id":"planned_buildings_3","parcel_id":null,"osm_id":null,"planned_building":true,"planned_building_value":null,"planned_building_probability":null,"planned_building_complete_month":null,"planned_building_scoring_status":"METHODOLOGY_APPROVAL_REQUIRED","planned_building_complete_month_reason":"No official explicit YYYY-MM completion field was evidenced.","planning_register_quality":"authoritative","matching_method":"direct official brownfield-land entity identity; no parcel association attempted","parcel_geometry_relation":null,"spatial_match_performed":false,"nearest_matching":false,"official_dataset_url":"https://www.planning.data.gov.uk/dataset/brownfield-land","source_license":"Open Government Licence v3.0","source_sha256_scope":"canonical snapshot of authoritative entity identity, point, permission fields, site name, organisation and evidence summary","evidence_level":3,"demo_only":true,"fake_data":false,"final_ready":false,"production_merge":false,"source_ref":"PLANNING_DATA_BROWNFIELD:BFR_119","project_ref":"BFR_119","planned_project_name":"Mountain Warehouse, 6 Calverley Road, Royal Tunbridge Wells","planned_project_status":"permissioned","planning_permission_type":"full-planning-permission","planning_permission_date":"2022-12-01","planning_register_ref":"BFR_119","planning_register_entity":1733628,"project_summary":"Extant change-of-use scheme converting upper retail floors to five dwellings while retaining commercial/retail use at ground floor, with associated external works.","organisation":"Tunbridge Wells Borough Council","official_register_url":"https://www.planning.data.gov.uk/entity/1733628","source_accessed_at":"2026-08-18T04:29:40Z","source_sha256":"76bd860680ef2da68c194f76b3f9313cc1695230afc68ab66357a58ae8cd570e"}}]}