{"type":"FeatureCollection","metadata":{"schema_version":3,"slot_id":"planned_buildings_3","continuation_key":"planned_buildings_3_open_source_v2_20260813","task_id":"planned_buildings_3_open_source_continuation_v2_20260813","run_id":"planned_buildings_3_bounded12_cont10_20260818T073800Z","updated_at":"2026-08-18T07:38:30Z","state":"BOUNDED_BATCH_IN_PROGRESS","source_family":"planning_data_brownfield_direct_project_identity","batch_index":100,"feature_count":1,"aggregate_feature_count_before":99,"aggregate_feature_count_after":100,"demo_only":true,"fake_data":false,"final_ready":false,"production_merge":false,"nearest_matching_used":false,"parcel_association_attempted":false,"append_only":true,"duplicate_count":0},"features":[{"type":"Feature","id":"planned_buildings_3:planning_data_brownfield:BR308","geometry":{"type":"Point","coordinates":[-5.064203,50.417142]},"properties":{"topic_id":"planned-buildings","slot_id":"planned_buildings_3","parcel_id":null,"osm_id":null,"planned_building":true,"planned_building_value":null,"planned_building_probability":null,"planned_building_complete_month":null,"planned_building_scoring_status":"METHODOLOGY_APPROVAL_REQUIRED","planned_building_complete_month_reason":"No official explicit YYYY-MM completion field was evidenced.","planning_register_quality":"authoritative","matching_method":"direct official brownfield-land entity identity; no parcel association attempted","parcel_geometry_relation":null,"spatial_match_performed":false,"nearest_matching":false,"official_dataset_url":"https://www.planning.data.gov.uk/dataset/brownfield-land","source_license":"Open Government Licence v3.0","source_sha256_scope":"canonical snapshot of authoritative entity identity, point, permission fields, site address, organisation and evidence summary","evidence_level":3,"demo_only":true,"fake_data":false,"final_ready":false,"production_merge":false,"source_ref":"PLANNING_DATA_BROWNFIELD:BR308","project_ref":"BR308","planned_project_name":"8 Chester Road Newquay TR7 2RX","planned_project_status":"permissioned","planning_permission_type":"full-planning-permission","planning_permission_date":"2023-08-01","planning_register_ref":"BR308","planning_register_entity":1740769,"project_summary":"New-build mixed-use scheme comprising nine residential apartments and three ground-floor commercial units.","organisation":"Cornwall Council","official_register_url":"https://www.planning.data.gov.uk/entity/1740769","source_accessed_at":"2026-08-18T07:38:30Z","source_sha256":"fe7b7e49572c70eb4d62d6e9d880922a0421b6fe25ec98d704d9def6809e694c"}}]}