{"type":"FeatureCollection","name":"internet_access_4","features":[{"type":"Feature","geometry":null,"properties":{"slot_id":"internet_access_4","lineage_id":"IA4-b55255e80113bdd22f6c","page_generation":1,"batch_id":"20260930T004200Z-bduk-may2026-sample-001","record_index":1,"official_identifier_type":"UPRN","official_identifier":"44010201","postcode":"ME1 3HX","country":"England","lot_id":29,"lot_name":"Kent","subsidy_control_status":"Gigabit Grey/Black","current_gigabit":true,"future_gigabit":false,"local_authority_district_ons_code":"E06000035","local_authority_district_ons":"Medway","region_ons_code":"E12000008","region_ons":"South East","bduk_gis":false,"data_date":"2026-05","publication_date":"2026-09-17","source_url":"https://assets.publishing.service.gov.uk/media/6aa9520b086ce7c57b8184e5/202605_BDUK_uprn_release_sample.csv","final_url":"https://www.gov.uk/csv-preview/6aa9520b086ce7c57b8184e5/202605_BDUK_uprn_release_sample.csv","field_evidence":{"official_identifier":"uprn","current_gigabit":"current_gigabit","future_gigabit":"future_gigabit","postcode":"postcode","area_codes":["local_authority_district_ons_code","region_ons_code"]},"evidence_slice_sha256":"28636deb60fffa8d625cdbf39cca79a7643c75e8a8fce000a34b578be822536e","confidence_score_0_100":94,"evidence_grade":"A_OFFICIAL_TRANSPARENCY_SAMPLE","fake_data":false,"canonical_join_status":"UNPROCESSED_LOCAL_OPENCODE_REQUIRED"}},{"type":"Feature","geometry":null,"properties":{"slot_id":"internet_access_4","lineage_id":"IA4-b55255e80113bdd22f6c","page_generation":1,"batch_id":"20260930T004200Z-bduk-may2026-sample-001","record_index":2,"official_identifier_type":"UPRN","official_identifier":"44078721","postcode":"ME7 1SR","country":"England","lot_id":29,"lot_name":"Kent","subsidy_control_status":"Gigabit Grey/Black","current_gigabit":true,"future_gigabit":false,"local_authority_district_ons_code":"E06000035","local_authority_district_ons":"Medway","region_ons_code":"E12000008","region_ons":"South East","bduk_gis":false,"data_date":"2026-05","publication_date":"2026-09-17","source_url":"https://assets.publishing.service.gov.uk/media/6aa9520b086ce7c57b8184e5/202605_BDUK_uprn_release_sample.csv","final_url":"https://www.gov.uk/csv-preview/6aa9520b086ce7c57b8184e5/202605_BDUK_uprn_release_sample.csv","field_evidence":{"official_identifier":"uprn","current_gigabit":"current_gigabit","future_gigabit":"future_gigabit","postcode":"postcode","area_codes":["local_authority_district_ons_code","region_ons_code"]},"evidence_slice_sha256":"28636deb60fffa8d625cdbf39cca79a7643c75e8a8fce000a34b578be822536e","confidence_score_0_100":94,"evidence_grade":"A_OFFICIAL_TRANSPARENCY_SAMPLE","fake_data":false,"canonical_join_status":"UNPROCESSED_LOCAL_OPENCODE_REQUIRED"}},{"type":"Feature","geometry":null,"properties":{"slot_id":"internet_access_4","lineage_id":"IA4-b55255e80113bdd22f6c","page_generation":1,"batch_id":"20260930T004200Z-bduk-may2026-sample-001","record_index":3,"official_identifier_type":"UPRN","official_identifier":"44067584","postcode":"ME7 1DW","country":"England","lot_id":29,"lot_name":"Kent","subsidy_control_status":"Gigabit Grey/Black","current_gigabit":true,"future_gigabit":false,"local_authority_district_ons_code":"E06000035","local_authority_district_ons":"Medway","region_ons_code":"E12000008","region_ons":"South East","bduk_gis":false,"data_date":"2026-05","publication_date":"2026-09-17","source_url":"https://assets.publishing.service.gov.uk/media/6aa9520b086ce7c57b8184e5/202605_BDUK_uprn_release_sample.csv","final_url":"https://www.gov.uk/csv-preview/6aa9520b086ce7c57b8184e5/202605_BDUK_uprn_release_sample.csv","field_evidence":{"official_identifier":"uprn","current_gigabit":"current_gigabit","future_gigabit":"future_gigabit","postcode":"postcode","area_codes":["local_authority_district_ons_code","region_ons_code"]},"evidence_slice_sha256":"28636deb60fffa8d625cdbf39cca79a7643c75e8a8fce000a34b578be822536e","confidence_score_0_100":94,"evidence_grade":"A_OFFICIAL_TRANSPARENCY_SAMPLE","fake_data":false,"canonical_join_status":"UNPROCESSED_LOCAL_OPENCODE_REQUIRED"}},{"type":"Feature","geometry":null,"properties":{"slot_id":"internet_access_4","lineage_id":"IA4-b55255e80113bdd22f6c","page_generation":1,"batch_id":"20260930T004200Z-bduk-may2026-sample-001","record_index":4,"official_identifier_type":"UPRN","official_identifier":"44060150","postcode":"ME5 0AP","country":"England","lot_id":29,"lot_name":"Kent","subsidy_control_status":"Gigabit Grey/Black","current_gigabit":true,"future_gigabit":true,"local_authority_district_ons_code":"E06000035","local_authority_district_ons":"Medway","region_ons_code":"E12000008","region_ons":"South East","bduk_gis":false,"data_date":"2026-05","publication_date":"2026-09-17","source_url":"https://assets.publishing.service.gov.uk/media/6aa9520b086ce7c57b8184e5/202605_BDUK_uprn_release_sample.csv","final_url":"https://www.gov.uk/csv-preview/6aa9520b086ce7c57b8184e5/202605_BDUK_uprn_release_sample.csv","field_evidence":{"official_identifier":"uprn","current_gigabit":"current_gigabit","future_gigabit":"future_gigabit","postcode":"postcode","area_codes":["local_authority_district_ons_code","region_ons_code"]},"evidence_slice_sha256":"28636deb60fffa8d625cdbf39cca79a7643c75e8a8fce000a34b578be822536e","confidence_score_0_100":94,"evidence_grade":"A_OFFICIAL_TRANSPARENCY_SAMPLE","fake_data":false,"canonical_join_status":"UNPROCESSED_LOCAL_OPENCODE_REQUIRED"}},{"type":"Feature","geometry":null,"properties":{"slot_id":"internet_access_4","lineage_id":"IA4-b55255e80113bdd22f6c","page_generation":1,"batch_id":"20260930T004200Z-bduk-may2026-sample-001","record_index":5,"official_identifier_type":"UPRN","official_identifier":"44058011","postcode":"ME5 8UH","country":"England","lot_id":29,"lot_name":"Kent","subsidy_control_status":"Gigabit Grey/Black","current_gigabit":true,"future_gigabit":false,"local_authority_district_ons_code":"E06000035","local_authority_district_ons":"Medway","region_ons_code":"E12000008","region_ons":"South East","bduk_gis":false,"data_date":"2026-05","publication_date":"2026-09-17","source_url":"https://assets.publishing.service.gov.uk/media/6aa9520b086ce7c57b8184e5/202605_BDUK_uprn_release_sample.csv","final_url":"https://www.gov.uk/csv-preview/6aa9520b086ce7c57b8184e5/202605_BDUK_uprn_release_sample.csv","field_evidence":{"official_identifier":"uprn","current_gigabit":"current_gigabit","future_gigabit":"future_gigabit","postcode":"postcode","area_codes":["local_authority_district_ons_code","region_ons_code"]},"evidence_slice_sha256":"28636deb60fffa8d625cdbf39cca79a7643c75e8a8fce000a34b578be822536e","confidence_score_0_100":94,"evidence_grade":"A_OFFICIAL_TRANSPARENCY_SAMPLE","fake_data":false,"canonical_join_status":"UNPROCESSED_LOCAL_OPENCODE_REQUIRED"}},{"type":"Feature","geometry":null,"properties":{"slot_id":"internet_access_4","lineage_id":"IA4-b55255e80113bdd22f6c","page_generation":1,"batch_id":"20260930T004200Z-bduk-may2026-sample-001","record_index":6,"official_identifier_type":"UPRN","official_identifier":"44083451","postcode":"ME3 8TW","country":"England","lot_id":29,"lot_name":"Kent","subsidy_control_status":"Gigabit Grey/Black","current_gigabit":true,"future_gigabit":false,"local_authority_district_ons_code":"E06000035","local_authority_district_ons":"Medway","region_ons_code":"E12000008","region_ons":"South East","bduk_gis":false,"data_date":"2026-05","publication_date":"2026-09-17","source_url":"https://assets.publishing.service.gov.uk/media/6aa9520b086ce7c57b8184e5/202605_BDUK_uprn_release_sample.csv","final_url":"https://www.gov.uk/csv-preview/6aa9520b086ce7c57b8184e5/202605_BDUK_uprn_release_sample.csv","field_evidence":{"official_identifier":"uprn","current_gigabit":"current_gigabit","future_gigabit":"future_gigabit","postcode":"postcode","area_codes":["local_authority_district_ons_code","region_ons_code"]},"evidence_slice_sha256":"28636deb60fffa8d625cdbf39cca79a7643c75e8a8fce000a34b578be822536e","confidence_score_0_100":94,"evidence_grade":"A_OFFICIAL_TRANSPARENCY_SAMPLE","fake_data":false,"canonical_join_status":"UNPROCESSED_LOCAL_OPENCODE_REQUIRED"}},{"type":"Feature","geometry":null,"properties":{"slot_id":"internet_access_4","lineage_id":"IA4-b55255e80113bdd22f6c","page_generation":1,"batch_id":"20260930T004200Z-bduk-may2026-sample-001","record_index":7,"official_identifier_type":"UPRN","official_identifier":"44031150","postcode":"ME5 0QE","country":"England","lot_id":29,"lot_name":"Kent","subsidy_control_status":"Gigabit Grey/Black","current_gigabit":true,"future_gigabit":false,"local_authority_district_ons_code":"E06000035","local_authority_district_ons":"Medway","region_ons_code":"E12000008","region_ons":"South East","bduk_gis":false,"data_date":"2026-05","publication_date":"2026-09-17","source_url":"https://assets.publishing.service.gov.uk/media/6aa9520b086ce7c57b8184e5/202605_BDUK_uprn_release_sample.csv","final_url":"https://www.gov.uk/csv-preview/6aa9520b086ce7c57b8184e5/202605_BDUK_uprn_release_sample.csv","field_evidence":{"official_identifier":"uprn","current_gigabit":"current_gigabit","future_gigabit":"future_gigabit","postcode":"postcode","area_codes":["local_authority_district_ons_code","region_ons_code"]},"evidence_slice_sha256":"28636deb60fffa8d625cdbf39cca79a7643c75e8a8fce000a34b578be822536e","confidence_score_0_100":94,"evidence_grade":"A_OFFICIAL_TRANSPARENCY_SAMPLE","fake_data":false,"canonical_join_status":"UNPROCESSED_LOCAL_OPENCODE_REQUIRED"}},{"type":"Feature","geometry":null,"properties":{"slot_id":"internet_access_4","lineage_id":"IA4-b55255e80113bdd22f6c","page_generation":1,"batch_id":"20260930T004200Z-bduk-may2026-sample-001","record_index":8,"official_identifier_type":"UPRN","official_identifier":"100061263459","postcode":"ME8 0DT","country":"England","lot_id":29,"lot_name":"Kent","subsidy_control_status":"Gigabit Grey/Black","current_gigabit":true,"future_gigabit":false,"local_authority_district_ons_code":"E06000035","local_authority_district_ons":"Medway","region_ons_code":"E12000008","region_ons":"South East","bduk_gis":false,"data_date":"2026-05","publication_date":"2026-09-17","source_url":"https://assets.publishing.service.gov.uk/media/6aa9520b086ce7c57b8184e5/202605_BDUK_uprn_release_sample.csv","final_url":"https://www.gov.uk/csv-preview/6aa9520b086ce7c57b8184e5/202605_BDUK_uprn_release_sample.csv","field_evidence":{"official_identifier":"uprn","current_gigabit":"current_gigabit","future_gigabit":"future_gigabit","postcode":"postcode","area_codes":["local_authority_district_ons_code","region_ons_code"]},"evidence_slice_sha256":"28636deb60fffa8d625cdbf39cca79a7643c75e8a8fce000a34b578be822536e","confidence_score_0_100":94,"evidence_grade":"A_OFFICIAL_TRANSPARENCY_SAMPLE","fake_data":false,"canonical_join_status":"UNPROCESSED_LOCAL_OPENCODE_REQUIRED"}},{"type":"Feature","geometry":null,"properties":{"slot_id":"internet_access_4","lineage_id":"IA4-b55255e80113bdd22f6c","page_generation":1,"batch_id":"20260930T004200Z-bduk-may2026-sample-001","record_index":9,"official_identifier_type":"UPRN","official_identifier":"44085580","postcode":"ME8 0QD","country":"England","lot_id":29,"lot_name":"Kent","subsidy_control_status":"Gigabit Grey/Black","current_gigabit":true,"future_gigabit":false,"local_authority_district_ons_code":"E06000035","local_authority_district_ons":"Medway","region_ons_code":"E12000008","region_ons":"South East","bduk_gis":false,"data_date":"2026-05","publication_date":"2026-09-17","source_url":"https://assets.publishing.service.gov.uk/media/6aa9520b086ce7c57b8184e5/202605_BDUK_uprn_release_sample.csv","final_url":"https://www.gov.uk/csv-preview/6aa9520b086ce7c57b8184e5/202605_BDUK_uprn_release_sample.csv","field_evidence":{"official_identifier":"uprn","current_gigabit":"current_gigabit","future_gigabit":"future_gigabit","postcode":"postcode","area_codes":["local_authority_district_ons_code","region_ons_code"]},"evidence_slice_sha256":"28636deb60fffa8d625cdbf39cca79a7643c75e8a8fce000a34b578be822536e","confidence_score_0_100":94,"evidence_grade":"A_OFFICIAL_TRANSPARENCY_SAMPLE","fake_data":false,"canonical_join_status":"UNPROCESSED_LOCAL_OPENCODE_REQUIRED"}},{"type":"Feature","geometry":null,"properties":{"slot_id":"internet_access_4","lineage_id":"IA4-b55255e80113bdd22f6c","page_generation":1,"batch_id":"20260930T004200Z-bduk-may2026-sample-001","record_index":10,"official_identifier_type":"UPRN","official_identifier":"100061256684","postcode":"ME8 9TG","country":"England","lot_id":29,"lot_name":"Kent","subsidy_control_status":"Gigabit Grey/Black","current_gigabit":true,"future_gigabit":false,"local_authority_district_ons_code":"E06000035","local_authority_district_ons":"Medway","region_ons_code":"E12000008","region_ons":"South East","bduk_gis":false,"data_date":"2026-05","publication_date":"2026-09-17","source_url":"https://assets.publishing.service.gov.uk/media/6aa9520b086ce7c57b8184e5/202605_BDUK_uprn_release_sample.csv","final_url":"https://www.gov.uk/csv-preview/6aa9520b086ce7c57b8184e5/202605_BDUK_uprn_release_sample.csv","field_evidence":{"official_identifier":"uprn","current_gigabit":"current_gigabit","future_gigabit":"future_gigabit","postcode":"postcode","area_codes":["local_authority_district_ons_code","region_ons_code"]},"evidence_slice_sha256":"28636deb60fffa8d625cdbf39cca79a7643c75e8a8fce000a34b578be822536e","confidence_score_0_100":94,"evidence_grade":"A_OFFICIAL_TRANSPARENCY_SAMPLE","fake_data":false,"canonical_join_status":"UNPROCESSED_LOCAL_OPENCODE_REQUIRED"}},{"type":"Feature","geometry":null,"properties":{"slot_id":"internet_access_4","lineage_id":"IA4-b55255e80113bdd22f6c","page_generation":1,"batch_id":"20260930T004200Z-bduk-may2026-sample-001","record_index":11,"official_identifier_type":"UPRN","official_identifier":"100061299783","postcode":"ME2 3TJ","country":"England","lot_id":29,"lot_name":"Kent","subsidy_control_status":"Gigabit Grey/Black","current_gigabit":true,"future_gigabit":false,"local_authority_district_ons_code":"E06000035","local_authority_district_ons":"Medway","region_ons_code":"E12000008","region_ons":"South East","bduk_gis":false,"data_date":"2026-05","publication_date":"2026-09-17","source_url":"https://assets.publishing.service.gov.uk/media/6aa9520b086ce7c57b8184e5/202605_BDUK_uprn_release_sample.csv","final_url":"https://www.gov.uk/csv-preview/6aa9520b086ce7c57b8184e5/202605_BDUK_uprn_release_sample.csv","field_evidence":{"official_identifier":"uprn","current_gigabit":"current_gigabit","future_gigabit":"future_gigabit","postcode":"postcode","area_codes":["local_authority_district_ons_code","region_ons_code"]},"evidence_slice_sha256":"28636deb60fffa8d625cdbf39cca79a7643c75e8a8fce000a34b578be822536e","confidence_score_0_100":94,"evidence_grade":"A_OFFICIAL_TRANSPARENCY_SAMPLE","fake_data":false,"canonical_join_status":"UNPROCESSED_LOCAL_OPENCODE_REQUIRED"}},{"type":"Feature","geometry":null,"properties":{"slot_id":"internet_access_4","lineage_id":"IA4-b55255e80113bdd22f6c","page_generation":1,"batch_id":"20260930T004200Z-bduk-may2026-sample-001","record_index":12,"official_identifier_type":"UPRN","official_identifier":"100061283741","postcode":"ME2 3PX","country":"England","lot_id":29,"lot_name":"Kent","subsidy_control_status":"Gigabit Grey/Black","current_gigabit":true,"future_gigabit":false,"local_authority_district_ons_code":"E06000035","local_authority_district_ons":"Medway","region_ons_code":"E12000008","region_ons":"South East","bduk_gis":false,"data_date":"2026-05","publication_date":"2026-09-17","source_url":"https://assets.publishing.service.gov.uk/media/6aa9520b086ce7c57b8184e5/202605_BDUK_uprn_release_sample.csv","final_url":"https://www.gov.uk/csv-preview/6aa9520b086ce7c57b8184e5/202605_BDUK_uprn_release_sample.csv","field_evidence":{"official_identifier":"uprn","current_gigabit":"current_gigabit","future_gigabit":"future_gigabit","postcode":"postcode","area_codes":["local_authority_district_ons_code","region_ons_code"]},"evidence_slice_sha256":"28636deb60fffa8d625cdbf39cca79a7643c75e8a8fce000a34b578be822536e","confidence_score_0_100":94,"evidence_grade":"A_OFFICIAL_TRANSPARENCY_SAMPLE","fake_data":false,"canonical_join_status":"UNPROCESSED_LOCAL_OPENCODE_REQUIRED"}},{"type":"Feature","geometry":null,"properties":{"slot_id":"internet_access_4","lineage_id":"IA4-b55255e80113bdd22f6c","page_generation":1,"batch_id":"20260930T004200Z-bduk-may2026-sample-001","record_index":13,"official_identifier_type":"UPRN","official_identifier":"44100793","postcode":"ME8 8JT","country":"England","lot_id":29,"lot_name":"Kent","subsidy_control_status":"Gigabit Grey/Black","current_gigabit":true,"future_gigabit":false,"local_authority_district_ons_code":"E06000035","local_authority_district_ons":"Medway","region_ons_code":"E12000008","region_ons":"South East","bduk_gis":false,"data_date":"2026-05","publication_date":"2026-09-17","source_url":"https://assets.publishing.service.gov.uk/media/6aa9520b086ce7c57b8184e5/202605_BDUK_uprn_release_sample.csv","final_url":"https://www.gov.uk/csv-preview/6aa9520b086ce7c57b8184e5/202605_BDUK_uprn_release_sample.csv","field_evidence":{"official_identifier":"uprn","current_gigabit":"current_gigabit","future_gigabit":"future_gigabit","postcode":"postcode","area_codes":["local_authority_district_ons_code","region_ons_code"]},"evidence_slice_sha256":"28636deb60fffa8d625cdbf39cca79a7643c75e8a8fce000a34b578be822536e","confidence_score_0_100":94,"evidence_grade":"A_OFFICIAL_TRANSPARENCY_SAMPLE","fake_data":false,"canonical_join_status":"UNPROCESSED_LOCAL_OPENCODE_REQUIRED"}},{"type":"Feature","geometry":null,"properties":{"slot_id":"internet_access_4","lineage_id":"IA4-b55255e80113bdd22f6c","page_generation":1,"batch_id":"20260930T004200Z-bduk-may2026-sample-001","record_index":14,"official_identifier_type":"UPRN","official_identifier":"44079997","postcode":"ME7 2PH","country":"England","lot_id":29,"lot_name":"Kent","subsidy_control_status":"Gigabit Grey/Black","current_gigabit":true,"future_gigabit":false,"local_authority_district_ons_code":"E06000035","local_authority_district_ons":"Medway","region_ons_code":"E12000008","region_ons":"South East","bduk_gis":false,"data_date":"2026-05","publication_date":"2026-09-17","source_url":"https://assets.publishing.service.gov.uk/media/6aa9520b086ce7c57b8184e5/202605_BDUK_uprn_release_sample.csv","final_url":"https://www.gov.uk/csv-preview/6aa9520b086ce7c57b8184e5/202605_BDUK_uprn_release_sample.csv","field_evidence":{"official_identifier":"uprn","current_gigabit":"current_gigabit","future_gigabit":"future_gigabit","postcode":"postcode","area_codes":["local_authority_district_ons_code","region_ons_code"]},"evidence_slice_sha256":"28636deb60fffa8d625cdbf39cca79a7643c75e8a8fce000a34b578be822536e","confidence_score_0_100":94,"evidence_grade":"A_OFFICIAL_TRANSPARENCY_SAMPLE","fake_data":false,"canonical_join_status":"UNPROCESSED_LOCAL_OPENCODE_REQUIRED"}},{"type":"Feature","geometry":null,"properties":{"slot_id":"internet_access_4","lineage_id":"IA4-b55255e80113bdd22f6c","page_generation":1,"batch_id":"20260930T004200Z-bduk-may2026-sample-001","record_index":15,"official_identifier_type":"UPRN","official_identifier":"100061294018","postcode":"ME2 2LE","country":"England","lot_id":29,"lot_name":"Kent","subsidy_control_status":"Gigabit Grey/Black","current_gigabit":true,"future_gigabit":false,"local_authority_district_ons_code":"E06000035","local_authority_district_ons":"Medway","region_ons_code":"E12000008","region_ons":"South East","bduk_gis":false,"data_date":"2026-05","publication_date":"2026-09-17","source_url":"https://assets.publishing.service.gov.uk/media/6aa9520b086ce7c57b8184e5/202605_BDUK_uprn_release_sample.csv","final_url":"https://www.gov.uk/csv-preview/6aa9520b086ce7c57b8184e5/202605_BDUK_uprn_release_sample.csv","field_evidence":{"official_identifier":"uprn","current_gigabit":"current_gigabit","future_gigabit":"future_gigabit","postcode":"postcode","area_codes":["local_authority_district_ons_code","region_ons_code"]},"evidence_slice_sha256":"28636deb60fffa8d625cdbf39cca79a7643c75e8a8fce000a34b578be822536e","confidence_score_0_100":94,"evidence_grade":"A_OFFICIAL_TRANSPARENCY_SAMPLE","fake_data":false,"canonical_join_status":"UNPROCESSED_LOCAL_OPENCODE_REQUIRED"}},{"type":"Feature","geometry":null,"properties":{"slot_id":"internet_access_4","lineage_id":"IA4-b55255e80113bdd22f6c","page_generation":1,"batch_id":"20260930T004200Z-bduk-may2026-sample-001","record_index":16,"official_identifier_type":"UPRN","official_identifier":"100061288023","postcode":"ME3 9JX","country":"England","lot_id":29,"lot_name":"Kent","subsidy_control_status":"Gigabit Grey/Black","current_gigabit":true,"future_gigabit":false,"local_authority_district_ons_code":"E06000035","local_authority_district_ons":"Medway","region_ons_code":"E12000008","region_ons":"South East","bduk_gis":false,"data_date":"2026-05","publication_date":"2026-09-17","source_url":"https://assets.publishing.service.gov.uk/media/6aa9520b086ce7c57b8184e5/202605_BDUK_uprn_release_sample.csv","final_url":"https://www.gov.uk/csv-preview/6aa9520b086ce7c57b8184e5/202605_BDUK_uprn_release_sample.csv","field_evidence":{"official_identifier":"uprn","current_gigabit":"current_gigabit","future_gigabit":"future_gigabit","postcode":"postcode","area_codes":["local_authority_district_ons_code","region_ons_code"]},"evidence_slice_sha256":"28636deb60fffa8d625cdbf39cca79a7643c75e8a8fce000a34b578be822536e","confidence_score_0_100":94,"evidence_grade":"A_OFFICIAL_TRANSPARENCY_SAMPLE","fake_data":false,"canonical_join_status":"UNPROCESSED_LOCAL_OPENCODE_REQUIRED"}},{"type":"Feature","geometry":null,"properties":{"slot_id":"internet_access_4","lineage_id":"IA4-b55255e80113bdd22f6c","page_generation":1,"batch_id":"20260930T004200Z-bduk-may2026-sample-001","record_index":17,"official_identifier_type":"UPRN","official_identifier":"44059846","postcode":"ME5 8LH","country":"England","lot_id":29,"lot_name":"Kent","subsidy_control_status":"Gigabit Grey/Black","current_gigabit":true,"future_gigabit":false,"local_authority_district_ons_code":"E06000035","local_authority_district_ons":"Medway","region_ons_code":"E12000008","region_ons":"South East","bduk_gis":false,"data_date":"2026-05","publication_date":"2026-09-17","source_url":"https://assets.publishing.service.gov.uk/media/6aa9520b086ce7c57b8184e5/202605_BDUK_uprn_release_sample.csv","final_url":"https://www.gov.uk/csv-preview/6aa9520b086ce7c57b8184e5/202605_BDUK_uprn_release_sample.csv","field_evidence":{"official_identifier":"uprn","current_gigabit":"current_gigabit","future_gigabit":"future_gigabit","postcode":"postcode","area_codes":["local_authority_district_ons_code","region_ons_code"]},"evidence_slice_sha256":"28636deb60fffa8d625cdbf39cca79a7643c75e8a8fce000a34b578be822536e","confidence_score_0_100":94,"evidence_grade":"A_OFFICIAL_TRANSPARENCY_SAMPLE","fake_data":false,"canonical_join_status":"UNPROCESSED_LOCAL_OPENCODE_REQUIRED"}},{"type":"Feature","geometry":null,"properties":{"slot_id":"internet_access_4","lineage_id":"IA4-b55255e80113bdd22f6c","page_generation":1,"batch_id":"20260930T004200Z-bduk-may2026-sample-001","record_index":18,"official_identifier_type":"UPRN","official_identifier":"44072517","postcode":"ME7 1RB","country":"England","lot_id":29,"lot_name":"Kent","subsidy_control_status":"Gigabit Grey/Black","current_gigabit":true,"future_gigabit":false,"local_authority_district_ons_code":"E06000035","local_authority_district_ons":"Medway","region_ons_code":"E12000008","region_ons":"South East","bduk_gis":false,"data_date":"2026-05","publication_date":"2026-09-17","source_url":"https://assets.publishing.service.gov.uk/media/6aa9520b086ce7c57b8184e5/202605_BDUK_uprn_release_sample.csv","final_url":"https://www.gov.uk/csv-preview/6aa9520b086ce7c57b8184e5/202605_BDUK_uprn_release_sample.csv","field_evidence":{"official_identifier":"uprn","current_gigabit":"current_gigabit","future_gigabit":"future_gigabit","postcode":"postcode","area_codes":["local_authority_district_ons_code","region_ons_code"]},"evidence_slice_sha256":"28636deb60fffa8d625cdbf39cca79a7643c75e8a8fce000a34b578be822536e","confidence_score_0_100":94,"evidence_grade":"A_OFFICIAL_TRANSPARENCY_SAMPLE","fake_data":false,"canonical_join_status":"UNPROCESSED_LOCAL_OPENCODE_REQUIRED"}},{"type":"Feature","geometry":null,"properties":{"slot_id":"internet_access_4","lineage_id":"IA4-b55255e80113bdd22f6c","page_generation":1,"batch_id":"20260930T004200Z-bduk-may2026-sample-001","record_index":19,"official_identifier_type":"UPRN","official_identifier":"44066763","postcode":"ME7 5XX","country":"England","lot_id":29,"lot_name":"Kent","subsidy_control_status":"Gigabit Grey/Black","current_gigabit":true,"future_gigabit":true,"local_authority_district_ons_code":"E06000035","local_authority_district_ons":"Medway","region_ons_code":"E12000008","region_ons":"South East","bduk_gis":false,"data_date":"2026-05","publication_date":"2026-09-17","source_url":"https://assets.publishing.service.gov.uk/media/6aa9520b086ce7c57b8184e5/202605_BDUK_uprn_release_sample.csv","final_url":"https://www.gov.uk/csv-preview/6aa9520b086ce7c57b8184e5/202605_BDUK_uprn_release_sample.csv","field_evidence":{"official_identifier":"uprn","current_gigabit":"current_gigabit","future_gigabit":"future_gigabit","postcode":"postcode","area_codes":["local_authority_district_ons_code","region_ons_code"]},"evidence_slice_sha256":"28636deb60fffa8d625cdbf39cca79a7643c75e8a8fce000a34b578be822536e","confidence_score_0_100":94,"evidence_grade":"A_OFFICIAL_TRANSPARENCY_SAMPLE","fake_data":false,"canonical_join_status":"UNPROCESSED_LOCAL_OPENCODE_REQUIRED"}},{"type":"Feature","geometry":null,"properties":{"slot_id":"internet_access_4","lineage_id":"IA4-b55255e80113bdd22f6c","page_generation":1,"batch_id":"20260930T004200Z-bduk-may2026-sample-001","record_index":20,"official_identifier_type":"UPRN","official_identifier":"44089820","postcode":"ME8 0LP","country":"England","lot_id":29,"lot_name":"Kent","subsidy_control_status":"Gigabit Grey/Black","current_gigabit":true,"future_gigabit":false,"local_authority_district_ons_code":"E06000035","local_authority_district_ons":"Medway","region_ons_code":"E12000008","region_ons":"South East","bduk_gis":false,"data_date":"2026-05","publication_date":"2026-09-17","source_url":"https://assets.publishing.service.gov.uk/media/6aa9520b086ce7c57b8184e5/202605_BDUK_uprn_release_sample.csv","final_url":"https://www.gov.uk/csv-preview/6aa9520b086ce7c57b8184e5/202605_BDUK_uprn_release_sample.csv","field_evidence":{"official_identifier":"uprn","current_gigabit":"current_gigabit","future_gigabit":"future_gigabit","postcode":"postcode","area_codes":["local_authority_district_ons_code","region_ons_code"]},"evidence_slice_sha256":"28636deb60fffa8d625cdbf39cca79a7643c75e8a8fce000a34b578be822536e","confidence_score_0_100":94,"evidence_grade":"A_OFFICIAL_TRANSPARENCY_SAMPLE","fake_data":false,"canonical_join_status":"UNPROCESSED_LOCAL_OPENCODE_REQUIRED"}},{"type":"Feature","geometry":null,"properties":{"slot_id":"internet_access_4","lineage_id":"IA4-b55255e80113bdd22f6c","page_generation":1,"batch_id":"20260930T004200Z-bduk-may2026-sample-001","record_index":21,"official_identifier_type":"UPRN","official_identifier":"100061280019","postcode":"ME3 9HT","country":"England","lot_id":29,"lot_name":"Kent","subsidy_control_status":"Gigabit Grey/Black","current_gigabit":true,"future_gigabit":false,"local_authority_district_ons_code":"E06000035","local_authority_district_ons":"Medway","region_ons_code":"E12000008","region_ons":"South East","bduk_gis":false,"data_date":"2026-05","publication_date":"2026-09-17","source_url":"https://assets.publishing.service.gov.uk/media/6aa9520b086ce7c57b8184e5/202605_BDUK_uprn_release_sample.csv","final_url":"https://www.gov.uk/csv-preview/6aa9520b086ce7c57b8184e5/202605_BDUK_uprn_release_sample.csv","field_evidence":{"official_identifier":"uprn","current_gigabit":"current_gigabit","future_gigabit":"future_gigabit","postcode":"postcode","area_codes":["local_authority_district_ons_code","region_ons_code"]},"evidence_slice_sha256":"28636deb60fffa8d625cdbf39cca79a7643c75e8a8fce000a34b578be822536e","confidence_score_0_100":94,"evidence_grade":"A_OFFICIAL_TRANSPARENCY_SAMPLE","fake_data":false,"canonical_join_status":"UNPROCESSED_LOCAL_OPENCODE_REQUIRED"}},{"type":"Feature","geometry":null,"properties":{"slot_id":"internet_access_4","lineage_id":"IA4-b55255e80113bdd22f6c","page_generation":1,"batch_id":"20260930T004200Z-bduk-may2026-sample-001","record_index":22,"official_identifier_type":"UPRN","official_identifier":"44097306","postcode":"ME8 6RN","country":"England","lot_id":29,"lot_name":"Kent","subsidy_control_status":"Gigabit Grey/Black","current_gigabit":true,"future_gigabit":false,"local_authority_district_ons_code":"E06000035","local_authority_district_ons":"Medway","region_ons_code":"E12000008","region_ons":"South East","bduk_gis":false,"data_date":"2026-05","publication_date":"2026-09-17","source_url":"https://assets.publishing.service.gov.uk/media/6aa9520b086ce7c57b8184e5/202605_BDUK_uprn_release_sample.csv","final_url":"https://www.gov.uk/csv-preview/6aa9520b086ce7c57b8184e5/202605_BDUK_uprn_release_sample.csv","field_evidence":{"official_identifier":"uprn","current_gigabit":"current_gigabit","future_gigabit":"future_gigabit","postcode":"postcode","area_codes":["local_authority_district_ons_code","region_ons_code"]},"evidence_slice_sha256":"28636deb60fffa8d625cdbf39cca79a7643c75e8a8fce000a34b578be822536e","confidence_score_0_100":94,"evidence_grade":"A_OFFICIAL_TRANSPARENCY_SAMPLE","fake_data":false,"canonical_join_status":"UNPROCESSED_LOCAL_OPENCODE_REQUIRED"}},{"type":"Feature","geometry":null,"properties":{"slot_id":"internet_access_4","lineage_id":"IA4-b55255e80113bdd22f6c","page_generation":1,"batch_id":"20260930T004200Z-bduk-may2026-sample-001","record_index":23,"official_identifier_type":"UPRN","official_identifier":"44047620","postcode":"ME5 0DQ","country":"England","lot_id":29,"lot_name":"Kent","subsidy_control_status":"Gigabit Grey/Black","current_gigabit":true,"future_gigabit":false,"local_authority_district_ons_code":"E06000035","local_authority_district_ons":"Medway","region_ons_code":"E12000008","region_ons":"South East","bduk_gis":false,"data_date":"2026-05","publication_date":"2026-09-17","source_url":"https://assets.publishing.service.gov.uk/media/6aa9520b086ce7c57b8184e5/202605_BDUK_uprn_release_sample.csv","final_url":"https://www.gov.uk/csv-preview/6aa9520b086ce7c57b8184e5/202605_BDUK_uprn_release_sample.csv","field_evidence":{"official_identifier":"uprn","current_gigabit":"current_gigabit","future_gigabit":"future_gigabit","postcode":"postcode","area_codes":["local_authority_district_ons_code","region_ons_code"]},"evidence_slice_sha256":"28636deb60fffa8d625cdbf39cca79a7643c75e8a8fce000a34b578be822536e","confidence_score_0_100":94,"evidence_grade":"A_OFFICIAL_TRANSPARENCY_SAMPLE","fake_data":false,"canonical_join_status":"UNPROCESSED_LOCAL_OPENCODE_REQUIRED"}},{"type":"Feature","geometry":null,"properties":{"slot_id":"internet_access_4","lineage_id":"IA4-b55255e80113bdd22f6c","page_generation":1,"batch_id":"20260930T004200Z-bduk-may2026-sample-001","record_index":24,"official_identifier_type":"UPRN","official_identifier":"100061271928","postcode":"ME8 8ER","country":"England","lot_id":29,"lot_name":"Kent","subsidy_control_status":"Gigabit Grey/Black","current_gigabit":true,"future_gigabit":false,"local_authority_district_ons_code":"E06000035","local_authority_district_ons":"Medway","region_ons_code":"E12000008","region_ons":"South East","bduk_gis":false,"data_date":"2026-05","publication_date":"2026-09-17","source_url":"https://assets.publishing.service.gov.uk/media/6aa9520b086ce7c57b8184e5/202605_BDUK_uprn_release_sample.csv","final_url":"https://www.gov.uk/csv-preview/6aa9520b086ce7c57b8184e5/202605_BDUK_uprn_release_sample.csv","field_evidence":{"official_identifier":"uprn","current_gigabit":"current_gigabit","future_gigabit":"future_gigabit","postcode":"postcode","area_codes":["local_authority_district_ons_code","region_ons_code"]},"evidence_slice_sha256":"28636deb60fffa8d625cdbf39cca79a7643c75e8a8fce000a34b578be822536e","confidence_score_0_100":94,"evidence_grade":"A_OFFICIAL_TRANSPARENCY_SAMPLE","fake_data":false,"canonical_join_status":"UNPROCESSED_LOCAL_OPENCODE_REQUIRED"}},{"type":"Feature","geometry":null,"properties":{"slot_id":"internet_access_4","lineage_id":"IA4-b55255e80113bdd22f6c","page_generation":1,"batch_id":"20260930T004200Z-bduk-may2026-sample-001","record_index":25,"official_identifier_type":"UPRN","official_identifier":"44014103","postcode":"ME1 2FE","country":"England","lot_id":29,"lot_name":"Kent","subsidy_control_status":"Gigabit Grey/Black","current_gigabit":true,"future_gigabit":false,"local_authority_district_ons_code":"E06000035","local_authority_district_ons":"Medway","region_ons_code":"E12000008","region_ons":"South East","bduk_gis":false,"data_date":"2026-05","publication_date":"2026-09-17","source_url":"https://assets.publishing.service.gov.uk/media/6aa9520b086ce7c57b8184e5/202605_BDUK_uprn_release_sample.csv","final_url":"https://www.gov.uk/csv-preview/6aa9520b086ce7c57b8184e5/202605_BDUK_uprn_release_sample.csv","field_evidence":{"official_identifier":"uprn","current_gigabit":"current_gigabit","future_gigabit":"future_gigabit","postcode":"postcode","area_codes":["local_authority_district_ons_code","region_ons_code"]},"evidence_slice_sha256":"28636deb60fffa8d625cdbf39cca79a7643c75e8a8fce000a34b578be822536e","confidence_score_0_100":94,"evidence_grade":"A_OFFICIAL_TRANSPARENCY_SAMPLE","fake_data":false,"canonical_join_status":"UNPROCESSED_LOCAL_OPENCODE_REQUIRED"}},{"type":"Feature","geometry":null,"properties":{"slot_id":"internet_access_4","lineage_id":"IA4-b55255e80113bdd22f6c","page_generation":1,"batch_id":"20260930T004200Z-bduk-may2026-sample-001","record_index":26,"official_identifier_type":"UPRN","official_identifier":"44048582","postcode":"ME5 0JY","country":"England","lot_id":29,"lot_name":"Kent","subsidy_control_status":"Gigabit Grey/Black","current_gigabit":true,"future_gigabit":false,"local_authority_district_ons_code":"E06000035","local_authority_district_ons":"Medway","region_ons_code":"E12000008","region_ons":"South East","bduk_gis":false,"data_date":"2026-05","publication_date":"2026-09-17","source_url":"https://assets.publishing.service.gov.uk/media/6aa9520b086ce7c57b8184e5/202605_BDUK_uprn_release_sample.csv","final_url":"https://www.gov.uk/csv-preview/6aa9520b086ce7c57b8184e5/202605_BDUK_uprn_release_sample.csv","field_evidence":{"official_identifier":"uprn","current_gigabit":"current_gigabit","future_gigabit":"future_gigabit","postcode":"postcode","area_codes":["local_authority_district_ons_code","region_ons_code"]},"evidence_slice_sha256":"28636deb60fffa8d625cdbf39cca79a7643c75e8a8fce000a34b578be822536e","confidence_score_0_100":94,"evidence_grade":"A_OFFICIAL_TRANSPARENCY_SAMPLE","fake_data":false,"canonical_join_status":"UNPROCESSED_LOCAL_OPENCODE_REQUIRED"}},{"type":"Feature","geometry":null,"properties":{"slot_id":"internet_access_4","lineage_id":"IA4-b55255e80113bdd22f6c","page_generation":1,"batch_id":"20260930T004200Z-bduk-may2026-sample-001","record_index":27,"official_identifier_type":"UPRN","official_identifier":"44097190","postcode":"ME8 6QZ","country":"England","lot_id":29,"lot_name":"Kent","subsidy_control_status":"Gigabit Grey/Black","current_gigabit":true,"future_gigabit":false,"local_authority_district_ons_code":"E06000035","local_authority_district_ons":"Medway","region_ons_code":"E12000008","region_ons":"South East","bduk_gis":false,"data_date":"2026-05","publication_date":"2026-09-17","source_url":"https://assets.publishing.service.gov.uk/media/6aa9520b086ce7c57b8184e5/202605_BDUK_uprn_release_sample.csv","final_url":"https://www.gov.uk/csv-preview/6aa9520b086ce7c57b8184e5/202605_BDUK_uprn_release_sample.csv","field_evidence":{"official_identifier":"uprn","current_gigabit":"current_gigabit","future_gigabit":"future_gigabit","postcode":"postcode","area_codes":["local_authority_district_ons_code","region_ons_code"]},"evidence_slice_sha256":"28636deb60fffa8d625cdbf39cca79a7643c75e8a8fce000a34b578be822536e","confidence_score_0_100":94,"evidence_grade":"A_OFFICIAL_TRANSPARENCY_SAMPLE","fake_data":false,"canonical_join_status":"UNPROCESSED_LOCAL_OPENCODE_REQUIRED"}},{"type":"Feature","geometry":null,"properties":{"slot_id":"internet_access_4","lineage_id":"IA4-b55255e80113bdd22f6c","page_generation":1,"batch_id":"20260930T004200Z-bduk-may2026-sample-001","record_index":28,"official_identifier_type":"UPRN","official_identifier":"44036340","postcode":"ME4 5UR","country":"England","lot_id":29,"lot_name":"Kent","subsidy_control_status":"Gigabit Grey/Black","current_gigabit":true,"future_gigabit":false,"local_authority_district_ons_code":"E06000035","local_authority_district_ons":"Medway","region_ons_code":"E12000008","region_ons":"South East","bduk_gis":false,"data_date":"2026-05","publication_date":"2026-09-17","source_url":"https://assets.publishing.service.gov.uk/media/6aa9520b086ce7c57b8184e5/202605_BDUK_uprn_release_sample.csv","final_url":"https://www.gov.uk/csv-preview/6aa9520b086ce7c57b8184e5/202605_BDUK_uprn_release_sample.csv","field_evidence":{"official_identifier":"uprn","current_gigabit":"current_gigabit","future_gigabit":"future_gigabit","postcode":"postcode","area_codes":["local_authority_district_ons_code","region_ons_code"]},"evidence_slice_sha256":"28636deb60fffa8d625cdbf39cca79a7643c75e8a8fce000a34b578be822536e","confidence_score_0_100":94,"evidence_grade":"A_OFFICIAL_TRANSPARENCY_SAMPLE","fake_data":false,"canonical_join_status":"UNPROCESSED_LOCAL_OPENCODE_REQUIRED"}},{"type":"Feature","geometry":null,"properties":{"slot_id":"internet_access_4","lineage_id":"IA4-b55255e80113bdd22f6c","page_generation":1,"batch_id":"20260930T004200Z-bduk-may2026-sample-001","record_index":29,"official_identifier_type":"UPRN","official_identifier":"44031844","postcode":"ME5 0PT","country":"England","lot_id":29,"lot_name":"Kent","subsidy_control_status":"Gigabit Grey/Black","current_gigabit":true,"future_gigabit":false,"local_authority_district_ons_code":"E06000035","local_authority_district_ons":"Medway","region_ons_code":"E12000008","region_ons":"South East","bduk_gis":false,"data_date":"2026-05","publication_date":"2026-09-17","source_url":"https://assets.publishing.service.gov.uk/media/6aa9520b086ce7c57b8184e5/202605_BDUK_uprn_release_sample.csv","final_url":"https://www.gov.uk/csv-preview/6aa9520b086ce7c57b8184e5/202605_BDUK_uprn_release_sample.csv","field_evidence":{"official_identifier":"uprn","current_gigabit":"current_gigabit","future_gigabit":"future_gigabit","postcode":"postcode","area_codes":["local_authority_district_ons_code","region_ons_code"]},"evidence_slice_sha256":"28636deb60fffa8d625cdbf39cca79a7643c75e8a8fce000a34b578be822536e","confidence_score_0_100":94,"evidence_grade":"A_OFFICIAL_TRANSPARENCY_SAMPLE","fake_data":false,"canonical_join_status":"UNPROCESSED_LOCAL_OPENCODE_REQUIRED"}},{"type":"Feature","geometry":null,"properties":{"slot_id":"internet_access_4","lineage_id":"IA4-b55255e80113bdd22f6c","page_generation":1,"batch_id":"20260930T004200Z-bduk-may2026-sample-001","record_index":30,"official_identifier_type":"UPRN","official_identifier":"44096452","postcode":"ME8 7AD","country":"England","lot_id":29,"lot_name":"Kent","subsidy_control_status":"Gigabit Grey/Black","current_gigabit":true,"future_gigabit":false,"local_authority_district_ons_code":"E06000035","local_authority_district_ons":"Medway","region_ons_code":"E12000008","region_ons":"South East","bduk_gis":false,"data_date":"2026-05","publication_date":"2026-09-17","source_url":"https://assets.publishing.service.gov.uk/media/6aa9520b086ce7c57b8184e5/202605_BDUK_uprn_release_sample.csv","final_url":"https://www.gov.uk/csv-preview/6aa9520b086ce7c57b8184e5/202605_BDUK_uprn_release_sample.csv","field_evidence":{"official_identifier":"uprn","current_gigabit":"current_gigabit","future_gigabit":"future_gigabit","postcode":"postcode","area_codes":["local_authority_district_ons_code","region_ons_code"]},"evidence_slice_sha256":"28636deb60fffa8d625cdbf39cca79a7643c75e8a8fce000a34b578be822536e","confidence_score_0_100":94,"evidence_grade":"A_OFFICIAL_TRANSPARENCY_SAMPLE","fake_data":false,"canonical_join_status":"UNPROCESSED_LOCAL_OPENCODE_REQUIRED"}},{"type":"Feature","geometry":null,"properties":{"slot_id":"internet_access_4","lineage_id":"IA4-b55255e80113bdd22f6c","page_generation":1,"batch_id":"20260930T004200Z-bduk-may2026-sample-001","record_index":31,"official_identifier_type":"UPRN","official_identifier":"100061262400","postcode":"ME8 9JW","country":"England","lot_id":29,"lot_name":"Kent","subsidy_control_status":"Gigabit Grey/Black","current_gigabit":true,"future_gigabit":false,"local_authority_district_ons_code":"E06000035","local_authority_district_ons":"Medway","region_ons_code":"E12000008","region_ons":"South East","bduk_gis":false,"data_date":"2026-05","publication_date":"2026-09-17","source_url":"https://assets.publishing.service.gov.uk/media/6aa9520b086ce7c57b8184e5/202605_BDUK_uprn_release_sample.csv","final_url":"https://www.gov.uk/csv-preview/6aa9520b086ce7c57b8184e5/202605_BDUK_uprn_release_sample.csv","field_evidence":{"official_identifier":"uprn","current_gigabit":"current_gigabit","future_gigabit":"future_gigabit","postcode":"postcode","area_codes":["local_authority_district_ons_code","region_ons_code"]},"evidence_slice_sha256":"28636deb60fffa8d625cdbf39cca79a7643c75e8a8fce000a34b578be822536e","confidence_score_0_100":94,"evidence_grade":"A_OFFICIAL_TRANSPARENCY_SAMPLE","fake_data":false,"canonical_join_status":"UNPROCESSED_LOCAL_OPENCODE_REQUIRED"}},{"type":"Feature","geometry":null,"properties":{"slot_id":"internet_access_4","lineage_id":"IA4-b55255e80113bdd22f6c","page_generation":1,"batch_id":"20260930T004200Z-bduk-may2026-sample-001","record_index":32,"official_identifier_type":"UPRN","official_identifier":"44024064","postcode":"ME1 2DF","country":"England","lot_id":29,"lot_name":"Kent","subsidy_control_status":"Gigabit Grey/Black","current_gigabit":true,"future_gigabit":false,"local_authority_district_ons_code":"E06000035","local_authority_district_ons":"Medway","region_ons_code":"E12000008","region_ons":"South East","bduk_gis":false,"data_date":"2026-05","publication_date":"2026-09-17","source_url":"https://assets.publishing.service.gov.uk/media/6aa9520b086ce7c57b8184e5/202605_BDUK_uprn_release_sample.csv","final_url":"https://www.gov.uk/csv-preview/6aa9520b086ce7c57b8184e5/202605_BDUK_uprn_release_sample.csv","field_evidence":{"official_identifier":"uprn","current_gigabit":"current_gigabit","future_gigabit":"future_gigabit","postcode":"postcode","area_codes":["local_authority_district_ons_code","region_ons_code"]},"evidence_slice_sha256":"28636deb60fffa8d625cdbf39cca79a7643c75e8a8fce000a34b578be822536e","confidence_score_0_100":94,"evidence_grade":"A_OFFICIAL_TRANSPARENCY_SAMPLE","fake_data":false,"canonical_join_status":"UNPROCESSED_LOCAL_OPENCODE_REQUIRED"}},{"type":"Feature","geometry":null,"properties":{"slot_id":"internet_access_4","lineage_id":"IA4-b55255e80113bdd22f6c","page_generation":1,"batch_id":"20260930T004200Z-bduk-may2026-sample-001","record_index":33,"official_identifier_type":"UPRN","official_identifier":"44008299","postcode":"ME1 1QD","country":"England","lot_id":29,"lot_name":"Kent","subsidy_control_status":"Gigabit Grey/Black","current_gigabit":true,"future_gigabit":false,"local_authority_district_ons_code":"E06000035","local_authority_district_ons":"Medway","region_ons_code":"E12000008","region_ons":"South East","bduk_gis":false,"data_date":"2026-05","publication_date":"2026-09-17","source_url":"https://assets.publishing.service.gov.uk/media/6aa9520b086ce7c57b8184e5/202605_BDUK_uprn_release_sample.csv","final_url":"https://www.gov.uk/csv-preview/6aa9520b086ce7c57b8184e5/202605_BDUK_uprn_release_sample.csv","field_evidence":{"official_identifier":"uprn","current_gigabit":"current_gigabit","future_gigabit":"future_gigabit","postcode":"postcode","area_codes":["local_authority_district_ons_code","region_ons_code"]},"evidence_slice_sha256":"28636deb60fffa8d625cdbf39cca79a7643c75e8a8fce000a34b578be822536e","confidence_score_0_100":94,"evidence_grade":"A_OFFICIAL_TRANSPARENCY_SAMPLE","fake_data":false,"canonical_join_status":"UNPROCESSED_LOCAL_OPENCODE_REQUIRED"}},{"type":"Feature","geometry":null,"properties":{"slot_id":"internet_access_4","lineage_id":"IA4-b55255e80113bdd22f6c","page_generation":1,"batch_id":"20260930T004200Z-bduk-may2026-sample-001","record_index":34,"official_identifier_type":"UPRN","official_identifier":"100061254295","postcode":"ME8 7PZ","country":"England","lot_id":29,"lot_name":"Kent","subsidy_control_status":"Gigabit Grey/Black","current_gigabit":true,"future_gigabit":false,"local_authority_district_ons_code":"E06000035","local_authority_district_ons":"Medway","region_ons_code":"E12000008","region_ons":"South East","bduk_gis":false,"data_date":"2026-05","publication_date":"2026-09-17","source_url":"https://assets.publishing.service.gov.uk/media/6aa9520b086ce7c57b8184e5/202605_BDUK_uprn_release_sample.csv","final_url":"https://www.gov.uk/csv-preview/6aa9520b086ce7c57b8184e5/202605_BDUK_uprn_release_sample.csv","field_evidence":{"official_identifier":"uprn","current_gigabit":"current_gigabit","future_gigabit":"future_gigabit","postcode":"postcode","area_codes":["local_authority_district_ons_code","region_ons_code"]},"evidence_slice_sha256":"28636deb60fffa8d625cdbf39cca79a7643c75e8a8fce000a34b578be822536e","confidence_score_0_100":94,"evidence_grade":"A_OFFICIAL_TRANSPARENCY_SAMPLE","fake_data":false,"canonical_join_status":"UNPROCESSED_LOCAL_OPENCODE_REQUIRED"}},{"type":"Feature","geometry":null,"properties":{"slot_id":"internet_access_4","lineage_id":"IA4-b55255e80113bdd22f6c","page_generation":1,"batch_id":"20260930T004200Z-bduk-may2026-sample-001","record_index":35,"official_identifier_type":"UPRN","official_identifier":"44023770","postcode":"ME1 2AL","country":"England","lot_id":29,"lot_name":"Kent","subsidy_control_status":"Gigabit Grey/Black","current_gigabit":true,"future_gigabit":false,"local_authority_district_ons_code":"E06000035","local_authority_district_ons":"Medway","region_ons_code":"E12000008","region_ons":"South East","bduk_gis":false,"data_date":"2026-05","publication_date":"2026-09-17","source_url":"https://assets.publishing.service.gov.uk/media/6aa9520b086ce7c57b8184e5/202605_BDUK_uprn_release_sample.csv","final_url":"https://www.gov.uk/csv-preview/6aa9520b086ce7c57b8184e5/202605_BDUK_uprn_release_sample.csv","field_evidence":{"official_identifier":"uprn","current_gigabit":"current_gigabit","future_gigabit":"future_gigabit","postcode":"postcode","area_codes":["local_authority_district_ons_code","region_ons_code"]},"evidence_slice_sha256":"28636deb60fffa8d625cdbf39cca79a7643c75e8a8fce000a34b578be822536e","confidence_score_0_100":94,"evidence_grade":"A_OFFICIAL_TRANSPARENCY_SAMPLE","fake_data":false,"canonical_join_status":"UNPROCESSED_LOCAL_OPENCODE_REQUIRED"}},{"type":"Feature","geometry":null,"properties":{"slot_id":"internet_access_4","lineage_id":"IA4-b55255e80113bdd22f6c","page_generation":1,"batch_id":"20260930T004200Z-bduk-may2026-sample-001","record_index":36,"official_identifier_type":"UPRN","official_identifier":"44097085","postcode":"ME8 6NF","country":"England","lot_id":29,"lot_name":"Kent","subsidy_control_status":"Gigabit Grey/Black","current_gigabit":true,"future_gigabit":false,"local_authority_district_ons_code":"E06000035","local_authority_district_ons":"Medway","region_ons_code":"E12000008","region_ons":"South East","bduk_gis":false,"data_date":"2026-05","publication_date":"2026-09-17","source_url":"https://assets.publishing.service.gov.uk/media/6aa9520b086ce7c57b8184e5/202605_BDUK_uprn_release_sample.csv","final_url":"https://www.gov.uk/csv-preview/6aa9520b086ce7c57b8184e5/202605_BDUK_uprn_release_sample.csv","field_evidence":{"official_identifier":"uprn","current_gigabit":"current_gigabit","future_gigabit":"future_gigabit","postcode":"postcode","area_codes":["local_authority_district_ons_code","region_ons_code"]},"evidence_slice_sha256":"28636deb60fffa8d625cdbf39cca79a7643c75e8a8fce000a34b578be822536e","confidence_score_0_100":94,"evidence_grade":"A_OFFICIAL_TRANSPARENCY_SAMPLE","fake_data":false,"canonical_join_status":"UNPROCESSED_LOCAL_OPENCODE_REQUIRED"}},{"type":"Feature","geometry":null,"properties":{"slot_id":"internet_access_4","lineage_id":"IA4-b55255e80113bdd22f6c","page_generation":1,"batch_id":"20260930T004200Z-bduk-may2026-sample-001","record_index":37,"official_identifier_type":"UPRN","official_identifier":"44053150","postcode":"ME7 1GP","country":"England","lot_id":29,"lot_name":"Kent","subsidy_control_status":"Gigabit Grey/Black","current_gigabit":true,"future_gigabit":false,"local_authority_district_ons_code":"E06000035","local_authority_district_ons":"Medway","region_ons_code":"E12000008","region_ons":"South East","bduk_gis":false,"data_date":"2026-05","publication_date":"2026-09-17","source_url":"https://assets.publishing.service.gov.uk/media/6aa9520b086ce7c57b8184e5/202605_BDUK_uprn_release_sample.csv","final_url":"https://www.gov.uk/csv-preview/6aa9520b086ce7c57b8184e5/202605_BDUK_uprn_release_sample.csv","field_evidence":{"official_identifier":"uprn","current_gigabit":"current_gigabit","future_gigabit":"future_gigabit","postcode":"postcode","area_codes":["local_authority_district_ons_code","region_ons_code"]},"evidence_slice_sha256":"28636deb60fffa8d625cdbf39cca79a7643c75e8a8fce000a34b578be822536e","confidence_score_0_100":94,"evidence_grade":"A_OFFICIAL_TRANSPARENCY_SAMPLE","fake_data":false,"canonical_join_status":"UNPROCESSED_LOCAL_OPENCODE_REQUIRED"}},{"type":"Feature","geometry":null,"properties":{"slot_id":"internet_access_4","lineage_id":"IA4-b55255e80113bdd22f6c","page_generation":1,"batch_id":"20260930T004200Z-bduk-may2026-sample-001","record_index":38,"official_identifier_type":"UPRN","official_identifier":"44073421","postcode":"ME8 7DD","country":"England","lot_id":29,"lot_name":"Kent","subsidy_control_status":"Gigabit Grey/Black","current_gigabit":true,"future_gigabit":false,"local_authority_district_ons_code":"E06000035","local_authority_district_ons":"Medway","region_ons_code":"E12000008","region_ons":"South East","bduk_gis":false,"data_date":"2026-05","publication_date":"2026-09-17","source_url":"https://assets.publishing.service.gov.uk/media/6aa9520b086ce7c57b8184e5/202605_BDUK_uprn_release_sample.csv","final_url":"https://www.gov.uk/csv-preview/6aa9520b086ce7c57b8184e5/202605_BDUK_uprn_release_sample.csv","field_evidence":{"official_identifier":"uprn","current_gigabit":"current_gigabit","future_gigabit":"future_gigabit","postcode":"postcode","area_codes":["local_authority_district_ons_code","region_ons_code"]},"evidence_slice_sha256":"28636deb60fffa8d625cdbf39cca79a7643c75e8a8fce000a34b578be822536e","confidence_score_0_100":94,"evidence_grade":"A_OFFICIAL_TRANSPARENCY_SAMPLE","fake_data":false,"canonical_join_status":"UNPROCESSED_LOCAL_OPENCODE_REQUIRED"}},{"type":"Feature","geometry":null,"properties":{"slot_id":"internet_access_4","lineage_id":"IA4-b55255e80113bdd22f6c","page_generation":1,"batch_id":"20260930T004200Z-bduk-may2026-sample-001","record_index":39,"official_identifier_type":"UPRN","official_identifier":"44057218","postcode":"ME5 8PX","country":"England","lot_id":29,"lot_name":"Kent","subsidy_control_status":"Gigabit Grey/Black","current_gigabit":true,"future_gigabit":false,"local_authority_district_ons_code":"E06000035","local_authority_district_ons":"Medway","region_ons_code":"E12000008","region_ons":"South East","bduk_gis":false,"data_date":"2026-05","publication_date":"2026-09-17","source_url":"https://assets.publishing.service.gov.uk/media/6aa9520b086ce7c57b8184e5/202605_BDUK_uprn_release_sample.csv","final_url":"https://www.gov.uk/csv-preview/6aa9520b086ce7c57b8184e5/202605_BDUK_uprn_release_sample.csv","field_evidence":{"official_identifier":"uprn","current_gigabit":"current_gigabit","future_gigabit":"future_gigabit","postcode":"postcode","area_codes":["local_authority_district_ons_code","region_ons_code"]},"evidence_slice_sha256":"28636deb60fffa8d625cdbf39cca79a7643c75e8a8fce000a34b578be822536e","confidence_score_0_100":94,"evidence_grade":"A_OFFICIAL_TRANSPARENCY_SAMPLE","fake_data":false,"canonical_join_status":"UNPROCESSED_LOCAL_OPENCODE_REQUIRED"}},{"type":"Feature","geometry":null,"properties":{"slot_id":"internet_access_4","lineage_id":"IA4-b55255e80113bdd22f6c","page_generation":1,"batch_id":"20260930T004200Z-bduk-may2026-sample-001","record_index":40,"official_identifier_type":"UPRN","official_identifier":"44005557","postcode":"ME4 5AA","country":"England","lot_id":29,"lot_name":"Kent","subsidy_control_status":"Gigabit Grey/Black","current_gigabit":true,"future_gigabit":false,"local_authority_district_ons_code":"E06000035","local_authority_district_ons":"Medway","region_ons_code":"E12000008","region_ons":"South East","bduk_gis":false,"data_date":"2026-05","publication_date":"2026-09-17","source_url":"https://assets.publishing.service.gov.uk/media/6aa9520b086ce7c57b8184e5/202605_BDUK_uprn_release_sample.csv","final_url":"https://www.gov.uk/csv-preview/6aa9520b086ce7c57b8184e5/202605_BDUK_uprn_release_sample.csv","field_evidence":{"official_identifier":"uprn","current_gigabit":"current_gigabit","future_gigabit":"future_gigabit","postcode":"postcode","area_codes":["local_authority_district_ons_code","region_ons_code"]},"evidence_slice_sha256":"28636deb60fffa8d625cdbf39cca79a7643c75e8a8fce000a34b578be822536e","confidence_score_0_100":94,"evidence_grade":"A_OFFICIAL_TRANSPARENCY_SAMPLE","fake_data":false,"canonical_join_status":"UNPROCESSED_LOCAL_OPENCODE_REQUIRED"}},{"type":"Feature","geometry":null,"properties":{"slot_id":"internet_access_4","lineage_id":"IA4-b55255e80113bdd22f6c","page_generation":1,"batch_id":"20260930T004200Z-bduk-may2026-sample-001","record_index":41,"official_identifier_type":"UPRN","official_identifier":"44053052","postcode":"ME4 5LJ","country":"England","lot_id":29,"lot_name":"Kent","subsidy_control_status":"Gigabit Grey/Black","current_gigabit":true,"future_gigabit":false,"local_authority_district_ons_code":"E06000035","local_authority_district_ons":"Medway","region_ons_code":"E12000008","region_ons":"South East","bduk_gis":false,"data_date":"2026-05","publication_date":"2026-09-17","source_url":"https://assets.publishing.service.gov.uk/media/6aa9520b086ce7c57b8184e5/202605_BDUK_uprn_release_sample.csv","final_url":"https://www.gov.uk/csv-preview/6aa9520b086ce7c57b8184e5/202605_BDUK_uprn_release_sample.csv","field_evidence":{"official_identifier":"uprn","current_gigabit":"current_gigabit","future_gigabit":"future_gigabit","postcode":"postcode","area_codes":["local_authority_district_ons_code","region_ons_code"]},"evidence_slice_sha256":"28636deb60fffa8d625cdbf39cca79a7643c75e8a8fce000a34b578be822536e","confidence_score_0_100":94,"evidence_grade":"A_OFFICIAL_TRANSPARENCY_SAMPLE","fake_data":false,"canonical_join_status":"UNPROCESSED_LOCAL_OPENCODE_REQUIRED"}},{"type":"Feature","geometry":null,"properties":{"slot_id":"internet_access_4","lineage_id":"IA4-b55255e80113bdd22f6c","page_generation":1,"batch_id":"20260930T004200Z-bduk-may2026-sample-001","record_index":42,"official_identifier_type":"UPRN","official_identifier":"44058106","postcode":"ME5 8UL","country":"England","lot_id":29,"lot_name":"Kent","subsidy_control_status":"Gigabit Grey/Black","current_gigabit":true,"future_gigabit":false,"local_authority_district_ons_code":"E06000035","local_authority_district_ons":"Medway","region_ons_code":"E12000008","region_ons":"South East","bduk_gis":false,"data_date":"2026-05","publication_date":"2026-09-17","source_url":"https://assets.publishing.service.gov.uk/media/6aa9520b086ce7c57b8184e5/202605_BDUK_uprn_release_sample.csv","final_url":"https://www.gov.uk/csv-preview/6aa9520b086ce7c57b8184e5/202605_BDUK_uprn_release_sample.csv","field_evidence":{"official_identifier":"uprn","current_gigabit":"current_gigabit","future_gigabit":"future_gigabit","postcode":"postcode","area_codes":["local_authority_district_ons_code","region_ons_code"]},"evidence_slice_sha256":"28636deb60fffa8d625cdbf39cca79a7643c75e8a8fce000a34b578be822536e","confidence_score_0_100":94,"evidence_grade":"A_OFFICIAL_TRANSPARENCY_SAMPLE","fake_data":false,"canonical_join_status":"UNPROCESSED_LOCAL_OPENCODE_REQUIRED"}},{"type":"Feature","geometry":null,"properties":{"slot_id":"internet_access_4","lineage_id":"IA4-b55255e80113bdd22f6c","page_generation":1,"batch_id":"20260930T004200Z-bduk-may2026-sample-001","record_index":43,"official_identifier_type":"UPRN","official_identifier":"100061272919","postcode":"ME8 0EP","country":"England","lot_id":29,"lot_name":"Kent","subsidy_control_status":"Gigabit Grey/Black","current_gigabit":true,"future_gigabit":false,"local_authority_district_ons_code":"E06000035","local_authority_district_ons":"Medway","region_ons_code":"E12000008","region_ons":"South East","bduk_gis":false,"data_date":"2026-05","publication_date":"2026-09-17","source_url":"https://assets.publishing.service.gov.uk/media/6aa9520b086ce7c57b8184e5/202605_BDUK_uprn_release_sample.csv","final_url":"https://www.gov.uk/csv-preview/6aa9520b086ce7c57b8184e5/202605_BDUK_uprn_release_sample.csv","field_evidence":{"official_identifier":"uprn","current_gigabit":"current_gigabit","future_gigabit":"future_gigabit","postcode":"postcode","area_codes":["local_authority_district_ons_code","region_ons_code"]},"evidence_slice_sha256":"28636deb60fffa8d625cdbf39cca79a7643c75e8a8fce000a34b578be822536e","confidence_score_0_100":94,"evidence_grade":"A_OFFICIAL_TRANSPARENCY_SAMPLE","fake_data":false,"canonical_join_status":"UNPROCESSED_LOCAL_OPENCODE_REQUIRED"}},{"type":"Feature","geometry":null,"properties":{"slot_id":"internet_access_4","lineage_id":"IA4-b55255e80113bdd22f6c","page_generation":1,"batch_id":"20260930T004200Z-bduk-may2026-sample-001","record_index":44,"official_identifier_type":"UPRN","official_identifier":"44066982","postcode":"ME1 1GL","country":"England","lot_id":29,"lot_name":"Kent","subsidy_control_status":"Gigabit Grey/Black","current_gigabit":true,"future_gigabit":false,"local_authority_district_ons_code":"E06000035","local_authority_district_ons":"Medway","region_ons_code":"E12000008","region_ons":"South East","bduk_gis":false,"data_date":"2026-05","publication_date":"2026-09-17","source_url":"https://assets.publishing.service.gov.uk/media/6aa9520b086ce7c57b8184e5/202605_BDUK_uprn_release_sample.csv","final_url":"https://www.gov.uk/csv-preview/6aa9520b086ce7c57b8184e5/202605_BDUK_uprn_release_sample.csv","field_evidence":{"official_identifier":"uprn","current_gigabit":"current_gigabit","future_gigabit":"future_gigabit","postcode":"postcode","area_codes":["local_authority_district_ons_code","region_ons_code"]},"evidence_slice_sha256":"28636deb60fffa8d625cdbf39cca79a7643c75e8a8fce000a34b578be822536e","confidence_score_0_100":94,"evidence_grade":"A_OFFICIAL_TRANSPARENCY_SAMPLE","fake_data":false,"canonical_join_status":"UNPROCESSED_LOCAL_OPENCODE_REQUIRED"}},{"type":"Feature","geometry":null,"properties":{"slot_id":"internet_access_4","lineage_id":"IA4-b55255e80113bdd22f6c","page_generation":1,"batch_id":"20260930T004200Z-bduk-may2026-sample-001","record_index":45,"official_identifier_type":"UPRN","official_identifier":"44077534","postcode":"ME7 2JE","country":"England","lot_id":29,"lot_name":"Kent","subsidy_control_status":"Gigabit Grey/Black","current_gigabit":true,"future_gigabit":false,"local_authority_district_ons_code":"E06000035","local_authority_district_ons":"Medway","region_ons_code":"E12000008","region_ons":"South East","bduk_gis":false,"data_date":"2026-05","publication_date":"2026-09-17","source_url":"https://assets.publishing.service.gov.uk/media/6aa9520b086ce7c57b8184e5/202605_BDUK_uprn_release_sample.csv","final_url":"https://www.gov.uk/csv-preview/6aa9520b086ce7c57b8184e5/202605_BDUK_uprn_release_sample.csv","field_evidence":{"official_identifier":"uprn","current_gigabit":"current_gigabit","future_gigabit":"future_gigabit","postcode":"postcode","area_codes":["local_authority_district_ons_code","region_ons_code"]},"evidence_slice_sha256":"28636deb60fffa8d625cdbf39cca79a7643c75e8a8fce000a34b578be822536e","confidence_score_0_100":94,"evidence_grade":"A_OFFICIAL_TRANSPARENCY_SAMPLE","fake_data":false,"canonical_join_status":"UNPROCESSED_LOCAL_OPENCODE_REQUIRED"}},{"type":"Feature","geometry":null,"properties":{"slot_id":"internet_access_4","lineage_id":"IA4-b55255e80113bdd22f6c","page_generation":1,"batch_id":"20260930T004200Z-bduk-may2026-sample-001","record_index":46,"official_identifier_type":"UPRN","official_identifier":"44080597","postcode":"ME7 2QU","country":"England","lot_id":29,"lot_name":"Kent","subsidy_control_status":"Gigabit Grey/Black","current_gigabit":true,"future_gigabit":false,"local_authority_district_ons_code":"E06000035","local_authority_district_ons":"Medway","region_ons_code":"E12000008","region_ons":"South East","bduk_gis":false,"data_date":"2026-05","publication_date":"2026-09-17","source_url":"https://assets.publishing.service.gov.uk/media/6aa9520b086ce7c57b8184e5/202605_BDUK_uprn_release_sample.csv","final_url":"https://www.gov.uk/csv-preview/6aa9520b086ce7c57b8184e5/202605_BDUK_uprn_release_sample.csv","field_evidence":{"official_identifier":"uprn","current_gigabit":"current_gigabit","future_gigabit":"future_gigabit","postcode":"postcode","area_codes":["local_authority_district_ons_code","region_ons_code"]},"evidence_slice_sha256":"28636deb60fffa8d625cdbf39cca79a7643c75e8a8fce000a34b578be822536e","confidence_score_0_100":94,"evidence_grade":"A_OFFICIAL_TRANSPARENCY_SAMPLE","fake_data":false,"canonical_join_status":"UNPROCESSED_LOCAL_OPENCODE_REQUIRED"}},{"type":"Feature","geometry":null,"properties":{"slot_id":"internet_access_4","lineage_id":"IA4-b55255e80113bdd22f6c","page_generation":1,"batch_id":"20260930T004200Z-bduk-may2026-sample-001","record_index":47,"official_identifier_type":"UPRN","official_identifier":"100061270470","postcode":"ME8 8EH","country":"England","lot_id":29,"lot_name":"Kent","subsidy_control_status":"Gigabit Grey/Black","current_gigabit":true,"future_gigabit":false,"local_authority_district_ons_code":"E06000035","local_authority_district_ons":"Medway","region_ons_code":"E12000008","region_ons":"South East","bduk_gis":false,"data_date":"2026-05","publication_date":"2026-09-17","source_url":"https://assets.publishing.service.gov.uk/media/6aa9520b086ce7c57b8184e5/202605_BDUK_uprn_release_sample.csv","final_url":"https://www.gov.uk/csv-preview/6aa9520b086ce7c57b8184e5/202605_BDUK_uprn_release_sample.csv","field_evidence":{"official_identifier":"uprn","current_gigabit":"current_gigabit","future_gigabit":"future_gigabit","postcode":"postcode","area_codes":["local_authority_district_ons_code","region_ons_code"]},"evidence_slice_sha256":"28636deb60fffa8d625cdbf39cca79a7643c75e8a8fce000a34b578be822536e","confidence_score_0_100":94,"evidence_grade":"A_OFFICIAL_TRANSPARENCY_SAMPLE","fake_data":false,"canonical_join_status":"UNPROCESSED_LOCAL_OPENCODE_REQUIRED"}},{"type":"Feature","geometry":null,"properties":{"slot_id":"internet_access_4","lineage_id":"IA4-b55255e80113bdd22f6c","page_generation":1,"batch_id":"20260930T004200Z-bduk-may2026-sample-001","record_index":48,"official_identifier_type":"UPRN","official_identifier":"44083238","postcode":"ME3 8SU","country":"England","lot_id":29,"lot_name":"Kent","subsidy_control_status":"Gigabit Grey/Black","current_gigabit":true,"future_gigabit":false,"local_authority_district_ons_code":"E06000035","local_authority_district_ons":"Medway","region_ons_code":"E12000008","region_ons":"South East","bduk_gis":false,"data_date":"2026-05","publication_date":"2026-09-17","source_url":"https://assets.publishing.service.gov.uk/media/6aa9520b086ce7c57b8184e5/202605_BDUK_uprn_release_sample.csv","final_url":"https://www.gov.uk/csv-preview/6aa9520b086ce7c57b8184e5/202605_BDUK_uprn_release_sample.csv","field_evidence":{"official_identifier":"uprn","current_gigabit":"current_gigabit","future_gigabit":"future_gigabit","postcode":"postcode","area_codes":["local_authority_district_ons_code","region_ons_code"]},"evidence_slice_sha256":"28636deb60fffa8d625cdbf39cca79a7643c75e8a8fce000a34b578be822536e","confidence_score_0_100":94,"evidence_grade":"A_OFFICIAL_TRANSPARENCY_SAMPLE","fake_data":false,"canonical_join_status":"UNPROCESSED_LOCAL_OPENCODE_REQUIRED"}},{"type":"Feature","geometry":null,"properties":{"slot_id":"internet_access_4","lineage_id":"IA4-b55255e80113bdd22f6c","page_generation":1,"batch_id":"20260930T004200Z-bduk-may2026-sample-001","record_index":49,"official_identifier_type":"UPRN","official_identifier":"100061281181","postcode":"ME1 2QL","country":"England","lot_id":29,"lot_name":"Kent","subsidy_control_status":"Gigabit Grey/Black","current_gigabit":true,"future_gigabit":false,"local_authority_district_ons_code":"E06000035","local_authority_district_ons":"Medway","region_ons_code":"E12000008","region_ons":"South East","bduk_gis":false,"data_date":"2026-05","publication_date":"2026-09-17","source_url":"https://assets.publishing.service.gov.uk/media/6aa9520b086ce7c57b8184e5/202605_BDUK_uprn_release_sample.csv","final_url":"https://www.gov.uk/csv-preview/6aa9520b086ce7c57b8184e5/202605_BDUK_uprn_release_sample.csv","field_evidence":{"official_identifier":"uprn","current_gigabit":"current_gigabit","future_gigabit":"future_gigabit","postcode":"postcode","area_codes":["local_authority_district_ons_code","region_ons_code"]},"evidence_slice_sha256":"28636deb60fffa8d625cdbf39cca79a7643c75e8a8fce000a34b578be822536e","confidence_score_0_100":94,"evidence_grade":"A_OFFICIAL_TRANSPARENCY_SAMPLE","fake_data":false,"canonical_join_status":"UNPROCESSED_LOCAL_OPENCODE_REQUIRED"}},{"type":"Feature","geometry":null,"properties":{"slot_id":"internet_access_4","lineage_id":"IA4-b55255e80113bdd22f6c","page_generation":1,"batch_id":"20260930T004200Z-bduk-may2026-sample-001","record_index":50,"official_identifier_type":"UPRN","official_identifier":"44021570","postcode":"ME1 2QA","country":"England","lot_id":29,"lot_name":"Kent","subsidy_control_status":"Gigabit Grey/Black","current_gigabit":true,"future_gigabit":false,"local_authority_district_ons_code":"E06000035","local_authority_district_ons":"Medway","region_ons_code":"E12000008","region_ons":"South East","bduk_gis":false,"data_date":"2026-05","publication_date":"2026-09-17","source_url":"https://assets.publishing.service.gov.uk/media/6aa9520b086ce7c57b8184e5/202605_BDUK_uprn_release_sample.csv","final_url":"https://www.gov.uk/csv-preview/6aa9520b086ce7c57b8184e5/202605_BDUK_uprn_release_sample.csv","field_evidence":{"official_identifier":"uprn","current_gigabit":"current_gigabit","future_gigabit":"future_gigabit","postcode":"postcode","area_codes":["local_authority_district_ons_code","region_ons_code"]},"evidence_slice_sha256":"28636deb60fffa8d625cdbf39cca79a7643c75e8a8fce000a34b578be822536e","confidence_score_0_100":94,"evidence_grade":"A_OFFICIAL_TRANSPARENCY_SAMPLE","fake_data":false,"canonical_join_status":"UNPROCESSED_LOCAL_OPENCODE_REQUIRED"}}]}