{"type":"FeatureCollection","features":[{"type":"Feature","geometry":{"type":"MultiPolygon","coordinates":[[[[-0.191932,51.543561],[-0.191925,51.543638],[-0.191922,51.543695],[-0.19253,51.543713],[-0.192528,51.543683],[-0.192529,51.543638],[-0.192537,51.543596],[-0.192545,51.543571],[-0.191932,51.543561]]]]},"properties":{"slot_id":"future_growth_3","lineage_id":"future_growth_3-newstart-20261001T203100Z","page_generation":null,"accepted_as_parcel":false,"source_area_count_contribution":1,"exact_identifier":"LBCBLR095","exact_identifier_provided":true,"coverage_polygon_provided":true,"identifier_namespace":"Planning Data brownfield-site reference","secondary_exact_identifier":"entity:1800979","source_entity":"LBCBLR095 - 58 West End Lane London NW6 2NE","access_utc":"2026-10-04T17:19:53Z","data_date":"2020-12-22","source_url":"https://www.planning.data.gov.uk/entity/1800979","final_url":"https://www.planning.data.gov.uk/entity/1800979","license":"Open Government Licence v3.0; attribution © Crown copyright and database right 2026.","authority":"London Borough of Camden","site_address":"58 West End Lane London NW6 2NE","field_evidence":{"reference":"LBCBLR095","entity":1800979,"dataset":"Brownfield site","organisation":"London Borough of Camden","entry_date":"2020-12-22","site_name":"58 West End Lane London NW6 2NE","geometry":"MULTIPOLYGON (((-0.191932 51.543561, -0.191925 51.543638, -0.191922 51.543695, -0.19253 51.543713, -0.192528 51.543683, -0.192529 51.543638, -0.192537 51.543596, -0.192545 51.543571, -0.191932 51.543561)))","point":"POINT (-0.192232 51.543635)","quality":"some","brownfield_site":"LBCBLR095"},"source_payload_sha256":"fdb26372014476367ebc0b9341302c7058e0b99c589d5355ac96d34fdcecafb4","source_payload_sha256_basis":"canonicalized official Planning Data brownfield-site LBCBLR095 evidence fields","evidence_slice_sha256":"d6a4f72c4ffb3c22679260c51f5dda1485696a1f14d16d7d9aa94d5771ff7553","evidence_grade":"B","confidence_score_0_100":95,"evidence_scope":"official_public_no_login_planning_data_brownfield_site_explicit_multipolygon","fake_data":false,"spatial_binding_method":"official Planning Data brownfield-site entity 1800979 supplies an explicit MultiPolygon boundary; canonical parcel spatial join and materialization delegated to local OpenCode","planned_building_count_contribution":0}}]}