{"type":"FeatureCollection","features":[{"type":"Feature","geometry":{"type":"MultiPolygon","coordinates":[[[[-1.131006,53.523606],[-1.130894,53.523717],[-1.13093,53.52373],[-1.131261,53.523821],[-1.131329,53.523672],[-1.131087,53.523621],[-1.131006,53.523606]]]]},"properties":{"slot_id":"future_growth_1","lineage_id":"future_growth_1-newstart-20260927T153100+0300","page_generation":null,"semantic_mode":"AREA_JOIN","source_window":"mhclg_doncaster_brownfield_site_135_entity1802802_entry2025-12-03_official_html_WKT","semantic_identity":"brownfield-site:135|local-authority:DNC|entity:1802802|2025-12-03","source_url":"https://www.planning.data.gov.uk/entity/1802802","final_url":"https://www.planning.data.gov.uk/entity/1802802","final_url_status":"Official Planning Data entity page, no redirect independently reported","http_status":null,"http_status_reason":"Page accessible; origin numeric HTTP code unavailable through web client","access_utc":"2026-10-09T07:31:04.045Z","data_date":"2025-12-03","data_date_basis":"Official entity entry-date; start/end dates empty","license":"Open Government Licence v3.0","license_evidence_url":"https://www.nationalarchives.gov.uk/doc/open-government-licence/version/3/","field_evidence":{"entry-date":"2025-12-03","start-date":"","end-date":"","entity":1802802,"name":"Kaz Bar, 40 - 44 Silver Street, Doncaster, DN1 1HQ","dataset":"brownfield-site","typology":"geography","reference":"135","prefix":"brownfield-site","organisation-entity":"109","geometry":"MULTIPOLYGON (((-1.131006 53.523606, -1.130894 53.523717, -1.13093 53.52373, -1.131261 53.523821, -1.131329 53.523672, -1.131087 53.523621, -1.131006 53.523606)))","point":"POINT (-1.131125 53.523707)","quality":"authoritative","brownfield-site":"135","organisation-curie":"local-authority:DNC"},"evidence_slice_sha256":"cf79db4c12f4ba3cb4b7a1461da00114e188e605809a71df7b65dd7f7ee08b63","confidence_score_0_100":96,"evidence_grade":"A","fake_data":false,"source_area_count_contribution":1,"accepted_as_parcel":false,"exact_identifier":"135","exact_identifier_provided":true,"identifier_namespace":"brownfield-site:local-authority:DNC","coverage_polygon_provided":true,"geometry_type":"MultiPolygon","geometry_crs":"EPSG:4326","source_file_sha256":null,"source_file_sha256_reason":"Official downloadable entity GeoJSON yielded cache miss; no original raw GIS file bytes captured; complete official WKT published in HTML","spatial_binding_method":"Official published WKT MultiPolygon in WGS84, canonical parcel spatial join delegated to local OpenCode","planned_building_count_contribution":0}}]}