{"type":"FeatureCollection","name":"height_difference_5","metadata":{"slot_id":"height_difference_5","owner":"height_difference_5","lineage_id":"height_difference_5-eb56f92ed3f0514c","page_generation":1,"schema":"AAYS_LAYER24_EVIDENCE_V1","partition":"layer24","semantic_mode_state":"ABSENT_IN_PRIOR_PHYSICAL_STATE_PRESERVED_BY_OMISSION","batch_id":"20261003T153900Z_belfast_2006_extents_pdf_blocked","record_policy":"Official Belfast-specific extents PDF blocker evidence only; no PDF geometry, tile/file, parcel binding or CRS synthesized.","fake_data":false},"features":[{"type":"Feature","geometry":null,"properties":{"slot_id":"height_difference_5","owner":"height_difference_5","lineage_id":"height_difference_5-eb56f92ed3f0514c","page_generation":1,"schema":"AAYS_LAYER24_EVIDENCE_V1","partition":"layer24","batch_id":"20261003T153900Z_belfast_2006_extents_pdf_blocked","source_record_id":"DFI_BELFAST_LIDAR_2006:EXTENTS_MAP_PDF","source_url":"https://admin.opendatani.gov.uk/dataset/lidar-belfast-city-2006","resource_page":"https://admin.opendatani.gov.uk/dataset/lidar-belfast-city-2006/resource/c9d63fe8-0b93-46ca-981d-7f962a2cdd91","resource_url":"https://admin.opendatani.gov.uk/dataset/1af1f042-2934-4912-8548-9186303ddb5f/resource/c9d63fe8-0b93-46ca-981d-7f962a2cdd91/download/river-basin-lidar-extents-map.pdf","resource_id":"c9d63fe8-0b93-46ca-981d-7f962a2cdd91","resource_name":"River Basin LIDAR - Extents Map File","access_utc":"2026-10-03T15:39:00Z","required_building_state":"BUILDING_PRESENT","binding_status":"LOCAL_OPENCODE_BUILDING_PRESENT_EXACT_TILE_BIND_REQUIRED","payload_transport_status":"SIGNED_R2_REDIRECT_UNOPENABLE_NON_RETRYABLE","coverage_geometry":null,"exact_tile_identifier":null,"crs":null,"evidence_slice_sha256":"bdd888ecd5d34ccc47089df0d5171a7c3c31e5226bf5bcdee8aeee331d3a584a","accepted_count_contribution":0,"source_area_count_contribution":0,"fake_data":false}}]}
