{"type":"FeatureCollection","features":[{"type":"Feature","geometry":null,"properties":{"slot_id":"planned_buildings_1","lineage_id":"planned_buildings_1-0ffc4ebd6c6e4e41","semantic_mode":"DISTINCT_BUILDINGS","planned_building_id":"planning-application:RB2026/0778::DWELLING_01","building_status":"PLANNED","building_name":"Residential dwelling 1, land at 2 Rotherham Road Laughton Common","planning_reference":"RB2026/0778","authority":"Rotherham Metropolitan Borough Council","source_url":"https://planning.rotherham.gov.uk/fulldetail.asp?AltRef=RB2026%2F0778","final_url":"https://planning.rotherham.gov.uk/fulldetail.asp?AltRef=RB2026%2F0778","access_utc":"2026-10-03T02:26:22Z","source_data_date":"2026-06-03","license":"Open Government Licence v3.0","geometry_role":"official planning page exposes no machine-readable point or building footprint; geometry null; no geometry inferred","field_evidence":"Official Registered/Valid outline application explicitly states erection of 3 dwellings; the official page states no decision.","identity_limitation":"Exactly three new dwellings explicitly stated by the source are counted as three distinct new planned buildings; the disused building described for demolition is not counted as new.","confidence_score_0_100":98,"evidence_grade":"A","fake_data":false}},{"type":"Feature","geometry":null,"properties":{"slot_id":"planned_buildings_1","lineage_id":"planned_buildings_1-0ffc4ebd6c6e4e41","semantic_mode":"DISTINCT_BUILDINGS","planned_building_id":"planning-application:RB2026/0778::DWELLING_02","building_status":"PLANNED","building_name":"Residential dwelling 2, land at 2 Rotherham Road Laughton Common","planning_reference":"RB2026/0778","authority":"Rotherham Metropolitan Borough Council","source_url":"https://planning.rotherham.gov.uk/fulldetail.asp?AltRef=RB2026%2F0778","final_url":"https://planning.rotherham.gov.uk/fulldetail.asp?AltRef=RB2026%2F0778","access_utc":"2026-10-03T02:26:22Z","source_data_date":"2026-06-03","license":"Open Government Licence v3.0","geometry_role":"official planning page exposes no machine-readable point or building footprint; geometry null; no geometry inferred","field_evidence":"Official Registered/Valid outline application explicitly states erection of 3 dwellings; the official page states no decision.","identity_limitation":"Exactly three new dwellings explicitly stated by the source are counted as three distinct new planned buildings; the disused building described for demolition is not counted as new.","confidence_score_0_100":98,"evidence_grade":"A","fake_data":false}},{"type":"Feature","geometry":null,"properties":{"slot_id":"planned_buildings_1","lineage_id":"planned_buildings_1-0ffc4ebd6c6e4e41","semantic_mode":"DISTINCT_BUILDINGS","planned_building_id":"planning-application:RB2026/0778::DWELLING_03","building_status":"PLANNED","building_name":"Residential dwelling 3, land at 2 Rotherham Road Laughton Common","planning_reference":"RB2026/0778","authority":"Rotherham Metropolitan Borough Council","source_url":"https://planning.rotherham.gov.uk/fulldetail.asp?AltRef=RB2026%2F0778","final_url":"https://planning.rotherham.gov.uk/fulldetail.asp?AltRef=RB2026%2F0778","access_utc":"2026-10-03T02:26:22Z","source_data_date":"2026-06-03","license":"Open Government Licence v3.0","geometry_role":"official planning page exposes no machine-readable point or building footprint; geometry null; no geometry inferred","field_evidence":"Official Registered/Valid outline application explicitly states erection of 3 dwellings; the official page states no decision.","identity_limitation":"Exactly three new dwellings explicitly stated by the source are counted as three distinct new planned buildings; the disused building described for demolition is not counted as new.","confidence_score_0_100":98,"evidence_grade":"A","fake_data":false}}]}