{"type":"FeatureCollection","features":[{"type":"Feature","geometry":null,"properties":{"slot_id":"future_growth_3","lineage_id":"future_growth_3-newstart-20261001T203100Z","page_generation":null,"accepted_as_parcel":false,"source_area_count_contribution":1,"exact_identifier":"E60000130","exact_identifier_provided":true,"coverage_polygon_provided":false,"identifier_namespace":"Planning Data local-plan boundary","secondary_exact_identifier":"local-plan:birmingham-city-council-local-plan-2026","source_entity":4220023,"access_utc":"2026-10-01T20:31:00Z","data_date":"2024-10-21","source_url":"https://www.planning.data.gov.uk/entity/4220023","final_url":"https://www.planning.data.gov.uk/entity/4220023","license":"Open Government Licence v3.0","authority":"Birmingham City Council / Ministry of Housing, Communities & Local Government Planning Data","plan_name":"Birmingham Plan 2042","period_start_date":"2026-01-01","period_end_date":"2042-01-01","field_evidence":{"curie":"local-plan:birmingham-city-council-local-plan-2026","reference":"birmingham-city-council-local-plan-2026","name":"Birmingham Plan 2042","organisation":"Birmingham City Council","period_start_date":"2026-01-01","period_end_date":"2042-01-01","local_plan_boundary":"E60000130"},"source_payload_sha256":"26f94fe8566c5cf9fd60c21216376e672321459b2285b506bd29f1ade1ffb3ab","source_payload_sha256_basis":"canonicalized official entity JSON fields exposed by Planning Data","evidence_slice_sha256":"ad3fdbddb54da1ccb9be56f187e7d11d5af8c37abb9447829236d445cb6053dc","evidence_grade":"A","confidence_score_0_100":99,"evidence_scope":"exact_official_identifier","fake_data":false,"spatial_binding_method":"official exact local-plan-boundary identifier; canonical geometry resolution, parcel spatial join and materialization delegated to local OpenCode","planned_building_count_contribution":0}}]}