{"type":"FeatureCollection","name":"future_growth_6","features":[{"type":"Feature","id":"development-policy-area:local-authority-eng:BUC:LPEMH:2021-01-08","geometry":{"type":"MultiPolygon","coordinates":[[[[-0.914281,51.658838],[-0.914565,51.658512],[-0.915129,51.658071],[-0.916143,51.65871],[-0.916631,51.658356],[-0.916725,51.658496],[-0.916914,51.65897],[-0.917288,51.659669],[-0.916707,51.659802],[-0.915474,51.659118],[-0.915187,51.65933],[-0.914281,51.658838]]]]},"properties":{"semantic_identity":"development-policy-area:local-authority-eng:BUC:LPEMH:2021-01-08","source_area_id":"LPEMH","source_area_type":"adopted_local_plan_strategic_employment_area_policy_coverage","name":"The Heights Stokenchurch","allocated_use":"Strategic employment area designation (DM28 / Appendix G); not evidence of new construction","policy":"DM28; Appendix G","organisation":"local-authority-eng:BUC","coverage_scope":"Official strategic employment area coverage only; future development status and materialized parcel identities not inferred","source_url":"https://github.com/digital-land/development-policy-area/blob/111f7b992aa0c7efe39611b4003607141631a4f2/docs/local-authority-eng/BUC/LPEMH/geometry.geojson","source_final_url":"https://raw.githubusercontent.com/digital-land/development-policy-area/111f7b992aa0c7efe39611b4003607141631a4f2/docs/local-authority-eng/BUC/LPEMH/geometry.geojson","http_status":200,"source_data_date":"2021-01-08","plan_adopted_date":"2019-08","source_version":"111f7b992aa0c7efe39611b4003607141631a4f2:git-blob:cad91a697304f38c22107e8a36b385b0042130bd","licence":"Open Government Licence v3.0 (Digital Land; subject to original source-specific rights)","source_sha256":"b2ed7de7d01550eb498ebc921ba197c9293a2fbfbd9b9837c12a9597e56abf66","evidence_slice_sha256":"f933fd20182211b0817aeaf998e2e0ab8417744e6bf6fb20eab706f9a24342b7","field_evidence":{"geometry":"docs/local-authority-eng/BUC/LPEMH/geometry.geojson:geometry","official_identifier":"docs/local-authority-eng/BUC/LPEMH/geometry.geojson:properties.geography","site_name":"docs/local-authority-eng/BUC/LPEMH/geometry.geojson:properties.name","data_date":"docs/local-authority-eng/BUC/LPEMH/geometry.geojson:properties.entry-date","plan_designation":"https://buckinghamshire-gov-uk.s3.amazonaws.com/documents/Wycombe-District-Local-Plan-Adopted-August-2019-accessible.pdf#Appendix_G"},"confidence":0.97,"evidence_grade":"A_OFFICIAL_GIS_AND_ADOPTED_PLAN_STRATEGIC_EMPLOYMENT","fake_data":false}},{"type":"Feature","id":"development-policy-area:local-authority-eng:BUC:LPEMI:2021-01-08","geometry":{"type":"MultiPolygon","coordinates":[[[[-0.798472,51.632649],[-0.792885,51.632039],[-0.790631,51.632028],[-0.790526,51.631542],[-0.789759,51.631597],[-0.78969,51.631048],[-0.79077,51.630987],[-0.790976,51.630905],[-0.791134,51.630774],[-0.791255,51.630626],[-0.791615,51.629868],[-0.792489,51.628357],[-0.794463,51.628599],[-0.795259,51.628658],[-0.795254,51.628737],[-0.79536,51.628898],[-0.795539,51.629487],[-0.795484,51.629481],[-0.795443,51.629566],[-0.796441,51.629638],[-0.797812,51.629656],[-0.797894,51.629828],[-0.799175,51.62979],[-0.798472,51.632649]]]]},"properties":{"semantic_identity":"development-policy-area:local-authority-eng:BUC:LPEMI:2021-01-08","source_area_id":"LPEMI","source_area_type":"adopted_local_plan_strategic_employment_area_policy_coverage","name":"Sands Industrial Estate","allocated_use":"Strategic employment area designation (DM28 / Appendix G); not evidence of new construction","policy":"DM28; Appendix G","organisation":"local-authority-eng:BUC","coverage_scope":"Official strategic employment area coverage only; future development status and materialized parcel identities not inferred","source_url":"https://github.com/digital-land/development-policy-area/blob/111f7b992aa0c7efe39611b4003607141631a4f2/docs/local-authority-eng/BUC/LPEMI/geometry.geojson","source_final_url":"https://raw.githubusercontent.com/digital-land/development-policy-area/111f7b992aa0c7efe39611b4003607141631a4f2/docs/local-authority-eng/BUC/LPEMI/geometry.geojson","http_status":200,"source_data_date":"2021-01-08","plan_adopted_date":"2019-08","source_version":"111f7b992aa0c7efe39611b4003607141631a4f2:git-blob:275e974e3fe1c15c642b7913e2d126f7d0e60a05","licence":"Open Government Licence v3.0 (Digital Land; subject to original source-specific rights)","source_sha256":"3bf2da1fd3b0e3f5c99f0a0a1463f1c5078b9e49cfdd547651aae072542cbbff","evidence_slice_sha256":"f933fd20182211b0817aeaf998e2e0ab8417744e6bf6fb20eab706f9a24342b7","field_evidence":{"geometry":"docs/local-authority-eng/BUC/LPEMI/geometry.geojson:geometry","official_identifier":"docs/local-authority-eng/BUC/LPEMI/geometry.geojson:properties.geography","site_name":"docs/local-authority-eng/BUC/LPEMI/geometry.geojson:properties.name","data_date":"docs/local-authority-eng/BUC/LPEMI/geometry.geojson:properties.entry-date","plan_designation":"https://buckinghamshire-gov-uk.s3.amazonaws.com/documents/Wycombe-District-Local-Plan-Adopted-August-2019-accessible.pdf#Appendix_G"},"confidence":0.97,"evidence_grade":"A_OFFICIAL_GIS_AND_ADOPTED_PLAN_STRATEGIC_EMPLOYMENT","fake_data":false}},{"type":"Feature","id":"development-policy-area:local-authority-eng:BUC:LPEMK:2021-01-08","geometry":{"type":"MultiPolygon","coordinates":[[[[-0.707251,51.611333],[-0.705508,51.612807],[-0.703356,51.611728],[-0.704033,51.611266],[-0.704369,51.611075],[-0.704505,51.610935],[-0.705578,51.610526],[-0.706215,51.610916],[-0.706456,51.611146],[-0.706721,51.611218],[-0.70711,51.611251],[-0.707251,51.611333]]]]},"properties":{"semantic_identity":"development-policy-area:local-authority-eng:BUC:LPEMK:2021-01-08","source_area_id":"LPEMK","source_area_type":"adopted_local_plan_strategic_employment_area_policy_coverage","name":"Kingmead Business Park","allocated_use":"Strategic employment area designation (DM28 / Appendix G); not evidence of new construction","policy":"DM28; Appendix G","organisation":"local-authority-eng:BUC","coverage_scope":"Official strategic employment area coverage only; future development status and materialized parcel identities not inferred","source_url":"https://github.com/digital-land/development-policy-area/blob/111f7b992aa0c7efe39611b4003607141631a4f2/docs/local-authority-eng/BUC/LPEMK/geometry.geojson","source_final_url":"https://raw.githubusercontent.com/digital-land/development-policy-area/111f7b992aa0c7efe39611b4003607141631a4f2/docs/local-authority-eng/BUC/LPEMK/geometry.geojson","http_status":200,"source_data_date":"2021-01-08","plan_adopted_date":"2019-08","source_version":"111f7b992aa0c7efe39611b4003607141631a4f2:git-blob:ad5e0decc8836821dce32ad51c1f633f6a48dcfc","licence":"Open Government Licence v3.0 (Digital Land; subject to original source-specific rights)","source_sha256":"13c00e4d25c7aab1bebdee87eb8584a52334441ed4923f943362b445566f6b0b","evidence_slice_sha256":"f933fd20182211b0817aeaf998e2e0ab8417744e6bf6fb20eab706f9a24342b7","field_evidence":{"geometry":"docs/local-authority-eng/BUC/LPEMK/geometry.geojson:geometry","official_identifier":"docs/local-authority-eng/BUC/LPEMK/geometry.geojson:properties.geography","site_name":"docs/local-authority-eng/BUC/LPEMK/geometry.geojson:properties.name","data_date":"docs/local-authority-eng/BUC/LPEMK/geometry.geojson:properties.entry-date","plan_designation":"https://buckinghamshire-gov-uk.s3.amazonaws.com/documents/Wycombe-District-Local-Plan-Adopted-August-2019-accessible.pdf#Appendix_G"},"confidence":0.97,"evidence_grade":"A_OFFICIAL_GIS_AND_ADOPTED_PLAN_STRATEGIC_EMPLOYMENT","fake_data":false}}],"properties":{"state":"SOURCE_AREAS_PRODUCED_LOCAL_BINDING_PENDING","source_area_count":113,"source_area_count_delta":3,"accepted_count":0,"duplicate_count":0,"rejected_count":0,"unmatched_count":13,"materialized_parcel_count":0,"direct_parcel_count":0,"verified_no_building_count":0,"unprocessed_count":13,"planned_building_count":0,"producer_before_count":110,"producer_delta":3,"producer_after_count":113,"cursor":"OFFICIAL_BUC_STRATEGIC_EMPLOYMENT:LPEMH_LPEMI_LPEMK:f00479b5c3c7c85e","first_missing_criterion":"LOCAL_CANONICAL_PARCEL_IDENTIFIER_BINDING_MATERIALIZATION","fake_data":false}}
