{
  "type": "FeatureCollection",
  "features": [
    {
      "type": "Feature",
      "geometry": null,
      "properties": {
        "schema": "AAYS_LAYER24_EVIDENCE_V1",
        "slot_id": "security_public_safety_4",
        "lineage_id": "L24-SPS4-57de1ed0eaf0f860383f",
        "page_generation": 10,
        "criterion": "security_public_safety_official_coverage_identifier",
        "record_role": "source_area_identifier",
        "source_record_index": 24,
        "area_name": "De Beauvoir",
        "major_text": "force=metropolitan",
        "minor_text": "neighbourhood_id=E05009371",
        "series_start": null,
        "series_end": null,
        "series_month_count": 0,
        "visible_nonzero_evidence": true,
        "source_url": "https://data.police.uk/api/metropolitan/neighbourhoods",
        "final_url": "https://data.police.uk/api/metropolitan/neighbourhoods",
        "access_utc": "2026-10-03T09:04:00Z",
        "data_date": "current official neighbourhood listing observed 2026-10-03; endpoint carries no intrinsic effective date",
        "license": "Open Government Licence v3.0",
        "source_payload_sha256": "c4f9382a1d1c598155893cb783ef736ca9ee3f38b8f5d5c8e0d7913664a95b00",
        "field_evidence": {
          "id": "official API response field id; documentation defines it as a police-force-specific team identifier",
          "name": "official API response field name; documentation defines it as the neighbourhood name",
          "force_context": "endpoint path metropolitan/neighbourhoods fixes the police-force context",
          "window": "non-overlapping response record 24; prior processed windows were records 0-23",
          "authentication": "data.police.uk API authentication is not required",
          "license": "data.police.uk publishes the relevant data under Open Government Licence v3.0"
        },
        "evidence_slice_sha256": "d2c54ec04de6c9d10cf13ceeca90f15cdd4d4861adfe880a224144cf43feb666",
        "confidence_score_0_100": 100,
        "evidence_grade": "A_OFFICIAL_API_EXACT_IDENTIFIER",
        "join_state": "UNPROCESSED",
        "fake_data": false
      }
    }
  ]
}
