{"type":"FeatureCollection","features":[{"type":"Feature","geometry":null,"properties":{"slot_id":"future_growth_1","lineage_id":"future_growth_1-newstart-20260927T153100+0300","page_generation":null,"accepted_as_parcel":false,"source_area_count_contribution":1,"exact_identifier":"Birmingham Knowledge Quarter Tax Site","exact_identifier_provided":true,"coverage_polygon_provided":false,"identifier_namespace":"The Designation of Special Tax Sites (Liverpool City Region, West Midlands and North East Investment Zones) Regulations 2024","site_name":"Birmingham Knowledge Quarter","access_utc":"2026-10-03T05:59:00Z","data_date":"2024-04-08","source_url":"https://www.gov.uk/government/publications/maps-of-west-midlands-investment-zone-tax-sites","final_url":"https://www.gov.uk/government/publications/maps-of-west-midlands-investment-zone-tax-sites","map_url":"https://assets.publishing.service.gov.uk/media/65e9a4fd62ff489bab87b245/Birmingham_Knowledge_Quarter_Tax_Site__1_.pdf","regulation_url":"https://www.legislation.gov.uk/uksi/2024/383/pdfs/uksi_20240383_en.pdf","license":"Open Government Licence v3.0, except where otherwise stated","authority":"HM Revenue & Customs","map_title":"Birmingham Knowledge Quarter - Tax Site","map_date":"2024-02-21","designation_effective_date":"2024-04-08","regulation":"UKSI 2024/383","regulation_provision":"3(1)(a), 3(2)","evidence_grade":"A","confidence_score_0_100":99,"evidence_scope":"exact legislation-backed Birmingham Knowledge Quarter special-tax-site identifier plus HMRC official boundary-map attachment","evidence_slice_sha256":"f822ab3f685177f93a617f866cfc8b3efe4d6d371de985fc742126816d0dd302","fake_data":false,"spatial_binding_method":"official statutory tax-site identifier plus HMRC boundary map; vector boundary resolution, canonical parcel spatial join and materialization delegated to local OpenCode","planned_building_count_contribution":0}}]}
