{"type":"FeatureCollection","features":[{"type":"Feature","geometry":null,"properties":{"slot_id":"planned_buildings_1","lineage_id":"planned_buildings_1-0ffc4ebd6c6e4e41","semantic_mode":"DISTINCT_BUILDINGS","planned_building_id":"planning-application:W/26/01216/FUL::SELF_BUILD_DWELLING","building_status":"PLANNED","building_name":"Self-build dwelling, Willow Tree Barn","planning_reference":"W/26/01216/FUL","authority":"Wychavon District Council","source_url":"https://plan.wychavon.gov.uk/Planning/Display/W/26/01216/FUL","final_url":"https://plan.wychavon.gov.uk/Planning/Display/W/26/01216/FUL","access_utc":"2026-10-04T21:25:00Z","source_data_date":"2026-07-16","license":"Council planning-register copyright/consultation terms; no separate data licence stated on page","geometry_role":"null; no geometry inferred","field_evidence":"Valid; Pending Decision; decision Pending; proposal explicitly states one self build dwelling to replace barn.","identity_limitation":"Official proposal text explicitly identifies one new self-build dwelling; the existing barn is replacement context and no machine-readable building geometry is exposed.","confidence_score_0_100":99,"evidence_grade":"A","fake_data":false}}]}