{"type":"FeatureCollection","features":[{"type":"Feature","id":"CHERWELL_25_02734_F_GARDEN_HOME_OFFICE_01","geometry":null,"properties":{"slot_id":"planned_buildings_4","owner":"planned_buildings_4","lineage_id":"pb4-8debc7c8ddf348a2","page_generation":1,"partition":"layer24","schema":"AAYS_LAYER24_EVIDENCE_V1","semantic_mode":"PLANNED_BUILDINGS_OFFICIAL_REFERENCE_DISTINCT_STRUCTURE","batch_id":"20261002T200006Z-cherwell-25-02734-f-window-001","publisher":"Cherwell District Council","source_family":"CHERWELL_PLANNING_REGISTER","source_url":"https://planningregister.cherwell.gov.uk/Planning/Display/25/02734/F","final_url":"https://planningregister.cherwell.gov.uk/Planning/Display/25/02734/F","access_utc":"2026-10-02T20:00:06Z","data_date":"2025-10-16","license":"Public planning register; document copyright/usage remains governed by council register terms","planning_reference":"25/02734/F","location":"Merton Croft West End Lane Merton OX25 2NG","proposal":"Erection of a single storey contemporary garden building to be used as a home office","status":"Application Permitted","geometry_status":"NOT_MATERIALIZED_LOCAL_OPENCODE","field_evidence":"Official Cherwell District Council Planning Register application 25/02734/F. Application Type: Full Development. Status: Application Permitted. Valid date: 16/10/2025. Location: Merton Croft West End Lane Merton OX25 2NG. Proposal: Erection of a single storey contemporary garden building to be used as a home office. Decision: Permitted. Decision Issued Date: 17/12/2025. Official documents include Block Plan BP1, Site location plan SLP1, and Proposed Floor Plan and Elevation plan 1. One distinct new planned structure is counted from the official proposal and proposed drawings: a single-storey contemporary garden building for use as a home office. Geometry/materialization is deferred to local OpenCode.","evidence_slice_sha256":"96788233bf0b2f0201e660b418562abbc8cadf527777d6ebe756cd022d18d651","confidence":0.99,"evidence_grade":"A_OFFICIAL_LOCAL_AUTHORITY_PLANNING_REGISTER_SINGLE_DISTINCT_GARDEN_HOME_OFFICE_BUILDING_PERMITTED","fake_data":false,"source_record_id":"CHERWELL_25_02734_F_GARDEN_HOME_OFFICE_01","planned_building":"single storey contemporary garden building for use as a home office","official_plan_reference":"plan 1","official_plan_description":"Floor Plan and Elevation"}}]}
