{"type":"FeatureCollection","features":[{"type":"Feature","geometry":null,"properties":{"slot_id":"future_growth_1","lineage_id":"future_growth_1-newstart-20260927T153100+0300","page_generation":null,"accepted_as_parcel":false,"source_area_count_contribution":1,"exact_identifier":"49","exact_identifier_provided":true,"coverage_polygon_provided":false,"identifier_namespace":"Hounslow Local Plan 2020-2041 Site Allocation","site_name":"Site at Faggs Road","access_utc":"2026-10-04T14:15:00Z","data_date":"2024-09-06","source_url":"https://www.hounslow.gov.uk/downloads/file/13928/local-plan-2020-2041-chapter-12-site-allocations-reg19-clean-version","final_url":"https://www.hounslow.gov.uk/downloads/file/13928/local-plan-2020-2041-chapter-12-site-allocations-reg19-clean-version","local_plan_review_url":"https://www.hounslow.gov.uk/local-plan/local-plan-review","submission_documents_url":"https://www.hounslow.gov.uk/local-plan/local-plan-review/4","gis_url":"https://services.arcgis.com/drifeOPKLpgnJ8Qa/arcgis/rest/services/planning_local_plan_data_18/FeatureServer/9","license":"Publicly accessible London Borough of Hounslow planning-policy documents and public GIS service; document-specific reuse licence not stated on the source page","authority":"London Borough of Hounslow","address":"145, London Road, TW14 0LZ","site_size_hectares":3.5,"existing_use":"Warehousing and Logistics (B8), vegetated open space","proposed_designation":"Locally Significant Industrial Site (LSIS)","minimum_industrial_sqm":5950,"phasing":"2025-2030","gis_layer_id":9,"gis_layer_name":"Site Allocations","gis_geometry_type":"esriGeometryPolygon","gis_spatial_reference_epsg":27700,"plan_stage":"Regulation 19 Proposed Submission; under examination as of 1 October 2026","evidence_grade":"A","confidence_score_0_100":99,"evidence_scope":"exact Hounslow Local Plan Site Allocation 49 plus current council examination status and public polygon Site Allocations layer 9","evidence_slice_sha256":"5a9f3295651a594d4cf46789ed8b1cf6d0c00d9b4cb65316cdb29499bdbe115c","fake_data":false,"spatial_binding_method":"official Site Allocation 49 identifier plus Hounslow polygon Site Allocations layer 9; exact feature extraction, canonical parcel spatial join and materialization delegated to local OpenCode","planned_building_count_contribution":0}}]}