{"type":"FeatureCollection","name":"height_difference_5","metadata":{"slot_id":"height_difference_5","owner":"height_difference_5","lineage_id":"height_difference_5-eb56f92ed3f0514c","page_generation":1,"schema":"AAYS_LAYER24_EVIDENCE_V1","partition":"layer24","semantic_mode_state":"ABSENT_IN_PRIOR_PHYSICAL_STATE_PRESERVED_BY_OMISSION","batch_id":"20261007T021000Z_spatialni_data_preparation_crs_reference_unbound","record_policy":"Official SpatialNI CRS-standard evidence only; no dataset-specific CRS, tile filename, geometry or parcel binding synthesized.","fake_data":false},"features":[{"type":"Feature","geometry":null,"properties":{"slot_id":"height_difference_5","owner":"height_difference_5","lineage_id":"height_difference_5-eb56f92ed3f0514c","page_generation":1,"schema":"AAYS_LAYER24_EVIDENCE_V1","partition":"layer24","batch_id":"20261007T021000Z_spatialni_data_preparation_crs_reference_unbound","source_record_id":"SPATIALNI:DATA_PREPARATION_GUIDE_CRS_PAGE1","source_url":"https://docs.spatialni.gov.uk/NimaSupport/Guidance/General/DataSupply/Quick_Reference_Guide_Data_Preparation.pdf","access_utc":"2026-10-07T02:10:00Z","required_building_state":"BUILDING_PRESENT","binding_status":"LOCAL_OPENCODE_BUILDING_PRESENT_EXACT_TILE_BIND_REQUIRED","accepted_crs_candidates":["EPSG:29902","EPSG:29903","EPSG:2157"],"dataset_specific_crs":null,"dataset_specific_crs_status":"UNRESOLVED_DO_NOT_INFER","exact_tile_identifier":null,"evidence_slice_sha256":"6607225f2d8079dce851eade921b72b7d5d0d60117a5ba2c01e40bb3dfe96ab1","accepted_count_contribution":0,"source_area_count_contribution":0,"fake_data":false}}]}
