{"type":"FeatureCollection","name":"security_public_safety_6","features":[],"metadata":{"slot_id":"security_public_safety_6","lineage_id":"SECPS6_20260930T003421Z_01","page_generation":1,"batch_id":"BATCH_20261002T154732Z_ONS_LRF24_BGC_GEOJSON_DOWNLOAD_BLOCKER","source_window_id":"ons_lrf_dec2024_ew_bgc_geojson_direct_download","source_url":"https://open-geography-portalx-ons.hub.arcgis.com/api/download/v1/items/ad37e6ad75a94c3c9358fffa84db7b46/geojson?layers=1","final_url":"https://open-geography-portalx-ons.hub.arcgis.com/api/download/v1/items/ad37e6ad75a94c3c9358fffa84db7b46/geojson?layers=1","dataset_url":"https://www.data.gov.uk/dataset/a8606c1f-6bdf-4303-984b-f310df6740b9/local-resilience-forums-december-2024-boundaries-ew-bgc","accessed_utc":"2026-10-02T15:47:32Z","data_date":"2024-12","license":"Dataset licence field: Not set; contains Ordnance Survey and ONS Intellectual Property Rights; National Data Library site content OGL v3.0 except where otherwise stated.","new_source_records":0,"source_area_count_delta":0,"cumulative_source_area_count":54,"accepted_count":0,"duplicate_count":0,"rejected_count":0,"unmatched_count":0,"materialized_parcel_count":0,"direct_parcel_count":0,"planned_building_count":0,"cursor":null,"window_complete":false,"dataset_complete":false,"exact_blocker":"ONS_LRF_DEC2024_EW_BGC_GEOJSON_DIRECT_DOWNLOAD_UNAVAILABLE_CURRENT_TOOLCHAIN","local_spatial_join_required":true,"fake_data":false}}
