{"type":"FeatureCollection","features":[{"type":"Feature","id":"planning-data-brownfield-land:1717165","geometry":{"type":"Point","coordinates":[-0.289765,51.555086]},"properties":{"slot_id":"future_growth_4","lineage_id":"fg4-e4c9076d6f554f00","page_generation":1,"owner":"future_growth_4","partition":"future_growth","semantic_mode":"SOURCE_AREA_EXACT_IDENTIFIER","dataset":"planning-data-brownfield-land","entity":1717165,"reference":"BR00040","quality":"authoritative","organisation":"London Borough of Brent","name":"Wembley Cutting North, Mostyn Road","source_url":"https://www.planning.data.gov.uk/entity/1717165","final_url":"https://www.planning.data.gov.uk/entity/1717165.geojson","access_utc":"2026-10-06T14:11:00Z","data_date":"2026-04-10","license":"Open Government Licence v3.0","field_evidence":{"entity":1717165,"reference":"BR00040","site_address":"Wembley Cutting North, Mostyn Road","hectares":0.12,"point":"POINT (-0.289765 51.555086)","ownership_status":"mixed-ownership","minimum_net_dwellings":15,"maximum_net_dwellings":15,"planning_permission_status":"not-permissioned","local_plan_site_allocation_reference":"BSWSA11","start_date":"2017-12-15","entry_date":"2026-04-10"},"evidence_slice_sha256":"56719d8f0a6d12528e222e10beb105ed3753e40cfdd4becd221d70b56d7dfb18","confidence_score_0_100":99,"confidence":0.99,"evidence_grade":"A","exact_identifier_provided":true,"coverage_polygon_provided":false,"source_geometry_type":"Point","point_geometry_provided":true,"fake_data":false,"join_mode":"LOCAL_OPENCODE_SPATIAL_JOIN_PENDING","direct_parcel":false,"source_area_count_contribution":1,"planned_building_count_contribution":0}}]}