{"type":"FeatureCollection","name":"height_difference_5","metadata":{"slot_id":"height_difference_5","owner":"height_difference_5","lineage_id":"height_difference_5-eb56f92ed3f0514c","page_generation":1,"schema":"AAYS_LAYER24_EVIDENCE_V1","partition":"layer24","semantic_mode_state":"ABSENT_IN_PRIOR_PHYSICAL_STATE_PRESERVED_BY_OMISSION","batch_id":"20261005T014000Z_belfast_2006_nw_zone_zip_range_blocked","record_policy":"Official Belfast North West Zone distribution blocker evidence only; no North East retry, archive-internal tile/file, parcel binding, geometry or CRS synthesized.","fake_data":false},"features":[{"type":"Feature","geometry":null,"properties":{"slot_id":"height_difference_5","owner":"height_difference_5","lineage_id":"height_difference_5-eb56f92ed3f0514c","page_generation":1,"schema":"AAYS_LAYER24_EVIDENCE_V1","partition":"layer24","batch_id":"20261005T014000Z_belfast_2006_nw_zone_zip_range_blocked","source_record_id":"DFI_BELFAST_LIDAR_2006:NW_ZONE_ZIP_RANGE","source_url":"https://admin.opendatani.gov.uk/dataset/lidar-belfast-city-2006/resource/6b86a69e-3b81-49ee-81fb-6fa7f51ebba7","payload_url":"https://opendatani.blob.core.windows.net/dfiriverslidar/BelfastCityLidar_NorthWest_18032006.zip","resource_id":"6b86a69e-3b81-49ee-81fb-6fa7f51ebba7","resource_name":"Belfast City Lidar North West Zone","access_utc":"2026-10-05T01:40:00Z","required_building_state":"BUILDING_PRESENT","binding_status":"LOCAL_OPENCODE_BUILDING_PRESENT_EXACT_TILE_BIND_REQUIRED","payload_transport_status":"WEB_UNSUPPORTED_APPLICATION_ZIP_AND_DIRECT_HEAD_RANGE_DNS_BLOCKED_NON_RETRYABLE","exact_tile_identifier":null,"crs":null,"evidence_slice_sha256":"74aed08f980425abfa2979f7aa5961a08daed4b9af67a2c0f5606bccf3526e78","accepted_count_contribution":0,"source_area_count_contribution":0,"fake_data":false}}]}
