{"type":"FeatureCollection","name":"security_public_safety_1_batch_exact_identifiers","features":[{"type":"Feature","geometry":null,"properties":{"slot_id":"security_public_safety_1","evidence_scope":"coverage_exact_identifier","coverage_area_id":"E23000034","exact_identifier":"E23000034","exact_identifier_type":"gov.uk.home_office.pfa_geocode","coverage_area_name":"London, City of","source_url":"https://www.gov.uk/government/statistics/update-to-stop-and-search-and-arrests-statistics-using-2021-census-estimates/update-to-stop-and-search-and-arrests-statistics-using-2021-census-estimates","final_url":"https://www.gov.uk/government/statistics/update-to-stop-and-search-and-arrests-statistics-using-2021-census-estimates/update-to-stop-and-search-and-arrests-statistics-using-2021-census-estimates","access_utc":"2026-10-03T17:44:00Z","data_date":"2023-03-02","data_date_basis":"Publication date; exact PFA row is in Annex Table A1 for year ending March 2022","license":"Open Government Licence v3.0 except where otherwise stated","file_sha256":"eadd5608f5c0e50b5058ad1ad681ba7a1beb51057852e3b3b69e2f577cf213c1","file_sha256_scope":"normalized official City of London PFA geocode row; not raw HTML bytes","evidence_slice_sha256":"c13049d14448fcaac9cb6e35a673fed1380fbabfadc5fcbaec323c2f27a0944a","field_evidence":{"publication_title":"Update to stop and search and arrests statistics using 2021 Census estimates","publisher":"Home Office","published":"2023-03-02","applies_to":"England and Wales","table":"Table A1","exact_record":{"geocode":"E23000034","police_force_area":"London, City of"},"reference_period":"year ending March 2022","source_table":"Stop and search table SS_16"},"confidence_score_0_100":100,"evidence_grade":"A_OFFICIAL_EXACT_IDENTIFIER","fake_data":false,"spatial_binding_method":"DEFERRED_TO_LOCAL_OPENCODE","canonical_parcel_id":null,"materialized_parcel_count":0,"direct_parcel_count":0}}],"metadata":{"source_area_count":203,"source_area_delta_this_turn":1,"latest_evidence_window":"GOVUK_HOME_OFFICE_PFA_TABLE_A1_20261003T174400Z","latest_status":"1_NEW_OFFICIAL_EXACT_IDENTIFIER_ACCEPTED","exact_blocker":"LOCAL_OPENCODE_EXACT_IDENTIFIER_TO_CANONICAL_SPATIAL_BINDING_REQUIRED","first_missing_criterion":"LOCAL_OPENCODE_EXACT_IDENTIFIER_TO_CANONICAL_SPATIAL_BINDING"}}
