{"type":"FeatureCollection","features":[{"type":"Feature","geometry":{"type":"MultiPolygon","coordinates":[[[[-0.046458,51.426028],[-0.046447,51.425964],[-0.046401,51.425777],[-0.046278,51.425777],[-0.046266,51.42579],[-0.046323,51.426033],[-0.046458,51.426028]]]]},"properties":{"slot_id":"future_growth_7","lineage_id":"future_growth_7_open_source_v2_20260813","page_generation":null,"batch_id":"batch_20261002T190000Z_bfs1800561","official_entity_id":1800561,"official_reference":"SD009","dataset":"brownfield-site","organisation":"London Borough of Lewisham","source_url":"https://www.planning.data.gov.uk/entity/1800561","final_url":"https://www.planning.data.gov.uk/entity/1800561","accessed_utc":"2026-10-02T19:00:00Z","data_date":"2020-12-22","licence":"Open Government Licence v3.0","source_sha256":"25d85ea30d2da19099b73eee3e56642fce453ca2bc67374de8cf634bb75d658a","source_sha256_basis":"canonical_official_field_evidence_json","field_evidence":{"entry-date":"2020-12-22","start-date":"","end-date":"","entity":1800561,"name":"169-171 Sydenham Road","dataset":"brownfield-site","typology":"geography","reference":"SD009","prefix":"brownfield-site","organisation-entity":"198","geometry":"MULTIPOLYGON (((-0.046458 51.426028, -0.046447 51.425964, -0.046401 51.425777, -0.046278 51.425777, -0.046266 51.42579, -0.046323 51.426033, -0.046458 51.426028)))","point":"POINT (-0.046362 51.425904)","quality":"some","brownfield-site":"SD009","organisation-curie":"local-authority:LEW"},"evidence_slice_sha256":"33432fbe151ac1fbea621598f20e05bfe2f961841a2192f68baa5538577573f4","evidence_grade":"A_EXACT_OFFICIAL_IDENTIFIER","confidence_score_0_100":92,"official_geometry_available":true,"official_geometry_type":"MULTIPOLYGON","source_geometry_materialized_here":true,"point_not_used_as_coverage":true,"source_area_basis":"published official-platform MULTIPOLYGON brownfield-site boundary","source_area_only":true,"fake_data":false}}]}
