{"type":"FeatureCollection","name":"security_public_safety_1_batch_exact_identifiers","features":[{"type":"Feature","geometry":null,"properties":{"slot_id":"security_public_safety_1","evidence_scope":"coverage_exact_identifier","coverage_area_id":"E48000021","exact_identifier":"E48000021","exact_identifier_type":"planning.data.gov.uk.local_resilience_forum_boundary.reference","coverage_area_name":"London","source_url":"https://www.planning.data.gov.uk/entity/30021","final_url":"https://www.planning.data.gov.uk/entity/30021","access_utc":"2026-10-03T11:40:00Z","data_date":"2024-06-30","data_date_basis":"Official Planning Data boundary entity entry-date","license":"Open Government Licence v3.0","file_sha256":"f7d972fc9298008d9a8603c48021d42e3bdf26e739b062ea054660c7d30e117a","file_sha256_scope":"normalized machine-readable entity JSON fields visible on official Planning Data page; full boundary geometry not persisted in this bundle","evidence_slice_sha256":"643ffc2363990de00292f20f46f114aca32d730be8e9b142246a19dc98bfe949","field_evidence":{"entity":30021,"name":"London","dataset":"local-resilience-forum-boundary","reference":"E48000021","prefix":"statistical-geography","entry_date":"2024-06-30","point":"POINT (-0.111052 51.500593)","geometry_status":"Full geometry downloadable; inline JSON omits it because it is too large to display.","organisation_curie":"government-organisation:D303"},"confidence_score_0_100":100,"evidence_grade":"A_OFFICIAL_EXACT_IDENTIFIER","fake_data":false,"spatial_binding_method":"DEFERRED_TO_LOCAL_OPENCODE","canonical_parcel_id":null,"materialized_parcel_count":0,"direct_parcel_count":0}}],"metadata":{"source_area_count":200,"source_area_delta_this_turn":1,"latest_evidence_window":"MHCLG_PLANNING_DATA_LONDON_LRF_BOUNDARY_ENTITY_30021_20261003T114000Z","latest_status":"1_NEW_OFFICIAL_EXACT_IDENTIFIER_ACCEPTED","exact_blocker":"LOCAL_OPENCODE_EXACT_IDENTIFIER_TO_CANONICAL_SPATIAL_BINDING_REQUIRED","first_missing_criterion":"LOCAL_OPENCODE_EXACT_IDENTIFIER_TO_CANONICAL_SPATIAL_BINDING"}}
