{"type":"FeatureCollection","features":[{"type":"Feature","id":"planned_buildings_1-planning-data-brownfield-1741386","geometry":{"type":"Point","coordinates":[-0.121566,51.459153]},"properties":{"topic_id":"planned-buildings","slot_id":"planned_buildings_1","source_dataset_id":"planning_data_brownfield_land","source_entity":1741386,"official_site_key":"BLR170","canonical_record_key":"planning-data:brownfield-land:1741386","planned_project_name":"47 - 49 Acre Lane London SW2 5TN","planned_project_status":"permissioned","planned_project_owner_type":"not-owned-by-a-public-authority","planned_building_capacity_net_dwellings":48,"source_record_start_date":"2025-12-20","source_record_end_date":null,"source_record_temporal_status":"current_register_record","parcel_id":null,"program_parcel_id":null,"planned_building_value":null,"planned_building_probability":null,"planned_building_complete_month":null,"planned_scoring_status":"METHODOLOGY_APPROVAL_REQUIRED","matching_method":"direct_official_site_record_no_parcel_match","source_quality":"authoritative","source_license":"Open Government Licence v3.0","demo_only":true,"fake_data":false,"final_ready":false,"production_merge":false}}],"metadata":{"slot_id":"planned_buildings_1","batch_index":1,"source_family":"planning_data_brownfield_land","source_window":{"geometry_entity":626195,"geometry_relation":"within","limit":1,"offset":168},"feature_count_before":166,"feature_count_after":167,"unique_real_site_project_before":117,"unique_real_site_project_after":118,"new_feature_count":1,"duplicate_count_new":0,"nearest_match_used":false,"fake_data":false,"mirror_only":true}}