{"type":"FeatureCollection","features":[],"metadata":{"slot_id":"planned_buildings_1","batch_index":2,"source_family":"planning_data_brownfield_land","source_window":{"geometry_entity":626195,"geometry_relation":"within","limit":1,"offset":169},"source_snapshot_count":169,"source_result":"ZERO_RESULT_SOURCE_FAMILY_EXHAUSTED","feature_count_before":167,"feature_count_after":167,"unique_real_site_project_before":118,"unique_real_site_project_after":118,"new_feature_count":0,"duplicate_count_new":0,"nearest_match_used":false,"fake_data":false,"mirror_only":true,"next_source_family":"gla_site_allocations_102"}}