{"type":"FeatureCollection","features":[{"type":"Feature","geometry":{"type":"MultiPolygon","coordinates":[[[[-0.051486,51.528123],[-0.051432,51.528019],[-0.051419,51.528013],[-0.051398,51.527972],[-0.05117,51.528017],[-0.051186,51.528047],[-0.051153,51.528054],[-0.051184,51.528114],[-0.051228,51.528105],[-0.051235,51.528117],[-0.051323,51.528101],[-0.051361,51.528174],[-0.051398,51.528167],[-0.051408,51.528186],[-0.051431,51.5282],[-0.051515,51.52818],[-0.051486,51.528123]]]]},"properties":{"entry-date":"2024-10-14","start-date":"1973-09-27","end-date":"","entity":42131700,"name":"FIRE STATION","dataset":"listed-building-outline","typology":"geography","reference":"LB508","prefix":"listed-building-outline","organisation-entity":"350","quality":"authoritative","listed-building":"1065084","curie":"listed-building-outline:LB508"}}],"source_url":"https://www.planning.data.gov.uk/entity/42131700","final_url":"https://www.planning.data.gov.uk/entity/42131700","source_window_id":"PLANNING_DATA_LISTED_BUILDING_OUTLINE_ENTITY_42131700_117","public_no_login":true,"license":"Open Government Licence v3.0","fake_data":false}