{"type":"FeatureCollection","features":[{"type":"Feature","geometry":null,"properties":{"slot_id":"future_growth_1","lineage_id":"future_growth_1-newstart-20260927T153100+0300","page_generation":null,"accepted_as_parcel":false,"source_area_count_contribution":1,"exact_identifier":"Tempsford","exact_identifier_provided":true,"coverage_polygon_provided":false,"identifier_namespace":"MHCLG New Towns Draft Programme proposed broad location","site_name":"Tempsford, Bedfordshire","access_utc":"2026-10-04T20:42:00Z","data_date":"2026-03-23","source_url":"https://www.gov.uk/government/consultations/new-towns-draft-programme/new-towns-draft-programme","final_url":"https://www.gov.uk/government/consultations/new-towns-draft-programme/new-towns-draft-programme","news_url":"https://www.gov.uk/government/news/seven-new-towns-proposed-to-kickstart-housebuilding-push","license":"Open Government Licence v3.0","authority":"Ministry of Housing, Communities and Local Government","programme_stage":"New Towns Draft Programme","priority_intervention":true,"housing_capacity":"up to 40,000 homes","transport_binding":"new East West Rail station","evidence_grade":"A","confidence_score_0_100":99,"evidence_scope":"official MHCLG New Towns Draft Programme and accompanying GOV.UK announcement for the proposed Tempsford broad location","evidence_slice_sha256":"3812edc00a9a8e77841851f39e0dba648a4a2566b1718b5f456640bc0aeaa6f2","fake_data":false,"spatial_binding_method":"official New Towns Draft Programme exact location identifier Tempsford; exact broad-location boundary resolution, canonical parcel spatial join and materialization delegated to local OpenCode","planned_building_count_contribution":0}}]}
