{"type":"FeatureCollection","features":[{"type":"Feature","id":"planned_buildings_2-planning-data-brownfield-1735696","geometry":null,"properties":{"entity":1735696,"reference":"23/00793/FUL","canonical_record_key":"planning-data:brownfield-land:1735696","planned_project_name":"1 Goldlay Avenue Chelmsford","planned_project_status":"permissioned","borough":"Chelmsford City Council","official_hectares":0.07,"official_deliverable":true,"official_minimum_net_dwellings":null,"official_maximum_net_dwellings":null,"planned_building_value":null,"planned_building_probability":null,"planned_building_complete_month":null,"source_quality":"authoritative","source_url":"https://www.planning.data.gov.uk/entity/1735696","source_license":"Open Government Licence v3.0","fake_data":false}}],"metadata":{"slot_id":"planned_buildings_2","batch_index":306,"source_index":26,"source_window":{"resource_index":3,"limit":1},"feature_count_before":640,"feature_count_after":641,"unique_real_site_project_before":481,"unique_real_site_project_after":482,"duplicate_count_new":0,"nearest_match_used":false,"parcel_match_used":false,"geometry_inference_used":false,"mirror_only":true}}