{"type":"FeatureCollection","features":[{"type":"Feature","id":"planned_buildings_2-1735671","geometry":null,"properties":{"entity":1735671,"reference":"23/01338/FUL","canonical_record_key":"planning-data:brownfield-land:1735671","planned_project_name":"Block 32-37 Glebe Road Chelmsford","fake_data":false}},{"type":"Feature","id":"planned_buildings_2-1735711","geometry":null,"properties":{"entity":1735711,"reference":"23/01726/FUL","canonical_record_key":"planning-data:brownfield-land:1735711","planned_project_name":"Land at Broadacres Main Road Bicknacre Chelmsford","fake_data":false}},{"type":"Feature","id":"planned_buildings_2-1735710","geometry":null,"properties":{"entity":1735710,"reference":"23/00116/FUL","canonical_record_key":"planning-data:brownfield-land:1735710","planned_project_name":"Land rear Of 17-37 Beach's Drive Chelmsford","fake_data":false}},{"type":"Feature","id":"planned_buildings_2-1735696","geometry":null,"properties":{"entity":1735696,"reference":"23/00793/FUL","canonical_record_key":"planning-data:brownfield-land:1735696","planned_project_name":"1 Goldlay Avenue Chelmsford","fake_data":false}},{"type":"Feature","id":"planned_buildings_2-1735687","geometry":null,"properties":{"entity":1735687,"reference":"22/02196/FUL","canonical_record_key":"planning-data:brownfield-land:1735687","planned_project_name":"Car Park Glebe Road Chelmsford","fake_data":false}},{"type":"Feature","id":"planned_buildings_2-1735714","geometry":null,"properties":{"entity":1735714,"reference":"23/01775/FUL","canonical_record_key":"planning-data:brownfield-land:1735714","planned_project_name":"100 Beehive Lane Great Baddow Chelmsford","fake_data":false}},{"type":"Feature","id":"planned_buildings_2-1735685","geometry":null,"properties":{"entity":1735685,"reference":"23/00298/FUL","canonical_record_key":"planning-data:brownfield-land:1735685","planned_project_name":"81 Springfield Road Chelmsford","fake_data":false}},{"type":"Feature","id":"planned_buildings_2-1735700","geometry":null,"properties":{"entity":1735700,"reference":"23/00781/FUL","canonical_record_key":"planning-data:brownfield-land:1735700","planned_project_name":"59-63 Garage Block Rear of St Michaels Drive Roxwell Chelmsford","fake_data":false}},{"type":"Feature","id":"planned_buildings_2-1735691","geometry":null,"properties":{"entity":1735691,"reference":"23/00660/FUL","canonical_record_key":"planning-data:brownfield-land:1735691","planned_project_name":"Site at 92 Bodmin Road Chelmsford","fake_data":false}},{"type":"Feature","id":"planned_buildings_2-1735716","geometry":null,"properties":{"entity":1735716,"reference":"24/00010/CUPAMA","canonical_record_key":"planning-data:brownfield-land:1735716","planned_project_name":"Paragon House Coval Wells Chelmsford","fake_data":false}},{"type":"Feature","id":"planned_buildings_2-1735705","geometry":null,"properties":{"entity":1735705,"reference":"23/01435/FUL","canonical_record_key":"planning-data:brownfield-land:1735705","planned_project_name":"2-4 Hamlet Road Chelmsford","fake_data":false}}],"metadata":{"slot_id":"planned_buildings_2","batch_indices":[303,304,305,306,307,308,309,310,311,312,313],"feature_count_before":637,"features_added":11,"feature_count_after":648,"unique_real_site_project_before":478,"unique_real_site_project_added":11,"unique_real_site_project_after":489,"duplicate_count_new":0,"nearest_match_used":false,"parcel_match_used":false,"geometry_inference_used":false,"entity_inference_used":false,"mirror_only":true}}