{"type":"FeatureCollection","features":[{"type":"Feature","id":"horsham-local-plan-2023-2040-main-modifications:RD3","geometry":null,"properties":{"slot_id":"future_growth_4","lineage_id":"fg4-e4c9076d6f554f00","page_generation":1,"owner":"future_growth_4","partition":"future_growth","semantic_mode":"SOURCE_AREA_EXACT_IDENTIFIER","dataset":"horsham-local-plan-2023-2040-main-modifications","entity":"RD3","reference":"RD3","quality":"authoritative","organisation":"Horsham District Council","name":"Land West of Church Street, Rudgwick","source_url":"https://strategicplanning.horsham.gov.uk/HDLP_Main_Modifications/viewCompoundDoc?docid=16941812&partid=16973908&pfv=y","final_url":"https://strategicplanning.horsham.gov.uk/HDLP_Main_Modifications/viewCompoundDoc?docid=16941812&partid=16973908&pfv=y","access_utc":"2026-10-05T07:19:00Z","data_date":"2026-07-13","license":"Horsham District Council official planning consultation publication; no explicit reuse licence stated on page","field_evidence":{"reference":"RD3","policy_reference":"Strategic Policy HA14","modification_reference":"MM239","site_name":"Land West of Church Street, Rudgwick","site_area_ha":2.2,"indicative_capacity":15,"plan_stage":"Main Modifications","consultation_start_date":"2026-07-13","consultation_end_date":"2026-08-24"},"evidence_slice_sha256":"2f23cb0c6382fffa0209970d85d678772bf639563abb18562b83cc5853c00129","confidence_score_0_100":99,"confidence":0.99,"evidence_grade":"A","exact_identifier_provided":true,"coverage_polygon_provided":false,"coverage_geometry_available":true,"coverage_geometry_source":"official MM239 policy text states the allocation is shown on the Policies Map","fake_data":false,"join_mode":"LOCAL_OPENCODE_SPATIAL_JOIN_PENDING","direct_parcel":false,"source_area_count_contribution":1,"planned_building_count_contribution":0}}]}