{"type":"FeatureCollection","features":[{"type":"Feature","geometry":null,"properties":{"slot_id":"future_growth_1","lineage_id":"future_growth_1-newstart-20260927T153100+0300","page_generation":null,"accepted_as_parcel":false,"source_area_count_contribution":1,"exact_identifier":"25/02015/LDO","exact_identifier_provided":true,"coverage_polygon_provided":false,"identifier_namespace":"Rushcliffe Borough Council Planning Online / Local Development Order","site_name":"Ratcliffe on Soar Power Station","access_utc":"2026-10-07T02:29:00Z","data_date":"2026-05-12","source_url":"https://www.rushcliffe.gov.uk/planning-growth/planning-policy/ratcliffe-local-development-order/","final_url":"https://www.rushcliffe.gov.uk/planning-growth/planning-policy/ratcliffe-local-development-order/","planning_record_url":"https://planningon-line.rushcliffe.gov.uk/online-applications/applicationDetails.do?activeTab=documents&keyVal=T689VDNL0GB00","original_ldo_url":"https://planningon-line.rushcliffe.gov.uk/online-applications/applicationDetails.do?activeTab=summary&keyVal=REUKMZNL0CB00","license":"Publicly accessible Rushcliffe Borough Council planning-policy and planning-register information; document-specific reuse licence not stated on the source pages","authority":"Rushcliffe Borough Council","revision_approved_date":"2026-05-12","original_ldo_reference":"22/01339/LDO","original_decision":"Grant consent subject to conditions","planning_effect":"Local Development Order grants planning permission for site redevelopment.","evidence_grade":"A","confidence_score_0_100":99,"evidence_scope":"exact Rushcliffe revision record 25/02015/LDO plus current council Ratcliffe LDO status page and original granted LDO record 22/01339/LDO","evidence_slice_sha256":"78e1643f2ebe7e672b3785254de411c1b39130cef5c3fd1b91ce168afbc41576","fake_data":false,"spatial_binding_method":"official site-specific LDO revision identifier plus council Planning Online map/document set; canonical parcel spatial join and materialization delegated to local OpenCode","planned_building_count_contribution":0}}]}