{"type":"FeatureCollection","name":"future_growth_9_batch_163","demo_only":true,"metadata":{"schema_version":3,"slot_id":"future_growth_9","continuation_key":"future_growth_9_open_source_v2_20260813","run_id":"future_growth_9_bounded12_20260818T203041Z","batch_index":163,"feature_count_before":161,"feature_count_added":1,"feature_count_after":162,"source_window":{"dataset":"brownfield-land","window_index":162,"window_size":1,"entity":1712176},"source_query_variant":"bradford_official_frozen_snapshot_entity_reference_sorted","source_request_url":"https://www.planning.data.gov.uk/entity/1712176","source_result":"ADDED","fake_data":false,"final_ready":false,"production_merge":false,"duplicate_count":0,"duplicate_candidate_skipped":false,"nearest_match_used":false},"features":[{"type":"Feature","id":"future_growth_9:planning_data_bradford:ne-036","geometry":{"type":"Point","coordinates":[-1.717013,53.816657]},"properties":{"slot_id":"future_growth_9","continuation_key":"future_growth_9_open_source_v2_20260813","source_family":"planning_data_brownfield_land_direct_identity","source_name":"Planning Data Brownfield Land — City of Bradford Metropolitan District Council","source_publisher":"City of Bradford Metropolitan District Council via Planning Data","source_feature_id":"NE/036","planning_data_entity":1712176,"source_url":"https://www.planning.data.gov.uk/entity/1712176","source_dataset_url":"https://www.planning.data.gov.uk/dataset/brownfield-land","source_entry_date":"2017-11-01","source_start_date":"2017-11-01","source_sha256":"f3619d23c681c9589188b08b1395d00a0d63bbc2276c343f7d776d5b9bf3f8ba","source_sha256_scope":"canonical JSON of official API entity payload used in this bounded batch","license":"Open Government Licence v3.0","planning_status":"not-permissioned","future_growth_evidence_type":"area_proxy","direct_project_evidence":false,"evidence_summary":"Mill buildings suitable for conversion. An application for retail use is currently pending but the site could also be developed for other use including residential","matching_method":"direct official brownfield-land reference identity plus published WGS84 point; no nearest matching, no cross-parcel identity inference","source_query_variant":"bradford_official_frozen_snapshot_entity_reference_sorted","accuracy_scale_1_4":3,"future_growth_value":null,"future_growth_probability":null,"unknown_reason":"Numeric value/probability withheld because no approved scoring rule exists.","site_name":"Harrogate Road/Union Mills, Undercliffe","hectares":2.16,"net_dwellings_range_from":49,"net_dwellings_range_to":65,"planning_permission_date":null,"planning_permission_type":null,"deliverable":null,"fake_data":false,"final_ready":false,"production_merge":false,"demo_only":true}}]}
