{"type":"FeatureCollection","name":"future_growth_9_batch_160","demo_only":true,"metadata":{"schema_version":3,"slot_id":"future_growth_9","continuation_key":"future_growth_9_open_source_v2_20260813","run_id":"future_growth_9_bounded12_20260818T203041Z","batch_index":160,"feature_count_before":158,"feature_count_added":1,"feature_count_after":159,"source_window":{"dataset":"brownfield-land","window_index":159,"window_size":1,"entity":1712170},"source_query_variant":"bradford_official_frozen_snapshot_entity_reference_sorted","source_request_url":"https://www.planning.data.gov.uk/entity/1712170","source_result":"ADDED","fake_data":false,"final_ready":false,"production_merge":false,"duplicate_count":0,"duplicate_candidate_skipped":false,"nearest_match_used":false},"features":[{"type":"Feature","id":"future_growth_9:planning_data_bradford:ne-013a","geometry":{"type":"Point","coordinates":[-1.744683,53.830001]},"properties":{"slot_id":"future_growth_9","continuation_key":"future_growth_9_open_source_v2_20260813","source_family":"planning_data_brownfield_land_direct_identity","source_name":"Planning Data Brownfield Land — City of Bradford Metropolitan District Council","source_publisher":"City of Bradford Metropolitan District Council via Planning Data","source_feature_id":"NE/013A","planning_data_entity":1712170,"source_url":"https://www.planning.data.gov.uk/entity/1712170","source_dataset_url":"https://www.planning.data.gov.uk/dataset/brownfield-land","source_entry_date":"2022-11-01","source_start_date":"2017-11-01","source_sha256":"239a06bcf24ef5ee15acf8a21083f47d8e0a4fd4e83716b262d835c8571ed589","source_sha256_scope":"canonical JSON of official API entity payload used in this bounded batch","license":"Open Government Licence v3.0","planning_status":"not-permissioned","future_growth_evidence_type":"area_proxy","direct_project_evidence":false,"evidence_summary":"The site had planning permission for 47 units in 2013 which has now expired. The owner is understood to be looking at bringing the site forward","matching_method":"direct official brownfield-land reference identity plus published WGS84 point; no nearest matching, no cross-parcel identity inference","source_query_variant":"bradford_official_frozen_snapshot_entity_reference_sorted","accuracy_scale_1_4":3,"future_growth_value":null,"future_growth_probability":null,"unknown_reason":"Numeric value/probability withheld because no approved scoring rule exists.","site_name":"Westfield Lane, Wrose","hectares":0.97,"net_dwellings_range_from":30,"net_dwellings_range_to":30,"planning_permission_date":null,"planning_permission_type":null,"deliverable":"yes","fake_data":false,"final_ready":false,"production_merge":false,"demo_only":true}}]}
