{"type":"FeatureCollection","features":[{"type":"Feature","geometry":{"type":"MultiPolygon","coordinates":[[[[-0.048223,51.426539],[-0.048413,51.426466],[-0.048495,51.426422],[-0.048663,51.426318],[-0.048729,51.426269],[-0.048785,51.426202],[-0.04888,51.426076],[-0.048915,51.426015],[-0.048947,51.425954],[-0.048935,51.425907],[-0.048906,51.425885],[-0.048574,51.425829],[-0.04814,51.425791],[-0.047656,51.425769],[-0.047249,51.425789],[-0.047254,51.425757],[-0.047171,51.425761],[-0.046997,51.425778],[-0.046979,51.425791],[-0.046691,51.425788],[-0.046696,51.425822],[-0.046752,51.42598],[-0.04692,51.426056],[-0.047068,51.426065],[-0.047089,51.426118],[-0.047203,51.426101],[-0.047285,51.42629],[-0.047159,51.42624],[-0.047125,51.426268],[-0.047125,51.426302],[-0.047255,51.426357],[-0.047329,51.426384],[-0.047353,51.426349],[-0.047377,51.426329],[-0.047607,51.426416],[-0.047757,51.426347],[-0.048223,51.426539]]]]},"properties":{"slot_id":"future_growth_7","lineage_id":"future_growth_7_open_source_v2_20260813","page_generation":null,"batch_id":"batch_20261007T065600Z_bfs1802211","official_entity_id":1802211,"official_reference":"SD010","dataset":"brownfield-site","organisation":"London Borough of Lewisham","source_url":"https://www.planning.data.gov.uk/entity/1802211","final_url":"https://www.planning.data.gov.uk/entity/1802211","accessed_utc":"2026-10-07T06:56:00Z","data_date":"2020-12-22","licence":"Open Government Licence v3.0","source_sha256":"832c68eac14830e7188404c925881795bd51523ae179658be0ef755f71c90562","source_sha256_basis":"canonical_official_field_evidence_json","field_evidence":{"entry-date":"2020-12-22","start-date":"","end-date":"","entity":1802211,"name":"113 to 157 Sydenham Road","dataset":"brownfield-site","typology":"geography","reference":"SD010","prefix":"brownfield-site","organisation-entity":"198","geometry":"MULTIPOLYGON (((-0.048223 51.426539, -0.048413 51.426466, -0.048495 51.426422, -0.048663 51.426318, -0.048729 51.426269, -0.048785 51.426202, -0.04888 51.426076, -0.048915 51.426015, -0.048947 51.425954, -0.048935 51.425907, -0.048906 51.425885, -0.048574 51.425829, -0.04814 51.425791, -0.047656 51.425769, -0.047249 51.425789, -0.047254 51.425757, -0.047171 51.425761, -0.046997 51.425778, -0.046979 51.425791, -0.046691 51.425788, -0.046696 51.425822, -0.046752 51.42598, -0.04692 51.426056, -0.047068 51.426065, -0.047089 51.426118, -0.047203 51.426101, -0.047285 51.42629, -0.047159 51.42624, -0.047125 51.426268, -0.047125 51.426302, -0.047255 51.426357, -0.047329 51.426384, -0.047353 51.426349, -0.047377 51.426329, -0.047607 51.426416, -0.047757 51.426347, -0.048223 51.426539)))","point":"POINT (-0.047892 51.426079)","quality":"some","brownfield-site":"SD010","organisation-curie":"local-authority:LEW"},"evidence_slice_sha256":"d8e183cad714b0a0267721dd684551b91316cfe2986f2ca4735498b5407cb1c3","evidence_grade":"A_EXACT_OFFICIAL_IDENTIFIER","confidence_score_0_100":92,"official_geometry_available":true,"official_geometry_type":"MULTIPOLYGON","source_geometry_materialized_here":true,"point_not_used_as_coverage":true,"source_area_basis":"published official-platform MULTIPOLYGON brownfield-site boundary","source_area_only":true,"fake_data":false}}]}
