{
  "type": "FeatureCollection",
  "name": "security_public_safety_2_cumulative_exact_identifiers",
  "features": [
    {
      "type": "Feature",
      "geometry": null,
      "properties": {
        "slot_id": "security_public_safety_2",
        "evidence_scope": "coverage_exact_identifier",
        "coverage_area_id": "city-of-london",
        "exact_identifier": "city-of-london",
        "exact_identifier_type": "data.police.uk.force.id",
        "coverage_area_name": "City of London Police",
        "source_url": "https://data.police.uk/api/forces",
        "final_url": "https://data.police.uk/api/forces",
        "data_date": "2026-10-01",
        "license": "Open Government Licence v3.0",
        "evidence_grade": "A_OFFICIAL_EXACT_IDENTIFIER",
        "fake_data": false,
        "spatial_binding_method": "DEFERRED_TO_LOCAL_OPENCODE",
        "canonical_parcel_id": null,
        "materialized_parcel_count": 0,
        "direct_parcel_count": 0
      }
    },
    {
      "type": "Feature",
      "geometry": null,
      "properties": {
        "slot_id": "security_public_safety_2",
        "evidence_scope": "coverage_exact_identifier",
        "coverage_area_id": "metropolitan",
        "exact_identifier": "metropolitan",
        "exact_identifier_type": "data.police.uk.force.id",
        "coverage_area_name": "Metropolitan Police Service",
        "source_url": "https://data.police.uk/api/forces",
        "final_url": "https://data.police.uk/api/forces",
        "data_date": "2026-10-01",
        "license": "Open Government Licence v3.0",
        "evidence_grade": "A_OFFICIAL_EXACT_IDENTIFIER",
        "fake_data": false,
        "spatial_binding_method": "DEFERRED_TO_LOCAL_OPENCODE",
        "canonical_parcel_id": null,
        "materialized_parcel_count": 0,
        "direct_parcel_count": 0
      }
    },
    {
      "type": "Feature",
      "geometry": null,
      "properties": {
        "slot_id": "security_public_safety_2",
        "evidence_scope": "coverage_exact_identifier_enrichment",
        "coverage_area_id": "metropolitan",
        "exact_identifier": "E23000001",
        "exact_identifier_type": "ONS.PFA24CD",
        "coverage_area_name": "Metropolitan Police",
        "source_url": "https://www.data.gov.uk/dataset/555e3f52-418f-4872-816d-cb469f4f6ddb/police-force-areas-december-2024-boundaries-ew-bfe/datafile/14e72aff-62fe-4c11-8cff-47c301673f75/preview",
        "final_url": "https://www.data.gov.uk/dataset/555e3f52-418f-4872-816d-cb469f4f6ddb/police-force-areas-december-2024-boundaries-ew-bfe/datafile/14e72aff-62fe-4c11-8cff-47c301673f75/preview",
        "access_utc": "2026-10-01T21:26:05Z",
        "data_date": "2024-12",
        "license": "Dataset licence field not set; National Data Library states OGL v3.0 except where otherwise stated",
        "file_sha256": "b81ecc5ac31441f97aee9b146e3fb9a74d91e3019bd6d87093b7eb2a32339d6c",
        "file_sha256_scope": "normalized web-retrieved CSV preview evidence snapshot",
        "evidence_slice_sha256": "902f8cebd1c47790f2469e4e247cbd9701a48acf0933b4c4e9198382eb7cc6cc",
        "field_evidence": {
          "FID": 1,
          "PFA24CD": "E23000001",
          "PFA24NM": "Metropolitan Police",
          "GlobalID": "009c6322-3a80-4ddc-b0a2-0ff860aad07d"
        },
        "confidence_score_0_100": 100,
        "evidence_grade": "A_OFFICIAL_EXACT_IDENTIFIER",
        "fake_data": false,
        "crosswalk_to_existing_coverage_area_id": "metropolitan",
        "crosswalk_basis": "official area name equivalence",
        "spatial_binding_method": "DEFERRED_TO_LOCAL_OPENCODE",
        "canonical_parcel_id": null,
        "materialized_parcel_count": 0,
        "direct_parcel_count": 0
      }
    }
  ],
  "metadata": {
    "source_area_count": 2,
    "source_area_delta_this_turn": 0,
    "latest_evidence_window": "ONS_PFA24_BFE_CSV_PREVIEW_ROWS_000_003",
    "latest_status": "SOURCE_AREA_IDENTIFIER_ENRICHED_LOCAL_BINDING_PENDING",
    "first_missing_criterion": "LOCAL_OPENCODE_EXACT_IDENTIFIER_TO_CANONICAL_SPATIAL_BINDING"
  }
}
