{"type":"FeatureCollection","features":[{"type":"Feature","id":"CHERWELL-19-01088-OUT-BLOCK-A","geometry":null,"properties":{"slot_id":"planned_buildings_2","lineage_id":"planned_buildings_2-20260930T174700Z-newstart","batch_id":"batch-0009","application_reference":"19/01088/OUT","planning_authority":"Cherwell District Council","site":"Land North West of Launton Road Roundabout Adderbury","distinct_building_id":"BLOCK_A","official_plan_label":"Block A","planned_building":true,"building_use":"mixed-use development","drawing_reference":"LRW-7469-L(00)391H","source_document_date":"2019-08-06","source_url":"https://planningregister.cherwell.gov.uk/Planning/Display/19/01088/OUT","geometry_status":"OFFICIAL_DISTINCT_BLOCK_IDENTIFIED_NATIVE_POLYGON_NOT_EXTRACTED","confidence_score_0_100":98,"evidence_grade":"A_OFFICIAL_LPA_REGISTER_DISTINCT_BLOCK_PLANS","fake_data":false}},{"type":"Feature","id":"CHERWELL-19-01088-OUT-BLOCK-B","geometry":null,"properties":{"slot_id":"planned_buildings_2","lineage_id":"planned_buildings_2-20260930T174700Z-newstart","batch_id":"batch-0009","application_reference":"19/01088/OUT","planning_authority":"Cherwell District Council","site":"Land North West of Launton Road Roundabout Adderbury","distinct_building_id":"BLOCK_B","official_plan_label":"Block B","planned_building":true,"building_use":"mixed-use development","drawing_reference":"LRW-7469-L(00)384D","source_document_date":"2019-08-06","source_url":"https://planningregister.cherwell.gov.uk/Planning/Display/19/01088/OUT","geometry_status":"OFFICIAL_DISTINCT_BLOCK_IDENTIFIED_NATIVE_POLYGON_NOT_EXTRACTED","confidence_score_0_100":98,"evidence_grade":"A_OFFICIAL_LPA_REGISTER_DISTINCT_BLOCK_PLANS","fake_data":false}}]}
