{"type":"FeatureCollection","name":"future_growth_6","features":[{"type":"Feature","id":"development-policy-area:local-authority-eng:BUC:LPHW4:2021-01-08","geometry":{"type":"MultiPolygon","coordinates":[[[[-0.726896,51.613998],[-0.727145,51.614243],[-0.727299,51.614487],[-0.727653,51.614796],[-0.728507,51.61522],[-0.728536,51.615254],[-0.728542,51.615394],[-0.728606,51.615478],[-0.729113,51.61563],[-0.729599,51.615876],[-0.729632,51.615922],[-0.729574,51.616077],[-0.729368,51.616426],[-0.728647,51.616992],[-0.728526,51.617143],[-0.728065,51.617259],[-0.727678,51.61743],[-0.726537,51.617535],[-0.725497,51.616945],[-0.725542,51.616922],[-0.725037,51.616488],[-0.724854,51.616587],[-0.724373,51.616316],[-0.723157,51.616811],[-0.723677,51.617078],[-0.723198,51.617379],[-0.722876,51.617154],[-0.722712,51.617246],[-0.722651,51.617209],[-0.722503,51.617086],[-0.722416,51.616863],[-0.722241,51.616696],[-0.72223,51.616597],[-0.722357,51.616395],[-0.722503,51.616275],[-0.722862,51.616069],[-0.723182,51.615745],[-0.724139,51.614883],[-0.724384,51.614709],[-0.724954,51.614498],[-0.726896,51.613998]]]]},"properties":{"semantic_identity":"development-policy-area:local-authority-eng:BUC:LPHW4:2021-01-08","source_area_id":"LPHW4","source_area_type":"local_plan_residential_allocation","name":"Abbey Barn North","organisation":"local-authority-eng:BUC","entry_date":"2021-01-08","local_plan_policy":"HW4","source_row":28,"source_url":"https://github.com/digital-land/development-policy-area/blob/111f7b992aa0c7efe39611b4003607141631a4f2/dataset/development-policy-area.csv","source_final_url":"https://api.github.com/repos/digital-land/development-policy-area/contents/dataset/development-policy-area.csv?ref=111f7b992aa0c7efe39611b4003607141631a4f2","http_status":200,"source_data_date":"2021-01-08","source_version":"111f7b992aa0c7efe39611b4003607141631a4f2","licence":"Open Government Licence v3.0","source_sha256":"1293f31d37f79e9312f0600b7b92ed4a0f936ccc7d6b9b4c60e383ffc5c65ba6","evidence_slice_sha256":"888af66e53d8ae32f3191b037c48535f1ed6677d7670d7adcdc5d9131d0bcf56","field_evidence":{"geometry":"dataset/development-policy-area.csv:geometry","identifier":"dataset/development-policy-area.csv:development-policy-area","name":"dataset/development-policy-area.csv:name","entry_date":"dataset/development-policy-area.csv:entry-date","allocation":"https://media.buckinghamshire.gov.uk/documents/Wycombe-District-Local-Plan-Adopted-August-2019-accessible.pdf#Policy-HW4"},"confidence":0.98,"evidence_grade":"A_OFFICIAL_GIS_AND_ADOPTED_PLAN","fake_data":false}},{"type":"Feature","id":"development-policy-area:local-authority-eng:BUC:LPHW5:2021-01-08","geometry":{"type":"MultiPolygon","coordinates":[[[[-0.742693,51.613496],[-0.743353,51.613734],[-0.744097,51.613947],[-0.745916,51.614375],[-0.745366,51.614691],[-0.745081,51.61491],[-0.744482,51.615292],[-0.744255,51.61548],[-0.743969,51.615795],[-0.743731,51.616397],[-0.74362,51.616569],[-0.741989,51.61574],[-0.739258,51.617776],[-0.738686,51.617515],[-0.738102,51.617378],[-0.737926,51.617283],[-0.737879,51.617224],[-0.737848,51.617298],[-0.737864,51.617344],[-0.737673,51.617422],[-0.736985,51.616001],[-0.736883,51.615477],[-0.736819,51.615395],[-0.736669,51.614947],[-0.736615,51.614905],[-0.736099,51.614766],[-0.735098,51.614569],[-0.734607,51.614412],[-0.734126,51.61416],[-0.733731,51.614194],[-0.732469,51.613673],[-0.732338,51.61368],[-0.732159,51.613804],[-0.73158,51.613648],[-0.731444,51.613535],[-0.731267,51.613452],[-0.729932,51.613143],[-0.73077,51.612899],[-0.73122,51.612818],[-0.732112,51.612406],[-0.733423,51.611903],[-0.734747,51.611737],[-0.735483,51.611605],[-0.735897,51.611479],[-0.736284,51.611307],[-0.73808,51.611746],[-0.739066,51.612041],[-0.740292,51.612475],[-0.742693,51.613496]]]]},"properties":{"semantic_identity":"development-policy-area:local-authority-eng:BUC:LPHW5:2021-01-08","source_area_id":"LPHW5","source_area_type":"local_plan_residential_allocation","name":"Abbey Barn South and Wycombe Summit","organisation":"local-authority-eng:BUC","entry_date":"2021-01-08","local_plan_policy":"HW5","source_row":29,"source_url":"https://github.com/digital-land/development-policy-area/blob/111f7b992aa0c7efe39611b4003607141631a4f2/dataset/development-policy-area.csv","source_final_url":"https://api.github.com/repos/digital-land/development-policy-area/contents/dataset/development-policy-area.csv?ref=111f7b992aa0c7efe39611b4003607141631a4f2","http_status":200,"source_data_date":"2021-01-08","source_version":"111f7b992aa0c7efe39611b4003607141631a4f2","licence":"Open Government Licence v3.0","source_sha256":"1293f31d37f79e9312f0600b7b92ed4a0f936ccc7d6b9b4c60e383ffc5c65ba6","evidence_slice_sha256":"888af66e53d8ae32f3191b037c48535f1ed6677d7670d7adcdc5d9131d0bcf56","field_evidence":{"geometry":"dataset/development-policy-area.csv:geometry","identifier":"dataset/development-policy-area.csv:development-policy-area","name":"dataset/development-policy-area.csv:name","entry_date":"dataset/development-policy-area.csv:entry-date","allocation":"https://media.buckinghamshire.gov.uk/documents/Wycombe-District-Local-Plan-Adopted-August-2019-accessible.pdf#Policy-HW5"},"confidence":0.98,"evidence_grade":"A_OFFICIAL_GIS_AND_ADOPTED_PLAN","fake_data":false}},{"type":"Feature","id":"development-policy-area:local-authority-eng:BUC:LPHW6:2021-01-08","geometry":{"type":"MultiPolygon","coordinates":[[[[-0.708131,51.625181],[-0.709297,51.625629],[-0.70833,51.626551],[-0.708901,51.626791],[-0.708603,51.627041],[-0.708223,51.62743],[-0.708051,51.62769],[-0.707735,51.628067],[-0.707166,51.628885],[-0.707025,51.62903],[-0.706976,51.62915],[-0.706541,51.629808],[-0.706273,51.630128],[-0.705989,51.630387],[-0.70542,51.6308],[-0.705234,51.630972],[-0.704396,51.632058],[-0.703954,51.632524],[-0.701507,51.63314],[-0.701416,51.633126],[-0.700678,51.633319],[-0.700499,51.633292],[-0.700414,51.633342],[-0.700357,51.63334],[-0.700232,51.633244],[-0.699786,51.632855],[-0.699838,51.632822],[-0.699586,51.632539],[-0.69943,51.632284],[-0.699507,51.632208],[-0.699744,51.631813],[-0.700221,51.631315],[-0.700878,51.630827],[-0.701249,51.630505],[-0.701628,51.629529],[-0.70196,51.629096],[-0.702132,51.628758],[-0.702262,51.628174],[-0.702355,51.628086],[-0.702524,51.628008],[-0.702612,51.627881],[-0.702753,51.62713],[-0.702898,51.625991],[-0.702854,51.625781],[-0.702645,51.62556],[-0.702786,51.625466],[-0.703434,51.624233],[-0.704114,51.624235],[-0.703991,51.623939],[-0.703676,51.623432],[-0.703581,51.623064],[-0.703565,51.622656],[-0.703596,51.622286],[-0.703862,51.621549],[-0.70404,51.621262],[-0.704236,51.621034],[-0.70481,51.620697],[-0.704592,51.620592],[-0.705694,51.619974],[-0.705993,51.619875],[-0.705995,51.61985],[-0.705247,51.619459],[-0.706013,51.618915],[-0.706213,51.618711],[-0.706283,51.618586],[-0.706296,51.61836],[-0.706255,51.618195],[-0.705891,51.617739],[-0.705816,51.617597],[-0.706547,51.61746],[-0.706498,51.617298],[-0.705953,51.617312],[-0.705689,51.617355],[-0.705671,51.617273],[-0.705704,51.617147],[-0.705914,51.616881],[-0.706283,51.616643],[-0.706491,51.61656],[-0.707084,51.616407],[-0.707766,51.616721],[-0.708721,51.617369],[-0.709391,51.617765],[-0.710396,51.61824],[-0.710716,51.618599],[-0.709925,51.618878],[-0.7103,51.619166],[-0.709468,51.619835],[-0.710807,51.620423],[-0.711253,51.620357],[-0.71236,51.619376],[-0.713733,51.62033],[-0.714608,51.620854],[-0.715174,51.621137],[-0.714934,51.621371],[-0.715441,51.621616],[-0.715303,51.621729],[-0.714939,51.622151],[-0.714742,51.622296],[-0.71453,51.62242],[-0.714149,51.622505],[-0.713777,51.622657],[-0.713307,51.622924],[-0.712891,51.62322],[-0.712372,51.622995],[-0.711633,51.622806],[-0.711154,51.623157],[-0.710929,51.623196],[-0.710307,51.62297],[-0.708131,51.625181]]]]},"properties":{"semantic_identity":"development-policy-area:local-authority-eng:BUC:LPHW6:2021-01-08","source_area_id":"LPHW6","source_area_type":"local_plan_residential_allocation","name":"Gomm Valley and Ashwells","organisation":"local-authority-eng:BUC","entry_date":"2021-01-08","local_plan_policy":"HW6","source_row":30,"source_url":"https://github.com/digital-land/development-policy-area/blob/111f7b992aa0c7efe39611b4003607141631a4f2/dataset/development-policy-area.csv","source_final_url":"https://api.github.com/repos/digital-land/development-policy-area/contents/dataset/development-policy-area.csv?ref=111f7b992aa0c7efe39611b4003607141631a4f2","http_status":200,"source_data_date":"2021-01-08","source_version":"111f7b992aa0c7efe39611b4003607141631a4f2","licence":"Open Government Licence v3.0","source_sha256":"1293f31d37f79e9312f0600b7b92ed4a0f936ccc7d6b9b4c60e383ffc5c65ba6","evidence_slice_sha256":"888af66e53d8ae32f3191b037c48535f1ed6677d7670d7adcdc5d9131d0bcf56","field_evidence":{"geometry":"dataset/development-policy-area.csv:geometry","identifier":"dataset/development-policy-area.csv:development-policy-area","name":"dataset/development-policy-area.csv:name","entry_date":"dataset/development-policy-area.csv:entry-date","allocation":"https://media.buckinghamshire.gov.uk/documents/Wycombe-District-Local-Plan-Adopted-August-2019-accessible.pdf#Policy-HW6"},"confidence":0.98,"evidence_grade":"A_OFFICIAL_GIS_AND_ADOPTED_PLAN","fake_data":false}}],"properties":{"state":"SOURCE_AREAS_PRODUCED_LOCAL_BINDING_PENDING","source_area_count":16,"source_area_count_delta":3,"accepted_count":0,"duplicate_count":0,"rejected_count":0,"unmatched_count":13,"materialized_parcel_count":0,"direct_parcel_count":0,"verified_no_building_count":0,"unprocessed_count":13,"planned_building_count":0,"producer_before_count":13,"producer_delta":3,"producer_after_count":16,"cursor":"OFFICIAL_GIS:111f7b992aa0c7efe39611b4003607141631a4f2:BUC:HW4-HW6:ROWS_28_30","first_missing_criterion":"LOCAL_CANONICAL_PARCEL_IDENTIFIER_BINDING_MATERIALIZATION","fake_data":false}}
