{"type":"FeatureCollection","features":[{"type":"Feature","geometry":{"type":"MultiPolygon","coordinates":[[[[-1.027355,53.594249],[-1.027418,53.59432],[-1.027441,53.594323],[-1.027416,53.594297],[-1.028091,53.594149],[-1.027912,53.593881],[-1.027637,53.593935],[-1.027782,53.594166],[-1.027432,53.594243],[-1.027403,53.594237],[-1.027355,53.594249]]]]},"properties":{"slot_id":"future_growth_3","lineage_id":"future_growth_3-newstart-20261001T203100Z","page_generation":null,"accepted_as_parcel":false,"source_area_count_contribution":1,"exact_identifier":"67","exact_identifier_provided":true,"coverage_polygon_provided":true,"identifier_namespace":"Planning Data brownfield-site reference","secondary_exact_identifier":"entity:1802734","source_entity":"67 - Millcroft House (Adjacent 5 Mill Croft), Mill Croft, Stainforth","access_utc":"2026-10-04T07:20:58Z","data_date":"2025-12-03","source_url":"https://www.planning.data.gov.uk/entity/1802734","final_url":"https://www.planning.data.gov.uk/entity/1802734","license":"Open Government Licence v3.0; attribution © Crown copyright and database right 2026.","authority":"Doncaster Metropolitan Borough Council","site_address":"Millcroft House (Adjacent 5 Mill Croft), Mill Croft, Stainforth","field_evidence":{"reference":"67","entity":1802734,"dataset":"Brownfield site","organisation":"Doncaster Metropolitan Borough Council","entry_date":"2025-12-03","site_name":"Millcroft House (Adjacent 5 Mill Croft), Mill Croft, Stainforth","quality":"authoritative","geometry_wkt":"MULTIPOLYGON (((-1.027355 53.594249, -1.027418 53.59432, -1.027441 53.594323, -1.027416 53.594297, -1.028091 53.594149, -1.027912 53.593881, -1.027637 53.593935, -1.027782 53.594166, -1.027432 53.594243, -1.027403 53.594237, -1.027355 53.594249)))","point_wkt":"POINT (-1.027805 53.594084)","organisation_entity":"local-authority:DNC"},"source_payload_sha256":"d01cce000da9c16673fd4212b9bb736a30f79b216d57393b5098a91ef26c8485","source_payload_sha256_basis":"canonicalized official Planning Data brownfield-site 67 evidence fields","evidence_slice_sha256":"aa5b0afb7016fa68c39ceb84cb16ae4e075aab416c0811f40234aab089c9e73f","evidence_grade":"A","confidence_score_0_100":99,"evidence_scope":"authoritative_official_published_multipolygon_from_planning_data_brownfield_site","fake_data":false,"spatial_binding_method":"official Planning Data brownfield-site entity 1802734 published MultiPolygon; canonical parcel spatial join and materialization delegated to local OpenCode","planned_building_count_contribution":0}}]}