{"type":"FeatureCollection","name":"security_public_safety_1_batch_exact_identifiers","features":[{"type":"Feature","geometry":null,"properties":{"slot_id":"security_public_safety_1","evidence_scope":"coverage_exact_identifier","exact_identifier":"London","exact_identifier_type":"btp.police.uk.london_local_team.official_name","coverage_area_name":"London","evidence_grade":"A_OFFICIAL_EXACT_IDENTIFIER","fake_data":false,"canonical_parcel_id":null}},{"type":"Feature","geometry":null,"properties":{"slot_id":"security_public_safety_1","evidence_scope":"coverage_exact_identifier","exact_identifier":"London Bridge","exact_identifier_type":"btp.police.uk.london_local_team.official_name","coverage_area_name":"London Bridge","evidence_grade":"A_OFFICIAL_EXACT_IDENTIFIER","fake_data":false,"canonical_parcel_id":null}},{"type":"Feature","geometry":null,"properties":{"slot_id":"security_public_safety_1","evidence_scope":"coverage_exact_identifier","exact_identifier":"London Euston","exact_identifier_type":"btp.police.uk.london_local_team.official_name","coverage_area_name":"London Euston","evidence_grade":"A_OFFICIAL_EXACT_IDENTIFIER","fake_data":false,"canonical_parcel_id":null}},{"type":"Feature","geometry":null,"properties":{"slot_id":"security_public_safety_1","evidence_scope":"coverage_exact_identifier","exact_identifier":"London Kings Cross","exact_identifier_type":"btp.police.uk.london_local_team.official_name","coverage_area_name":"London Kings Cross","evidence_grade":"A_OFFICIAL_EXACT_IDENTIFIER","fake_data":false,"canonical_parcel_id":null}},{"type":"Feature","geometry":null,"properties":{"slot_id":"security_public_safety_1","evidence_scope":"coverage_exact_identifier","exact_identifier":"London Liverpool Street","exact_identifier_type":"btp.police.uk.london_local_team.official_name","coverage_area_name":"London Liverpool Street","evidence_grade":"A_OFFICIAL_EXACT_IDENTIFIER","fake_data":false,"canonical_parcel_id":null}},{"type":"Feature","geometry":null,"properties":{"slot_id":"security_public_safety_1","evidence_scope":"coverage_exact_identifier","exact_identifier":"London Paddington","exact_identifier_type":"btp.police.uk.london_local_team.official_name","coverage_area_name":"London Paddington","evidence_grade":"A_OFFICIAL_EXACT_IDENTIFIER","fake_data":false,"canonical_parcel_id":null}},{"type":"Feature","geometry":null,"properties":{"slot_id":"security_public_safety_1","evidence_scope":"coverage_exact_identifier","exact_identifier":"London Stratford","exact_identifier_type":"btp.police.uk.london_local_team.official_name","coverage_area_name":"London Stratford","evidence_grade":"A_OFFICIAL_EXACT_IDENTIFIER","fake_data":false,"canonical_parcel_id":null}},{"type":"Feature","geometry":null,"properties":{"slot_id":"security_public_safety_1","evidence_scope":"coverage_exact_identifier","exact_identifier":"London Underground","exact_identifier_type":"btp.police.uk.london_local_team.official_name","coverage_area_name":"London Underground","evidence_grade":"A_OFFICIAL_EXACT_IDENTIFIER","fake_data":false,"canonical_parcel_id":null}},{"type":"Feature","geometry":null,"properties":{"slot_id":"security_public_safety_1","evidence_scope":"coverage_exact_identifier","exact_identifier":"London Victoria","exact_identifier_type":"btp.police.uk.london_local_team.official_name","coverage_area_name":"London Victoria","evidence_grade":"A_OFFICIAL_EXACT_IDENTIFIER","fake_data":false,"canonical_parcel_id":null}},{"type":"Feature","geometry":null,"properties":{"slot_id":"security_public_safety_1","evidence_scope":"coverage_exact_identifier","exact_identifier":"London Waterloo","exact_identifier_type":"btp.police.uk.london_local_team.official_name","coverage_area_name":"London Waterloo","evidence_grade":"A_OFFICIAL_EXACT_IDENTIFIER","fake_data":false,"canonical_parcel_id":null}}]}
