{"type":"FeatureCollection","name":"security_public_safety_1_batch_exact_identifiers","features":[{"type":"Feature","geometry":null,"properties":{"slot_id":"security_public_safety_1","evidence_scope":"coverage_exact_identifier","coverage_area_id":"London Bridge","exact_identifier":"London Bridge","exact_identifier_type":"btp.police.uk.london.local_team.official_name","coverage_area_name":"London Bridge","source_url":"https://www.btp.police.uk/lt/local-teams/london/","final_url":"https://www.btp.police.uk/lt/local-teams/london/","access_utc":"2026-10-07T08:45:00Z","data_date":"2026-10-07","data_date_basis":"Current official British Transport Police page snapshot observed on access date","license":"British Transport Police website; explicit reuse licence not asserted in extracted source window","file_sha256":"3718ff2d95c084628e76f7badf43fc4168dcb7072d36a8b6d039ab1bc359cdd3","file_sha256_scope":"normalized nine official London local-team name records; not raw HTML bytes","evidence_slice_sha256":"68b06ee0f62f1630a107a62856c2cb85d457e8e1961de1aff764fec916f057b3","field_evidence":{"ordinal":1,"id":"London Bridge"},"confidence_score_0_100":100,"evidence_grade":"A_OFFICIAL_EXACT_IDENTIFIER","fake_data":false,"spatial_binding_method":"DEFERRED_TO_LOCAL_OPENCODE","canonical_parcel_id":null,"materialized_parcel_count":0,"direct_parcel_count":0}},{"type":"Feature","geometry":null,"properties":{"slot_id":"security_public_safety_1","evidence_scope":"coverage_exact_identifier","coverage_area_id":"London Euston","exact_identifier":"London Euston","exact_identifier_type":"btp.police.uk.london.local_team.official_name","coverage_area_name":"London Euston","source_url":"https://www.btp.police.uk/lt/local-teams/london/","final_url":"https://www.btp.police.uk/lt/local-teams/london/","access_utc":"2026-10-07T08:45:00Z","data_date":"2026-10-07","data_date_basis":"Current official British Transport Police page snapshot observed on access date","license":"British Transport Police website; explicit reuse licence not asserted in extracted source window","file_sha256":"3718ff2d95c084628e76f7badf43fc4168dcb7072d36a8b6d039ab1bc359cdd3","file_sha256_scope":"normalized nine official London local-team name records; not raw HTML bytes","evidence_slice_sha256":"0fa96c5c1c5b8160d70bb1bad3335235933ead59309b2487439485114e3b7c82","field_evidence":{"ordinal":2,"id":"London Euston"},"confidence_score_0_100":100,"evidence_grade":"A_OFFICIAL_EXACT_IDENTIFIER","fake_data":false,"spatial_binding_method":"DEFERRED_TO_LOCAL_OPENCODE","canonical_parcel_id":null,"materialized_parcel_count":0,"direct_parcel_count":0}},{"type":"Feature","geometry":null,"properties":{"slot_id":"security_public_safety_1","evidence_scope":"coverage_exact_identifier","coverage_area_id":"London Kings Cross","exact_identifier":"London Kings Cross","exact_identifier_type":"btp.police.uk.london.local_team.official_name","coverage_area_name":"London Kings Cross","source_url":"https://www.btp.police.uk/lt/local-teams/london/","final_url":"https://www.btp.police.uk/lt/local-teams/london/","access_utc":"2026-10-07T08:45:00Z","data_date":"2026-10-07","data_date_basis":"Current official British Transport Police page snapshot observed on access date","license":"British Transport Police website; explicit reuse licence not asserted in extracted source window","file_sha256":"3718ff2d95c084628e76f7badf43fc4168dcb7072d36a8b6d039ab1bc359cdd3","file_sha256_scope":"normalized nine official London local-team name records; not raw HTML bytes","evidence_slice_sha256":"da785320691dbaea5e69b246301f6abb23db7c3ca8c32bac19be8358f2afe709","field_evidence":{"ordinal":3,"id":"London Kings Cross"},"confidence_score_0_100":100,"evidence_grade":"A_OFFICIAL_EXACT_IDENTIFIER","fake_data":false,"spatial_binding_method":"DEFERRED_TO_LOCAL_OPENCODE","canonical_parcel_id":null,"materialized_parcel_count":0,"direct_parcel_count":0}},{"type":"Feature","geometry":null,"properties":{"slot_id":"security_public_safety_1","evidence_scope":"coverage_exact_identifier","coverage_area_id":"London Liverpool Street","exact_identifier":"London Liverpool Street","exact_identifier_type":"btp.police.uk.london.local_team.official_name","coverage_area_name":"London Liverpool Street","source_url":"https://www.btp.police.uk/lt/local-teams/london/","final_url":"https://www.btp.police.uk/lt/local-teams/london/","access_utc":"2026-10-07T08:45:00Z","data_date":"2026-10-07","data_date_basis":"Current official British Transport Police page snapshot observed on access date","license":"British Transport Police website; explicit reuse licence not asserted in extracted source window","file_sha256":"3718ff2d95c084628e76f7badf43fc4168dcb7072d36a8b6d039ab1bc359cdd3","file_sha256_scope":"normalized nine official London local-team name records; not raw HTML bytes","evidence_slice_sha256":"9c54f0f364add954fd4f657ef938148676b1d05f988dede3c5975b6a64e3e60c","field_evidence":{"ordinal":4,"id":"London Liverpool Street"},"confidence_score_0_100":100,"evidence_grade":"A_OFFICIAL_EXACT_IDENTIFIER","fake_data":false,"spatial_binding_method":"DEFERRED_TO_LOCAL_OPENCODE","canonical_parcel_id":null,"materialized_parcel_count":0,"direct_parcel_count":0}},{"type":"Feature","geometry":null,"properties":{"slot_id":"security_public_safety_1","evidence_scope":"coverage_exact_identifier","coverage_area_id":"London Paddington","exact_identifier":"London Paddington","exact_identifier_type":"btp.police.uk.london.local_team.official_name","coverage_area_name":"London Paddington","source_url":"https://www.btp.police.uk/lt/local-teams/london/","final_url":"https://www.btp.police.uk/lt/local-teams/london/","access_utc":"2026-10-07T08:45:00Z","data_date":"2026-10-07","data_date_basis":"Current official British Transport Police page snapshot observed on access date","license":"British Transport Police website; explicit reuse licence not asserted in extracted source window","file_sha256":"3718ff2d95c084628e76f7badf43fc4168dcb7072d36a8b6d039ab1bc359cdd3","file_sha256_scope":"normalized nine official London local-team name records; not raw HTML bytes","evidence_slice_sha256":"6b1ae723430c0903781fc011dfe954c77652781d020b27d61c7e371943815173","field_evidence":{"ordinal":5,"id":"London Paddington"},"confidence_score_0_100":100,"evidence_grade":"A_OFFICIAL_EXACT_IDENTIFIER","fake_data":false,"spatial_binding_method":"DEFERRED_TO_LOCAL_OPENCODE","canonical_parcel_id":null,"materialized_parcel_count":0,"direct_parcel_count":0}},{"type":"Feature","geometry":null,"properties":{"slot_id":"security_public_safety_1","evidence_scope":"coverage_exact_identifier","coverage_area_id":"London Stratford","exact_identifier":"London Stratford","exact_identifier_type":"btp.police.uk.london.local_team.official_name","coverage_area_name":"London Stratford","source_url":"https://www.btp.police.uk/lt/local-teams/london/","final_url":"https://www.btp.police.uk/lt/local-teams/london/","access_utc":"2026-10-07T08:45:00Z","data_date":"2026-10-07","data_date_basis":"Current official British Transport Police page snapshot observed on access date","license":"British Transport Police website; explicit reuse licence not asserted in extracted source window","file_sha256":"3718ff2d95c084628e76f7badf43fc4168dcb7072d36a8b6d039ab1bc359cdd3","file_sha256_scope":"normalized nine official London local-team name records; not raw HTML bytes","evidence_slice_sha256":"30d3208a7efff2f56c4ad2d4f30e0db61f5429c3442865d94ff4301b48788925","field_evidence":{"ordinal":6,"id":"London Stratford"},"confidence_score_0_100":100,"evidence_grade":"A_OFFICIAL_EXACT_IDENTIFIER","fake_data":false,"spatial_binding_method":"DEFERRED_TO_LOCAL_OPENCODE","canonical_parcel_id":null,"materialized_parcel_count":0,"direct_parcel_count":0}},{"type":"Feature","geometry":null,"properties":{"slot_id":"security_public_safety_1","evidence_scope":"coverage_exact_identifier","coverage_area_id":"London Underground","exact_identifier":"London Underground","exact_identifier_type":"btp.police.uk.london.local_team.official_name","coverage_area_name":"London Underground","source_url":"https://www.btp.police.uk/lt/local-teams/london/","final_url":"https://www.btp.police.uk/lt/local-teams/london/","access_utc":"2026-10-07T08:45:00Z","data_date":"2026-10-07","data_date_basis":"Current official British Transport Police page snapshot observed on access date","license":"British Transport Police website; explicit reuse licence not asserted in extracted source window","file_sha256":"3718ff2d95c084628e76f7badf43fc4168dcb7072d36a8b6d039ab1bc359cdd3","file_sha256_scope":"normalized nine official London local-team name records; not raw HTML bytes","evidence_slice_sha256":"adabbec93354853c79efb74d76b1f6dc9e0c76792a6ff12ca253eb95e5fd92ff","field_evidence":{"ordinal":7,"id":"London Underground"},"confidence_score_0_100":100,"evidence_grade":"A_OFFICIAL_EXACT_IDENTIFIER","fake_data":false,"spatial_binding_method":"DEFERRED_TO_LOCAL_OPENCODE","canonical_parcel_id":null,"materialized_parcel_count":0,"direct_parcel_count":0}},{"type":"Feature","geometry":null,"properties":{"slot_id":"security_public_safety_1","evidence_scope":"coverage_exact_identifier","coverage_area_id":"London Victoria","exact_identifier":"London Victoria","exact_identifier_type":"btp.police.uk.london.local_team.official_name","coverage_area_name":"London Victoria","source_url":"https://www.btp.police.uk/lt/local-teams/london/","final_url":"https://www.btp.police.uk/lt/local-teams/london/","access_utc":"2026-10-07T08:45:00Z","data_date":"2026-10-07","data_date_basis":"Current official British Transport Police page snapshot observed on access date","license":"British Transport Police website; explicit reuse licence not asserted in extracted source window","file_sha256":"3718ff2d95c084628e76f7badf43fc4168dcb7072d36a8b6d039ab1bc359cdd3","file_sha256_scope":"normalized nine official London local-team name records; not raw HTML bytes","evidence_slice_sha256":"6be23d34a568da191ff2d6c9a8e5bd56abffd57c9c31ffea957eb26c795537cc","field_evidence":{"ordinal":8,"id":"London Victoria"},"confidence_score_0_100":100,"evidence_grade":"A_OFFICIAL_EXACT_IDENTIFIER","fake_data":false,"spatial_binding_method":"DEFERRED_TO_LOCAL_OPENCODE","canonical_parcel_id":null,"materialized_parcel_count":0,"direct_parcel_count":0}},{"type":"Feature","geometry":null,"properties":{"slot_id":"security_public_safety_1","evidence_scope":"coverage_exact_identifier","coverage_area_id":"London Waterloo","exact_identifier":"London Waterloo","exact_identifier_type":"btp.police.uk.london.local_team.official_name","coverage_area_name":"London Waterloo","source_url":"https://www.btp.police.uk/lt/local-teams/london/","final_url":"https://www.btp.police.uk/lt/local-teams/london/","access_utc":"2026-10-07T08:45:00Z","data_date":"2026-10-07","data_date_basis":"Current official British Transport Police page snapshot observed on access date","license":"British Transport Police website; explicit reuse licence not asserted in extracted source window","file_sha256":"3718ff2d95c084628e76f7badf43fc4168dcb7072d36a8b6d039ab1bc359cdd3","file_sha256_scope":"normalized nine official London local-team name records; not raw HTML bytes","evidence_slice_sha256":"12cd4367c6b53f346f8a833f1ab72363ea01111d4654daf7053dbef25fa33769","field_evidence":{"ordinal":9,"id":"London Waterloo"},"confidence_score_0_100":100,"evidence_grade":"A_OFFICIAL_EXACT_IDENTIFIER","fake_data":false,"spatial_binding_method":"DEFERRED_TO_LOCAL_OPENCODE","canonical_parcel_id":null,"materialized_parcel_count":0,"direct_parcel_count":0}}],"metadata":{"source_area_count":208,"source_area_delta_this_turn":9,"latest_evidence_window":"BTP_LONDON_LOCAL_TEAMS_CURRENT_20261007T084500Z","latest_status":"9_NEW_OFFICIAL_EXACT_IDENTIFIERS_ACCEPTED","exact_blocker":"LOCAL_OPENCODE_EXACT_IDENTIFIER_TO_CANONICAL_SPATIAL_BINDING_REQUIRED","first_missing_criterion":"LOCAL_OPENCODE_EXACT_IDENTIFIER_TO_CANONICAL_SPATIAL_BINDING"}}
