{
  "type": "FeatureCollection",
  "name": "gas_emissions_2_ons_lad23_boundary_identifier_window",
  "metadata": {
    "schema_family": "AAYS_LAYER24_EVIDENCE_V1",
    "package_category": "AAYS_SOURCE_AREA_V1",
    "slot_id": "gas_emissions_2",
    "lineage_id": "L24-GE2-600c3339868ccb329689",
    "page_generation": 4,
    "owner": "gas_emissions_2",
    "partition": {
      "start": 15382,
      "end": 30762
    },
    "batch_id": "20260930T194149Z_ONS_LAD23_BGC_PREVIEW_0001_0004",
    "semantic_mode_state": "ABSENT_IN_VERIFIED_PREDECESSOR_PRESERVED_NO_NEW_VALUE_ASSERTED",
    "source_family": "ONS_OPEN_GEOGRAPHY_LAD_BOUNDARY_EXACT_IDENTIFIER",
    "source_window_id": "ONS_LAD_DEC_2023_UK_BGC_NDL_PREVIEW_ROWS_0001_0004",
    "url": "https://www.data.gov.uk/dataset/31c78354-168f-4457-b8f3-80e86adcd0f4/local-authority-districts-december-2023-boundaries-uk-bgc/datafile/05a03d3a-ea2d-45d5-8cb4-563b26f96249/preview",
    "final_url": "https://www.data.gov.uk/dataset/31c78354-168f-4457-b8f3-80e86adcd0f4/local-authority-districts-december-2023-boundaries-uk-bgc/datafile/05a03d3a-ea2d-45d5-8cb4-563b26f96249/preview",
    "dataset_url": "https://www.data.gov.uk/dataset/31c78354-168f-4457-b8f3-80e86adcd0f4/local-authority-districts-december-2023-boundaries-uk-bgc",
    "feature_layer_url": "https://services1.arcgis.com/ESMARspQHYMw9BZ9/ArcGIS/rest/services/Local_Authority_Districts_December_2023_Boundaries_UK_BGC/FeatureServer/0",
    "accessed_at_utc": "2026-09-30T19:41:49Z",
    "data_date": "2023-12",
    "resource_data_last_updated": "2024-02-08",
    "feature_layer_data_last_edit": "2024-01-25T13:16:53Z",
    "dataset_metadata_last_updated": "2026-09-24T16:07:00Z",
    "publisher": "Office for National Statistics",
    "license": "NOT_STATED_ON_DATA_GOV_UK_RESOURCE",
    "rights_note": "Contains both Ordnance Survey and ONS Intellectual Property Rights.",
    "feature_geometry_type": "esriGeometryPolygon",
    "feature_layer_crs": "EPSG:27700",
    "field_evidence": {
      "LAD23CD": "ONS Local Authority District December 2023 exact identifier",
      "LAD23NM": "ONS Local Authority District name",
      "GlobalID": "ArcGIS feature GlobalID",
      "Shape__Area": "feature-layer polygon area metadata",
      "Shape__Length": "feature-layer polygon perimeter metadata",
      "LONG": "published representative longitude",
      "LAT": "published representative latitude"
    },
    "confidence_score_0_100": 96,
    "evidence_grade": "A_OFFICIAL_ONS_EXACT_IDENTIFIER_COVERAGE_METADATA",
    "fake_data": false,
    "geometry_materialization_status": "POLYGON_LAYER_CONFIRMED_BUT_POLYGON_COORDINATES_NOT_MATERIALIZED_IN_THIS_RUNTIME",
    "canonical_binding_status": "LOCAL_OPENCODE_SPATIAL_JOIN_REQUIRED"
  },
  "features": [
    {
      "type": "Feature",
      "geometry": null,
      "properties": {
        "FID": 1,
        "LAD23CD": "E06000001",
        "LAD23NM": "Hartlepool",
        "LAD23NMW": "",
        "BNG_E": 447160,
        "BNG_N": 531474,
        "LONG": -1.27018,
        "LAT": 54.67614,
        "Shape__Area": 93766803.3477936,
        "Shape__Length": 68377.7749136964,
        "GlobalID": "338a54d0-e089-4a19-a10b-33a88632b2c9",
        "source_record_ordinal": 1,
        "official_identifier": "E06000001",
        "identifier_already_present_in_source_area_ledger": true
      }
    },
    {
      "type": "Feature",
      "geometry": null,
      "properties": {
        "FID": 2,
        "LAD23CD": "E06000002",
        "LAD23NM": "Middlesbrough",
        "LAD23NMW": "",
        "BNG_E": 451141,
        "BNG_N": 516887,
        "LONG": -1.21099,
        "LAT": 54.54467,
        "Shape__Area": 53858494.204071,
        "Shape__Length": 43640.4988316848,
        "GlobalID": "c46f7f23-b465-4f7e-900a-0def16eea429",
        "source_record_ordinal": 2,
        "official_identifier": "E06000002",
        "identifier_already_present_in_source_area_ledger": true
      }
    },
    {
      "type": "Feature",
      "geometry": null,
      "properties": {
        "FID": 3,
        "LAD23CD": "E06000003",
        "LAD23NM": "Redcar and Cleveland",
        "LAD23NMW": "",
        "BNG_E": 464361,
        "BNG_N": 519597,
        "LONG": -1.00608,
        "LAT": 54.56752,
        "Shape__Area": 245159054.831924,
        "Shape__Length": 94901.1430478966,
        "GlobalID": "bfb9468c-0951-46b7-996c-b8f076c634b2",
        "source_record_ordinal": 3,
        "official_identifier": "E06000003",
        "identifier_already_present_in_source_area_ledger": true
      }
    },
    {
      "type": "Feature",
      "geometry": null,
      "properties": {
        "FID": 4,
        "LAD23CD": "E06000004",
        "LAD23NM": "Stockton-on-Tees",
        "LAD23NMW": "",
        "BNG_E": 444940,
        "BNG_N": 518179,
        "LONG": -1.30664,
        "LAT": 54.55687,
        "Shape__Area": 204921246.618378,
        "Shape__Length": 118457.92434404,
        "GlobalID": "1f58ac8f-80a5-4cdf-b62a-55b5154c0724",
        "source_record_ordinal": 4,
        "official_identifier": "E06000004",
        "identifier_already_present_in_source_area_ledger": true
      }
    }
  ]
}
