{"type":"FeatureCollection","features":[{"type":"Feature","geometry":null,"properties":{"slot_id":"future_growth_1","lineage_id":"future_growth_1-newstart-20260927T153100+0300","page_generation":null,"accepted_as_parcel":false,"source_area_count_contribution":1,"exact_identifier":"HLA-1002","exact_identifier_provided":true,"coverage_polygon_provided":false,"identifier_namespace":"Greater Manchester Identified Supply of Housing 2025 Site Reference","site_name":"31 - 33 Johnson Fold Avenue Bolton BL1 5SF","access_utc":"2026-10-03T11:51:00Z","data_date":"2026-03-26","source_url":"https://www.data.gov.uk/dataset/16fa3096-3716-4d6f-94eb-877a1e7751fa/identified-supply-of-housing-industrial-warehousing-and-offices-2024-in-greater-manchester/datafile/66d51903-f176-4b95-a01d-7effc87aecde/preview","final_url":"https://www.data.gov.uk/dataset/16fa3096-3716-4d6f-94eb-877a1e7751fa/identified-supply-of-housing-industrial-warehousing-and-offices-2024-in-greater-manchester/datafile/66d51903-f176-4b95-a01d-7effc87aecde/preview","dataset_url":"https://www.data.gov.uk/dataset/16fa3096-3716-4d6f-94eb-877a1e7751fa/identified-supply-of-housing-industrial-warehousing-and-offices-2025-in-greater-manchester","csv_url":"https://www.greatermanchester-ca.gov.uk/media/ixzie1p4/2025-gm-housing-land-supply_publish.csv","gis_url":"https://www.greatermanchester-ca.gov.uk/media/hicpf3rv/2025-gm-housing-land-supply-gis.zip","license":"Open Government Licence","authority":"Bolton / Greater Manchester Combined Authority","site_reference":"HLA-1002","local_authority":"Bolton","site_address":"31 - 33 Johnson Fold Avenue Bolton BL1 5SF","land_type":"Brownfield","construction_status":"Not started","planning_status":"Permissioned","local_planning_status_raw":"F","supply_figures_basis":"Gross","houses_completions_all_past_years":0,"houses_supply_2025_26_to_2029_30":2,"houses_supply_2030_31_to_2034_35":0,"houses_supply_2035_36_to_2039_40":0,"houses_supply_2040_41_onwards":0,"apartments_completions_all_past_years":0,"apartments_supply_all_future_periods":0,"gis_boundary_available":true,"dataset_last_updated":"2026-03-26","housing_files_added":"2025-02-04","evidence_grade":"A","confidence_score_0_100":99,"evidence_scope":"exact GMCA housing land-supply record HLA-1002 plus official dataset metadata and separately published housing GIS boundary dataset","evidence_slice_sha256":"268ba8059f6fe841339d153b7565106abdf49d85d2143fae846469e6908fddd2","fake_data":false,"spatial_binding_method":"official HLA-1002 site reference plus official Greater Manchester housing GIS dataset flagged as boundary available; exact GIS extraction, canonical parcel spatial join and materialization delegated to local OpenCode","planned_building_count_contribution":0}}]}