{
  "type": "FeatureCollection",
  "features": [
    {
      "type": "Feature",
      "id": "planning-data:brownfield-site:1801198",
      "properties": {
        "slot_id": "future_growth_4",
        "lineage_id": "fg4-e4c9076d6f554f00",
        "page_generation": 1,
        "owner": "future_growth_4",
        "partition": "future_growth",
        "semantic_mode": "SOURCE_AREA_EXACT_IDENTIFIER",
        "batch_id": "20261009T093544Z_b039_BROWNFIELD_1801198",
        "dataset": "brownfield-site",
        "entity": 1801198,
        "reference": "TH010",
        "semantic_identity": "planning-data:brownfield-site:1801198",
        "name": "1 Avignon Road",
        "organisation": "London Borough of Lewisham",
        "source_url": "https://www.planning.data.gov.uk/entity/1801198",
        "final_url": "https://www.planning.data.gov.uk/entity/1801198",
        "http_status": "OFFICIAL_WEB_INDEX_RETRIEVAL; PAGE_OPEN_CACHE_MISS",
        "access_utc": "2026-10-09T09:35:44.908Z",
        "data_date": "2020-12-22",
        "license": "Open Government Licence v3.0",
        "field_evidence": {
          "entry-date": "2020-12-22",
          "start-date": "",
          "end-date": "",
          "entity": 1801198,
          "name": "1 Avignon Road",
          "dataset": "brownfield-site",
          "typology": "geography",
          "reference": "TH010",
          "prefix": "brownfield-site",
          "geometry": "MULTIPOLYGON (((-0.04382 51.464257, -0.043636 51.464266, -0.043592 51.464257, -0.043351 51.464184, -0.043335 51.464048, -0.043328 51.464048, -0.043322 51.464006, -0.043325 51.464006, -0.043327 51.463989, -0.043318 51.463898, -0.043355 51.463897, -0.043285 51.463326, -0.043261 51.463341, -0.04327 51.463472, -0.043285 51.463737, -0.043024 51.464141, -0.043095 51.464156, -0.04383 51.464344, -0.04382 51.464257)))",
          "quality": "some",
          "brownfield-site": "TH010",
          "organisation": "London Borough of Lewisham"
        },
        "evidence_slice_sha256": "3945bd622a4862fe1eb0711c1afb163bb6b03185b4e7ac2cce2dd67134d35e27",
        "geometry_sha256": "9bd6599dbc77db19f8ce9b91676c70e8f81ea7b8070e6e830cdfb63e575e726f",
        "confidence_score_0_100": 80,
        "confidence": 0.8,
        "evidence_grade": "B",
        "exact_identifier_provided": false,
        "coverage_polygon_provided": true,
        "fake_data": false,
        "join_mode": "LOCAL_OPENCODE_SPATIAL_JOIN_PENDING",
        "direct_parcel": false,
        "source_area_count_contribution": 1,
        "planned_building_count_contribution": 0
      },
      "geometry": {
        "type": "MultiPolygon",
        "coordinates": [
          [
            [
              [
                -0.04382,
                51.464257
              ],
              [
                -0.043636,
                51.464266
              ],
              [
                -0.043592,
                51.464257
              ],
              [
                -0.043351,
                51.464184
              ],
              [
                -0.043335,
                51.464048
              ],
              [
                -0.043328,
                51.464048
              ],
              [
                -0.043322,
                51.464006
              ],
              [
                -0.043325,
                51.464006
              ],
              [
                -0.043327,
                51.463989
              ],
              [
                -0.043318,
                51.463898
              ],
              [
                -0.043355,
                51.463897
              ],
              [
                -0.043285,
                51.463326
              ],
              [
                -0.043261,
                51.463341
              ],
              [
                -0.04327,
                51.463472
              ],
              [
                -0.043285,
                51.463737
              ],
              [
                -0.043024,
                51.464141
              ],
              [
                -0.043095,
                51.464156
              ],
              [
                -0.04383,
                51.464344
              ],
              [
                -0.04382,
                51.464257
              ]
            ]
          ]
        ]
      }
    }
  ]
}
