{"type":"FeatureCollection","name":"future_growth_6","features":[{"type":"Feature","id":"development-policy-area:local-authority-eng:BUC:LPHL:2021-01-08","geometry":{"type":"MultiPolygon","coordinates":[[[[-0.679873,51.591175],[-0.679741,51.59141],[-0.679945,51.591529],[-0.679859,51.59158],[-0.679915,51.591615],[-0.679947,51.591698],[-0.679944,51.591999],[-0.679854,51.592039],[-0.679793,51.592111],[-0.679197,51.5922],[-0.679209,51.592357],[-0.679289,51.592632],[-0.679305,51.592923],[-0.679449,51.593463],[-0.678901,51.593549],[-0.677597,51.592078],[-0.678148,51.591821],[-0.679596,51.5909],[-0.679948,51.591093],[-0.679873,51.591175]]]]},"properties":{"semantic_identity":"development-policy-area:local-authority-eng:BUC:LPHL:2021-01-08","source_area_id":"LPHL","source_area_type":"adopted_local_plan_local_employment_area","name":"Holtspur Lane","allocated_use":"Local employment area designation/protection (Appendix G)","policy":"DM28; Appendix G","organisation":"local-authority-eng:BUC","coverage_scope":"Official employment area coverage, not an assertion of new construction or unbuilt parcels","source_url":"https://github.com/digital-land/development-policy-area/blob/111f7b992aa0c7efe39611b4003607141631a4f2/docs/local-authority-eng/BUC/LPHL/geometry.geojson","source_final_url":"https://raw.githubusercontent.com/digital-land/development-policy-area/111f7b992aa0c7efe39611b4003607141631a4f2/docs/local-authority-eng/BUC/LPHL/geometry.geojson","http_status":200,"source_data_date":"2021-01-08","plan_adopted_date":"2019-08","source_version":"111f7b992aa0c7efe39611b4003607141631a4f2:git-blob:cfbec64889bd6d0575a55bfbb852f02870370bd2","licence":"Open Government Licence v3.0 (Digital Land repository; source-specific rights apply)","source_sha256":"df592f78c47bc9a88d0d9425f37ff6cee3f79467bce3bd38ae94d5775a3bf721","evidence_slice_sha256":"39b89e695f3c6874b757e094e585555e9b90845a584549d16f73116e16a72171","field_evidence":{"geometry":"docs/local-authority-eng/BUC/LPHL/geometry.geojson:geometry","identifier":"docs/local-authority-eng/BUC/LPHL/geometry.geojson:properties.geography","name":"docs/local-authority-eng/BUC/LPHL/geometry.geojson:properties.name","date":"docs/local-authority-eng/BUC/LPHL/geometry.geojson:properties.entry-date","employment_area":"https://www.buckinghamshire.gov.uk/documents/9736/Wycombe-District-Local-Plan-Adopted-August-2019-accessible.pdf#Appendix_G"},"confidence":0.97,"evidence_grade":"A_OFFICIAL_GIS_AND_ADOPTED_LOCAL_EMPLOYMENT_AREA","fake_data":false}},{"type":"Feature","id":"development-policy-area:local-authority-eng:BUC:LPHUG:2021-01-08","geometry":{"type":"MultiPolygon","coordinates":[[[[-0.753928,51.639872],[-0.753918,51.640003],[-0.753118,51.639994],[-0.753071,51.639101],[-0.753967,51.639182],[-0.754707,51.639118],[-0.755436,51.638936],[-0.755506,51.639341],[-0.755723,51.640138],[-0.7552,51.640156],[-0.753928,51.639872]],[[-0.753969,51.639185],[-0.753976,51.639209],[-0.753968,51.639349],[-0.75398,51.639212],[-0.753969,51.639185]]],[[[-0.75113,51.639382],[-0.751141,51.639333],[-0.751076,51.639316],[-0.751148,51.639286],[-0.751261,51.639092],[-0.751651,51.638854],[-0.751798,51.638864],[-0.752554,51.639064],[-0.752572,51.63926],[-0.752685,51.639561],[-0.752788,51.639563],[-0.752805,51.639763],[-0.752474,51.63975],[-0.752437,51.639644],[-0.752319,51.639625],[-0.751747,51.639599],[-0.751271,51.639506],[-0.751081,51.639505],[-0.75113,51.639382]]]]},"properties":{"semantic_identity":"development-policy-area:local-authority-eng:BUC:LPHUG:2021-01-08","source_area_id":"LPHUG","source_area_type":"adopted_local_plan_local_employment_area","name":"Hughenden Avenue","allocated_use":"Local employment area designation/protection (Appendix G)","policy":"DM28; Appendix G","organisation":"local-authority-eng:BUC","coverage_scope":"Official employment area coverage, not an assertion of new construction or unbuilt parcels","source_url":"https://github.com/digital-land/development-policy-area/blob/111f7b992aa0c7efe39611b4003607141631a4f2/docs/local-authority-eng/BUC/LPHUG/geometry.geojson","source_final_url":"https://raw.githubusercontent.com/digital-land/development-policy-area/111f7b992aa0c7efe39611b4003607141631a4f2/docs/local-authority-eng/BUC/LPHUG/geometry.geojson","http_status":200,"source_data_date":"2021-01-08","plan_adopted_date":"2019-08","source_version":"111f7b992aa0c7efe39611b4003607141631a4f2:git-blob:42d18b833f61cc170e70d60a59696c15fbe1e7c9","licence":"Open Government Licence v3.0 (Digital Land repository; source-specific rights apply)","source_sha256":"f80762fc4a079241950d50529e9a88a35da5dc54835f9df45fb659a74a6358a8","evidence_slice_sha256":"39b89e695f3c6874b757e094e585555e9b90845a584549d16f73116e16a72171","field_evidence":{"geometry":"docs/local-authority-eng/BUC/LPHUG/geometry.geojson:geometry","identifier":"docs/local-authority-eng/BUC/LPHUG/geometry.geojson:properties.geography","name":"docs/local-authority-eng/BUC/LPHUG/geometry.geojson:properties.name","date":"docs/local-authority-eng/BUC/LPHUG/geometry.geojson:properties.entry-date","employment_area":"https://www.buckinghamshire.gov.uk/documents/9736/Wycombe-District-Local-Plan-Adopted-August-2019-accessible.pdf#Appendix_G"},"confidence":0.97,"evidence_grade":"A_OFFICIAL_GIS_AND_ADOPTED_LOCAL_EMPLOYMENT_AREA","fake_data":false}}],"properties":{"state":"SOURCE_AREAS_PRODUCED_LOCAL_BINDING_PENDING","source_area_count":105,"source_area_count_delta":2,"accepted_count":0,"duplicate_count":0,"rejected_count":0,"unmatched_count":13,"materialized_parcel_count":0,"direct_parcel_count":0,"verified_no_building_count":0,"unprocessed_count":13,"planned_building_count":0,"producer_before_count":103,"producer_delta":2,"producer_after_count":105,"cursor":"OFFICIAL_BUC_LOCAL_EMPLOYMENT:LPHL_LPHUG:caa630ce817fa0bc","first_missing_criterion":"LOCAL_CANONICAL_PARCEL_IDENTIFIER_BINDING_MATERIALIZATION","fake_data":false}}
