{"type":"FeatureCollection","features":[{"type":"Feature","geometry":null,"properties":{"slot_id":"future_growth_1","lineage_id":"future_growth_1-newstart-20260927T153100+0300","page_generation":null,"accepted_as_parcel":false,"source_area_count_contribution":1,"exact_identifier":"A21.1 (ST4)","exact_identifier_provided":true,"coverage_polygon_provided":false,"identifier_namespace":"Swale Local Plan Bearing Fruits 2017 housing allocation","site_name":"Land north of Key Street","settlement":"Sittingbourne","access_utc":"2026-10-06T20:19:00Z","data_date":"2025-04-01","source_url":"https://swale.gov.uk/__data/assets/pdf_file/0005/510629/2025_Housing_Land_Supply_PS_2025_26_NovemberREDUCED.pdf","final_url":"https://swale.gov.uk/__data/assets/pdf_file/0005/510629/2025_Housing_Land_Supply_PS_2025_26_NovemberREDUCED.pdf","license":"Swale Borough Council public housing-land-supply planning evidence; document-specific reuse licence not stated in the public PDF","authority":"Swale Borough Council","total_allocated_units":30,"phasing_2030_31":16,"phasing_2031_32":14,"planning_permission_status":"remaining Local Plan allocation without planning consent","five_year_supply_status":"not counted in the 2025-2030 five-year supply; phased from year 6 onwards","evidence_grade":"A","confidence_score_0_100":99,"evidence_scope":"exact Swale Local Plan allocation A21.1 (ST4) plus official November 2025 Housing Land Supply Position Statement Appendix B and monitoring methodology","evidence_slice_sha256":"9d6310caa9e7ae54c34fec8c59dc7ed4e3e76fd697bdad5654132fb3a3b3eeb6","fake_data":false,"spatial_binding_method":"official allocation identifier plus Swale Housing Land Supply Appendix B; exact policy-map boundary resolution, canonical parcel spatial join and materialization delegated to local OpenCode","planned_building_count_contribution":0}}]}