{"features":[{"geometry":{"coordinates":[[[[1.191183,51.244147],[1.191113,51.244124],[1.191149,51.244082],[1.191162,51.244086],[1.191183,51.244062],[1.191163,51.244055],[1.191177,51.244036],[1.191168,51.244033],[1.191203,51.243991],[1.191333,51.244035],[1.191274,51.244105],[1.191232,51.244091],[1.191183,51.244147]]]],"type":"MultiPolygon"},"properties":{"dataset":"listed-building-outline","end-date":"","entity":42110481,"entry-date":"2024-12-13","name":"BEKESBOURNE ROAD, ELM HOUSE","organisation-entity":"75","prefix":"listed-building-outline","quality":"authoritative","reference":"{A076C255-203C-4EC9-97F6-2108EE444E31}","start-date":"","typology":"geography"},"type":"Feature"},{"geometry":{"coordinates":[[[[1.190675,51.243227],[1.19069,51.243238],[1.190697,51.243232],[1.190793,51.243299],[1.190666,51.243371],[1.19063,51.243346],[1.19068,51.243318],[1.190621,51.243276],[1.190655,51.243255],[1.190643,51.243245],[1.190675,51.243227]]]],"type":"MultiPolygon"},"properties":{"dataset":"listed-building-outline","end-date":"","entity":42110482,"entry-date":"2024-12-13","name":"THE STREET, COURT LODGE","organisation-entity":"75","prefix":"listed-building-outline","quality":"authoritative","reference":"{37C1554B-3B9D-4BEE-9CDB-F68EC9147385}","start-date":"","typology":"geography"},"type":"Feature"},{"geometry":{"coordinates":[[[[1.19186,51.243491],[1.191744,51.243421],[1.191806,51.243381],[1.191838,51.243401],[1.191871,51.243379],[1.191895,51.243395],[1.191936,51.243368],[1.191995,51.243403],[1.19192,51.243453],[1.191951,51.243471],[1.191891,51.243511],[1.19186,51.243491]]]],"type":"MultiPolygon"},"properties":{"dataset":"listed-building-outline","end-date":"","entity":42110483,"entry-date":"2024-12-13","name":"THE STREET, MANOR FARMHOUSE","organisation-entity":"75","prefix":"listed-building-outline","quality":"authoritative","reference":"{4D1D2CB6-F5D6-43D5-B597-CB0BEB09C029}","start-date":"","typology":"geography"},"type":"Feature"},{"geometry":{"coordinates":[[[[1.185858,51.237908],[1.185836,51.237915],[1.185733,51.237797],[1.185703,51.237807],[1.185624,51.237715],[1.185722,51.237681],[1.185905,51.237892],[1.185858,51.237908]]]],"type":"MultiPolygon"},"properties":{"dataset":"listed-building-outline","end-date":"","entity":42110484,"entry-date":"2024-12-13","name":"THE STREET, WOODLANDS FARMHOUSE","organisation-entity":"75","prefix":"listed-building-outline","quality":"authoritative","reference":"{79042BAD-6A35-4420-BC42-8C326BCDFD1E}","start-date":"","typology":"geography"},"type":"Feature"},{"geometry":{"coordinates":[[[[1.186515,51.237586],[1.186456,51.237611],[1.186481,51.237634],[1.186432,51.237654],[1.186495,51.237714],[1.186514,51.237706],[1.186533,51.237724],[1.186441,51.237761],[1.186372,51.237696],[1.186354,51.237703],[1.186334,51.237682],[1.186352,51.237674],[1.186316,51.237641],[1.1864,51.237606],[1.186412,51.237617],[1.186423,51.237613],[1.186416,51.237605],[1.186439,51.237595],[1.186435,51.237591],[1.186495,51.237567],[1.186515,51.237586]]]],"type":"MultiPolygon"},"properties":{"dataset":"listed-building-outline","end-date":"","entity":42110485,"entry-date":"2024-12-13","name":"THE STREET, DANE COURT","organisation-entity":"75","prefix":"listed-building-outline","quality":"authoritative","reference":"{FF3D63D9-0F0D-45A4-B973-5F955588FE66}","start-date":"","typology":"geography"},"type":"Feature"},{"geometry":{"coordinates":[[[[1.080082,51.278799],[1.080107,51.278787],[1.080128,51.278803],[1.080103,51.278815],[1.080082,51.278799]]]],"type":"MultiPolygon"},"properties":{"dataset":"listed-building-outline","end-date":"","entity":42110486,"entry-date":"2024-12-13","name":"High Street Canterbury, Royal East Kent Yeomary, War Memoiral and Associated Horse Trough","organisation-entity":"75","prefix":"listed-building-outline","quality":"authoritative","reference":"{E61035CD-02B2-499F-82D7-F0E56DEEE7D3}","start-date":"","typology":"geography"},"type":"Feature"},{"geometry":{"coordinates":[[[[1.078024,51.276686],[1.078064,51.276662],[1.078317,51.276821],[1.078366,51.276859],[1.078165,51.276728],[1.078143,51.276741],[1.07811,51.27672],[1.07808,51.276738],[1.078064,51.276728],[1.078076,51.27672],[1.078024,51.276686]]]],"type":"MultiPolygon"},"properties":{"dataset":"listed-building-outline","end-date":"","entity":42110487,"entry-date":"2024-12-13","name":"13 St John's Lane, Canterbury","organisation-entity":"75","prefix":"listed-building-outline","quality":"authoritative","reference":"{9DF081D9-FC55-4050-9DC8-05095BE29921}","start-date":"","typology":"geography"},"type":"Feature"},{"geometry":{"coordinates":[[[[1.087602,51.277371],[1.08759,51.277381],[1.087573,51.277374],[1.087582,51.277363],[1.087602,51.277371]]]],"type":"MultiPolygon"},"properties":{"dataset":"listed-building-outline","end-date":"","entity":42110488,"entry-date":"2024-12-13","name":"K6 telephone kiosk, Longport, Canterbury","organisation-entity":"75","prefix":"listed-building-outline","quality":"authoritative","reference":"{7F7612F8-7401-4815-AFA8-BD9D7CC2FDF2}","start-date":"","typology":"geography"},"type":"Feature"},{"geometry":{"coordinates":[[[[1.017421,51.255988],[1.017413,51.255997],[1.017393,51.255991],[1.017405,51.255979],[1.017421,51.255988]]]],"type":"MultiPolygon"},"properties":{"dataset":"listed-building-outline","end-date":"","entity":42110489,"entry-date":"2024-12-13","name":"Chartham War Memorial","organisation-entity":"75","prefix":"listed-building-outline","quality":"authoritative","reference":"{67D4F01F-21F9-497D-B563-37C8EFF8E546}","start-date":"","typology":"geography"},"type":"Feature"},{"geometry":{"coordinates":[[[[1.134777,51.372636],[1.13476,51.372645],[1.134748,51.372635],[1.134767,51.372627],[1.134777,51.372636]]]],"type":"MultiPolygon"},"properties":{"dataset":"listed-building-outline","end-date":"","entity":42110490,"entry-date":"2024-12-13","name":"Telephone Kiosk adjacent to Canterbury Road, Herne Bay","organisation-entity":"75","prefix":"listed-building-outline","quality":"authoritative","reference":"{5CD25190-9ED7-445D-9E44-1BF8FE010FBB}","start-date":"","typology":"geography"},"type":"Feature"}],"links":{"first":"http://www.planning.data.gov.uk/entity.geojson?dataset=listed-building-outline&limit=10","last":"http://www.planning.data.gov.uk/entity.geojson?dataset=listed-building-outline&limit=10&offset=95820","next":"http://www.planning.data.gov.uk/entity.geojson?dataset=listed-building-outline&limit=10&offset=10"},"type":"FeatureCollection"}
