{
  "type": "FeatureCollection",
  "features": [
    {
      "type": "Feature",
      "id": "rbkc-statement-persons-nominated-2026-campden",
      "geometry": null,
      "properties": {
        "evidence_scope": "coverage_area",
        "coverage_area_id": "E05009390",
        "coverage_area_name": "Campden",
        "identifier_scheme": "RBKC_OFFICIAL_CAMPDEN_STATEMENT_PERSONS_NOMINATED_DOCUMENT",
        "exact_official_identifier": "/media/document/campden---statement-of-persons-nominated",
        "source_resolution": "RBKC_OFFICIAL_CAMPDEN_ELECTION_DOCUMENT",
        "time_window": "2026_LOCAL_ELECTION",
        "measurement_date": "2026-04-10",
        "measurement_method": "official RBKC Campden Statement of Persons Nominated document",
        "spatial_binding_method": "PARCEL_JOIN_DEFERRED_TO_LOCAL_OPENCODE",
        "source_url": "https://www.rbkc.gov.uk/media/document/campden---statement-of-persons-nominated",
        "final_url": "https://www.rbkc.gov.uk/media/document/campden---statement-of-persons-nominated",
        "accessed_at_utc": "2026-10-05T18:38:00Z",
        "data_date": "2026-04-10",
        "licence": "NOT_STATED_ON_CAPTURED_DOCUMENT",
        "sha256": "3f3ed717592d7e2fedad4c980ad425ebc29589b7573a8e421155dd89c3950235",
        "field_evidence": {
          "document_title": "Statement of persons nominated",
          "election_type": "Local government election",
          "local_authority_name": "Royal Borough of Kensington and Chelsea",
          "ward_division": "Campden",
          "election_date": "2026-05-07",
          "notice_date": "2026-04-10",
          "returning_officer": "Maxine Holdsworth",
          "nominated_candidate_count": 13,
          "exact_official_identifier": "/media/document/campden---statement-of-persons-nominated",
          "source_url": "https://www.rbkc.gov.uk/media/document/campden---statement-of-persons-nominated",
          "accessed_at_utc": "2026-10-05T18:38:00Z"
        },
        "evidence_slice_sha256": "ec5ddf9aeffeac44e9a8f9de13e731c823c70c5160791683b3d7691390fb895b",
        "confidence_score_0_100": 100,
        "evidence_grade": "A",
        "fake_data": false,
        "source_window_id": "rbkc_statement_persons_nominated_2026_campden_sps5_20261005_v1",
        "cursor": "rbkc_statement_persons_nominated_2026_campden_sps5_20261005_v1:record=1"
      }
    }
  ]
}
