{
  "type": "FeatureCollection",
  "features": [
    {
      "type": "Feature",
      "id": "CHERWELL_25_01505_F_01",
      "geometry": null,
      "properties": {
        "criterion": "Planned Buildings",
        "planning_reference": "25/01505/F",
        "building_identifier": "one new dwelling",
        "proposal": "Removal of buildings. Erection of dwelling and associated works including formation of garden - self-build.",
        "status": "Application Permitted",
        "decision_date": "2025-09-16",
        "official_plan_reference": "2024009 010 - A Proposed Site Plan - New Dwelling",
        "geometry_status": "NOT_MATERIALIZED_LOCAL_OPENCODE",
        "source_url": "https://planningregister.cherwell.gov.uk/Planning/Display/25/01505/F",
        "fake_data": false
      }
    }
  ]
}
