{"type":"FeatureCollection","features":[{"type":"Feature","geometry":null,"properties":{"slot_id":"planned_buildings_1","lineage_id":"planned_buildings_1-0ffc4ebd6c6e4e41","semantic_mode":"DISTINCT_BUILDINGS","planned_building_id":"planning-application:RB2026/0503::DWELLING_01","building_status":"PLANNED","building_name":"New residential dwelling 1, Land and Buildings at Highfield Farm Melton High Street, West Melton","planning_reference":"RB2026/0503","authority":"Rotherham Metropolitan Borough Council","source_url":"https://planning.rotherham.gov.uk/fastweblive/results.asp?AddressPrefix=&AgentName=&ApplicantName=&ApplicationNumber=&AreaTeam=&CaseOfficer=&Consultant=&DateDecidedEnd=&DateDecidedStart=&DateReceivedEnd=18%2F04%2F2026&DateReceivedStart=29%2F03%2F2026&DecisionDescription=&DecisionLevel=&Locality=&Nothing=2&ParishName=&Postcode=&Scroll=3&ShowDecided=&Sort1=FullAddressPrefix&Sort2=DateReceived+DESC&Submit=Search&WardMember=","final_url":"https://planning.rotherham.gov.uk/fastweblive/results.asp?AddressPrefix=&AgentName=&ApplicantName=&ApplicationNumber=&AreaTeam=&CaseOfficer=&Consultant=&DateDecidedEnd=&DateDecidedStart=&DateReceivedEnd=18%2F04%2F2026&DateReceivedStart=29%2F03%2F2026&DecisionDescription=&DecisionLevel=&Locality=&Nothing=2&ParishName=&Postcode=&Scroll=3&ShowDecided=&Sort1=FullAddressPrefix&Sort2=DateReceived+DESC&Submit=Search&WardMember=","access_utc":"2026-10-03T06:34:00Z","source_data_date":"2026-04-07","license":"Open Government Licence v3.0","geometry_role":"official current-applications search-results window exposes no machine-readable point or building footprint; geometry null; no geometry inferred","field_evidence":"Official current-applications listing explicitly states conversion of buildings to form 6 dwellings, demolition of buildings to north and erection of 2 residential dwellings; current official listing leaves Decision Sent Date and Decision Date blank.","identity_limitation":"Exactly 2 new residential dwellings are explicitly stated for erection; this feature represents dwelling 1 of 2. Six dwellings formed by conversion remain within existing buildings and are not counted as new buildings; demolished buildings and access/driveway works are not counted as new.","confidence_score_0_100":96,"evidence_grade":"A","fake_data":false}},{"type":"Feature","geometry":null,"properties":{"slot_id":"planned_buildings_1","lineage_id":"planned_buildings_1-0ffc4ebd6c6e4e41","semantic_mode":"DISTINCT_BUILDINGS","planned_building_id":"planning-application:RB2026/0503::DWELLING_02","building_status":"PLANNED","building_name":"New residential dwelling 2, Land and Buildings at Highfield Farm Melton High Street, West Melton","planning_reference":"RB2026/0503","authority":"Rotherham Metropolitan Borough Council","source_url":"https://planning.rotherham.gov.uk/fastweblive/results.asp?AddressPrefix=&AgentName=&ApplicantName=&ApplicationNumber=&AreaTeam=&CaseOfficer=&Consultant=&DateDecidedEnd=&DateDecidedStart=&DateReceivedEnd=18%2F04%2F2026&DateReceivedStart=29%2F03%2F2026&DecisionDescription=&DecisionLevel=&Locality=&Nothing=2&ParishName=&Postcode=&Scroll=3&ShowDecided=&Sort1=FullAddressPrefix&Sort2=DateReceived+DESC&Submit=Search&WardMember=","final_url":"https://planning.rotherham.gov.uk/fastweblive/results.asp?AddressPrefix=&AgentName=&ApplicantName=&ApplicationNumber=&AreaTeam=&CaseOfficer=&Consultant=&DateDecidedEnd=&DateDecidedStart=&DateReceivedEnd=18%2F04%2F2026&DateReceivedStart=29%2F03%2F2026&DecisionDescription=&DecisionLevel=&Locality=&Nothing=2&ParishName=&Postcode=&Scroll=3&ShowDecided=&Sort1=FullAddressPrefix&Sort2=DateReceived+DESC&Submit=Search&WardMember=","access_utc":"2026-10-03T06:34:00Z","source_data_date":"2026-04-07","license":"Open Government Licence v3.0","geometry_role":"official current-applications search-results window exposes no machine-readable point or building footprint; geometry null; no geometry inferred","field_evidence":"Official current-applications listing explicitly states conversion of buildings to form 6 dwellings, demolition of buildings to north and erection of 2 residential dwellings; current official listing leaves Decision Sent Date and Decision Date blank.","identity_limitation":"Exactly 2 new residential dwellings are explicitly stated for erection; this feature represents dwelling 2 of 2. Six dwellings formed by conversion remain within existing buildings and are not counted as new buildings; demolished buildings and access/driveway works are not counted as new.","confidence_score_0_100":96,"evidence_grade":"A","fake_data":false}}]}