{"type":"FeatureCollection","features":[{"type":"Feature","id":"planned_buildings_2-planning-data-brownfield-1737307","geometry":null,"properties":{"entity":1737307,"reference":"B046","canonical_record_key":"planning-data:brownfield-land:1737307","planned_project_name":"Land at 80 Cassio Road","planned_project_status":null,"borough":"Watford Borough Council","official_hectares":null,"official_deliverable":null,"official_minimum_net_dwellings":null,"official_maximum_net_dwellings":null,"planned_building_value":null,"planned_building_probability":null,"planned_building_complete_month":null,"source_quality":"authoritative","source_url":"https://www.planning.data.gov.uk/entity/1737307","source_license":"Open Government Licence v3.0","fake_data":false}}],"metadata":{"slot_id":"planned_buildings_2","batch_index":214,"source_index":15,"source_window":{"resource_index":1,"limit":1},"feature_count_before":559,"feature_count_after":560,"unique_real_site_project_before":400,"unique_real_site_project_after":401,"duplicate_count_new":0,"nearest_match_used":false,"parcel_match_used":false,"geometry_inference_used":false,"mirror_only":true}}