{"type":"FeatureCollection","features":[{"type":"Feature","geometry":null,"properties":{"slot_id":"planned_buildings_1","lineage_id":"planned_buildings_1-0ffc4ebd6c6e4e41","semantic_mode":"DISTINCT_BUILDINGS","planned_building_id":"planning-application:W/26/00481/FUL::DWELLING_01","building_status":"PLANNED","building_name":"Dwelling 1, Main Street Cleeve Prior","planning_reference":"W/26/00481/FUL","authority":"Wychavon District Council","source_url":"https://plan.wychavon.gov.uk/Planning/Display/W/26/00481/FUL","final_url":"https://plan.wychavon.gov.uk/Planning/Display/W/26/00481/FUL","access_utc":"2026-10-05T01:52:00Z","source_data_date":"2026-03-04","license":"Council planning-register copyright/consultation terms; no separate data licence stated on page","geometry_role":"null; no geometry inferred","field_evidence":"Valid; Pending Decision; decision Pending; proposal explicitly states erection of 5 dwellings.","identity_limitation":"The official proposal explicitly identifies five new dwellings; individual dwelling footprints or machine-readable building geometries are not exposed.","confidence_score_0_100":99,"evidence_grade":"A","fake_data":false}},{"type":"Feature","geometry":null,"properties":{"slot_id":"planned_buildings_1","lineage_id":"planned_buildings_1-0ffc4ebd6c6e4e41","semantic_mode":"DISTINCT_BUILDINGS","planned_building_id":"planning-application:W/26/00481/FUL::DWELLING_02","building_status":"PLANNED","building_name":"Dwelling 2, Main Street Cleeve Prior","planning_reference":"W/26/00481/FUL","authority":"Wychavon District Council","source_url":"https://plan.wychavon.gov.uk/Planning/Display/W/26/00481/FUL","final_url":"https://plan.wychavon.gov.uk/Planning/Display/W/26/00481/FUL","access_utc":"2026-10-05T01:52:00Z","source_data_date":"2026-03-04","license":"Council planning-register copyright/consultation terms; no separate data licence stated on page","geometry_role":"null; no geometry inferred","field_evidence":"Valid; Pending Decision; decision Pending; proposal explicitly states erection of 5 dwellings.","identity_limitation":"The official proposal explicitly identifies five new dwellings; individual dwelling footprints or machine-readable building geometries are not exposed.","confidence_score_0_100":99,"evidence_grade":"A","fake_data":false}},{"type":"Feature","geometry":null,"properties":{"slot_id":"planned_buildings_1","lineage_id":"planned_buildings_1-0ffc4ebd6c6e4e41","semantic_mode":"DISTINCT_BUILDINGS","planned_building_id":"planning-application:W/26/00481/FUL::DWELLING_03","building_status":"PLANNED","building_name":"Dwelling 3, Main Street Cleeve Prior","planning_reference":"W/26/00481/FUL","authority":"Wychavon District Council","source_url":"https://plan.wychavon.gov.uk/Planning/Display/W/26/00481/FUL","final_url":"https://plan.wychavon.gov.uk/Planning/Display/W/26/00481/FUL","access_utc":"2026-10-05T01:52:00Z","source_data_date":"2026-03-04","license":"Council planning-register copyright/consultation terms; no separate data licence stated on page","geometry_role":"null; no geometry inferred","field_evidence":"Valid; Pending Decision; decision Pending; proposal explicitly states erection of 5 dwellings.","identity_limitation":"The official proposal explicitly identifies five new dwellings; individual dwelling footprints or machine-readable building geometries are not exposed.","confidence_score_0_100":99,"evidence_grade":"A","fake_data":false}},{"type":"Feature","geometry":null,"properties":{"slot_id":"planned_buildings_1","lineage_id":"planned_buildings_1-0ffc4ebd6c6e4e41","semantic_mode":"DISTINCT_BUILDINGS","planned_building_id":"planning-application:W/26/00481/FUL::DWELLING_04","building_status":"PLANNED","building_name":"Dwelling 4, Main Street Cleeve Prior","planning_reference":"W/26/00481/FUL","authority":"Wychavon District Council","source_url":"https://plan.wychavon.gov.uk/Planning/Display/W/26/00481/FUL","final_url":"https://plan.wychavon.gov.uk/Planning/Display/W/26/00481/FUL","access_utc":"2026-10-05T01:52:00Z","source_data_date":"2026-03-04","license":"Council planning-register copyright/consultation terms; no separate data licence stated on page","geometry_role":"null; no geometry inferred","field_evidence":"Valid; Pending Decision; decision Pending; proposal explicitly states erection of 5 dwellings.","identity_limitation":"The official proposal explicitly identifies five new dwellings; individual dwelling footprints or machine-readable building geometries are not exposed.","confidence_score_0_100":99,"evidence_grade":"A","fake_data":false}},{"type":"Feature","geometry":null,"properties":{"slot_id":"planned_buildings_1","lineage_id":"planned_buildings_1-0ffc4ebd6c6e4e41","semantic_mode":"DISTINCT_BUILDINGS","planned_building_id":"planning-application:W/26/00481/FUL::DWELLING_05","building_status":"PLANNED","building_name":"Dwelling 5, Main Street Cleeve Prior","planning_reference":"W/26/00481/FUL","authority":"Wychavon District Council","source_url":"https://plan.wychavon.gov.uk/Planning/Display/W/26/00481/FUL","final_url":"https://plan.wychavon.gov.uk/Planning/Display/W/26/00481/FUL","access_utc":"2026-10-05T01:52:00Z","source_data_date":"2026-03-04","license":"Council planning-register copyright/consultation terms; no separate data licence stated on page","geometry_role":"null; no geometry inferred","field_evidence":"Valid; Pending Decision; decision Pending; proposal explicitly states erection of 5 dwellings.","identity_limitation":"The official proposal explicitly identifies five new dwellings; individual dwelling footprints or machine-readable building geometries are not exposed.","confidence_score_0_100":99,"evidence_grade":"A","fake_data":false}}]}