{"type":"FeatureCollection","name":"building_type_9_batch_0010","features":[{"type":"Feature","id":"42190103","geometry":{"type":"MultiPolygon","coordinates":[[[[0.886244,51.268852],[0.886144,51.268834],[0.886174,51.268771],[0.886158,51.268768],[0.88618,51.268722],[0.886296,51.268742],[0.886244,51.268852]]]]},"properties":{"slot_id":"building_type_9","lineage_id":"building_type_9-20261001T200900Z-newstart","batch_id":"batch-0010","page_generation":1,"source_entity":42190103,"source_reference":"LB68","source_dataset":"listed-building-outline","source_organisation":"Swale Borough Council","building_evidence_status":"BUILDING_PRESENT","parcel_status":"UNPROCESSED","canonical_parcel_id":null,"building_type":"listed_building","building_use":null,"poi_accepted":false,"field_evidence":{"footprint":"official listed-building-outline MULTIPOLYGON","type":"official dataset classification: listed-building-outline","name":"THE WHITE HOUSE","reference":"LB68","use":"no use inferred"},"source_url":"https://www.planning.data.gov.uk/entity/42190103","final_url":"https://www.planning.data.gov.uk/entity/42190103","access_utc":"2026-10-02T02:43:00Z","data_date":"2026-02-14","licence":"Open Government Licence v3.0","evidence_slice_sha256":"dadd6344141eb560b07d665620e33ea8a47c6b5262c614096b324677aef442e4","confidence_score_0_100":94,"evidence_grade":"A","fake_data":false,"local_spatial_join_required":true}},{"type":"Feature","id":"42190036","geometry":{"type":"MultiPolygon","coordinates":[[[[0.762433,51.345],[0.76238,51.344956],[0.76237,51.344961],[0.762298,51.344901],[0.762368,51.344869],[0.762419,51.34491],[0.762609,51.344817],[0.762642,51.344843],[0.762658,51.344836],[0.762687,51.34486],[0.762665,51.34487],[0.762676,51.344879],[0.762521,51.344952],[0.762539,51.344966],[0.762509,51.344981],[0.762497,51.34497],[0.762433,51.345]]]]},"properties":{"slot_id":"building_type_9","lineage_id":"building_type_9-20261001T200900Z-newstart","batch_id":"batch-0010","page_generation":1,"source_entity":42190036,"source_reference":"LB01","source_dataset":"listed-building-outline","source_organisation":"Swale Borough Council","building_evidence_status":"BUILDING_PRESENT","parcel_status":"UNPROCESSED","canonical_parcel_id":null,"building_type":"listed_building","building_use":null,"poi_accepted":false,"field_evidence":{"footprint":"official listed-building-outline MULTIPOLYGON","type":"official dataset classification: listed-building-outline","name":"EAST HALL","reference":"LB01","use":"no use inferred"},"source_url":"https://www.planning.data.gov.uk/entity/42190036","final_url":"https://www.planning.data.gov.uk/entity/42190036","access_utc":"2026-10-02T02:43:00Z","data_date":"2026-02-14","licence":"Open Government Licence v3.0","evidence_slice_sha256":"0c0ca1f4c60abd5f5235b615a1db93a6e8ae3ae2d9b1cdd69a06e1404c5041ff","confidence_score_0_100":94,"evidence_grade":"A","fake_data":false,"local_spatial_join_required":true}},{"type":"Feature","id":"42190907","geometry":{"type":"MultiPolygon","coordinates":[[[[0.792692,51.319182],[0.792701,51.319204],[0.792684,51.319206],[0.792689,51.319217],[0.792621,51.31923],[0.7926,51.319184],[0.79259,51.319157],[0.792547,51.319166],[0.792534,51.319135],[0.792525,51.319136],[0.792516,51.319118],[0.792499,51.319121],[0.792491,51.319104],[0.792512,51.3191],[0.792509,51.319093],[0.792642,51.319071],[0.792692,51.319182]]]]},"properties":{"slot_id":"building_type_9","lineage_id":"building_type_9-20261001T200900Z-newstart","batch_id":"batch-0010","page_generation":1,"source_entity":42190907,"source_reference":"LB872","source_dataset":"listed-building-outline","source_organisation":"Swale Borough Council","building_evidence_status":"BUILDING_PRESENT","parcel_status":"UNPROCESSED","canonical_parcel_id":null,"building_type":"listed_building","building_use":null,"poi_accepted":false,"field_evidence":{"footprint":"official listed-building-outline MULTIPOLYGON","type":"official dataset classification: listed-building-outline","name":"BOGLE HARNETTS","reference":"LB872","use":"no use inferred"},"source_url":"https://www.planning.data.gov.uk/entity/42190907","final_url":"https://www.planning.data.gov.uk/entity/42190907","access_utc":"2026-10-02T02:43:00Z","data_date":"2026-02-14","licence":"Open Government Licence v3.0","evidence_slice_sha256":"0f4f22ccb8779c1025ee646864ec44a85e5f3f2c9410253caa0bbbb5f90f674c","confidence_score_0_100":94,"evidence_grade":"A","fake_data":false,"local_spatial_join_required":true}},{"type":"Feature","id":"42191186","geometry":{"type":"MultiPolygon","coordinates":[[[[0.893662,51.31791],[0.893632,51.317927],[0.893684,51.317963],[0.893651,51.317968],[0.893631,51.317954],[0.893567,51.317991],[0.893557,51.317984],[0.893547,51.317986],[0.89354,51.31798],[0.893542,51.317975],[0.893525,51.317962],[0.893516,51.317964],[0.893502,51.317954],[0.893505,51.317949],[0.893431,51.3179],[0.893554,51.317832],[0.893594,51.31786],[0.893618,51.317846],[0.893647,51.317867],[0.893659,51.31786],[0.8937,51.317889],[0.893662,51.31791]]],[[[0.89378,51.317921],[0.89375,51.317885],[0.893779,51.317874],[0.893813,51.317909],[0.89378,51.317921]]],[[[0.893662,51.317812],[0.893705,51.317798],[0.893721,51.317819],[0.893679,51.317833],[0.893662,51.317812]]]]},"properties":{"slot_id":"building_type_9","lineage_id":"building_type_9-20261001T200900Z-newstart","batch_id":"batch-0010","page_generation":1,"source_entity":42191186,"source_reference":"LB1151","source_dataset":"listed-building-outline","source_organisation":"Swale Borough Council","building_evidence_status":"BUILDING_PRESENT","parcel_status":"UNPROCESSED","canonical_parcel_id":null,"building_type":"listed_building","building_use":"public_house","poi_accepted":false,"field_evidence":{"footprint":"official listed-building-outline MULTIPOLYGON","type":"official dataset classification: listed-building-outline","name":"THE PHOENIX PUBLIC HOUSE","reference":"LB1151","use":"explicit official entity name: public_house"},"source_url":"https://www.planning.data.gov.uk/entity/42191186","final_url":"https://www.planning.data.gov.uk/entity/42191186","access_utc":"2026-10-02T02:43:00Z","data_date":"2026-02-14","licence":"Open Government Licence v3.0","evidence_slice_sha256":"cd930bba35c0f987b0812b31b67fb55c82a41690f2ed0e1a21c685cc4b99da15","confidence_score_0_100":96,"evidence_grade":"A","fake_data":false,"local_spatial_join_required":true}},{"type":"Feature","id":"42190304","geometry":{"type":"MultiPolygon","coordinates":[[[[0.718499,51.334332],[0.718542,51.334307],[0.718535,51.334303],[0.718537,51.334301],[0.718608,51.334261],[0.718769,51.334374],[0.71872,51.334403],[0.718707,51.334395],[0.718691,51.334403],[0.718677,51.334395],[0.718628,51.334424],[0.718704,51.334473],[0.718768,51.334437],[0.71875,51.334425],[0.718802,51.334395],[0.71885,51.334424],[0.718698,51.334514],[0.718279,51.334756],[0.718003,51.334568],[0.717977,51.334583],[0.717983,51.334587],[0.717912,51.334628],[0.717828,51.33457],[0.717952,51.3345],[0.717995,51.334527],[0.718098,51.334473],[0.718186,51.334526],[0.71827,51.334579],[0.718589,51.334395],[0.718499,51.334332]]]]},"properties":{"slot_id":"building_type_9","lineage_id":"building_type_9-20261001T200900Z-newstart","batch_id":"batch-0010","page_generation":1,"source_entity":42190304,"source_reference":"LB269","source_dataset":"listed-building-outline","source_organisation":"Swale Borough Council","building_evidence_status":"BUILDING_PRESENT","parcel_status":"UNPROCESSED","canonical_parcel_id":null,"building_type":"listed_building","building_use":"college","poi_accepted":false,"field_evidence":{"footprint":"official listed-building-outline MULTIPOLYGON","type":"official dataset classification: listed-building-outline","name":"SITTINGBOURNE ADULT STUDIES COLLEGE","reference":"LB269","use":"explicit official entity name: college"},"source_url":"https://www.planning.data.gov.uk/entity/42190304","final_url":"https://www.planning.data.gov.uk/entity/42190304","access_utc":"2026-10-02T02:43:00Z","data_date":"2026-02-14","licence":"Open Government Licence v3.0","evidence_slice_sha256":"dcbcc7443c21748115bebad728712bdb921e41ce07c533d50867f12c0449394a","confidence_score_0_100":96,"evidence_grade":"A","fake_data":false,"local_spatial_join_required":true}},{"type":"Feature","id":"42190184","geometry":{"type":"MultiPolygon","coordinates":[[[[0.947723,51.281265],[0.947649,51.281297],[0.947553,51.281206],[0.947677,51.281155],[0.947723,51.281196],[0.947705,51.281203],[0.947721,51.281219],[0.947689,51.281233],[0.947723,51.281265]]]]},"properties":{"slot_id":"building_type_9","lineage_id":"building_type_9-20261001T200900Z-newstart","batch_id":"batch-0010","page_generation":1,"source_entity":42190184,"source_reference":"LB149","source_dataset":"listed-building-outline","source_organisation":"Swale Borough Council","building_evidence_status":"BUILDING_PRESENT","parcel_status":"UNPROCESSED","canonical_parcel_id":null,"building_type":"listed_building","building_use":null,"poi_accepted":false,"field_evidence":{"footprint":"official listed-building-outline MULTIPOLYGON","type":"official dataset classification: listed-building-outline","name":"OAST COTTAGE","reference":"LB149","use":"no use inferred"},"source_url":"https://www.planning.data.gov.uk/entity/42190184","final_url":"https://www.planning.data.gov.uk/entity/42190184","access_utc":"2026-10-02T02:43:00Z","data_date":"2026-02-14","licence":"Open Government Licence v3.0","evidence_slice_sha256":"bd77b1510b880dce9a1a2443469fec4b49a4db6b70797165420ab632b798671c","confidence_score_0_100":94,"evidence_grade":"A","fake_data":false,"local_spatial_join_required":true}},{"type":"Feature","id":"42190062","geometry":{"type":"MultiPolygon","coordinates":[[[[0.954081,51.295506],[0.953921,51.29554],[0.953858,51.295425],[0.953935,51.29541],[0.953928,51.295399],[0.954013,51.295382],[0.954081,51.295506]]]]},"properties":{"slot_id":"building_type_9","lineage_id":"building_type_9-20261001T200900Z-newstart","batch_id":"batch-0010","page_generation":1,"source_entity":42190062,"source_reference":"LB27","source_dataset":"listed-building-outline","source_organisation":"Swale Borough Council","building_evidence_status":"BUILDING_PRESENT","parcel_status":"UNPROCESSED","canonical_parcel_id":null,"building_type":"listed_building","building_use":null,"poi_accepted":false,"field_evidence":{"footprint":"official listed-building-outline MULTIPOLYGON","type":"official dataset classification: listed-building-outline","name":"CHESTNUT HOUSE","reference":"LB27","use":"no use inferred"},"source_url":"https://www.planning.data.gov.uk/entity/42190062","final_url":"https://www.planning.data.gov.uk/entity/42190062","access_utc":"2026-10-02T02:43:00Z","data_date":"2026-02-14","licence":"Open Government Licence v3.0","evidence_slice_sha256":"93fbf68d023d2e154ae3c742cb5d98bfd1e6b45d8d812fa45305550cb0f42446","confidence_score_0_100":94,"evidence_grade":"A","fake_data":false,"local_spatial_join_required":true}},{"type":"Feature","id":"42190221","geometry":{"type":"MultiPolygon","coordinates":[[[[0.691607,51.303764],[0.691646,51.303799],[0.691705,51.303851],[0.691667,51.303868],[0.691655,51.303859],[0.691615,51.303876],[0.691528,51.3038],[0.691607,51.303764]]]]},"properties":{"slot_id":"building_type_9","lineage_id":"building_type_9-20261001T200900Z-newstart","batch_id":"batch-0010","page_generation":1,"source_entity":42190221,"source_reference":"LB186","source_dataset":"listed-building-outline","source_organisation":"Swale Borough Council","building_evidence_status":"BUILDING_PRESENT","parcel_status":"UNPROCESSED","canonical_parcel_id":null,"building_type":"listed_building","building_use":null,"poi_accepted":false,"field_evidence":{"footprint":"official listed-building-outline MULTIPOLYGON","type":"official dataset classification: listed-building-outline","name":"DOWNSELLS COTTAGES","reference":"LB186","use":"no use inferred"},"source_url":"https://www.planning.data.gov.uk/entity/42190221","final_url":"https://www.planning.data.gov.uk/entity/42190221","access_utc":"2026-10-02T02:43:00Z","data_date":"2026-02-14","licence":"Open Government Licence v3.0","evidence_slice_sha256":"29cfe14e997852acf9814e63ebf2dcf728e7552beed6fc5c76f60a18f3d53ce4","confidence_score_0_100":94,"evidence_grade":"A","fake_data":false,"local_spatial_join_required":true}}]}