{"type":"FeatureCollection","features":[{"type":"Feature","geometry":null,"properties":{"slot_id":"future_growth_1","lineage_id":"future_growth_1-newstart-20260927T153100+0300","page_generation":null,"accepted_as_parcel":false,"source_area_count_contribution":1,"exact_identifier":"Wilton International tax site","exact_identifier_provided":true,"coverage_polygon_provided":false,"identifier_namespace":"Teesside Freeport tax site","site_name":"Wilton International","access_utc":"2026-10-04T18:57:00Z","data_date":"2021-11-19","source_url":"https://www.gov.uk/government/publications/maps-of-teesside-freeport-tax-sites","final_url":"https://www.gov.uk/government/publications/maps-of-teesside-freeport-tax-sites","regulation_url":"https://www.legislation.gov.uk/uksi/2021/1194/made","map_title":"Wilton International Tax Zone OBC","license":"Open Government Licence v3.0","authority":"HM Revenue & Customs","designation_effective_date":"2021-11-19","statutory_instrument_number":"SI 2021/1194","evidence_grade":"A","confidence_score_0_100":99,"evidence_scope":"exact statutory Wilton International Freeport tax-site designation plus official HMRC map reference","evidence_slice_sha256":"9c2296e16ce5d6ef3644fac22c5c2baa693d15719afc7d833f8fa811f42638a9","fake_data":false,"spatial_binding_method":"official statutory tax-site identifier and map-defined geographical area; boundary resolution, canonical parcel spatial join and materialization delegated to local OpenCode","planned_building_count_contribution":0}}]}
