{"type":"FeatureCollection","features":[{"type":"Feature","id":"PLANNINGDATA_LBO_42118149","geometry":{"type":"MultiPolygon","coordinates":[[[[1.735238,52.598919],[1.735244,52.598989],[1.735276,52.599016],[1.735283,52.599037],[1.735273,52.599062],[1.735237,52.599088],[1.735055,52.599097],[1.735052,52.599062],[1.734855,52.599069],[1.734851,52.599021],[1.73483,52.599021],[1.734835,52.599068],[1.734758,52.59907],[1.734751,52.598992],[1.734834,52.598989],[1.734828,52.598924],[1.735032,52.598912],[1.735043,52.598912],[1.735044,52.598925],[1.735238,52.598919]]]]},"properties":{"slot_id":"building_type_3","lineage_id":"building_type_3-new-20260927T1328+0300","batch_id":"BT3-P83-20261004-PLANNINGDATA-LBO42118149","cursor":"BT3-P83-20261004-PLANNINGDATA-LBO42118149-p83","building_state":"BUILDING_PRESENT","source_record_id":"entity=42118149","entity":42118149,"reference":"1271607","name":"SHADINGFIELD LODGE","building_type_use":"SHADINGFIELD LODGE","type_use_evidence":"official_name","dataset":"listed-building-outline","quality":"authoritative","start_date":"1974-08-05","entry_date":"2023-07-12","organisation_entity":152,"source_url":"https://www.planning.data.gov.uk/entity/42118149","final_url":"https://www.planning.data.gov.uk/entity/42118149","source_version":"Planning Data listed-building-outline entity 42118149; reference 1271607; authoritative Great Yarmouth Borough Council record","access_utc":"2026-10-03T22:47:34Z","data_date":"2023-07-12","license":"Open Government Licence v3.0; © Crown copyright and database right 2026.","source_file_sha256":"dec82378a0cac0873d795eb0e61918f7b2bab9038ef680d3bffe54b846223329","evidence_slice_sha256":"4515160d03294c175d067b840e94e97f14b2666aae1697a7f399f4b1000498ce","field_evidence":["entity","reference","name","dataset","quality","geometry","start-date","entry-date","organisation-entity"],"confidence_score_0_100":97,"evidence_grade":"A_OFFICIAL_GOVERNMENT_BUILDING_OUTLINE_AND_NAMED_TYPE_USE","fake_data":false}}]}
