{
  "type": "FeatureCollection",
  "features": [
    {
      "type": "Feature",
      "id": "brownfield-site:132|entity:1802799",
      "geometry": {
        "type": "MultiPolygon",
        "coordinates": [
          [
            [
              [
                -1.113434,
                53.535588
              ],
              [
                -1.113219,
                53.535638
              ],
              [
                -1.113388,
                53.535901
              ],
              [
                -1.113539,
                53.535857
              ],
              [
                -1.113555,
                53.535846
              ],
              [
                -1.11357,
                53.535819
              ],
              [
                -1.113568,
                53.535803
              ],
              [
                -1.113507,
                53.535715
              ],
              [
                -1.113434,
                53.535588
              ]
            ]
          ]
        ]
      },
      "properties": {
        "slot_id": "future_growth_2",
        "lineage_id": "d409404e-c2b6-4d79-b904-d05e944a949e",
        "page_generation": 4,
        "batch_id": "batch-20261009T104932Z_mhclg_doncaster_132_official_WKT",
        "schema": "AAYS_LAYER24_EVIDENCE_V1",
        "source_dataset": "brownfield-site",
        "source_provider": "MHCLG Planning Data / Doncaster Metropolitan Borough Council",
        "source_exact_identifier": "brownfield-site:132",
        "source_entity": 1802799,
        "category": "brownfield-site",
        "source_url": "https://www.planning.data.gov.uk/entity/1802799",
        "final_url": "https://www.planning.data.gov.uk/entity/1802799",
        "accessed_utc": "2026-10-09T10:49:32.666Z",
        "http_status": null,
        "data_date": "2025-12-03",
        "license": "Open Government Licence v3.0",
        "source_file_sha256": "952cb040bb09a307970c894f8e0ff874b27dbe8cd44d5f53d436eda91f570dfd",
        "source_file_sha256_scope": "normalized_official_WKT_evidence_slice_not_raw_HTTP_response",
        "evidence_slice_sha256": "952cb040bb09a307970c894f8e0ff874b27dbe8cd44d5f53d436eda91f570dfd",
        "field_evidence": {
          "entity": 1802799,
          "curie": "brownfield-site:132",
          "reference": "132",
          "name": "170 Beckett Road, Wheatley, Doncaster, DN2 4BD",
          "dataset": "brownfield-site",
          "organisation": "Doncaster Metropolitan Borough Council",
          "organisation_curie": "local-authority:DNC",
          "quality": "authoritative",
          "start_date": "",
          "end_date": "",
          "entry_date": "2025-12-03",
          "geometry_source_field": "geometry",
          "geometry_type": "MultiPolygon",
          "point": "POINT (-1.113404 53.535741)"
        },
        "confidence_score_0_100": 92,
        "evidence_grade": "B_OFFICIAL_WEB_WKT_GEOMETRY",
        "geometry_crs": "EPSG:4326",
        "direct_parcel": false,
        "canonical_join_status": "PENDING_LOCAL_SPATIAL_JOIN",
        "fake_data": false
      }
    }
  ]
}
