{"type":"FeatureCollection","features":[{"type":"Feature","id":"planned_buildings_1-planning-data-brownfield-1737639","geometry":{"type":"Point","coordinates":[-0.113679,51.499268]},"properties":{"slot_id":"planned_buildings_1","source_entity":1737639,"official_site_key":"BLR158","canonical_record_key":"planning-data:brownfield-land:1737639","planned_project_name":"121 Westminster Bridge Road London Lambeth SE1 7HR","source_record_temporal_status":"current_register_record","source_quality":"authoritative","fake_data":false}},{"type":"Feature","id":"planned_buildings_1-planning-data-brownfield-1737640","geometry":{"type":"Point","coordinates":[-0.13603,51.434484]},"properties":{"slot_id":"planned_buildings_1","source_entity":1737640,"official_site_key":"BLR159","canonical_record_key":"planning-data:brownfield-land:1737640","planned_project_name":"74 Woodfield Avenue London SW16 1LD","source_record_temporal_status":"current_register_record","source_quality":"authoritative","fake_data":false}},{"type":"Feature","id":"planned_buildings_1-planning-data-brownfield-1737641","geometry":{"type":"Point","coordinates":[-0.128689,51.433872]},"properties":{"slot_id":"planned_buildings_1","source_entity":1737641,"official_site_key":"BLR160","canonical_record_key":"planning-data:brownfield-land:1737641","planned_project_name":"128 Streatham High Road London SW16 1BW","source_record_temporal_status":"current_register_record","source_quality":"authoritative","fake_data":false}},{"type":"Feature","id":"planned_buildings_1-planning-data-brownfield-1741377","geometry":{"type":"Point","coordinates":[-0.135119,51.458273]},"properties":{"slot_id":"planned_buildings_1","source_entity":1741377,"official_site_key":"BLR161","canonical_record_key":"planning-data:brownfield-land:1741377","planned_project_name":"177 Abbeville Road London Lambeth SW4 9BH","source_record_temporal_status":"current_register_record","source_quality":"authoritative","fake_data":false}},{"type":"Feature","id":"planned_buildings_1-planning-data-brownfield-1741385","geometry":{"type":"Point","coordinates":[-0.128964,51.43313]},"properties":{"slot_id":"planned_buildings_1","source_entity":1741385,"official_site_key":"BLR169","canonical_record_key":"planning-data:brownfield-land:1741385","planned_project_name":"148-154 Streatham High Road London Lambeth SW16 1BJ","source_record_temporal_status":"current_register_record","source_quality":"authoritative","fake_data":false}}],"metadata":{"slot_id":"planned_buildings_1","run_id":"20260818T073600Z","source_family":"planning_data_brownfield_land","processed_offsets":[156,157,158,159,160,161,162,163,164,165,166,167],"promoted_offsets":[156,157,158,159,167],"no_add_evidence_insufficient_offsets":[160,161,162,163,164,165,166],"next_unused_window":{"geometry_entity":626195,"geometry_relation":"within","limit":1,"offset":168},"bounded_batch_count":12,"zero_result_windows":0,"evidence_insufficient_windows":7,"feature_count_before":161,"feature_count_added":5,"feature_count_after_logical":166,"unique_real_site_project_before":112,"unique_real_site_project_added":5,"unique_real_site_project_after":117,"historical_register_records_promoted":0,"current_register_records_promoted":5,"duplicate_count_new":0,"reprocessed_window_count":0,"nearest_match_used":false,"parcel_match_used":false,"fake_data":false,"demo_only":true,"final_ready":false,"production_merge":false,"mirror_only":true,"canonical_latest_overwritten":false}}