{"type":"FeatureCollection","features":[],"metadata":{"slot_id":"planned_buildings_1","batch_index":3,"source_family":"gla_site_allocations_102","source_window":{"borough":"Lambeth","orderByFields":"objectid","resultRecordCount":1,"resultOffset":12,"returnGeometry":true,"outSR":4326},"source_result":"NO_ADD_OFFICIAL_RECORD_ARTIFACT_NOT_RETRIEVABLE","source_evidence_status":"OFFICIAL_LAYER_QUERY_AND_GPKG_DOWNLOAD_VERIFIED_RECORD_PAYLOAD_UNAVAILABLE_IN_RUNTIME","feature_count_before":167,"feature_count_after":167,"unique_real_site_project_before":118,"unique_real_site_project_after":118,"new_feature_count":0,"duplicate_count_new":0,"nearest_match_used":false,"fake_data":false,"mirror_only":true}}