{"type":"FeatureCollection","features":[{"type":"Feature","id":"sefton-brownfield-land-register-2026:B0188","geometry":null,"properties":{"slot_id":"future_growth_4","lineage_id":"fg4-e4c9076d6f554f00","page_generation":1,"owner":"future_growth_4","partition":"future_growth","semantic_mode":"SOURCE_AREA_EXACT_IDENTIFIER","dataset":"sefton-brownfield-land-register-2026","entity":"B0188","reference":"B0188","quality":"authoritative","organisation":"Sefton Council","name":"Bootle Gasworks","site_address":"Bootle Gasworks, Litherland Road, Bootle","source_url":"https://www.sefton.gov.uk/planning-building-control/planning-policy-including-local-plan-and-neighbourhood-planning/brownfield-land-register/","final_url":"https://www.sefton.gov.uk/planning-building-control/planning-policy-including-local-plan-and-neighbourhood-planning/brownfield-land-register/","access_utc":"2026-10-03T08:24:00Z","data_date":"2026-07-01","license":"Open Government Licence","field_evidence":{"reference":"B0188","site_name":"Bootle Gasworks","street_name":"Litherland Road","settlement":"Bootle","register_part":1,"register_last_updated":"2026-07-01"},"evidence_slice_sha256":"8697e9d45bbd3d04cd855e7685d7a2e6482c081162e34fbe2824607f1d2ae1bc","confidence_score_0_100":99,"confidence":0.99,"evidence_grade":"A","exact_identifier_provided":true,"coverage_polygon_provided":false,"fake_data":false,"join_mode":"LOCAL_OPENCODE_SPATIAL_JOIN_PENDING","direct_parcel":false,"source_area_count_contribution":1,"planned_building_count_contribution":0}}]}