{"type":"FeatureCollection","name":"future_growth_6","features":[{"type":"Feature","id":"development-policy-area:local-authority-eng:BUC:LPEMB:2021-01-08","geometry":{"type":"MultiPolygon","coordinates":[[[[-0.705725,51.575323],[-0.705673,51.57547],[-0.70566,51.575763],[-0.705687,51.575774],[-0.705646,51.575878],[-0.70599,51.57604],[-0.706042,51.576224],[-0.705996,51.576518],[-0.705849,51.576829],[-0.705916,51.576887],[-0.705536,51.577849],[-0.704401,51.577863],[-0.703642,51.577943],[-0.703419,51.577089],[-0.703432,51.576807],[-0.703647,51.576497],[-0.703602,51.57648],[-0.704638,51.575161],[-0.705725,51.575323]]]]},"properties":{"semantic_identity":"development-policy-area:local-authority-eng:BUC:LPEMB:2021-01-08","source_area_id":"LPEMB","source_area_type":"adopted_local_plan_strategic_employment_area_policy_coverage","name":"Millboard Road","allocated_use":"Strategic employment area retained for employment policy planning; not development status","policy":"DM28; Appendix G","organisation":"local-authority-eng:BUC","coverage_scope":"Official strategic employment plan area; no new-building or parcel construction status inferred","source_url":"https://github.com/digital-land/development-policy-area/blob/111f7b992aa0c7efe39611b4003607141631a4f2/docs/local-authority-eng/BUC/LPEMB/geometry.geojson","source_final_url":"https://raw.githubusercontent.com/digital-land/development-policy-area/111f7b992aa0c7efe39611b4003607141631a4f2/docs/local-authority-eng/BUC/LPEMB/geometry.geojson","http_status":200,"source_data_date":"2021-01-08","plan_adopted_date":"2019-08-19","official_review_data_date":"2025-07","source_version":"111f7b992aa0c7efe39611b4003607141631a4f2:git-blob:bea808c33bf037896e8ac18126f666fbb1718720","licence":"Open Government Licence v3.0 (Digital Land; subject to original source-specific rights)","source_sha256":"4a8e84259e86479db7c63592e29113698683b635bb8cd519606f815e73a560ba","evidence_slice_sha256":"e06794ff8258942eafe5a30c297a3bd7a8d05ad865e3854cbd93893e52b01860","field_evidence":{"geometry":"docs/local-authority-eng/BUC/LPEMB/geometry.geojson:geometry","official_identifier":"docs/local-authority-eng/BUC/LPEMB/geometry.geojson:properties.geography","name":"docs/local-authority-eng/BUC/LPEMB/geometry.geojson:properties.name","data_date":"docs/local-authority-eng/BUC/LPEMB/geometry.geojson:properties.entry-date","adopted_employment_site":"https://buckinghamshire-gov-uk.s3.amazonaws.com/documents/Wycombe-District-Local-Plan-Adopted-August-2019-accessible.pdf#Appendix_G","independent_2025_employment_evidence":"https://media.buckinghamshire.gov.uk/documents/Employment_Evidence_Main_Report_July_2025.pdf#page=102"},"confidence":0.97,"evidence_grade":"A_OFFICIAL_GIS_ADOPTED_EMPLOYMENT_PLAN_AND_2025_REVIEW","fake_data":false}},{"type":"Feature","id":"development-policy-area:local-authority-eng:BUC:LPEMC:2021-01-08","geometry":{"type":"MultiPolygon","coordinates":[[[[-0.709937,51.578266],[-0.709777,51.577867],[-0.708663,51.578232],[-0.706546,51.578144],[-0.706437,51.57804],[-0.706509,51.577976],[-0.706627,51.578026],[-0.708991,51.576941],[-0.709019,51.576933],[-0.709237,51.577344],[-0.70947,51.577263],[-0.709334,51.577041],[-0.709386,51.577003],[-0.709459,51.576982],[-0.709499,51.577046],[-0.710095,51.576913],[-0.710205,51.577217],[-0.710008,51.577281],[-0.710362,51.578186],[-0.709937,51.578266]]]]},"properties":{"semantic_identity":"development-policy-area:local-authority-eng:BUC:LPEMC:2021-01-08","source_area_id":"LPEMC","source_area_type":"adopted_local_plan_strategic_employment_area_policy_coverage","name":"Cores End Road","allocated_use":"Strategic employment area retained for employment policy planning; not development status","policy":"DM28; Appendix G","organisation":"local-authority-eng:BUC","coverage_scope":"Official strategic employment plan area; no new-building or parcel construction status inferred","source_url":"https://github.com/digital-land/development-policy-area/blob/111f7b992aa0c7efe39611b4003607141631a4f2/docs/local-authority-eng/BUC/LPEMC/geometry.geojson","source_final_url":"https://raw.githubusercontent.com/digital-land/development-policy-area/111f7b992aa0c7efe39611b4003607141631a4f2/docs/local-authority-eng/BUC/LPEMC/geometry.geojson","http_status":200,"source_data_date":"2021-01-08","plan_adopted_date":"2019-08-19","official_review_data_date":"2025-07","source_version":"111f7b992aa0c7efe39611b4003607141631a4f2:git-blob:4906e7e0643adcf2f8ea3379aa2da1fbd8ae3382","licence":"Open Government Licence v3.0 (Digital Land; subject to original source-specific rights)","source_sha256":"dba7239baecbf0b0949a060fedbce469b6a571508c7cf7ce7d6c314cb1f3c1e7","evidence_slice_sha256":"e06794ff8258942eafe5a30c297a3bd7a8d05ad865e3854cbd93893e52b01860","field_evidence":{"geometry":"docs/local-authority-eng/BUC/LPEMC/geometry.geojson:geometry","official_identifier":"docs/local-authority-eng/BUC/LPEMC/geometry.geojson:properties.geography","name":"docs/local-authority-eng/BUC/LPEMC/geometry.geojson:properties.name","data_date":"docs/local-authority-eng/BUC/LPEMC/geometry.geojson:properties.entry-date","adopted_employment_site":"https://buckinghamshire-gov-uk.s3.amazonaws.com/documents/Wycombe-District-Local-Plan-Adopted-August-2019-accessible.pdf#Appendix_G","independent_2025_employment_evidence":"https://media.buckinghamshire.gov.uk/documents/Employment_Evidence_Main_Report_July_2025.pdf#page=102"},"confidence":0.97,"evidence_grade":"A_OFFICIAL_GIS_ADOPTED_EMPLOYMENT_PLAN_AND_2025_REVIEW","fake_data":false}},{"type":"Feature","id":"development-policy-area:local-authority-eng:BUC:LPEMG:2021-01-08","geometry":{"type":"MultiPolygon","coordinates":[[[[-0.682308,51.597604],[-0.682634,51.597483],[-0.682692,51.597539],[-0.684503,51.596806],[-0.684623,51.596812],[-0.684861,51.597037],[-0.686,51.596574],[-0.686118,51.596672],[-0.685865,51.596876],[-0.685686,51.597154],[-0.685523,51.597322],[-0.685637,51.59746],[-0.685884,51.597492],[-0.686035,51.597612],[-0.686294,51.598757],[-0.686304,51.59892],[-0.68623,51.599032],[-0.686082,51.599138],[-0.684792,51.599643],[-0.684996,51.59938],[-0.685135,51.599113],[-0.685166,51.598956],[-0.685125,51.598726],[-0.684726,51.598749],[-0.684614,51.598561],[-0.684209,51.598748],[-0.684188,51.59873],[-0.684049,51.598786],[-0.683712,51.598963],[-0.683406,51.598623],[-0.68304,51.59846],[-0.682308,51.597604]]]]},"properties":{"semantic_identity":"development-policy-area:local-authority-eng:BUC:LPEMG:2021-01-08","source_area_id":"LPEMG","source_area_type":"adopted_local_plan_strategic_employment_area_policy_coverage","name":"Glory Park","allocated_use":"Strategic employment area retained for employment policy planning; not development status","policy":"DM28; Appendix G","organisation":"local-authority-eng:BUC","coverage_scope":"Official strategic employment plan area; no new-building or parcel construction status inferred","source_url":"https://github.com/digital-land/development-policy-area/blob/111f7b992aa0c7efe39611b4003607141631a4f2/docs/local-authority-eng/BUC/LPEMG/geometry.geojson","source_final_url":"https://raw.githubusercontent.com/digital-land/development-policy-area/111f7b992aa0c7efe39611b4003607141631a4f2/docs/local-authority-eng/BUC/LPEMG/geometry.geojson","http_status":200,"source_data_date":"2021-01-08","plan_adopted_date":"2019-08-19","official_review_data_date":"2025-07","source_version":"111f7b992aa0c7efe39611b4003607141631a4f2:git-blob:a283582ca9e0f3ebed55d22e077493931bf9b3a1","licence":"Open Government Licence v3.0 (Digital Land; subject to original source-specific rights)","source_sha256":"d64bf94436626bb5ceab4ca36d4f3bdb2b3126681b797962ab58fe1a1dccfe0b","evidence_slice_sha256":"e06794ff8258942eafe5a30c297a3bd7a8d05ad865e3854cbd93893e52b01860","field_evidence":{"geometry":"docs/local-authority-eng/BUC/LPEMG/geometry.geojson:geometry","official_identifier":"docs/local-authority-eng/BUC/LPEMG/geometry.geojson:properties.geography","name":"docs/local-authority-eng/BUC/LPEMG/geometry.geojson:properties.name","data_date":"docs/local-authority-eng/BUC/LPEMG/geometry.geojson:properties.entry-date","adopted_employment_site":"https://buckinghamshire-gov-uk.s3.amazonaws.com/documents/Wycombe-District-Local-Plan-Adopted-August-2019-accessible.pdf#Appendix_G","independent_2025_employment_evidence":"https://media.buckinghamshire.gov.uk/documents/Employment_Evidence_Main_Report_July_2025.pdf#page=102"},"confidence":0.97,"evidence_grade":"A_OFFICIAL_GIS_ADOPTED_EMPLOYMENT_PLAN_AND_2025_REVIEW","fake_data":false}}],"properties":{"state":"SOURCE_AREAS_PRODUCED_LOCAL_BINDING_PENDING","source_area_count":110,"source_area_count_delta":3,"accepted_count":0,"duplicate_count":0,"rejected_count":0,"unmatched_count":13,"materialized_parcel_count":0,"direct_parcel_count":0,"verified_no_building_count":0,"unprocessed_count":13,"planned_building_count":0,"producer_before_count":107,"producer_delta":3,"producer_after_count":110,"cursor":"OFFICIAL_BUC_STRATEGIC_EMPLOYMENT:LPEMB_LPEMC_LPEMG:769afd9959807d62","first_missing_criterion":"LOCAL_CANONICAL_PARCEL_IDENTIFIER_BINDING_MATERIALIZATION","fake_data":false}}
