{"type":"FeatureCollection","features":[{"type":"Feature","id":"planned_buildings_2-planning-data-brownfield-1737102","geometry":null,"properties":{"entity":1737102,"reference":"BAS0134","canonical_record_key":"planning-data:brownfield-land:1737102","planned_project_name":"Trafford House, Cherrydown East, Basildon SS16 5HG","planned_project_status":"pending-decision","borough":"Basildon Borough Council","official_hectares":0.95,"official_deliverable":true,"official_minimum_net_dwellings":151,"official_maximum_net_dwellings":151,"planned_building_value":null,"planned_building_probability":null,"planned_building_complete_month":null,"source_quality":"authoritative","source_url":"https://www.planning.data.gov.uk/entity/1737102","source_license":"Open Government Licence v3.0","fake_data":false}}],"metadata":{"slot_id":"planned_buildings_2","batch_index":324,"source_index":27,"source_window":{"resource_index":9,"limit":1},"feature_count_before":657,"feature_count_after":658,"unique_real_site_project_before":498,"unique_real_site_project_after":499,"duplicate_count_new":0,"nearest_match_used":false,"parcel_match_used":false,"geometry_inference_used":false,"mirror_only":true}}