{"type":"FeatureCollection","features":[{"type":"Feature","id":"planned_buildings_2-planning-data-brownfield-1737095","geometry":null,"properties":{"entity":1737095,"reference":"BAS0127","canonical_record_key":"planning-data:brownfield-land:1737095","planned_project_name":"5-8 Dunton Court, Aston Road, Laindon SS15 6NX","planned_project_status":"permissioned","borough":"Basildon Borough Council","official_hectares":0.18,"official_deliverable":true,"official_minimum_net_dwellings":18,"official_maximum_net_dwellings":18,"planned_building_value":null,"planned_building_probability":null,"planned_building_complete_month":null,"source_quality":"authoritative","source_url":"https://www.planning.data.gov.uk/entity/1737095","source_license":"Open Government Licence v3.0","fake_data":false}}],"metadata":{"slot_id":"planned_buildings_2","batch_index":319,"source_index":27,"source_window":{"resource_index":4,"limit":1},"feature_count_before":652,"feature_count_after":653,"unique_real_site_project_before":493,"unique_real_site_project_after":494,"duplicate_count_new":0,"nearest_match_used":false,"parcel_match_used":false,"geometry_inference_used":false,"mirror_only":true}}