{"type":"FeatureCollection","features":[{"type":"Feature","id":"planned_buildings_2-planning-data-brownfield-1737087","geometry":null,"properties":{"entity":1737087,"reference":"BAS0119","canonical_record_key":"planning-data:brownfield-land:1737087","planned_project_name":"D C K House, Station Court, Radford Way, Billericay CM12 0DZ","planned_project_status":"permissioned","borough":"Basildon Borough Council","official_hectares":0.2,"official_deliverable":true,"official_minimum_net_dwellings":9,"official_maximum_net_dwellings":9,"planned_building_value":null,"planned_building_probability":null,"planned_building_complete_month":null,"source_quality":"authoritative","source_url":"https://www.planning.data.gov.uk/entity/1737087","source_license":"Open Government Licence v3.0","fake_data":false}}],"metadata":{"slot_id":"planned_buildings_2","batch_index":315,"source_index":27,"source_window":{"resource_index":0,"limit":1},"feature_count_before":648,"feature_count_after":649,"unique_real_site_project_before":489,"unique_real_site_project_after":490,"duplicate_count_new":0,"nearest_match_used":false,"parcel_match_used":false,"geometry_inference_used":false,"mirror_only":true}}