{"type":"FeatureCollection","features":[{"type":"Feature","geometry":{"type":"MultiPolygon","coordinates":[[[[0.017795,51.410113],[0.017746,51.410141],[0.017692,51.410156],[0.017544,51.410021],[0.01727,51.410142],[0.016749,51.409581],[0.016072,51.408861],[0.016065,51.408851],[0.015678,51.408433],[0.0157,51.408419],[0.015978,51.408326],[0.016284,51.408218],[0.016508,51.408135],[0.016781,51.408039],[0.016849,51.408092],[0.017349,51.408349],[0.017486,51.408423],[0.017637,51.408499],[0.018163,51.408772],[0.017828,51.408957],[0.01816,51.409287],[0.018616,51.409819],[0.018619,51.409841],[0.018643,51.409897],[0.018847,51.409995],[0.018867,51.410006],[0.018915,51.410037],[0.019263,51.410337],[0.019271,51.410346],[0.019275,51.41036],[0.019271,51.410371],[0.019267,51.410375],[0.018912,51.410556],[0.018677,51.410658],[0.017795,51.410113]]]]},"properties":{"slot_id":"future_growth_ 2","lineage_id":"future_growth_ 2-newstart-20261001T203100Z","page_generation":1,"owner":"future_growth_ 2","partition":"future_growth","semantic_mode":"SOURCE_AREA_EXACT_IDENTIFIER","accepted_as_parcel":false,"source_area_count_contribution":1,"exact_identifier":"BLR8","exact_identifier_provided":true,"coverage_polygon_provided":true,"identifier_namespace":"Planning Data brownfield-site reference","access_utc":"2026-10-03T02:31:00Z","data_date":"2020-12-22","source_url":"https://www.planning.data.gov.uk/entity/1802484","final_url":"https://www.planning.data.gov.uk/entity/1802484","dataset_url":"https://www.planning.data.gov.uk/dataset/brownfield-site","license":"Open Government Licence v3.0","authority":"London Borough of Bromley","site_address":"Land adjacent to Bromley North Station Tweedy Road Bromley BR1","hectares":null,"point":{"type":"Point","coordinates":[0.017414,51.409281]},"maximum_net_dwellings":null,"minimum_net_dwellings":null,"planning_permission_status":null,"confidence_score_0_100":99,"confidence":0.99,"evidence_grade":"A","evidence_scope":"official_polygon_and_exact_identifier","field_evidence":{"dataset":"Brownfield site","entity":1802484,"entry_date":"2020-12-22","reference":"BLR8","site_name":"Land adjacent to Bromley North Station Tweedy Road Bromley BR1","organisation":"London Borough of Bromley","organisation_curie":"local-authority:BRY","quality":"some","geometry_type":"MultiPolygon","point":[0.017414,51.409281]},"evidence_slice_sha256":"fbff985b26cf723f18cec58946223b3e385efc34c7240a037ea4b4913cbcf188","fake_data":false,"spatial_binding_method":"official Planning Data MultiPolygon source-area geometry; canonical parcel spatial join/materialization delegated to local OpenCode","planned_building_count_contribution":0}}]}