{"type":"FeatureCollection","features":[{"type":"Feature","geometry":null,"properties":{"slot_id":"future_growth_1","lineage_id":"future_growth_1-newstart-20260927T153100+0300","page_generation":null,"accepted_as_parcel":false,"source_area_count_contribution":1,"exact_identifier":"Old Oak and Park Royal Development Corporation Boundary","exact_identifier_provided":true,"coverage_polygon_provided":false,"identifier_namespace":"Greater London Authority Mayoral Development Corporation boundary dataset","site_name":"Old Oak and Park Royal Development Corporation area","access_utc":"2026-10-02T19:26:00Z","data_date":"2015-04-01","source_url":"https://data.london.gov.uk/dataset/old-oak-and-park-royal-development-corporation-boundary-2zw36","final_url":"https://data.london.gov.uk/dataset/old-oak-and-park-royal-development-corporation-boundary-2zw36","current_status_url":"https://www.london.gov.uk/who-we-are/city-halls-partners/old-oak-and-park-royal-development-corporation-opdc","establishment_url":"https://www.london.gov.uk/decisions/md1498-establishment-old-oak-and-park-royal-development-corporation","distribution_name":"OPDC-shp","license":"Open Government Licence v3","authority":"Greater London Authority / Old Oak and Park Royal Development Corporation","corporation_type":"statutory Mayoral Development Corporation","area_hectares":650,"boroughs":["Ealing","Brent","Hammersmith & Fulham"],"evidence_grade":"A","confidence_score_0_100":99,"evidence_scope":"exact official OPDC boundary dataset identifier plus GLA static Custom Polygon ZIP distribution and current statutory regeneration/future-growth evidence","evidence_slice_sha256":"d9f352e508370b3f53a521096c2133b472563a078dffed5bcac1fdfb0264845b","fake_data":false,"spatial_binding_method":"official GLA OPDC boundary dataset plus static OPDC-shp Custom Polygon distribution; exact polygon extraction, canonical parcel spatial join and materialization delegated to local OpenCode","planned_building_count_contribution":0}}]}