{"type":"FeatureCollection","name":"gas_emissions_4","slot_schema_family":"AAYS_LAYER24_EVIDENCE_V1","package_category":"AAYS_SOURCE_AREA_V1","semantic_mode":"AREA_JOIN","slot_id":"gas_emissions_4","owner":"gas_emissions_4","partition":"UNVERIFIED_UNRESOLVED","lineage_id":"GE4-d738674f-dbc5-4a78-bb2a-1132f6d738fd","page_generation":1,"batch_id":"batch_20261003T235200+0300_exact_blocker_no_attempt_0026","source_area_count":1,"new_source_area_delta":0,"new_source_record_count":0,"accepted_count":0,"features":[]}
