{"type":"FeatureCollection","features":[{"type":"Feature","geometry":null,"properties":{"slot_id":"future_growth_1","lineage_id":"future_growth_1-newstart-20260927T153100+0300","page_generation":null,"accepted_as_parcel":false,"source_area_count_contribution":1,"exact_identifier":"BSA0512","exact_identifier_provided":true,"coverage_polygon_provided":false,"identifier_namespace":"Bristol Local Plan Policy SA1 site allocation reference","site_name":"Gleeson House sheltered accommodation, Dodisham Walk, Fishponds","access_utc":"2026-10-05T16:08:00Z","data_date":"2014-07","source_url":"https://maps2.bristol.gov.uk/server2/rest/services/ext/datagov/MapServer/209","final_url":"https://maps2.bristol.gov.uk/server2/rest/services/ext/datagov/MapServer/209","wfs_url":"https://maps2.bristol.gov.uk/server2/rest/services/ext/datagov/MapServer/WFSServer?request=GetCapabilities&service=WFS","policy_url":"https://www.bristol.gov.uk/files/documents/10606-site-allocations-and-development-management-policies","dataset_url":"https://www.data.gov.uk/dataset/bd7ae2d4-a4ea-4e7b-82e0-7e4be8336591/site-allocations2023","license":"Open Government Licence v3.0","authority":"Bristol City Council","site_area_hectares":0.4,"allocation":"Housing","estimated_homes":20,"ward":"Frome Vale","policy":"SA1","gis_layer_id":209,"gis_geometry_type":"esriGeometryPolygon","evidence_grade":"A","confidence_score_0_100":99,"evidence_scope":"exact Bristol adopted Policy SA1 allocation BSA0512 plus authority-hosted Site allocations polygon layer 209 and adopted Annex","evidence_slice_sha256":"b6d4b66184ab8771bdbc597eb37ed35bc33f3c539e1c37cfb91f823d9393ceb6","fake_data":false,"spatial_binding_method":"official allocation reference BSA0512 plus Bristol City Council Site allocations polygon layer 209/WFS; exact feature query, canonical parcel spatial join and materialization delegated to local OpenCode","planned_building_count_contribution":0}}]}
