{"type":"FeatureCollection","features":[{"type":"Feature","geometry":null,"properties":{"slot_id":"future_growth_7","lineage_id":"future_growth_7_open_source_v2_20260813","page_generation":null,"batch_id":"batch_20261001T030000Z_lbcblr001","future_growth_evidence_type":"brownfield_land_exact_official_identifier","official_entity_id":1702364,"official_reference":"LBCBLR001","dataset":"brownfield-land","organisation":"London Borough of Camden","source_url":"https://www.planning.data.gov.uk/entity/1702364","final_url":"https://www.planning.data.gov.uk/entity/1702364","accessed_utc":"2026-10-01T03:00:00Z","data_date":"2025-12-07","field_evidence":{"future_growth":["dataset=brownfield-land","quality=authoritative","typology=geography"],"identifier":["entity=1702364","reference=LBCBLR001"],"coverage":["point=POINT (-0.142925 51.534072)","geometry not present; exact identifier retained for local canonical spatial resolution"]},"evidence_slice_sha256":"693777136c5fcde3db6716a76571eb1472d1b0ad52d4f2a9f0901918cc8aa00b","confidence_score_0_100":92,"evidence_grade":"A_EXACT_OFFICIAL_IDENTIFIER","fake_data":false}}]}
