{
  "features": [
    {
      "geometry": null,
      "id": "metropolitan:E05013806N",
      "properties": {
        "accepted_as_parcel": false,
        "access_utc": "2026-10-02T15:40:00Z",
        "canonical_binding": "LOCAL_OPENCODE_PENDING_NOT_CLAIMED",
        "confidence_score_0_100": 95,
        "data_date": "2026-10-02 access snapshot; official documentation example undated",
        "direct_parcel": false,
        "evidence_grade": "A_OFFICIAL_API_DOCUMENTATION_EXACT_IDENTIFIER",
        "fake_data": false,
        "force_id": "metropolitan",
        "identifier": "E05013806N",
        "identifier_field": "neighbourhood",
        "identifier_version": "data.police.uk force-specific neighbourhood identifier",
        "record_type": "SOURCE_AREA_EXACT_IDENTIFIER",
        "source_area_counted": true,
        "source_url": "https://data.police.uk/docs/method/neighbourhood-locate/"
      },
      "type": "Feature"
    }
  ],
  "name": "security_public_safety_3",
  "properties": {
    "accepted_count": 0,
    "batch_id": "20261002T154000Z-police-locate-metropolitan-000",
    "fake_data": false,
    "lineage_id": "L24-SPS3-57442c9c2a0f429be2d2",
    "page_generation": 1,
    "partition": {
      "count": 30761,
      "end": 92283,
      "start": 61523
    },
    "schema": "AAYS_LAYER24_EVIDENCE_V1",
    "slot_id": "security_public_safety_3",
    "source_area_count": 1
  },
  "type": "FeatureCollection"
}
