{"type":"FeatureCollection","features":[{"type":"Feature","geometry":{"type":"MultiPolygon","coordinates":[[[[-0.082108,51.457827],[-0.08211,51.457826],[-0.081827,51.457639],[-0.081756,51.457682],[-0.081683,51.457708],[-0.081875,51.4579],[-0.081871,51.457904],[-0.081896,51.457934],[-0.082108,51.457827]]]]},"properties":{"slot_id":"future_growth_ 2","lineage_id":"future_growth_ 2-newstart-20261001T203100Z","page_generation":1,"owner":"future_growth_ 2","partition":"future_growth","semantic_mode":"SOURCE_AREA_EXACT_IDENTIFIER","accepted_as_parcel":false,"source_area_count_contribution":1,"exact_identifier":"16-AP-3035","exact_identifier_provided":true,"coverage_polygon_provided":true,"identifier_namespace":"Planning Data brownfield-site reference","access_utc":"2026-10-02T18:52:00Z","data_date":"2017-12-20","source_url":"https://www.planning.data.gov.uk/entity/1800786","final_url":"https://www.planning.data.gov.uk/entity/1800786","dataset_url":"https://www.planning.data.gov.uk/dataset/brownfield-site","license":"Open Government Licence v3.0","authority":"London Borough of Southwark","site_address":"117-119 East Dulwich Grove SE22 8PU","hectares":null,"point":"POINT (-0.08189 51.457784)","maximum_net_dwellings":null,"minimum_net_dwellings":null,"planning_permission_status":null,"confidence_score_0_100":99,"confidence":0.99,"evidence_grade":"A","evidence_scope":"official_polygon_and_exact_identifier","field_evidence":{"dataset":"brownfield-site","entity":1800786,"entry_date":"2017-12-20","geometry_wkt":"MULTIPOLYGON (((-0.082108 51.457827, -0.08211 51.457826, -0.081827 51.457639, -0.081756 51.457682, -0.081683 51.457708, -0.081875 51.4579, -0.081871 51.457904, -0.081896 51.457934, -0.082108 51.457827)))","name":"117-119 East Dulwich Grove SE22 8PU","organisation":"London Borough of Southwark","point_wkt":"POINT (-0.08189 51.457784)","quality":"authoritative","reference":"16-AP-3035","start_date":"2017-12-20"},"evidence_slice_sha256":"439c82bcae9c651e0b9d44409882bd7418b5e5e999e37c49426d254ae1e0d353","fake_data":false,"spatial_binding_method":"authoritative Planning Data MultiPolygon boundary; canonical parcel spatial join/materialization delegated to local OpenCode","planned_building_count_contribution":0}}]}