{
  "features": [
    {
      "geometry": {
        "coordinates": [
          [
            [
              [
                -0.037038,
                51.524248
              ],
              [
                -0.039214,
                51.526291
              ],
              [
                -0.042935,
                51.531097
              ],
              [
                -0.046285,
                51.532744
              ],
              [
                -0.049039,
                51.533654
              ],
              [
                -0.052193,
                51.530333
              ],
              [
                -0.055831,
                51.529319
              ],
              [
                -0.054875,
                51.52411
              ],
              [
                -0.054963,
                51.523004
              ],
              [
                -0.056178,
                51.520965
              ],
              [
                -0.05635,
                51.519834
              ],
              [
                -0.050013,
                51.52107
              ],
              [
                -0.040886,
                51.522697
              ],
              [
                -0.037038,
                51.524248
              ]
            ]
          ]
        ],
        "type": "MultiPolygon"
      },
      "id": "E05009317",
      "properties": {
        "accepted_as_parcel": false,
        "authoritative_source": "Office for National Statistics",
        "canonical_binding": "LOCAL_OPENCODE_SPATIAL_JOIN_PENDING_NOT_CLAIMED",
        "confidence_score_0_100": 100,
        "entry_date": "2025-03-04",
        "evidence_grade": "A_OFFICIAL_AUTHORITATIVE_BOUNDARY",
        "evidence_slice_sha256": "77bfa60b97acb4ae53c0eaebfbbd5f0f23919de70baccc44b69ffcab6619436f",
        "fake_data": false,
        "license": "Open Government Licence v3.0",
        "record_type": "SOURCE_AREA_COVERAGE_POLYGON",
        "source_area_counted": true,
        "source_area_identifier": "E05009317",
        "source_area_name": "Bethnal Green East",
        "source_url": "https://www.planning.data.gov.uk/entity/801130"
      },
      "type": "Feature"
    }
  ],
  "name": "security_public_safety_3",
  "properties": {
    "batch_id": "20261001T012000Z-ward-boundary-E05009317",
    "lineage_id": "L24-SPS3-57442c9c2a0f429be2d2",
    "page_generation": 1,
    "partition": {
      "count": 30761,
      "end": 92283,
      "start": 61523
    },
    "schema": "AAYS_LAYER24_EVIDENCE_V1",
    "slot_id": "security_public_safety_3"
  },
  "type": "FeatureCollection"
}
