{"type":"FeatureCollection","features":[{"type":"Feature","id":"gla-brownfield-register-2026:BR00150","geometry":null,"properties":{"slot_id":"future_growth_4","lineage_id":"fg4-e4c9076d6f554f00","page_generation":1,"owner":"future_growth_4","partition":"future_growth","semantic_mode":"SOURCE_AREA_EXACT_IDENTIFIER","dataset":"gla-brownfield-register-2026","entity":"BR00150","reference":"BR00150","quality":"authoritative","organisation":"Greater London Authority","source_organisation":"London Borough of Brent","name":"7 Sudbury Hill Close","site_address":"7 Sudbury Hill Close","source_url":"https://www.data.gov.uk/dataset/31c0f9a6-3d0e-4aa9-b1a4-bb7542fb795a/brownfield-register50/datafile/a0bc1376-d435-4976-8a59-b4fc2c5b3fd1/preview","final_url":"https://www.data.gov.uk/dataset/31c0f9a6-3d0e-4aa9-b1a4-bb7542fb795a/brownfield-register50/datafile/a0bc1376-d435-4976-8a59-b4fc2c5b3fd1/preview","access_utc":"2026-10-06T07:30:18Z","data_date":"2026-09-25","license":"Greater London Authority public sector information licensed under Open Government Licence v3.0","field_evidence":{"reference":"BR00150","site_name_address":"7 Sudbury Hill Close","organisation_uri":"http://opendatacommunities.org/id/london-borough-council/brent","organisation_label":"Brent","hectares":0.32,"dataset_updated":"2026-09-25","publisher":"Greater London Authority"},"evidence_slice_sha256":"b3815947c5980b9ca55f84de12bbdd2526bae30400cb9b4dd19aeeba6138dd53","confidence_score_0_100":99,"confidence":0.99,"evidence_grade":"A","exact_identifier_provided":true,"coverage_polygon_provided":false,"coverage_geometry_available":true,"coverage_geometry_source":"dataset page provides current GPKG GIS boundaries for the Brownfield Register","fake_data":false,"join_mode":"LOCAL_OPENCODE_SPATIAL_JOIN_PENDING","direct_parcel":false,"source_area_count_contribution":1,"planned_building_count_contribution":0}}]}