{"type":"FeatureCollection","features":[{"type":"Feature","geometry":null,"properties":{"slot_id":"future_growth_1","lineage_id":"future_growth_1-newstart-20260927T153100+0300","page_generation":null,"accepted_as_parcel":false,"source_area_count_contribution":1,"exact_identifier":"Blyth Tax Site","exact_identifier_provided":true,"coverage_polygon_provided":false,"identifier_namespace":"North East Investment Zone special tax site","site_name":"Blyth Energy Central / Blyth Tax Site","access_utc":"2026-10-02T18:51:00Z","data_date":"2026-08-20","source_url":"https://services2.arcgis.com/LrUbY6lLLgV3tEa5/ArcGIS/rest/services/Investment_Zones/FeatureServer","final_url":"https://services2.arcgis.com/LrUbY6lLLgV3tEa5/ArcGIS/rest/services/Investment_Zones/FeatureServer","layer_url":"https://services2.arcgis.com/LrUbY6lLLgV3tEa5/ArcGIS/rest/services/Investment_Zones/FeatureServer/0","dataset_catalog_url":"https://www.data.gov.uk/dataset/943b173c-c2e8-456e-a6f7-05c02d5df56f/investment-zones-northumberland","legal_map_url":"https://www.gov.uk/government/publications/maps-of-north-east-investment-zone-tax-sites","legislation_url":"https://www.legislation.gov.uk/uksi/2024/383","license":"UK Open Government Licence (OGL)","authority":"Northumberland County Council / HM Revenue & Customs","legal_designation_effective_date":"2024-04-08","legal_map_date":"2024-01-26","feature_service_layer_id":0,"feature_service_spatial_reference_epsg":27700,"evidence_grade":"A","confidence_score_0_100":99,"evidence_scope":"exact legislated Blyth Tax Site identifier plus HMRC legal-map record and Northumberland authority-hosted Investment Zones polygon service","evidence_slice_sha256":"c5baede71b8b00f97870db1b1db248c206547f4d5bc3e3fa14f2e9fbd47def97","fake_data":false,"spatial_binding_method":"legally designated Blyth Tax Site identifier plus authority-hosted Investment Zones polygon FeatureServer/WFS/OGC API; exact feature extraction, canonical parcel spatial join and materialization delegated to local OpenCode","planned_building_count_contribution":0}}]}