{"type":"FeatureCollection","features":[{"type":"Feature","geometry":{"type":"MultiPolygon","coordinates":[[[[-1.936732,52.443651],[-1.936768,52.443657],[-1.936784,52.443658],[-1.936834,52.44366],[-1.936927,52.443659],[-1.936827,52.443498],[-1.936596,52.44341],[-1.936445,52.443545],[-1.936702,52.443643],[-1.936732,52.443651]]]]},"properties":{"curie":"listed-building-outline:143","prefix":"listed-building-outline","reference":"143","name":"Selly Oak Library, 669, Bristol Road, Selly Oak, Birmingham","dataset":"listed-building-outline","organisation-entity":"44","start-date":"1901-01-01","end-date":"","entry-date":"2026-08-06","typology":"geography","point":"POINT (-1.936691 52.443547)","entity":42130598,"quality":"authoritative","listed-building":"508448"}}],"source_url":"https://www.planning.data.gov.uk/entity/42130598","final_url":"https://www.planning.data.gov.uk/entity/42130598","source_window_id":"PLANNING_DATA_LISTED_BUILDING_OUTLINE_42130598_20260806_BATCH127","public_no_login":true,"license":"Open Government Licence v3.0","fake_data":false}