{"type":"FeatureCollection","features":[{"type":"Feature","geometry":null,"properties":{"slot_id":"planned_buildings_1","lineage_id":"planned_buildings_1-0ffc4ebd6c6e4e41","semantic_mode":"DISTINCT_BUILDINGS","planned_building_id":"planning-application:2026/0916/FPA::REPLACEMENT_DWELLING","building_status":"PLANNED","building_name":"Replacement two-storey dwelling, Keepers Cottage","planning_reference":"2026/0916/FPA","authority":"Westmorland & Furness Council","source_url":"https://planningregister.westmorlandandfurness.gov.uk/Planning/Display/2026/0916/FPA","final_url":"https://planningregister.westmorlandandfurness.gov.uk/Planning/Display/2026/0916/FPA","access_utc":"2026-10-04T14:54:37Z","source_data_date":"2026-05-05","license":"Open Government Licence v3.0","geometry_role":"null; no geometry inferred","field_evidence":"Valid; Officer Consideration; decision Pending; replacement of existing single-storey dwelling with one two-storey dwelling.","identity_limitation":"Exactly one replacement dwelling explicit in official proposal; no machine-readable plot id.","confidence_score_0_100":97,"evidence_grade":"A","fake_data":false}}]}