{"type":"FeatureCollection","features":[{"type":"Feature","geometry":null,"properties":{"slot_id":"future_growth_1","lineage_id":"future_growth_1-newstart-20260927T153100+0300","page_generation":null,"accepted_as_parcel":false,"source_area_count_contribution":1,"exact_identifier":"HA","exact_identifier_provided":true,"coverage_polygon_provided":false,"identifier_namespace":"LBBD Local Plan site allocation reference","site_name":"Wickes (Hertford Road)","access_utc":"2026-10-06T22:50:00Z","data_date":"2025-02","source_url":"https://www.lbbd.gov.uk/sites/default/files/2025-10/Local%20Plan%202020-37.pdf","final_url":"https://www.lbbd.gov.uk/sites/default/files/2025-10/Local%20Plan%202020-37.pdf","local_development_scheme_url":"https://www.lbbd.gov.uk/sites/default/files/2025-02/LDS%20February%202025%20Update.pdf","gis_url":"https://services.arcgis.com/drifeOPKLpgnJ8Qa/arcgis/rest/services/planning_local_plan_data_02/FeatureServer/6","license":"Publicly accessible LBBD adopted Local Plan and GLA public planning data service; layer-specific reuse licence not stated in the public service metadata","authority":"London Borough of Barking and Dagenham","indicative_net_minimum_capacity":899,"allocation_class":"Housing and Housing-Led Mixed Use Allocations","feature_service_layer_id":6,"feature_service_layer_name":"Site Allocations","feature_service_spatial_reference_epsg":27700,"evidence_grade":"A","confidence_score_0_100":99,"evidence_scope":"exact LBBD adopted Local Plan Site Allocation HA plus current-plan adoption confirmation and GLA Site Allocations spatial layer 6","evidence_slice_sha256":"01e0319351e69c4cbc0c5379fa9e2ef8c1e976afb7fd9012710e96b83d625f16","fake_data":false,"spatial_binding_method":"official Site Allocation HA identifier plus GLA Site Allocations layer 6; exact boundary resolution, canonical parcel spatial join and materialization delegated to local OpenCode","planned_building_count_contribution":0}}]}