{"type":"FeatureCollection","name":"security_public_safety_6","features":[{"type":"Feature","id":"ons_csp23:E22000001","geometry":null,"properties":{"source_area_id":"E22000001","source_area_name":"Bath and North East Somerset","source_area_kind":"community_safety_partnership_exact_identifier","source_window_id":"ons_csp23_buc_csv_preview_rows_1_4_2026-09-30","source_url":"https://www.data.gov.uk/dataset/bb60d0fd-2516-418b-96a8-c53092796971/community-safety-partnerships-december-2023-boundaries-ew-buc/datafile/4c675e0d-bcb0-4a6f-a5dd-0dba6250bce4/preview","data_date":"2023-12","license":"Dataset licence field not set; dataset states it contains Ordnance Survey and ONS intellectual property rights; data.gov.uk site content is OGL v3.0 except where otherwise stated.","source_record_ordinal":1,"evidence_type":"exact_identifier","evidence_slice_sha256":"b770148e162b776ba2bda719112478499b27666a1aba76c93236a2dea7a24cd7","confidence_score_0_100":99,"evidence_grade":"A_OFFICIAL_PRIMARY_PREVIEW","fake_data":false,"canonical_parcel_id":null,"parcel_match_status":"DEFERRED_TO_LOCAL_OPENCODE"}},{"type":"Feature","id":"ons_csp23:E22000002","geometry":null,"properties":{"source_area_id":"E22000002","source_area_name":"Bristol, City of","source_area_kind":"community_safety_partnership_exact_identifier","source_window_id":"ons_csp23_buc_csv_preview_rows_1_4_2026-09-30","source_url":"https://www.data.gov.uk/dataset/bb60d0fd-2516-418b-96a8-c53092796971/community-safety-partnerships-december-2023-boundaries-ew-buc/datafile/4c675e0d-bcb0-4a6f-a5dd-0dba6250bce4/preview","data_date":"2023-12","license":"Dataset licence field not set; dataset states it contains Ordnance Survey and ONS intellectual property rights; data.gov.uk site content is OGL v3.0 except where otherwise stated.","source_record_ordinal":2,"evidence_type":"exact_identifier","evidence_slice_sha256":"b770148e162b776ba2bda719112478499b27666a1aba76c93236a2dea7a24cd7","confidence_score_0_100":99,"evidence_grade":"A_OFFICIAL_PRIMARY_PREVIEW","fake_data":false,"canonical_parcel_id":null,"parcel_match_status":"DEFERRED_TO_LOCAL_OPENCODE"}},{"type":"Feature","id":"ons_csp23:E22000003","geometry":null,"properties":{"source_area_id":"E22000003","source_area_name":"North Somerset","source_area_kind":"community_safety_partnership_exact_identifier","source_window_id":"ons_csp23_buc_csv_preview_rows_1_4_2026-09-30","source_url":"https://www.data.gov.uk/dataset/bb60d0fd-2516-418b-96a8-c53092796971/community-safety-partnerships-december-2023-boundaries-ew-buc/datafile/4c675e0d-bcb0-4a6f-a5dd-0dba6250bce4/preview","data_date":"2023-12","license":"Dataset licence field not set; dataset states it contains Ordnance Survey and ONS intellectual property rights; data.gov.uk site content is OGL v3.0 except where otherwise stated.","source_record_ordinal":3,"evidence_type":"exact_identifier","evidence_slice_sha256":"b770148e162b776ba2bda719112478499b27666a1aba76c93236a2dea7a24cd7","confidence_score_0_100":99,"evidence_grade":"A_OFFICIAL_PRIMARY_PREVIEW","fake_data":false,"canonical_parcel_id":null,"parcel_match_status":"DEFERRED_TO_LOCAL_OPENCODE"}},{"type":"Feature","id":"ons_csp23:E22000006","geometry":null,"properties":{"source_area_id":"E22000006","source_area_name":"South Gloucestershire","source_area_kind":"community_safety_partnership_exact_identifier","source_window_id":"ons_csp23_buc_csv_preview_rows_1_4_2026-09-30","source_url":"https://www.data.gov.uk/dataset/bb60d0fd-2516-418b-96a8-c53092796971/community-safety-partnerships-december-2023-boundaries-ew-buc/datafile/4c675e0d-bcb0-4a6f-a5dd-0dba6250bce4/preview","data_date":"2023-12","license":"Dataset licence field not set; dataset states it contains Ordnance Survey and ONS intellectual property rights; data.gov.uk site content is OGL v3.0 except where otherwise stated.","source_record_ordinal":4,"evidence_type":"exact_identifier","evidence_slice_sha256":"b770148e162b776ba2bda719112478499b27666a1aba76c93236a2dea7a24cd7","confidence_score_0_100":99,"evidence_grade":"A_OFFICIAL_PRIMARY_PREVIEW","fake_data":false,"canonical_parcel_id":null,"parcel_match_status":"DEFERRED_TO_LOCAL_OPENCODE"}}],"metadata":{"slot_id":"security_public_safety_6","lineage_id":"SECPS6_20260930T003421Z_01","page_generation":1,"batch_id":"BATCH_20260930T200840Z_ONS_CSP23_PREVIEW4","source_window_id":"ons_csp23_buc_csv_preview_rows_1_4_2026-09-30","source_url":"https://www.data.gov.uk/dataset/bb60d0fd-2516-418b-96a8-c53092796971/community-safety-partnerships-december-2023-boundaries-ew-buc/datafile/4c675e0d-bcb0-4a6f-a5dd-0dba6250bce4/preview","final_url":"https://www.data.gov.uk/dataset/bb60d0fd-2516-418b-96a8-c53092796971/community-safety-partnerships-december-2023-boundaries-ew-buc/datafile/4c675e0d-bcb0-4a6f-a5dd-0dba6250bce4/preview","accessed_utc":"2026-09-30T20:08:40Z","data_date":"2023-12","license":"Dataset licence field not set; dataset states it contains Ordnance Survey and ONS intellectual property rights; data.gov.uk site content is OGL v3.0 except where otherwise stated.","evidence_slice_sha256":"b770148e162b776ba2bda719112478499b276666a1aba76c93236a2dea7a24cd7","new_source_records":4,"source_area_count_delta":4,"cumulative_source_area_count":22,"accepted_count":0,"duplicate_count":0,"rejected_count":0,"unmatched_count":0,"cursor":null,"window_complete":true,"dataset_complete":false,"local_spatial_join_required":true,"fake_data":false}}
