{
  "type": "FeatureCollection",
  "features": [
    {
      "type": "Feature",
      "id": "brownfield-site:BR112",
      "geometry": {
        "type": "MultiPolygon",
        "coordinates": [
          [
            [
              [
                -5.477819,
                50.215489
              ],
              [
                -5.47784,
                50.215519
              ],
              [
                -5.477689,
                50.215563
              ],
              [
                -5.477704,
                50.215582
              ],
              [
                -5.477679,
                50.21559
              ],
              [
                -5.477697,
                50.215615
              ],
              [
                -5.477916,
                50.215547
              ],
              [
                -5.477863,
                50.215478
              ],
              [
                -5.477819,
                50.215489
              ]
            ]
          ]
        ]
      },
      "properties": {
        "slot_id": "future_growth_2",
        "lineage_id": "d409404e-c2b6-4d79-b904-d05e944a949e",
        "page_generation": 4,
        "batch_id": "batch-20261008T065616Z_mhclg_cornwall_BR112_WKT",
        "schema": "AAYS_LAYER24_EVIDENCE_V1",
        "source_dataset": "brownfield-site",
        "source_provider": "MHCLG Planning Data / Cornwall Council",
        "source_exact_identifier": "brownfield-site:BR112",
        "category": "brownfield-site",
        "source_url": "https://www.planning.data.gov.uk/entity/1800050",
        "final_url": "https://www.planning.data.gov.uk/entity/1800050",
        "accessed_utc": "2026-10-08T06:56:16.312Z",
        "http_status": null,
        "data_date": "2023-10-16",
        "data_version": "entity:1800050; entry-date:2023-10-16",
        "license": "Open Government Licence v3.0",
        "source_file_sha256": "31596798ddba2a479d70ae80ef51d1ecb092bea48d1b175b16b3255a0ca384f7",
        "source_file_sha256_scope": "normalized_official_HTML_WKT_field_evidence_slice_NOT_raw_network_bytes",
        "evidence_slice_sha256": "31596798ddba2a479d70ae80ef51d1ecb092bea48d1b175b16b3255a0ca384f7",
        "field_evidence": {
          "entity": 1800050,
          "curie": "brownfield-site:BR112",
          "reference": "BR112",
          "name": "The Old Sail Lofts, Bethesda Hill, St Ives, Cornwall",
          "dataset": "brownfield-site",
          "organisation": "Cornwall Council",
          "organisation_entity": "local-authority:CON",
          "quality": "authoritative",
          "start_date": "2017-12-12",
          "entry_date": "2023-10-16",
          "point": "POINT (-5.477802 50.215552)",
          "notes": "CLEUD for material start",
          "geometry_source_field": "geometry",
          "geometry_type": "MultiPolygon",
          "geometry_wkt": "MULTIPOLYGON (((-5.477819 50.215489, -5.47784 50.215519, -5.477689 50.215563, -5.477704 50.215582, -5.477679 50.21559, -5.477697 50.215615, -5.477916 50.215547, -5.477863 50.215478, -5.477819 50.215489)))"
        },
        "confidence_score_0_100": 93,
        "evidence_grade": "B_OFFICIAL_HTML_WKT",
        "geometry_crs": "EPSG:4326",
        "direct_parcel": false,
        "canonical_join_status": "PENDING_LOCAL_SPATIAL_JOIN",
        "fake_data": false
      }
    }
  ]
}
