{"type":"FeatureCollection","name":"security_public_safety_1_batch_exact_identifiers","features":[{"type":"Feature","geometry":null,"properties":{"exact_identifier":"Abbey","coverage_area_name":"Abbey","exact_identifier_type":"met.police.uk.safer_neighbourhood_team.official_name"}},{"type":"Feature","geometry":null,"properties":{"exact_identifier":"Alibon","coverage_area_name":"Alibon","exact_identifier_type":"met.police.uk.safer_neighbourhood_team.official_name"}},{"type":"Feature","geometry":null,"properties":{"exact_identifier":"Barking Riverside","coverage_area_name":"Barking Riverside","exact_identifier_type":"met.police.uk.safer_neighbourhood_team.official_name"}},{"type":"Feature","geometry":null,"properties":{"exact_identifier":"Beam","coverage_area_name":"Beam","exact_identifier_type":"met.police.uk.safer_neighbourhood_team.official_name"}},{"type":"Feature","geometry":null,"properties":{"exact_identifier":"Becontree","coverage_area_name":"Becontree","exact_identifier_type":"met.police.uk.safer_neighbourhood_team.official_name"}},{"type":"Feature","geometry":null,"properties":{"exact_identifier":"Chadwell Heath","coverage_area_name":"Chadwell Heath","exact_identifier_type":"met.police.uk.safer_neighbourhood_team.official_name"}},{"type":"Feature","geometry":null,"properties":{"exact_identifier":"Eastbrook and Rush Green","coverage_area_name":"Eastbrook and Rush Green","exact_identifier_type":"met.police.uk.safer_neighbourhood_team.official_name"}},{"type":"Feature","geometry":null,"properties":{"exact_identifier":"Eastbury","coverage_area_name":"Eastbury","exact_identifier_type":"met.police.uk.safer_neighbourhood_team.official_name"}},{"type":"Feature","geometry":null,"properties":{"exact_identifier":"Gascoigne","coverage_area_name":"Gascoigne","exact_identifier_type":"met.police.uk.safer_neighbourhood_team.official_name"}},{"type":"Feature","geometry":null,"properties":{"exact_identifier":"Goresbrook","coverage_area_name":"Goresbrook","exact_identifier_type":"met.police.uk.safer_neighbourhood_team.official_name"}},{"type":"Feature","geometry":null,"properties":{"exact_identifier":"Heath","coverage_area_name":"Heath","exact_identifier_type":"met.police.uk.safer_neighbourhood_team.official_name"}},{"type":"Feature","geometry":null,"properties":{"exact_identifier":"Longbridge","coverage_area_name":"Longbridge","exact_identifier_type":"met.police.uk.safer_neighbourhood_team.official_name"}},{"type":"Feature","geometry":null,"properties":{"exact_identifier":"Mayesbrook","coverage_area_name":"Mayesbrook","exact_identifier_type":"met.police.uk.safer_neighbourhood_team.official_name"}},{"type":"Feature","geometry":null,"properties":{"exact_identifier":"Northbury","coverage_area_name":"Northbury","exact_identifier_type":"met.police.uk.safer_neighbourhood_team.official_name"}},{"type":"Feature","geometry":null,"properties":{"exact_identifier":"Parsloes","coverage_area_name":"Parsloes","exact_identifier_type":"met.police.uk.safer_neighbourhood_team.official_name"}},{"type":"Feature","geometry":null,"properties":{"exact_identifier":"Thames View","coverage_area_name":"Thames View","exact_identifier_type":"met.police.uk.safer_neighbourhood_team.official_name"}},{"type":"Feature","geometry":null,"properties":{"exact_identifier":"Valence","coverage_area_name":"Valence","exact_identifier_type":"met.police.uk.safer_neighbourhood_team.official_name"}},{"type":"Feature","geometry":null,"properties":{"exact_identifier":"Village","coverage_area_name":"Village","exact_identifier_type":"met.police.uk.safer_neighbourhood_team.official_name"}},{"type":"Feature","geometry":null,"properties":{"exact_identifier":"Whalebone","coverage_area_name":"Whalebone","exact_identifier_type":"met.police.uk.safer_neighbourhood_team.official_name"}}],"metadata":{"source_area_count":286,"source_area_delta_this_turn":19,"latest_evidence_window":"MET_POLICE_BARKING_DAGENHAM_SNT_CURRENT_20261006T050600Z","exact_blocker":"LOCAL_OPENCODE_EXACT_IDENTIFIER_TO_CANONICAL_SPATIAL_BINDING_REQUIRED","first_missing_criterion":"LOCAL_OPENCODE_EXACT_IDENTIFIER_TO_CANONICAL_SPATIAL_BINDING","prior_cumulative_records_sha":"04650a82d1d43b505437c78758d2cf92317a045e","record_scope":"CURRENT_BATCH_DELTA"}}
