{"type":"FeatureCollection","features":[{"type":"Feature","geometry":null,"properties":{"slot_id":"planned_buildings_1","lineage_id":"planned_buildings_1-0ffc4ebd6c6e4e41","semantic_mode":"DISTINCT_BUILDINGS","planned_building_id":"planning-application:2026/0410/FPA::REPLACEMENT_HOLIDAY_LET","building_status":"PLANNED","building_name":"Replacement holiday-let accommodation, Barton Cottage","planning_reference":"2026/0410/FPA","authority":"Westmorland & Furness Council","source_url":"https://planningregister.westmorlandandfurness.gov.uk/Planning/Display/2026/0410/FPA","final_url":"https://planningregister.westmorlandandfurness.gov.uk/Planning/Display/2026/0410/FPA","access_utc":"2026-10-04T05:35:13Z","source_data_date":"2026-03-31","license":"Open Government Licence v3.0","geometry_role":"official planning register exposes no machine-readable application point or building footprint in the retrieved record; geometry null; no geometry inferred","field_evidence":"Official Valid Full Application states proposed replacement of the existing garage with holiday let accommodation; status Officer Consideration and decision Pending.","identity_limitation":"The proposal identifies one replacement holiday-let accommodation structure replacing the existing garage; no additional distinct new building is inferred.","confidence_score_0_100":97,"evidence_grade":"A","fake_data":false}}]}