{"type":"FeatureCollection","features":[{"type":"Feature","geometry":null,"properties":{"slot_id":"future_growth_1","lineage_id":"future_growth_1-newstart-20260927T153100+0300","page_generation":null,"accepted_as_parcel":false,"source_area_count_contribution":1,"exact_identifier":"TR010062","exact_identifier_provided":true,"coverage_polygon_provided":false,"identifier_namespace":"Planning Inspectorate infrastructure project reference","site_name":"A66 Northern Trans-Pennine Project","access_utc":"2026-10-05T13:44:00Z","data_date":"2026-04-16","source_url":"https://www.planning.data.gov.uk/entity/11100000048","final_url":"https://www.planning.data.gov.uk/entity/11100000048","documentation_url":"https://infrastructure.planninginspectorate.gov.uk/projects/north-west/a66-northern-trans-pennine-project/","decision_url":"https://www.gov.uk/government/news/a66-northern-trans-pennine-project-development-consent-decision-announced","dco_url":"https://www.legislation.gov.uk/uksi/2024/360/article/4/2026-04-16","amendment_url":"https://www.legislation.gov.uk/uksi/2026/422/article/1/made","license":"Open Government Licence v3.0 / Crown copyright (official Planning Inspectorate, Planning Data and UK legislation sources)","authority":"Planning Inspectorate","planning_data_entity":11100000048,"infrastructure_project_type":"transport","development_consent_status":"granted","dco_reference":"S.I. 2024/360","amendment_reference":"S.I. 2026/422","planning_data_point":"POINT (-2.226897 54.524483)","evidence_grade":"A","confidence_score_0_100":99,"evidence_scope":"exact Planning Inspectorate TR010062 infrastructure-project identifier plus granted DCO and current 2026 amendment","evidence_slice_sha256":"30e2a26b24b57c2f5b3d2b21889950c4b473cebc10e6c5dca87a84aa1764b705","fake_data":false,"spatial_binding_method":"official TR010062 NSIP identifier plus statutory DCO/Order limits; exact boundary extraction, canonical parcel spatial join and materialization delegated to local OpenCode","planned_building_count_contribution":0}}]}
