{"type":"FeatureCollection","features":[{"type":"Feature","geometry":null,"properties":{"slot_id":"planned_buildings_1","lineage_id":"planned_buildings_1-0ffc4ebd6c6e4e41","semantic_mode":"DISTINCT_BUILDINGS","planned_building_id":"planning-application:RB2026/0443::SELF_BUILD_DWELLING","building_status":"PLANNED","building_name":"Detached two-storey 4-bedroom self-build dwelling, land rear of 140 Moor Lane South Ravenfield","planning_reference":"RB2026/0443","authority":"Rotherham Metropolitan Borough Council","source_url":"https://planning.rotherham.gov.uk/detail.asp?AltRef=RB2026%2F0443","final_url":"https://planning.rotherham.gov.uk/detail.asp?AltRef=RB2026%2F0443","access_utc":"2026-10-02T19:57:25Z","source_data_date":"2026-03-23","license":"Open Government Licence v3.0","geometry_role":"official planning page exposes no machine-readable point or building footprint; geometry null; no geometry inferred","field_evidence":"Official Registered/Valid application explicitly states construction of a detached two storey 4 bedroom self build dwelling; the official page states no decision.","identity_limitation":"Exactly one new dwelling explicitly stated by the source is counted; conversion of the existing outbuilding to annexe and gym is not counted as a new building.","confidence_score_0_100":98,"evidence_grade":"A","fake_data":false}}]}
