{"type":"FeatureCollection","features":[{"type":"Feature","geometry":null,"properties":{"slot_id":"future_growth_1","lineage_id":"future_growth_1-newstart-20260927T153100+0300","page_generation":null,"accepted_as_parcel":false,"source_area_count_contribution":1,"exact_identifier":"UKSI 2025/1151","exact_identifier_provided":true,"coverage_polygon_provided":false,"identifier_namespace":"UK Statutory Instrument","site_name":"Oxford Street Mayoral Development Area","access_utc":"2026-10-06T06:38:00Z","data_date":"2026-01-01","source_url":"https://www.legislation.gov.uk/uksi/2025/1151","final_url":"https://www.legislation.gov.uk/uksi/2025/1151","parliament_url":"https://statutoryinstruments.parliament.uk/instrument/Jt7mJeDG","license":"Open Government Licence v3.0 / Crown copyright (legislation.gov.uk)","authority":"Ministry of Housing, Communities and Local Government","instrument_title":"The Oxford Street Development Corporation (Establishment) Order 2025","made_date":"2025-11-03","coming_into_force":"2026-01-01","geographic_scope":"Oxford Street and surrounding areas in Camden and the City of Westminster","evidence_grade":"A","confidence_score_0_100":99,"evidence_scope":"official statutory instrument establishing the Oxford Street Development Corporation for the map-defined Mayoral development area","evidence_slice_sha256":"ae1f82fe81bfea20007cd3255932bf49eb80c1cb7283abd89bc3e68cd6b2b180","fake_data":false,"spatial_binding_method":"official statutory instrument identifier plus map-referenced designated area; exact boundary resolution, canonical parcel spatial join and materialization delegated to local OpenCode","planned_building_count_contribution":0}}]}