{"type":"FeatureCollection","features":[{"type":"Feature","geometry":null,"properties":{"evidence_scope":"authoritative_exact_identifier","coverage_area_id":"Southwark Plan 2022 NSP16: Conoco House, Quadrant House, Edward Edwards House and Suthring House","official_identifier":"NSP16","source_resolution":"exact adopted Southwark Plan 2022 site-allocation identifier captured from the official council plan PDF; polygon geometry was not captured by this retrieval path","source_url":"https://www.southwark.gov.uk/sites/default/files/2024-09/Southwark%20Plan%202022%20reduced%201.pdf","final_url":"https://www.southwark.gov.uk/sites/default/files/2024-09/Southwark%20Plan%202022%20reduced%201.pdf","access_utc":"2026-10-03T00:19:00Z","data_date":"2022-02-23","licence":"London Borough of Southwark publication; no explicit open reuse licence identified in the retrieved plan PDF/page","measurement_method":"official adopted Southwark Plan 2022 site-allocation PDF exact-identifier extraction","spatial_binding_method":"local OpenCode spatial/identifier binding against canonical parcel polygons; not performed here","confidence_score_0_100":100,"evidence_grade":"authoritative_exact_identifier","fake_data":false,"upstream_file_sha256":null,"upstream_file_sha256_reason":"raw upstream PDF bytes were not exposed by the available retrieval path; no hash invented","source_window_payload_sha256":"593eec50587be1f4e9a358ffea057bc28c6f9c38f7f4787ccde3877d28ff4b00","field_evidence":{"entry-date":"2022-02-23","start-date":"","end-date":"","entity":null,"name":"Conoco House, Quadrant House, Edward Edwards House and Suthring House","dataset":"southwark-plan-2022-site-allocation","typology":"geography","reference":"NSP16","prefix":"southwark-plan-2022-site-allocation","organisation-entity":"London Borough of Southwark","geometry":"","point":"","quality":"authoritative","plan":"Southwark Plan 2022","site-allocation-number":"NSP16","plan-status":"adopted","adoption-date":"2022-02-23","plan-period":"2019-2036","source-page":267}}}]}
