{"features":[{"geometry":null,"id":"cheshire:northwich:hartford-and-greenbank:2026-06:violence-and-sexual-offences","properties":{"accepted_as_parcel":false,"access_utc":"2026-10-04T21:57:00Z","canonical_binding":"LOCAL_OPENCODE_PENDING_NOT_CLAIMED","confidence_score_0_100":90,"data_date":"2026-06","direct_parcel":false,"duplicate":false,"evidence_grade":"A_OFFICIAL_FORCE_WEBSITE_AREA_LOCALIZED_STATISTIC","fake_data":false,"force_id":"cheshire","identifier":"hartford-and-greenbank:2026-06:violence-and-sexual-offences","identifier_field":"area_localized_top_crime_category","identifier_version":"Cheshire Constabulary visible top reported crimes","instances":19,"name":"Violence and sexual offences","parent_area":"Northwich","record_type":"SOURCE_AREA_LOCALIZED_STATISTIC","source_area_counted":true,"source_url":"https://www.cheshire.police.uk/area/your-area/cheshire/northwich/hartford-and-greenbank/about-us/top-reported-crimes-in-this-area","team":"Hartford and Greenbank"},"type":"Feature"},{"geometry":null,"id":"cheshire:northwich:hartford-and-greenbank:2026-06:public-order","properties":{"accepted_as_parcel":false,"access_utc":"2026-10-04T21:57:00Z","canonical_binding":"LOCAL_OPENCODE_PENDING_NOT_CLAIMED","confidence_score_0_100":90,"data_date":"2026-06","direct_parcel":false,"duplicate":false,"evidence_grade":"A_OFFICIAL_FORCE_WEBSITE_AREA_LOCALIZED_STATISTIC","fake_data":false,"force_id":"cheshire","identifier":"hartford-and-greenbank:2026-06:public-order","identifier_field":"area_localized_top_crime_category","identifier_version":"Cheshire Constabulary visible top reported crimes","instances":7,"name":"Public order","parent_area":"Northwich","record_type":"SOURCE_AREA_LOCALIZED_STATISTIC","source_area_counted":true,"source_url":"https://www.cheshire.police.uk/area/your-area/cheshire/northwich/hartford-and-greenbank/about-us/top-reported-crimes-in-this-area","team":"Hartford and Greenbank"},"type":"Feature"},{"geometry":null,"id":"cheshire:northwich:hartford-and-greenbank:2026-06:anti-social-behaviour","properties":{"accepted_as_parcel":false,"access_utc":"2026-10-04T21:57:00Z","canonical_binding":"LOCAL_OPENCODE_PENDING_NOT_CLAIMED","confidence_score_0_100":90,"data_date":"2026-06","direct_parcel":false,"duplicate":false,"evidence_grade":"A_OFFICIAL_FORCE_WEBSITE_AREA_LOCALIZED_STATISTIC","fake_data":false,"force_id":"cheshire","identifier":"hartford-and-greenbank:2026-06:anti-social-behaviour","identifier_field":"area_localized_top_crime_category","identifier_version":"Cheshire Constabulary visible top reported crimes","instances":4,"name":"Anti-social behaviour","parent_area":"Northwich","record_type":"SOURCE_AREA_LOCALIZED_STATISTIC","source_area_counted":true,"source_url":"https://www.cheshire.police.uk/area/your-area/cheshire/northwich/hartford-and-greenbank/about-us/top-reported-crimes-in-this-area","team":"Hartford and Greenbank"},"type":"Feature"},{"geometry":null,"id":"cheshire:northwich:hartford-and-greenbank:2026-06:criminal-damage-and-arson","properties":{"accepted_as_parcel":false,"access_utc":"2026-10-04T21:57:00Z","canonical_binding":"LOCAL_OPENCODE_PENDING_NOT_CLAIMED","confidence_score_0_100":90,"data_date":"2026-06","direct_parcel":false,"duplicate":false,"evidence_grade":"A_OFFICIAL_FORCE_WEBSITE_AREA_LOCALIZED_STATISTIC","fake_data":false,"force_id":"cheshire","identifier":"hartford-and-greenbank:2026-06:criminal-damage-and-arson","identifier_field":"area_localized_top_crime_category","identifier_version":"Cheshire Constabulary visible top reported crimes","instances":3,"name":"Criminal damage and arson","parent_area":"Northwich","record_type":"SOURCE_AREA_LOCALIZED_STATISTIC","source_area_counted":true,"source_url":"https://www.cheshire.police.uk/area/your-area/cheshire/northwich/hartford-and-greenbank/about-us/top-reported-crimes-in-this-area","team":"Hartford and Greenbank"},"type":"Feature"}],"name":"security_public_safety_3","properties":{"accepted_count":0,"batch_id":"20261004T215700Z-cheshire-hartford-greenbank-top-crimes-jun2026","fake_data":false,"lineage_id":"L24-SPS3-57442c9c2a0f429be2d2","page_generation":1,"partition":{"count":30761,"end":92283,"start":61523},"schema":"AAYS_LAYER24_EVIDENCE_V1","slot_id":"security_public_safety_3","source_area_count":4},"type":"FeatureCollection"}
