{"type":"FeatureCollection","name":"height_difference_5","metadata":{"slot_id":"height_difference_5","owner":"height_difference_5","lineage_id":"height_difference_5-eb56f92ed3f0514c","page_generation":1,"schema":"AAYS_LAYER24_EVIDENCE_V1","partition":"layer24","semantic_mode_state":"ABSENT_IN_PRIOR_PHYSICAL_STATE_PRESERVED_BY_OMISSION","batch_id":"20261007T080200Z_spatialni_data_supply_metadata_platform_crs_only","record_policy":"Official Spatial NI platform metadata standard evidence only; EPSG:29902 is not assigned to Belfast City 2006 without dataset-specific evidence.","fake_data":false},"features":[{"type":"Feature","geometry":null,"properties":{"slot_id":"height_difference_5","owner":"height_difference_5","lineage_id":"height_difference_5-eb56f92ed3f0514c","page_generation":1,"schema":"AAYS_LAYER24_EVIDENCE_V1","partition":"layer24","batch_id":"20261007T080200Z_spatialni_data_supply_metadata_platform_crs_only","source_record_id":"SPATIALNI:DATA_SUPPLY_METADATA_PDF:CRS","source_url":"https://support.spatialni.gov.uk/nima/DownloadDocs/Guidance/SpatialNI_Data_Supply_Metadata_Form.pdf","document_title":"Spatial NI Data Supply: Metadata","section":"Data Supply Spatial Reference System","access_utc":"2026-10-07T08:02:00Z","required_building_state":"BUILDING_PRESENT","binding_status":"LOCAL_OPENCODE_BUILDING_PRESENT_EXACT_TILE_BIND_REQUIRED","platform_crs_option":"Irish Grid (TM65) [EPSG:29902]","dataset_specific_crs":null,"exact_tile_identifier":null,"evidence_slice_sha256":"c8a35bc131d2832cc8d0117b46fe93a6e5013dbe53f32f79527402b5be2fcb16","accepted_count_contribution":0,"source_area_count_contribution":0,"fake_data":false}}]}
