{"type":"FeatureCollection","features":[{"type":"Feature","geometry":null,"properties":{"slot_id":"future_growth_1","lineage_id":"future_growth_1-newstart-20260927T153100+0300","page_generation":null,"accepted_as_parcel":false,"source_area_count_contribution":1,"exact_identifier":"PLAN/2026/0042","exact_identifier_provided":true,"coverage_polygon_provided":false,"identifier_namespace":"Woking Borough Council planning application reference","site_name":"Sutton Green Golf Club, New Lane, Sutton Green, Woking, Surrey, GU4 7QF","access_utc":"2026-10-06T02:58:00Z","data_date":"2026-02-19","source_url":"https://www.woking.gov.uk/your-council/have-your-say/public-notices/planning-application-sutton-green-golf-club-new-lane-sutton-green-woking","final_url":"https://www.woking.gov.uk/your-council/have-your-say/public-notices/planning-application-sutton-green-golf-club-new-lane-sutton-green-woking","policy_url":null,"ogc_feature_service_url":null,"feature_service_url":null,"license":"Woking Borough Council public planning notice; page-specific reuse licence not stated on the source page","authority":"Woking Borough Council","planning_application_type":"Outline planning application","maximum_c3_homes":650,"application_stage":"statutory public notice published after receipt of major development application","evidence_grade":"A","confidence_score_0_100":99,"evidence_scope":"exact Woking Borough Council planning reference PLAN/2026/0042 plus statutory major-development public notice dated 19 February 2026","evidence_slice_sha256":"c3b5782f946d65cbbe729686cab889cbddfc55000b04428a91433b50ef818cb3","fake_data":false,"spatial_binding_method":"official planning application reference PLAN/2026/0042; exact application boundary resolution, canonical parcel spatial join and materialization delegated to local OpenCode","planned_building_count_contribution":0}}]}