{"type":"FeatureCollection","name":"security_public_safety_6","features":[],"metadata":{"slot_id":"security_public_safety_6","lineage_id":"SECPS6_20260930T003421Z_01","page_generation":1,"batch_id":"BATCH_20261004T170151Z_ONS_CSP25_PREVIEW_NOT_AVAILABLE_BLOCKER","source_window_id":"ons_csp_dec2025_names_codes_csv_preview_not_available","source_url":"https://www.data.gov.uk/dataset/38dfd794-2483-45f2-ba1d-78fbe73d6184/community-safety-partnerships-december-2025-names-and-codes-in-ew/datafile/883739d7-0f0e-4c9b-a961-092ea245a148/preview","final_url":"https://www.data.gov.uk/dataset/38dfd794-2483-45f2-ba1d-78fbe73d6184/community-safety-partnerships-december-2025-names-and-codes-in-ew/datafile/883739d7-0f0e-4c9b-a961-092ea245a148/preview","dataset_url":"https://www.data.gov.uk/dataset/38dfd794-2483-45f2-ba1d-78fbe73d6184/community-safety-partnerships-december-2025-names-and-codes-in-ew","accessed_utc":"2026-10-04T17:01:51Z","data_date":"2025-12-31","license":"Dataset licence field: Not set; National Data Library site content is OGL v3.0 except where otherwise stated.","new_source_records":0,"source_area_count_delta":0,"cumulative_source_area_count":58,"accepted_count":0,"duplicate_count":0,"rejected_count":0,"unmatched_count":0,"materialized_parcel_count":0,"direct_parcel_count":0,"planned_building_count":0,"cursor":null,"window_complete":false,"dataset_complete":false,"exact_blocker":"ONS_CSP_DEC2025_NAMES_CODES_CSV_PREVIEW_NOT_AVAILABLE","local_spatial_join_required":true,"fake_data":false}}
