{
  "type": "FeatureCollection",
  "features": [
    {
      "type": "Feature",
      "id": "planning-data:brownfield-site:1800765",
      "properties": {
        "slot_id": "future_growth_4",
        "lineage_id": "fg4-e4c9076d6f554f00",
        "page_generation": 1,
        "owner": "future_growth_4",
        "partition": "future_growth",
        "semantic_mode": "SOURCE_AREA_EXACT_IDENTIFIER",
        "batch_id": "20261008T065827Z_b023_BROWNFIELD_1800765",
        "dataset": "brownfield-site",
        "entity": 1800765,
        "reference": "BLR56",
        "semantic_identity": "planning-data:brownfield-site:1800765",
        "name": "19 Howard Road SE20 8HQ",
        "organisation": "London Borough of Bromley",
        "source_url": "https://www.planning.data.gov.uk/entity/1800765",
        "final_url": "https://www.planning.data.gov.uk/entity/1800765",
        "http_status": "NOT_EXPOSED_BY_WEB_RETRIEVAL",
        "access_utc": "2026-10-08T06:58:27.572Z",
        "data_date": "2020-12-22",
        "license": "Open Government Licence v3.0",
        "field_evidence": {
          "entry-date": "2020-12-22",
          "start-date": "",
          "end-date": "",
          "entity": 1800765,
          "name": "19 Howard Road SE20 8HQ",
          "dataset": "brownfield-site",
          "typology": "geography",
          "reference": "BLR56",
          "prefix": "brownfield-site",
          "organisation-entity": "65",
          "geometry": "MULTIPOLYGON (((-0.055118 51.41208, -0.055081 51.412106, -0.055198 51.412168, -0.055321 51.412074, -0.055365 51.412098, -0.055547 51.411966, -0.055393 51.411882, -0.055118 51.41208)))",
          "point": "POINT (-0.055319 51.412024)",
          "quality": "some",
          "brownfield-site": "BLR56"
        },
        "evidence_slice_sha256": "ff70fd52e13edc1ab48d405328bd0933f947890c87779320bec2cd0ba9d91766",
        "geometry_sha256": "e5f2fb88bf10a51a2314d4236013102f5314453acec37caa60cdf9b395a89b5a",
        "confidence_score_0_100": 80,
        "confidence": 0.8,
        "evidence_grade": "B",
        "exact_identifier_provided": false,
        "coverage_polygon_provided": true,
        "fake_data": false,
        "join_mode": "LOCAL_OPENCODE_SPATIAL_JOIN_PENDING",
        "direct_parcel": false,
        "source_area_count_contribution": 1,
        "planned_building_count_contribution": 0
      },
      "geometry": {
        "type": "MultiPolygon",
        "coordinates": [
          [
            [
              [
                -0.055118,
                51.41208
              ],
              [
                -0.055081,
                51.412106
              ],
              [
                -0.055198,
                51.412168
              ],
              [
                -0.055321,
                51.412074
              ],
              [
                -0.055365,
                51.412098
              ],
              [
                -0.055547,
                51.411966
              ],
              [
                -0.055393,
                51.411882
              ],
              [
                -0.055118,
                51.41208
              ]
            ]
          ]
        ]
      }
    }
  ]
}
