{"type":"FeatureCollection","features":[{"type":"Feature","id":676231,"geometry":{"type":"MultiPolygon","coordinates":[[[[-73.724877576844,40.726626018403],[-73.724895875496,40.726522242819],[-73.724972415227,40.726530053913],[-73.724950840437,40.726652419089],[-73.724901188731,40.726647352152],[-73.724904466183,40.726628762577],[-73.724877576844,40.726626018403]]]]},"properties":{"source_id":"676231","building_type":"Building","building_present":true,"building_state":"BUILDING_PRESENT","DOITT_ID":"676231","BIN":"4167644","FEATURE_CODE":"2100","BASE_BBL":"4079910014","OBJECTID":166350,"construction_year":1930,"geom_source":"Photogrammetric","ground_elevation":88.0,"height_roof":28.71,"last_edited_date":"2017-08-22T18:58:40.000Z","last_status_type":"Constructed","mappluto_bbl":"4079910014","length":53.463152894929145,"evidence_grade":"A_OFFICIAL_CITY_BUILDING_FOOTPRINT_AND_TYPE"}}]}
