{"type":"FeatureCollection","features":[{"type":"Feature","id":"CHERWELL_26_01242_F_DETACHED_SINGLE_STOREY_OUTBUILDING_01","geometry":null,"properties":{"slot_id":"planned_buildings_4","owner":"planned_buildings_4","lineage_id":"pb4-8debc7c8ddf348a2","page_generation":1,"partition":"layer24","schema":"AAYS_LAYER24_EVIDENCE_V1","semantic_mode":"PLANNED_BUILDINGS_OFFICIAL_REFERENCE_DISTINCT_STRUCTURE","batch_id":"20261001T230700Z-cherwell-26-01242-f-window-001","publisher":"Cherwell District Council","source_family":"CHERWELL_PLANNING_REGISTER","source_url":"https://planningregister.cherwell.gov.uk/Planning/Display/26/01242/F","final_url":"https://planningregister.cherwell.gov.uk/Planning/Display/26/01242/F","access_utc":"2026-10-01T23:07:00Z","data_date":"2026-06-09","license":"Public planning register; document copyright/usage remains governed by council register terms","planning_reference":"26/01242/F","location":"66 Somerton Road Ardley Oxfordshire OX27 7NT","proposal":"Erection of detached single-storey outbuilding within the rear curtilage of the existing dwellinghouse for use as ancillary guest accommodation / holiday let","status":"Application Permitted","geometry_status":"NOT_MATERIALIZED_LOCAL_OPENCODE","field_evidence":"Official Cherwell District Council Planning Register application 26/01242/F. Status: Application Permitted. Valid date: 09/06/2026. Location: 66 Somerton Road Ardley Oxfordshire OX27 7NT. Proposal: Erection of detached single-storey outbuilding within the rear curtilage of the existing dwellinghouse for use as ancillary guest accommodation / holiday let. Decision: Permitted; Decision Issued Date: 04/08/2026. Official proposed drawings include 09 OUTBUILDING PROPOSED FLOOR PLAN.pdf (Proposed Floor Plan, drawing/rev 09 - 01), 11 OUTBUILDING PROPOSED ELEVATIONS.pdf (Proposed Elevations, drawing/rev 11 - 00), and 10 OUTBUILDING PROPOSED SECTION.pdf (Proposed Section, drawing/rev 10 - 01). One distinct structure is counted: the detached single-storey outbuilding. Geometry/materialization is deferred to local OpenCode.","evidence_slice_sha256":"d3a8b1e37e4473698a06494341cb724229267b38262d0a62ff34b126e3b46908","confidence":0.99,"evidence_grade":"A_OFFICIAL_LOCAL_AUTHORITY_PLANNING_REGISTER_DISTINCT_DETACHED_OUTBUILDING_PERMITTED","fake_data":false,"source_record_id":"CHERWELL_26_01242_F_DETACHED_SINGLE_STOREY_OUTBUILDING_01","planned_building":"detached single-storey outbuilding","official_plan_reference":"09 OUTBUILDING PROPOSED FLOOR PLAN.pdf","official_plan_description":"Proposed Floor Plan"}}]}
