{"type":"FeatureCollection","name":"height_difference_2","features":[],"metadata":{"slot_id":"height_difference_2","lineage_id":"height_difference_2_20260930T001051Z","page_generation":1,"partition":"source_area","schema":"AAYS_LAYER24_EVIDENCE_V1","fake_data":false,"owner":"cagdas aydin","batch_id":"batch_0106_post_batch0105_unique_source_dedupe_blocker_20261006T201800+0300","cursor":"BLOCKED_POST_BATCH0105_UNIQUE_SOURCE_DEDUPE_NO_HD2_CANONICAL_OR_TILE_BINDING","source_area_count":0,"accepted_count":0,"unmatched_count":1,"reason":"EXACT_BLOCKER: after repeated zero-acceptance rounds, the method was materially changed to a post-batch_0105 unique-source-window deduplication plus dependency-delta audit. From immutable batch_0105 commit 50da2348195f2855ddfdd7cb00d894f059017c54 through scan head 6965a4e94d72d23f75307af1b7611db42e73e9ac, no height_difference_2 slot-bound canonical parcel, materialization, or exact DEM/LIDAR tile-binding artifact was added. The only new relevant official public no-login producer window is building_type_7 batch_0110 GOV.UK API Catalogue NHLE metadata, but its URL/method fingerprint repeats the GOV.UK NHLE service-metadata window already consumed by height_difference_2 batch_0101 and therefore was not reprocessed. No admissible unused source window can be opened without violating the dedupe contract, and the family start criterion remains unsatisfied. Local OpenCode must publish a non-null height_difference_2 canonical_parcel_id with BUILDING_PRESENT plus parcel geometry/bbox, or an exact official DEM/LIDAR tile selector, before source acceptance."}}
