{"type":"FeatureCollection","features":[{"type":"Feature","geometry":null,"properties":{"slot_id":"future_growth_1","lineage_id":"future_growth_1-newstart-20260927T153100+0300","page_generation":null,"accepted_as_parcel":false,"source_area_count_contribution":1,"entity":1736999,"exact_identifier":"151","exact_identifier_provided":true,"coverage_polygon_provided":false,"identifier_namespace":"Dudley Brownfield Land Register reference","site_name":"Link House & Pioneer House, Birmingham Street, Halesowen","access_utc":"2026-10-04T00:47:00Z","data_date":"2025-11-11","source_url":"https://www.planning.data.gov.uk/entity/1736999","final_url":"https://www.planning.data.gov.uk/entity/1736999","geojson_url":"https://www.planning.data.gov.uk/entity/1736999.geojson","license":"Open Government Licence v3.0","authority":"Dudley Metropolitan Borough Council","quality":"authoritative","notes":"DLP H OS2","site_area_hectares":0.61,"deliverable":"yes","ownership_status":"not-owned-by-a-public-authority","minimum_net_dwellings":20,"maximum_net_dwellings":20,"planning_permission_status":"not-permissioned","planning_permission_history_url":"https://maps.dudley.gov.uk/MyCouncil.aspx","point_wkt":"POINT (-2.048265 52.449726)","evidence_grade":"A","confidence_score_0_100":99,"evidence_scope":"exact MHCLG Planning Data authoritative Dudley brownfield-land entity 1736999 / reference 151","evidence_slice_sha256":"8fa0d1400ad10a922a87b4c8169ffe8ba5035878e9faf7388bd96cfdceefb35f","fake_data":false,"spatial_binding_method":"official Planning Data entity 1736999 plus Dudley reference 151 and authoritative point; geographical-area resolution, canonical parcel spatial join and materialization delegated to local OpenCode","planned_building_count_contribution":0}}]}