{
  "type": "FeatureCollection",
  "features": [
    {
      "type": "Feature",
      "id": "brownfield-site:1801815:17140226",
      "geometry": {
        "type": "MultiPolygon",
        "coordinates": [
          [
            [
              [
                -0.114412,
                51.593508
              ],
              [
                -0.115061,
                51.593333
              ],
              [
                -0.114529,
                51.592533
              ],
              [
                -0.114496,
                51.592502
              ],
              [
                -0.114105,
                51.592614
              ],
              [
                -0.114248,
                51.592808
              ],
              [
                -0.114324,
                51.592792
              ],
              [
                -0.114448,
                51.593011
              ],
              [
                -0.11461,
                51.593241
              ],
              [
                -0.114317,
                51.593322
              ],
              [
                -0.114371,
                51.593405
              ],
              [
                -0.114412,
                51.593508
              ]
            ]
          ]
        ]
      },
      "properties": {
        "slot_id": "future_growth_7",
        "lineage_id": "future_growth_7_open_source_v2_20260813",
        "page_generation": null,
        "batch_id": "batch_20261009T105713Z_bfs1801815",
        "semantic_mode": "AREA_JOIN",
        "semantic_identity": "brownfield-site:1801815:17140226",
        "official_entity_id": 1801815,
        "official_reference": "17140226",
        "organisation": "London Borough of Haringey",
        "source_url": "https://www.planning.data.gov.uk/entity/1801815",
        "final_url": "https://www.planning.data.gov.uk/entity/1801815",
        "http_status": null,
        "http_status_evidence": "Official entity page accessible; direct GeoJSON download returned cache miss; status header not exposed",
        "accessed_utc": "2026-10-09T10:57:13Z",
        "data_date": "2020-12-22",
        "data_version": "official brownfield-site entity 2020-12-22",
        "licence": "Open Government Licence v3.0",
        "licence_url": "https://www.nationalarchives.gov.uk/doc/open-government-licence/version/3/",
        "dataset": "brownfield-site",
        "entity": 1801815,
        "reference": "17140226",
        "source_window": "brownfield-site:entity:1801815:entry-2020-12-22",
        "official_geojson_url": "https://www.planning.data.gov.uk/entity/1801815.geojson",
        "official_geojson_download_status": "cache miss; published official HTML WKT used",
        "source_sha256": "945570be26ec1c8e6bd207a028feb11a7448e809e4e201bbe52da4f7d52f83a6",
        "source_sha256_basis": "canonical official field_evidence JSON, not source HTML byte hash",
        "field_evidence": {
          "curie": "brownfield-site:17140226",
          "prefix": "brownfield-site",
          "reference": "17140226",
          "name": "NW of Clarendon Square",
          "dataset": "brownfield-site",
          "organisation-entity": "local-authority:HRY",
          "start-date": "",
          "end-date": "",
          "entry-date": "2020-12-22",
          "typology": "geography",
          "geometry": "MULTIPOLYGON (((-0.114412 51.593508, -0.115061 51.593333, -0.114529 51.592533, -0.114496 51.592502, -0.114105 51.592614, -0.114248 51.592808, -0.114324 51.592792, -0.114448 51.593011, -0.11461 51.593241, -0.114317 51.593322, -0.114371 51.593405, -0.114412 51.593508)))",
          "point": "POINT (-0.114588 51.593017)",
          "entity": 1801815,
          "quality": "some",
          "brownfield-site": "17140226"
        },
        "evidence_slice_sha256": "d0b1adcfd7f874653cfb8f139491a71085c2d475c8f0738a6f2306771570e0d8",
        "evidence_grade": "OFFICIAL_PUBLISHED_POLYGON_QUALITY_SOME",
        "confidence_score_0_100": 88,
        "official_geometry_available": true,
        "official_geometry_type": "MULTIPOLYGON",
        "source_geometry_materialized_here": true,
        "point_not_used_as_coverage": true,
        "source_area_only": true,
        "fake_data": false
      }
    }
  ]
}
