{"features":[],"metadata":{"batch_id":"batch_0003_20260930T191118Z","cursor":"EPSG:27700 bbox=285000,85000,305000,105000;resultOffset=0;limit=50","fake_data":false,"lineage_id":"BT7-e778d2c2-3425-46ea-a261-2494bfcbd18d","page_generation":1,"reason":"record-level real building-footprint Polygon/MultiPolygon geometry paired with an explicit official type/use field. Environment Agency AIMS provides official building-type taxonomy, but the retrieved official DRL states building asset types are represented in AIMS OM as centre points, and no <=50 feature payload proving true footprint polygons was obtained.","schema":"AAYS_LAYER24_EVIDENCE_V1","slot_id":"building_type_7","source_window_url":"https://environment.data.gov.uk/KB6uNVj5ZcJr7jUP/ArcGIS/rest/services/AIMSBuildingsCompounds/FeatureServer","status":"NO_ACCEPTED_RECORDS"},"name":"building_type_7","type":"FeatureCollection"}
