{"type":"FeatureCollection","name":"future_growth_4_brownfield_land_b005","features":[{"type":"Feature","id":"brownfield-land:BR00189","geometry":null,"properties":{"slot_id":"future_growth_4","lineage_id":"fg4-e4c9076d6f554f00","page_generation":1,"dataset":"brownfield-land","entity":1729394,"reference":"BR00189","name":"BR00189","entry_date":"2026-04-10","quality":"authoritative","organisation":"London Borough of Brent","point":"POINT (-0.247592 51.552974)","source_url":"https://www.planning.data.gov.uk/entity/1729394","final_url":"https://www.planning.data.gov.uk/entity/1729394","access_utc":"2026-10-01T01:30:00Z","data_date":"2026-04-10","license":"Open Government Licence v3.0","confidence_score_0_100":95,"evidence_grade":"A","fake_data":false,"join_mode":"LOCAL_OPENCODE_SPATIAL_JOIN_PENDING","direct_parcel":false}}]}