{
  "type": "FeatureCollection",
  "features": [
    {
      "type": "Feature",
      "id": "E06000004",
      "geometry": null,
      "properties": {
        "slot_id": "gas_emissions_3",
        "lineage_id": "aays-layer24-gas-emissions-3-1f4454fc-a618-4819-a518-7c3b4ce5b038",
        "page_generation": 6,
        "semantic_mode": "AREA_JOIN",
        "evidence_scope": "coverage_area_exact_identifier",
        "coverage_area_id": "E06000004",
        "coverage_area_name": "Stockton-on-Tees",
        "coverage_binding": "EXACT_OFFICIAL_IDENTIFIER",
        "identifier_authority": "Office for National Statistics",
        "indicator": "Greenhouse gas emissions",
        "indicator_measure": "tCO2e per capita",
        "indicator_time_range": "2005-2024",
        "indicator_source": "Department for Energy Security and Net Zero",
        "indicator_source_publication_date": "2026-06-25",
        "source_url": "https://www.ons.gov.uk/explore-local-statistics/areas/E06000004-stockton-on-tees/indicators",
        "final_url": "https://www.ons.gov.uk/explore-local-statistics/areas/E06000004-stockton-on-tees/indicators",
        "source_accessed_at_utc": "2026-09-30T18:26:00Z",
        "licence": "Open Government Licence v3.0",
        "source_slice_sha256": "208643f64d90e3e19a0f51e215fd7d3d31646254e0dac2bf23bab8d8063fd401",
        "field_evidence": {
          "coverage_area_id": "ONS area page title: Stockton-on-Tees (E06000004)",
          "coverage_area_name": "ONS area page title: Stockton-on-Tees",
          "indicator": "ONS area indicators Environment section: Greenhouse gas emissions, tCO2e per capita",
          "indicator_time_range": "ONS area indicators text: 2005 to 2024",
          "indicator_source": "ONS area indicators source: Department for Energy Security and Net Zero, 25/06/2026"
        },
        "confidence_score_0_100": 98,
        "evidence_grade": "A_OFFICIAL_EXACT_IDENTIFIER",
        "local_spatial_join_status": "PENDING_LOCAL_OPENCODE",
        "fake_data": false
      }
    }
  ]
}
