{"type":"FeatureCollection","name":"future_growth_6","features":[{"type":"Feature","id":"development-policy-area:local-authority-eng:BUC:LPHW18:2021-01-08","geometry":{"type":"MultiPolygon","coordinates":[[[[-0.752702,51.627069],[-0.751978,51.62697],[-0.751793,51.62686],[-0.75176,51.626742],[-0.751903,51.626554],[-0.752225,51.62626],[-0.752795,51.626547],[-0.752855,51.626811],[-0.752702,51.627069]]]]},"properties":{"semantic_identity":"development-policy-area:local-authority-eng:BUC:LPHW18:2021-01-08","source_area_id":"LPHW18","source_area_type":"adopted_local_plan_non_residential_mixed_use_allocation","name":"Office Outlet site","allocated_use":"Mixed office and retail (A1 retail ground floor, B1 offices upper storeys)","policy":"HW18","organisation":"local-authority-eng:BUC","source_url":"https://github.com/digital-land/development-policy-area/blob/111f7b992aa0c7efe39611b4003607141631a4f2/docs/local-authority-eng/BUC/LPHW18/geometry.geojson","source_final_url":"https://raw.githubusercontent.com/digital-land/development-policy-area/111f7b992aa0c7efe39611b4003607141631a4f2/docs/local-authority-eng/BUC/LPHW18/geometry.geojson","http_status":200,"source_data_date":"2021-01-08","plan_adopted_date":"2019-08","source_version":"git-blob:d638ef105c2ce16ce7af9bce7d7278e82609b2e0","licence":"Open Government Licence v3.0 (Digital Land repository default, subject to individual dataset rights)","source_sha256":"4c6e9c38f985a8ecdf95021afec1e527637e4b9e0ce9f04d9b5b21beb6062818","evidence_slice_sha256":"b6be4fc8f4b8e0bf2873e5e9212dcb97912a276e01e98f9c39e59d80aeb6ef6e","field_evidence":{"geometry":"docs/local-authority-eng/BUC/LPHW18/geometry.geojson:geometry","identifier":"docs/local-authority-eng/BUC/LPHW18/geometry.geojson:properties.geography","name":"docs/local-authority-eng/BUC/LPHW18/geometry.geojson:properties.name","entry_date":"docs/local-authority-eng/BUC/LPHW18/geometry.geojson:properties.entry-date","land_use":"https://media.buckinghamshire.gov.uk/documents/Wycombe-District-Local-Plan-Adopted-August-2019-accessible.pdf#Policy-HW18","adopted_local_plan":"https://media.buckinghamshire.gov.uk/documents/Wycombe-District-Local-Plan-Adopted-August-2019-accessible.pdf"},"confidence":0.98,"evidence_grade":"A_OFFICIAL_GIS_AND_ADOPTED_PLAN_POLICY","fake_data":false}}],"properties":{"state":"SOURCE_AREAS_PRODUCED_LOCAL_BINDING_PENDING","source_area_count":85,"source_area_count_delta":1,"accepted_count":0,"duplicate_count":0,"rejected_count":0,"unmatched_count":13,"materialized_parcel_count":0,"direct_parcel_count":0,"verified_no_building_count":0,"unprocessed_count":13,"planned_building_count":0,"producer_before_count":84,"producer_delta":1,"producer_after_count":85,"cursor":"OFFICIAL_BUCKINGHAMSHIRE_WYCOMBE:HW18:GITBLOB:d638ef105c2ce16ce7af9bce7d7278e82609b2e0","first_missing_criterion":"LOCAL_CANONICAL_PARCEL_IDENTIFIER_BINDING_MATERIALIZATION","fake_data":false}}
