{"type":"FeatureCollection","name":"building_type_9_batch_0022","features":[{"type":"Feature","id":"42175309","geometry":{"type":"MultiPolygon","coordinates":[[[[-3.007321,53.647751],[-3.007147,53.64764],[-3.007039,53.6477],[-3.00746,53.647967],[-3.007568,53.647909],[-3.007321,53.647751]]]]},"properties":{"slot_id":"building_type_9","lineage_id":"building_type_9-20261001T200900Z-newstart","batch_id":"batch-0022","page_generation":1,"source_entity":42175309,"source_reference":"121","source_dataset":"listed-building-outline","source_organisation":"Sefton Metropolitan Borough Council","building_evidence_status":"BUILDING_PRESENT","parcel_status":"UNPROCESSED","canonical_parcel_id":null,"building_type":"listed_building","building_use":"bank","poi_accepted":false,"field_evidence":{"footprint":"official listed-building-outline MULTIPOLYGON","type":"official dataset classification: listed-building-outline","name":"253 National Westminster Bank, Lord Street, Southport ,","reference":"121","use":"explicit in official entity name: bank"},"source_url":"https://www.planning.data.gov.uk/entity/42175309","final_url":"https://www.planning.data.gov.uk/entity/42175309","access_utc":"2026-10-05T05:33:54Z","data_date":"2025-08-20","licence":"Open Government Licence v3.0","evidence_slice_sha256":"61ca3cade6a8477e00709413474cef60f325a43e562dc30927ba09939b183961","confidence_score_0_100":96,"evidence_grade":"A","fake_data":false,"local_spatial_join_required":true}},{"type":"Feature","id":"42175351","geometry":{"type":"MultiPolygon","coordinates":[[[[-3.00212,53.650748],[-3.001825,53.650562],[-3.001423,53.650785],[-3.001825,53.651042],[-3.001852,53.651026],[-3.002024,53.651135],[-3.002403,53.650924],[-3.002412,53.65093],[-3.002601,53.650825],[-3.002513,53.65077],[-3.002498,53.650778],[-3.002487,53.650772],[-3.002475,53.650746],[-3.002316,53.650645],[-3.002274,53.65065],[-3.002281,53.650665],[-3.002242,53.650676],[-3.002247,53.650682],[-3.00212,53.650748]]]]},"properties":{"slot_id":"building_type_9","lineage_id":"building_type_9-20261001T200900Z-newstart","batch_id":"batch-0022","page_generation":1,"source_entity":42175351,"source_reference":"146","source_dataset":"listed-building-outline","source_organisation":"Sefton Metropolitan Borough Council","building_evidence_status":"BUILDING_PRESENT","parcel_status":"UNPROCESSED","canonical_parcel_id":null,"building_type":"listed_building","building_use":null,"poi_accepted":false,"field_evidence":{"footprint":"official listed-building-outline MULTIPOLYGON","type":"official dataset classification: listed-building-outline","name":"535-563 (Odd) Debenhams, With Attached Verandah, Lord Street, Southport ,","reference":"146","use":"no use inferred"},"source_url":"https://www.planning.data.gov.uk/entity/42175351","final_url":"https://www.planning.data.gov.uk/entity/42175351","access_utc":"2026-10-05T05:33:54Z","data_date":"2025-08-20","licence":"Open Government Licence v3.0","evidence_slice_sha256":"6cde862666a1151583ed4ce015d16a8ca28236cee808a95b01779364f49ed9f7","confidence_score_0_100":94,"evidence_grade":"A","fake_data":false,"local_spatial_join_required":true}}]}