{"features":[{"geometry":null,"id":"cheshire:ellesmere-port:little-neston-and-burton","properties":{"accepted_as_parcel":false,"access_utc":"2026-10-05T05:42:00Z","canonical_binding":"LOCAL_OPENCODE_PENDING_NOT_CLAIMED","canonical_url":"https://www.cheshire.police.uk/area/your-area/cheshire/ellesmere-port/little-neston-and-burton/","confidence_score_0_100":100,"data_date":"2026-10-05 access snapshot","direct_parcel":false,"duplicate":false,"evidence_grade":"A_OFFICIAL_FORCE_WEBSITE_EXACT_AREA_SLUG","fake_data":false,"force_id":"cheshire","identifier":"little-neston-and-burton","identifier_field":"canonical_team_slug","identifier_version":"Cheshire Constabulary Ellesmere Port team URL slug","name":"Little Neston and Burton","parent_area":"Ellesmere Port","record_type":"SOURCE_AREA_EXACT_IDENTIFIER","source_area_counted":true,"source_url":"https://www.cheshire.police.uk/area/your-area/cheshire/ellesmere-port/"},"type":"Feature"},{"geometry":null,"id":"cheshire:ellesmere-port:strawberry-ledsham-and-manor","properties":{"accepted_as_parcel":false,"access_utc":"2026-10-05T05:42:00Z","canonical_binding":"LOCAL_OPENCODE_PENDING_NOT_CLAIMED","canonical_url":"https://www.cheshire.police.uk/area/your-area/cheshire/ellesmere-port/strawberry-ledsham-and-manor/","confidence_score_0_100":100,"data_date":"2026-10-05 access snapshot","direct_parcel":false,"duplicate":false,"evidence_grade":"A_OFFICIAL_FORCE_WEBSITE_EXACT_AREA_SLUG","fake_data":false,"force_id":"cheshire","identifier":"strawberry-ledsham-and-manor","identifier_field":"canonical_team_slug","identifier_version":"Cheshire Constabulary Ellesmere Port team URL slug","name":"Strawberry, Ledsham and Manor","parent_area":"Ellesmere Port","record_type":"SOURCE_AREA_EXACT_IDENTIFIER","source_area_counted":true,"source_url":"https://www.cheshire.police.uk/area/your-area/cheshire/ellesmere-port/"},"type":"Feature"},{"geometry":null,"id":"cheshire:ellesmere-port:willaston-thornton-and-netherpool","properties":{"accepted_as_parcel":false,"access_utc":"2026-10-05T05:42:00Z","canonical_binding":"LOCAL_OPENCODE_PENDING_NOT_CLAIMED","canonical_url":"https://www.cheshire.police.uk/area/your-area/cheshire/ellesmere-port/willaston-thornton-and-netherpool/","confidence_score_0_100":100,"data_date":"2026-10-05 access snapshot","direct_parcel":false,"duplicate":false,"evidence_grade":"A_OFFICIAL_FORCE_WEBSITE_EXACT_AREA_SLUG","fake_data":false,"force_id":"cheshire","identifier":"willaston-thornton-and-netherpool","identifier_field":"canonical_team_slug","identifier_version":"Cheshire Constabulary Ellesmere Port team URL slug","name":"Willaston, Thornton and Netherpool","parent_area":"Ellesmere Port","record_type":"SOURCE_AREA_EXACT_IDENTIFIER","source_area_counted":true,"source_url":"https://www.cheshire.police.uk/area/your-area/cheshire/ellesmere-port/"},"type":"Feature"}],"name":"security_public_safety_3","properties":{"accepted_count":0,"batch_id":"20261005T054200Z-cheshire-ellesmere-port-snt-slugs-007-009","fake_data":false,"lineage_id":"L24-SPS3-57442c9c2a0f429be2d2","page_generation":1,"partition":{"count":30761,"end":92283,"start":61523},"schema":"AAYS_LAYER24_EVIDENCE_V1","slot_id":"security_public_safety_3","source_area_count":3},"type":"FeatureCollection"}
