{"type":"FeatureCollection","features":[{"type":"Feature","geometry":null,"properties":{"slot_id":"future_growth_7","lineage_id":"future_growth_7_open_source_v2_20260813","page_generation":null,"batch_id":"batch_20261002T030200Z_lpb4211061","official_entity_id":4211061,"official_reference":"E60000189","dataset":"local-plan-boundary","organisation":"City of London Corporation","source_url":"https://www.planning.data.gov.uk/entity/4211061","final_url":"https://www.planning.data.gov.uk/entity/4211061","geojson_download_url":"https://www.planning.data.gov.uk/entity/4211061.geojson","accessed_utc":"2026-10-02T03:02:00Z","data_date":"2026-03-18","licence":"Open Government Licence v3.0","source_sha256":"1b01ce1c5fc2d06aae490b652c4605c2256607e058bc2005b377c25f1967475b","source_sha256_basis":"canonical_official_field_evidence_json","field_evidence":{"entry-date":"2026-03-18","start-date":"","end-date":"","entity":4211061,"name":"City of London Corporation","dataset":"local-plan-boundary","typology":"geography","reference":"E60000189","prefix":"local-plan-boundary","organisation-entity":600001,"geometry":"MULTIPOLYGON rendered directly on official entity page; full official coverage geometry present.","point":"POINT (-0.092419 51.514413)","quality":"authoritative","organisations":"local-authority:LND","local-planning-authorities":"E60000189","organisation-curie":"government-organisation:D1342"},"evidence_slice_sha256":"5716860ebbc51caac83f147b08aa10fd15949abee5e72a8e33da3c891765bb27","evidence_grade":"A_EXACT_OFFICIAL_IDENTIFIER","confidence_score_0_100":99,"official_geometry_available":true,"official_geometry_type":"MULTIPOLYGON","official_geometry_rendered_directly":true,"point_not_used_as_coverage":true,"fake_data":false}}]}
