{"type":"FeatureCollection","metadata":{"slot_id":"security_public_safety_1","lineage_id":null,"page_generation":null,"source_area_count":215,"source_area_delta_this_turn":1,"batch_record_count":1,"latest_evidence_window":"EA_FLOOD_AREA_064WAT1THAMESEST_20261005T080500Z","latest_status":"1_NEW_OFFICIAL_EXACT_IDENTIFIER_ACCEPTED","exact_blocker":"LOCAL_OPENCODE_EXACT_IDENTIFIER_TO_CANONICAL_SPATIAL_BINDING_REQUIRED","first_missing_criterion":"LOCAL_OPENCODE_EXACT_IDENTIFIER_TO_CANONICAL_SPATIAL_BINDING","record_scope":"BATCH_LOCAL_DELTA_WITH_CUMULATIVE_COUNTERS"},"features":[{"type":"Feature","geometry":null,"properties":{"slot_id":"security_public_safety_1","evidence_scope":"coverage_exact_identifier","coverage_area_id":"064WAT1ThamesEst","exact_identifier":"064WAT1ThamesEst","exact_identifier_type":"environment.data.gov.uk.flood_area.fwd_code","coverage_area_name":"Coast from Dartford to Allhallows","source_url":"http://environment.data.gov.uk/flood-monitoring/id/floodAreas/064WAT1ThamesEst","final_url":"https://environment.data.gov.uk/flood-monitoring/id/floodAreas/064WAT1ThamesEst.html","access_utc":"2026-10-05T07:57:00Z","data_date":"2026-10-05","data_date_basis":"Current official flood-monitoring record observed on access date","license":"Open Government Licence v3.0","file_sha256":"adc81cbd40f611240b7ef071ddb3b9eee97d5b63ac8520ffe5130772e24541ae","file_sha256_scope":"normalized one official flood-area record; not raw HTML/JSON bytes","evidence_slice_sha256":"adc81cbd40f611240b7ef071ddb3b9eee97d5b63ac8520ffe5130772e24541ae","field_evidence":{"publisher":"Environment Agency / Department for Environment, Food & Rural Affairs","title":"Coast from Dartford to Allhallows","fwd_code":"064WAT1ThamesEst","notation":"064WAT1ThamesEst","county":"Bexley, Greater London, Kent, Medway","description":"Areas at risk of tidal flooding from Dartford to Allhallows, including Crayford, Greenhithe, Northfleet, Gravesend and the North Kent Marshes","ea_area_name":"Kent S London and E Sussex","river_or_sea":"River Thames","type":["flood alert area","flood area"],"polygon_link_present":true,"lat":51.4624,"long":0.50315,"envelope":{"lower_corner":{"x":551507.0,"y":172437.0},"upper_corner":{"x":586862.0,"y":179544.0}}},"confidence_score_0_100":100,"evidence_grade":"A_OFFICIAL_EXACT_IDENTIFIER","fake_data":false,"spatial_binding_method":"DEFERRED_TO_LOCAL_OPENCODE","canonical_parcel_id":null,"materialized_parcel_count":0,"direct_parcel_count":0}}]}
