{"type":"FeatureCollection","features":[{"type":"Feature","id":"planned_buildings_2-planning-data-brownfield-1739907","geometry":null,"properties":{"slot_id":"planned_buildings_2","source_index":7,"source_window_index":0,"entity":1739907,"reference":"BR100","canonical_record_key":"planning-data:brownfield-land:1739907","planned_project_name":"197 Darkes Lane, Potters Bar, EN6 1BW","planned_project_type":"brownfield_land_register_site","planned_project_status":"Awaiting Decision","borough":"Hertsmere Borough Council","official_hectares":0.134158,"parcel_id":null,"planned_building_value":null,"planned_building_probability":null,"planned_building_complete_month":null,"matching_method":"direct_official_brownfield_entity_no_parcel_match","source_url":"https://www.planning.data.gov.uk/entity/1739907","source_quality":"authoritative","source_license":"Open Government Licence v3.0","fake_data":false,"demo_only":true,"final_ready":false,"production_merge":false}}],"metadata":{"slot_id":"planned_buildings_2","batch_index":117,"source_index":7,"source_window":{"resource_index":0,"limit":1},"feature_count_before":470,"feature_count_after":471,"unique_real_site_project_before":311,"unique_real_site_project_after":312,"duplicate_count_new":0,"nearest_match_used":false,"parcel_match_used":false,"fake_data":false,"mirror_only":true}}