{"type":"FeatureCollection","features":[{"type":"Feature","id":"planned_buildings_2-planning-data-brownfield-1731039","geometry":null,"properties":{"entity":1731039,"reference":"BR102","canonical_record_key":"planning-data:brownfield-land:1731039","planned_project_name":"Nobel House, Nobel House, Capital Drive, Linford Wood","planned_project_status":"permissioned","borough":"Milton Keynes City Council","official_residential_units_from_notes":38,"planned_building_value":null,"planned_building_probability":null,"planned_building_complete_month":null,"source_url":"https://www.planning.data.gov.uk/entity/1731039","source_quality":"authoritative","fake_data":false}}],"metadata":{"slot_id":"planned_buildings_2","batch_index":119,"source_index":7,"source_window":{"resource_index":2,"limit":1},"feature_count_before":472,"feature_count_after":473,"unique_real_site_project_before":313,"unique_real_site_project_after":314,"duplicate_count_new":0,"nearest_match_used":false,"parcel_match_used":false,"mirror_only":true}}