{"type":"FeatureCollection","features":[{"type":"Feature","id":"planned_buildings_2-planning-data-brownfield-1731046","geometry":null,"properties":{"entity":1731046,"reference":"BR110","canonical_record_key":"planning-data:brownfield-land:1731046","planned_project_name":"5A Station Road, Bow Brickhill","planned_project_status":"permissioned","source_url":"https://www.planning.data.gov.uk/entity/1731046","fake_data":false}}],"metadata":{"slot_id":"planned_buildings_2","batch_index":125,"source_index":7,"source_window":{"resource_index":8,"limit":1},"feature_count_before":478,"feature_count_after":479,"unique_real_site_project_before":319,"unique_real_site_project_after":320,"duplicate_count_new":0,"nearest_match_used":false,"parcel_match_used":false,"mirror_only":true}}