{"type":"FeatureCollection","features":[{"type":"Feature","id":"planned_buildings_2-planning-data-brownfield-1739907","geometry":null,"properties":{"entity":1739907,"reference":"BR100","canonical_record_key":"planning-data:brownfield-land:1739907","planned_project_name":"197 Darkes Lane, Potters Bar, EN6 1BW","fake_data":false}},{"type":"Feature","id":"planned_buildings_2-planning-data-brownfield-1731038","geometry":null,"properties":{"entity":1731038,"reference":"BR101","canonical_record_key":"planning-data:brownfield-land:1731038","planned_project_name":"Cripps Lodge, Cripps Lodge, Broadlands, Netherfield","fake_data":false}},{"type":"Feature","id":"planned_buildings_2-planning-data-brownfield-1731039","geometry":null,"properties":{"entity":1731039,"reference":"BR102","canonical_record_key":"planning-data:brownfield-land:1731039","planned_project_name":"Nobel House, Nobel House, Capital Drive, Linford Wood","fake_data":false}},{"type":"Feature","id":"planned_buildings_2-planning-data-brownfield-1731040","geometry":null,"properties":{"entity":1731040,"reference":"BR103","canonical_record_key":"planning-data:brownfield-land:1731040","planned_project_name":"Silbury Court, Silbury Boulevard, Central Milton Keynes","fake_data":false}},{"type":"Feature","id":"planned_buildings_2-planning-data-brownfield-1731041","geometry":null,"properties":{"entity":1731041,"reference":"BR104","canonical_record_key":"planning-data:brownfield-land:1731041","planned_project_name":"Westminster House, Westminster House, Avebury Boulevard, Central Milton Keynes","fake_data":false}},{"type":"Feature","id":"planned_buildings_2-planning-data-brownfield-1731043","geometry":null,"properties":{"entity":1731043,"reference":"BR107","canonical_record_key":"planning-data:brownfield-land:1731043","planned_project_name":"Technology House, Technology House, Silbury Boulevard, Central Milton Keynes","fake_data":false}},{"type":"Feature","id":"planned_buildings_2-planning-data-brownfield-1731044","geometry":null,"properties":{"entity":1731044,"reference":"BR108","canonical_record_key":"planning-data:brownfield-land:1731044","planned_project_name":"Northgate House, Northgate House, Silbury Boulevard, Central Milton Keynes","fake_data":false}},{"type":"Feature","id":"planned_buildings_2-planning-data-brownfield-1731045","geometry":null,"properties":{"entity":1731045,"reference":"BR109","canonical_record_key":"planning-data:brownfield-land:1731045","planned_project_name":"MK Gateway, MK Gateway, Saxon Court, Avebury Boulevard, Central Milton Keynes","fake_data":false}},{"type":"Feature","id":"planned_buildings_2-planning-data-brownfield-1731046","geometry":null,"properties":{"entity":1731046,"reference":"BR110","canonical_record_key":"planning-data:brownfield-land:1731046","planned_project_name":"5A Station Road, Bow Brickhill","fake_data":false}},{"type":"Feature","id":"planned_buildings_2-planning-data-brownfield-1731047","geometry":null,"properties":{"entity":1731047,"reference":"16/P1208","canonical_record_key":"planning-data:brownfield-land:1731047","planned_project_name":"579-589 Kingston Road, Raynes Park, SW20 8SD","fake_data":false}},{"type":"Feature","id":"planned_buildings_2-planning-data-brownfield-1739447","geometry":null,"properties":{"entity":1739447,"reference":"BR113","canonical_record_key":"planning-data:brownfield-land:1739447","planned_project_name":"143-145 Queensway, 143-145 Queensway, Bletchley","fake_data":false}}],"metadata":{"schema_version":1,"slot_id":"planned_buildings_2","continuation_key":"planned_buildings_2_open_source_v2_20260813","run_id":"20260818T054900Z","batch_indices":[116,117,118,119,120,121,122,123,124,125,126,127],"source_6_processed_window_indices":[11],"source_6_zero_result_windows":[11],"source_6_queue_exhausted":true,"source_7_processed_window_indices":[0,1,2,3,4,5,6,7,8,9,10],"source_7_added_window_indices":[0,1,2,3,4,5,6,7,8,9,10],"logical_feature_count_before":470,"features_added":11,"logical_feature_count_after":481,"unique_real_site_project_before":311,"unique_real_site_project_added":11,"unique_real_site_project_after":322,"duplicate_count_new":0,"duplicate_features_written":0,"reprocessed_window_count":0,"nearest_match_used":false,"parcel_match_used":false,"geometry_inference_used":false,"planned_building_value_write_count":0,"planned_building_probability_write_count":0,"planned_building_complete_month_write_count":0,"next_source_index":7,"next_source_family":"planning_data_brownfield_land","next_source_window_index":11,"next_batch_index":128,"canonical_latest_overwritten":false,"mirror_only":true,"demo_only":true,"fake_data":false,"final_ready":false,"production_merge":false}}