{"type":"FeatureCollection","features":[{"type":"Feature","id":"planning-data:brownfield-site:WBR/17/0114","geometry":{"type":"MultiPolygon","coordinates":[[[[-0.178213,51.451582],[-0.179462,51.450254],[-0.17919,51.450156],[-0.178321,51.451038],[-0.178349,51.451078],[-0.178343,51.45113],[-0.178279,51.451315],[-0.178231,51.451386],[-0.178118,51.451449],[-0.177928,51.451513],[-0.177735,51.4516],[-0.177395,51.451769],[-0.177449,51.451808],[-0.17814,51.451488],[-0.178213,51.451582]]]]},"properties":{"semantic_identity":"planning-data:brownfield-site:WBR/17/0114","source_area_id":"planning-data:brownfield-site:WBR/17/0114","source_area_type":"brownfield-site","source_reference":"WBR/17/0114","source_entity":1801883,"source_name":"Land at (west of HM Prison) Heathfield Square","source_dataset":"brownfield-site","organisation":"London Borough of Wandsworth","organisation_entity":"local-authority:WND","data_date":"2020-12-22","entry_date":"2020-12-22","source_url":"https://www.planning.data.gov.uk/entity/1801883","final_url":"https://www.planning.data.gov.uk/entity/1801883","source_geometry_wkt_sha256":"07209ebf015730ce812d4b572d006b2d2b779ec997d8ba393afc09653242cc45","evidence_slice_sha256":"35dff7f101a5b98c1ce003670d93f822d8774542652ccf8cb12465a2a1ab1ec4","license":"Open Government Licence v3.0","evidence_grade":"B","confidence":0.78,"source_quality":"some","semantic_mode":"AREA_JOIN","canonical_binding_status":"NOT_ATTEMPTED_LOCAL_OPENCODE","fake_data":false}}]}
