{"type":"FeatureCollection","features":[{"type":"Feature","geometry":null,"properties":{"slot_id":"future_growth_1","lineage_id":"future_growth_1-newstart-20260927T153100+0300","page_generation":null,"accepted_as_parcel":false,"source_area_count_contribution":1,"exact_identifier":"PA1","exact_identifier_provided":true,"coverage_polygon_provided":false,"identifier_namespace":"Nottingham City Local Plan Part 2 Policy SA1 site allocation reference","site_name":"Bestwood Road - Former Bestwood Day Centre","access_utc":"2026-10-01T23:51:57Z","data_date":"2020-01-13","source_url":"https://maps164.nottinghamcity.gov.uk/server/rest/services/OpenData/OpenData/MapServer/62","final_url":"https://maps164.nottinghamcity.gov.uk/server/rest/services/OpenData/OpenData/MapServer/62","adopted_plan_url":"https://nottinghamcity.gov.uk/information-for-business/planning-and-building-control/planning-policy/the-local-plan-and-planning-policy/the-adopted-local-plan/","adopted_pdf_url":"https://www.nottinghamcity.gov.uk/media/irchyjrl/land-and-planning-policies-document-lapp-2020.pdf","license":"Open Government Licence","authority":"Nottingham City Council","policy":"SA1","ward":"Bulwell","development_type":"residential site allocation","feature_layer_id":62,"feature_layer_name":"Local Plan Site Allocations 2020","source_geometry_type":"esriGeometryPolygon","source_spatial_reference":27700,"source_extent_bng":{"xmin":451593.32409999985,"ymin":332974.9625000004,"xmax":459227.3700000001,"ymax":347089.80000000075},"evidence_grade":"A","confidence_score_0_100":99,"evidence_scope":"exact adopted-policy site identifier plus official native council polygon MapServer layer metadata","evidence_slice_sha256":"cc08db85c19927778b6ed471678c7a4d7c6723135fff5c0d47b56d63a422110e","fake_data":false,"spatial_binding_method":"official Nottingham City Council native polygon MapServer layer 62 plus exact adopted LAPP SA1/PA1 identifier; feature extraction, canonical parcel spatial join and materialization delegated to local OpenCode","planned_building_count_contribution":0}}]}