{"type":"FeatureCollection","features":[{"type":"Feature","id":"middlesbrough-brownfield:BR100","geometry":null,"properties":{"slot_id":"future_growth_4","lineage_id":"fg4-e4c9076d6f554f00","page_generation":1,"owner":"future_growth_4","partition":"future_growth","semantic_mode":"SOURCE_AREA_EXACT_IDENTIFIER","dataset":"middlesbrough-brownfield-land-register-june-2026","entity":"BR100","reference":"BR100","quality":"authoritative","organisation":"Middlesbrough Borough Council","name":"53 Linthorpe Road","source_url":"https://www.data.gov.uk/dataset/eb973baf-5e69-4a16-9076-36cafc6a9af5/middlesbrough-brownfield-land-register/datafile/c12056be-5937-4fad-8e0b-f36937665c53/preview","final_url":"https://www.middlesbrough.gov.uk/media/bzwftogf/brownfield-register-june-2026.csv","access_utc":"2026-10-02T01:43:00Z","data_date":"2026-07-21","license":"Open Government Licence","field_evidence":{"reference":"BR100","site_name":"53 Linthorpe Road","geo_x":-1.23582,"geo_y":54.5755,"hectares":0.11,"ownership_status":"not owned by a public authority","planning_status":"permissioned","permission_type":"other","permission_date":"2025-01-17","planning_history_url":"https://planning.agileapplications.co.uk/middlesbrough/application-details/38650","deliverable":"yes","net_dwellings_range_from":34,"net_dwellings_range_to":34,"hazardous_substance":"No","notes":"Subdivision of the existing retail units into 5 retail units with the creation of two new shop fronts on Gilkes Street, internal service yard area and conversion of the upper floors into 34no 1 bed studio flats with roof terrace","first_added_date":"2025-06-30","last_updated_date":"2025-06-30","end_date":"","register_version":"June 2026"},"evidence_slice_sha256":"e75d9bf21b4b86bdb99fa08d3f9212d5bd8e181e9e084cbd985e43e4285c5690","confidence_score_0_100":99,"confidence":0.99,"evidence_grade":"A","exact_identifier_provided":true,"coverage_polygon_provided":false,"point":"POINT (-1.23582 54.57550)","fake_data":false,"join_mode":"LOCAL_OPENCODE_SPATIAL_JOIN_PENDING","direct_parcel":false,"source_area_count_contribution":1,"planned_building_count_contribution":0}}]}