{
  "features": [
    {
      "geometry": null,
      "id": "bedfordshire:BD2",
      "properties": {
        "accepted_as_parcel": false,
        "access_utc": "2026-10-02T12:58:00Z",
        "canonical_binding": "LOCAL_OPENCODE_PENDING_NOT_CLAIMED",
        "confidence_score_0_100": 100,
        "data_date": "2026-10-02 access snapshot",
        "direct_parcel": false,
        "evidence_grade": "A_OFFICIAL_PUBLIC_API_EXACT_IDENTIFIER",
        "fake_data": false,
        "force_id": "bedfordshire",
        "identifier": "BD2",
        "identifier_field": "id",
        "identifier_version": "data.police.uk force-specific neighbourhood identifier",
        "name": "Bromham, Oakley, Wootton",
        "record_type": "SOURCE_AREA_EXACT_IDENTIFIER",
        "source_area_counted": true,
        "source_url": "https://data.police.uk/api/bedfordshire/neighbourhoods"
      },
      "type": "Feature"
    },
    {
      "geometry": null,
      "id": "bedfordshire:BD3",
      "properties": {
        "accepted_as_parcel": false,
        "access_utc": "2026-10-02T12:58:00Z",
        "canonical_binding": "LOCAL_OPENCODE_PENDING_NOT_CLAIMED",
        "confidence_score_0_100": 100,
        "data_date": "2026-10-02 access snapshot",
        "direct_parcel": false,
        "evidence_grade": "A_OFFICIAL_PUBLIC_API_EXACT_IDENTIFIER",
        "fake_data": false,
        "force_id": "bedfordshire",
        "identifier": "BD3",
        "identifier_field": "id",
        "identifier_version": "data.police.uk force-specific neighbourhood identifier",
        "name": "Wilstead, Shortstown, Willington",
        "record_type": "SOURCE_AREA_EXACT_IDENTIFIER",
        "source_area_counted": true,
        "source_url": "https://data.police.uk/api/bedfordshire/neighbourhoods"
      },
      "type": "Feature"
    },
    {
      "geometry": null,
      "id": "bedfordshire:BD5",
      "properties": {
        "accepted_as_parcel": false,
        "access_utc": "2026-10-02T12:58:00Z",
        "canonical_binding": "LOCAL_OPENCODE_PENDING_NOT_CLAIMED",
        "confidence_score_0_100": 100,
        "data_date": "2026-10-02 access snapshot",
        "direct_parcel": false,
        "evidence_grade": "A_OFFICIAL_PUBLIC_API_EXACT_IDENTIFIER",
        "fake_data": false,
        "force_id": "bedfordshire",
        "identifier": "BD5",
        "identifier_field": "id",
        "identifier_version": "data.police.uk force-specific neighbourhood identifier",
        "name": "Riseley, Wyboston",
        "record_type": "SOURCE_AREA_EXACT_IDENTIFIER",
        "source_area_counted": true,
        "source_url": "https://data.police.uk/api/bedfordshire/neighbourhoods"
      },
      "type": "Feature"
    },
    {
      "geometry": null,
      "id": "bedfordshire:CB1",
      "properties": {
        "accepted_as_parcel": false,
        "access_utc": "2026-10-02T12:58:00Z",
        "canonical_binding": "LOCAL_OPENCODE_PENDING_NOT_CLAIMED",
        "confidence_score_0_100": 100,
        "data_date": "2026-10-02 access snapshot",
        "direct_parcel": false,
        "evidence_grade": "A_OFFICIAL_PUBLIC_API_EXACT_IDENTIFIER",
        "fake_data": false,
        "force_id": "bedfordshire",
        "identifier": "CB1",
        "identifier_field": "id",
        "identifier_version": "data.police.uk force-specific neighbourhood identifier",
        "name": "Flitwick, Ampthill, Marston and Cranfield",
        "record_type": "SOURCE_AREA_EXACT_IDENTIFIER",
        "source_area_counted": true,
        "source_url": "https://data.police.uk/api/bedfordshire/neighbourhoods"
      },
      "type": "Feature"
    },
    {
      "geometry": null,
      "id": "bedfordshire:CB2",
      "properties": {
        "accepted_as_parcel": false,
        "access_utc": "2026-10-02T12:58:00Z",
        "canonical_binding": "LOCAL_OPENCODE_PENDING_NOT_CLAIMED",
        "confidence_score_0_100": 100,
        "data_date": "2026-10-02 access snapshot",
        "direct_parcel": false,
        "evidence_grade": "A_OFFICIAL_PUBLIC_API_EXACT_IDENTIFIER",
        "fake_data": false,
        "force_id": "bedfordshire",
        "identifier": "CB2",
        "identifier_field": "id",
        "identifier_version": "data.police.uk force-specific neighbourhood identifier",
        "name": "Biggleswade, Sandy, Potton and Shefford",
        "record_type": "SOURCE_AREA_EXACT_IDENTIFIER",
        "source_area_counted": true,
        "source_url": "https://data.police.uk/api/bedfordshire/neighbourhoods"
      },
      "type": "Feature"
    },
    {
      "geometry": null,
      "id": "bedfordshire:CB3",
      "properties": {
        "accepted_as_parcel": false,
        "access_utc": "2026-10-02T12:58:00Z",
        "canonical_binding": "LOCAL_OPENCODE_PENDING_NOT_CLAIMED",
        "confidence_score_0_100": 100,
        "data_date": "2026-10-02 access snapshot",
        "direct_parcel": false,
        "evidence_grade": "A_OFFICIAL_PUBLIC_API_EXACT_IDENTIFIER",
        "fake_data": false,
        "force_id": "bedfordshire",
        "identifier": "CB3",
        "identifier_field": "id",
        "identifier_version": "data.police.uk force-specific neighbourhood identifier",
        "name": "Leighton Buzzard and Rural",
        "record_type": "SOURCE_AREA_EXACT_IDENTIFIER",
        "source_area_counted": true,
        "source_url": "https://data.police.uk/api/bedfordshire/neighbourhoods"
      },
      "type": "Feature"
    },
    {
      "geometry": null,
      "id": "bedfordshire:CB4",
      "properties": {
        "accepted_as_parcel": false,
        "access_utc": "2026-10-02T12:58:00Z",
        "canonical_binding": "LOCAL_OPENCODE_PENDING_NOT_CLAIMED",
        "confidence_score_0_100": 100,
        "data_date": "2026-10-02 access snapshot",
        "direct_parcel": false,
        "evidence_grade": "A_OFFICIAL_PUBLIC_API_EXACT_IDENTIFIER",
        "fake_data": false,
        "force_id": "bedfordshire",
        "identifier": "CB4",
        "identifier_field": "id",
        "identifier_version": "data.police.uk force-specific neighbourhood identifier",
        "name": "Dunstable and Rural",
        "record_type": "SOURCE_AREA_EXACT_IDENTIFIER",
        "source_area_counted": true,
        "source_url": "https://data.police.uk/api/bedfordshire/neighbourhoods"
      },
      "type": "Feature"
    },
    {
      "geometry": null,
      "id": "bedfordshire:CB5",
      "properties": {
        "accepted_as_parcel": false,
        "access_utc": "2026-10-02T12:58:00Z",
        "canonical_binding": "LOCAL_OPENCODE_PENDING_NOT_CLAIMED",
        "confidence_score_0_100": 100,
        "data_date": "2026-10-02 access snapshot",
        "direct_parcel": false,
        "evidence_grade": "A_OFFICIAL_PUBLIC_API_EXACT_IDENTIFIER",
        "fake_data": false,
        "force_id": "bedfordshire",
        "identifier": "CB5",
        "identifier_field": "id",
        "identifier_version": "data.police.uk force-specific neighbourhood identifier",
        "name": "Houghton Regis and Rural",
        "record_type": "SOURCE_AREA_EXACT_IDENTIFIER",
        "source_area_counted": true,
        "source_url": "https://data.police.uk/api/bedfordshire/neighbourhoods"
      },
      "type": "Feature"
    },
    {
      "geometry": null,
      "id": "bedfordshire:LU1",
      "properties": {
        "accepted_as_parcel": false,
        "access_utc": "2026-10-02T12:58:00Z",
        "canonical_binding": "LOCAL_OPENCODE_PENDING_NOT_CLAIMED",
        "confidence_score_0_100": 100,
        "data_date": "2026-10-02 access snapshot",
        "direct_parcel": false,
        "evidence_grade": "A_OFFICIAL_PUBLIC_API_EXACT_IDENTIFIER",
        "fake_data": false,
        "force_id": "bedfordshire",
        "identifier": "LU1",
        "identifier_field": "id",
        "identifier_version": "data.police.uk force-specific neighbourhood identifier",
        "name": "Luton and North and West",
        "record_type": "SOURCE_AREA_EXACT_IDENTIFIER",
        "source_area_counted": true,
        "source_url": "https://data.police.uk/api/bedfordshire/neighbourhoods"
      },
      "type": "Feature"
    },
    {
      "geometry": null,
      "id": "bedfordshire:LU2",
      "properties": {
        "accepted_as_parcel": false,
        "access_utc": "2026-10-02T12:58:00Z",
        "canonical_binding": "LOCAL_OPENCODE_PENDING_NOT_CLAIMED",
        "confidence_score_0_100": 100,
        "data_date": "2026-10-02 access snapshot",
        "direct_parcel": false,
        "evidence_grade": "A_OFFICIAL_PUBLIC_API_EXACT_IDENTIFIER",
        "fake_data": false,
        "force_id": "bedfordshire",
        "identifier": "LU2",
        "identifier_field": "id",
        "identifier_version": "data.police.uk force-specific neighbourhood identifier",
        "name": "Luton South and East",
        "record_type": "SOURCE_AREA_EXACT_IDENTIFIER",
        "source_area_counted": true,
        "source_url": "https://data.police.uk/api/bedfordshire/neighbourhoods"
      },
      "type": "Feature"
    },
    {
      "geometry": null,
      "id": "bedfordshire:LU3",
      "properties": {
        "accepted_as_parcel": false,
        "access_utc": "2026-10-02T12:58:00Z",
        "canonical_binding": "LOCAL_OPENCODE_PENDING_NOT_CLAIMED",
        "confidence_score_0_100": 100,
        "data_date": "2026-10-02 access snapshot",
        "direct_parcel": false,
        "evidence_grade": "A_OFFICIAL_PUBLIC_API_EXACT_IDENTIFIER",
        "fake_data": false,
        "force_id": "bedfordshire",
        "identifier": "LU3",
        "identifier_field": "id",
        "identifier_version": "data.police.uk force-specific neighbourhood identifier",
        "name": "Luton Central",
        "record_type": "SOURCE_AREA_EXACT_IDENTIFIER",
        "source_area_counted": true,
        "source_url": "https://data.police.uk/api/bedfordshire/neighbourhoods"
      },
      "type": "Feature"
    },
    {
      "geometry": null,
      "id": "bedfordshire:LU4",
      "properties": {
        "accepted_as_parcel": false,
        "access_utc": "2026-10-02T12:58:00Z",
        "canonical_binding": "LOCAL_OPENCODE_PENDING_NOT_CLAIMED",
        "confidence_score_0_100": 100,
        "data_date": "2026-10-02 access snapshot",
        "direct_parcel": false,
        "evidence_grade": "A_OFFICIAL_PUBLIC_API_EXACT_IDENTIFIER",
        "fake_data": false,
        "force_id": "bedfordshire",
        "identifier": "LU4",
        "identifier_field": "id",
        "identifier_version": "data.police.uk force-specific neighbourhood identifier",
        "name": "Luton Town Centre",
        "record_type": "SOURCE_AREA_EXACT_IDENTIFIER",
        "source_area_counted": true,
        "source_url": "https://data.police.uk/api/bedfordshire/neighbourhoods"
      },
      "type": "Feature"
    },
    {
      "geometry": null,
      "id": "bedfordshire:LU5",
      "properties": {
        "accepted_as_parcel": false,
        "access_utc": "2026-10-02T12:58:00Z",
        "canonical_binding": "LOCAL_OPENCODE_PENDING_NOT_CLAIMED",
        "confidence_score_0_100": 100,
        "data_date": "2026-10-02 access snapshot",
        "direct_parcel": false,
        "evidence_grade": "A_OFFICIAL_PUBLIC_API_EXACT_IDENTIFIER",
        "fake_data": false,
        "force_id": "bedfordshire",
        "identifier": "LU5",
        "identifier_field": "id",
        "identifier_version": "data.police.uk force-specific neighbourhood identifier",
        "name": "Luton Airport",
        "record_type": "SOURCE_AREA_EXACT_IDENTIFIER",
        "source_area_counted": true,
        "source_url": "https://data.police.uk/api/bedfordshire/neighbourhoods"
      },
      "type": "Feature"
    },
    {
      "geometry": null,
      "id": "bedfordshire:NU1",
      "properties": {
        "accepted_as_parcel": false,
        "access_utc": "2026-10-02T12:58:00Z",
        "canonical_binding": "LOCAL_OPENCODE_PENDING_NOT_CLAIMED",
        "confidence_score_0_100": 100,
        "data_date": "2026-10-02 access snapshot",
        "direct_parcel": false,
        "evidence_grade": "A_OFFICIAL_PUBLIC_API_EXACT_IDENTIFIER",
        "fake_data": false,
        "force_id": "bedfordshire",
        "identifier": "NU1",
        "identifier_field": "id",
        "identifier_version": "data.police.uk force-specific neighbourhood identifier",
        "name": "Kingsbrook, Kempston, Cauldwell",
        "record_type": "SOURCE_AREA_EXACT_IDENTIFIER",
        "source_area_counted": true,
        "source_url": "https://data.police.uk/api/bedfordshire/neighbourhoods"
      },
      "type": "Feature"
    },
    {
      "geometry": null,
      "id": "bedfordshire:NU2",
      "properties": {
        "accepted_as_parcel": false,
        "access_utc": "2026-10-02T12:58:00Z",
        "canonical_binding": "LOCAL_OPENCODE_PENDING_NOT_CLAIMED",
        "confidence_score_0_100": 100,
        "data_date": "2026-10-02 access snapshot",
        "direct_parcel": false,
        "evidence_grade": "A_OFFICIAL_PUBLIC_API_EXACT_IDENTIFIER",
        "fake_data": false,
        "force_id": "bedfordshire",
        "identifier": "NU2",
        "identifier_field": "id",
        "identifier_version": "data.police.uk force-specific neighbourhood identifier",
        "name": "Queens Park and Castle",
        "record_type": "SOURCE_AREA_EXACT_IDENTIFIER",
        "source_area_counted": true,
        "source_url": "https://data.police.uk/api/bedfordshire/neighbourhoods"
      },
      "type": "Feature"
    },
    {
      "geometry": null,
      "id": "bedfordshire:NU3",
      "properties": {
        "accepted_as_parcel": false,
        "access_utc": "2026-10-02T12:58:00Z",
        "canonical_binding": "LOCAL_OPENCODE_PENDING_NOT_CLAIMED",
        "confidence_score_0_100": 100,
        "data_date": "2026-10-02 access snapshot",
        "direct_parcel": false,
        "evidence_grade": "A_OFFICIAL_PUBLIC_API_EXACT_IDENTIFIER",
        "fake_data": false,
        "force_id": "bedfordshire",
        "identifier": "NU3",
        "identifier_field": "id",
        "identifier_version": "data.police.uk force-specific neighbourhood identifier",
        "name": "Harpur, Brickhill and De Parys",
        "record_type": "SOURCE_AREA_EXACT_IDENTIFIER",
        "source_area_counted": true,
        "source_url": "https://data.police.uk/api/bedfordshire/neighbourhoods"
      },
      "type": "Feature"
    },
    {
      "geometry": null,
      "id": "bedfordshire:NU4",
      "properties": {
        "accepted_as_parcel": false,
        "access_utc": "2026-10-02T12:58:00Z",
        "canonical_binding": "LOCAL_OPENCODE_PENDING_NOT_CLAIMED",
        "confidence_score_0_100": 100,
        "data_date": "2026-10-02 access snapshot",
        "direct_parcel": false,
        "evidence_grade": "A_OFFICIAL_PUBLIC_API_EXACT_IDENTIFIER",
        "fake_data": false,
        "force_id": "bedfordshire",
        "identifier": "NU4",
        "identifier_field": "id",
        "identifier_version": "data.police.uk force-specific neighbourhood identifier",
        "name": "Putnoe, Goldington, Newnham",
        "record_type": "SOURCE_AREA_EXACT_IDENTIFIER",
        "source_area_counted": true,
        "source_url": "https://data.police.uk/api/bedfordshire/neighbourhoods"
      },
      "type": "Feature"
    }
  ],
  "name": "security_public_safety_3",
  "properties": {
    "accepted_count": 0,
    "batch_id": "20261002T125800Z-police-api-bedfordshire-npt-000-016",
    "fake_data": false,
    "lineage_id": "L24-SPS3-57442c9c2a0f429be2d2",
    "page_generation": 1,
    "partition": {
      "count": 30761,
      "end": 92283,
      "start": 61523
    },
    "schema": "AAYS_LAYER24_EVIDENCE_V1",
    "slot_id": "security_public_safety_3",
    "source_area_count": 17
  },
  "type": "FeatureCollection"
}
