{"features":[{"geometry":null,"properties":{"accepted_count_contribution":0,"access_utc":"2026-10-01T12:01:00Z","archive_start_year":2006,"binding_status":"LOCAL_OPENCODE_BUILDING_PRESENT_EXACT_TILE_BIND_REQUIRED","canonical_parcel_id":null,"confidence_score_0_100":98,"coverage_metadata_capability":"start/end flight date and average point density","crs":"EPSG:27700","dataset_creation_date":"2005-01-01","dataset_revision_date":"2024-07-19","dataset_role":"official classified LiDAR point-cloud index resource evidence","download_grouping":"5km zip files for each survey year","evidence_grade":"A_OFFICIAL_BINARY_INDEX_RESOURCE_B_NO_EXACT_TILE_ROW","evidence_slice_sha256":"ead6392e43a2e3d37862bcd582a69c7185ed25253e6eca77e16317d3b781dd8c","fake_data":false,"final_url":"https://environment.data.gov.uk/api/file/download?fileDataSetId=7f2a4b8f-3516-4f67-961a-f6ffeaf37d8a&fileName=LIDAR_Time_Stamped_Point_Cloud.geojson.zip","licence":"Open Government Licence","payload_format":"LAZ","required_building_state":"BUILDING_PRESENT","source_area_count_contribution":0,"source_file_sha256":null,"source_file_sha256_reason":"index ZIP bytes not retrieved","source_record_id":"EA_LIDAR_TIME_STAMPED_POINT_CLOUD:GEOJSON_INDEX_RESOURCE","source_url":"https://www.data.gov.uk/dataset/977a4ca4-1759-4f26-baa7-b566bd7ca7bf/lidar-time-stamped-point-cloud"},"type":"Feature"}],"name":"height_difference_1","type":"FeatureCollection"}
