{"type":"FeatureCollection","features":[{"type":"Feature","geometry":null,"properties":{"slot_id":"future_growth_7","lineage_id":"future_growth_7_open_source_v2_20260813","page_generation":null,"batch_id":"batch_20261002T014700Z_lpb4211062","official_entity_id":4211062,"official_reference":"E60000001","dataset":"local-plan-boundary","organisation":"Durham County Council","source_url":"https://www.planning.data.gov.uk/entity/4211062","final_url":"https://www.planning.data.gov.uk/entity/4211062","geojson_download_url":"https://www.planning.data.gov.uk/entity/4211062.geojson","accessed_utc":"2026-10-02T01:47:00Z","data_date":"2026-03-18","licence":"Open Government Licence v3.0","source_sha256":"6bc17bb271c4ae23cd84cbd0e66690b0e643864803669fabb24ea8b8d61d995e","source_sha256_basis":"canonical_official_field_evidence_json","field_evidence":{"entry-date":"2026-03-18","start-date":"","end-date":"","entity":4211062,"name":"Durham County Council","dataset":"local-plan-boundary","typology":"geography","reference":"E60000001","prefix":"local-plan-boundary","organisation-entity":600001,"geometry":"Too large to display. Official entity exposes downloadable full geometry.","point":"POINT (-1.839557 54.695442)","quality":"authoritative","organisations":"local-authority:DUR","local-planning-authorities":"E60000001","organisation-curie":"government-organisation:D1342"},"evidence_slice_sha256":"8747766851b7fc29282a69cdd1a2feb41ff2fcf827f4b44451cc440e2280984a","evidence_grade":"A_EXACT_OFFICIAL_IDENTIFIER","confidence_score_0_100":99,"official_geometry_available":true,"point_not_used_as_coverage":true,"fake_data":false}}]}
