{"type":"FeatureCollection","name":"height_difference_5","metadata":{"slot_id":"height_difference_5","owner":"height_difference_5","lineage_id":"height_difference_5-eb56f92ed3f0514c","page_generation":1,"schema":"AAYS_LAYER24_EVIDENCE_V1","partition":"layer24","semantic_mode_state":"ABSENT_IN_PRIOR_PHYSICAL_STATE_PRESERVED_BY_OMISSION","batch_id":"20261005T234600Z_belfast_2006_nw_zone_zip_blocked","record_policy":"Official Belfast North West sibling-zone resource evidence only; no archive-internal tile/file, parcel binding, geometry or CRS synthesized.","fake_data":false},"features":[{"type":"Feature","geometry":null,"properties":{"slot_id":"height_difference_5","owner":"height_difference_5","lineage_id":"height_difference_5-eb56f92ed3f0514c","page_generation":1,"schema":"AAYS_LAYER24_EVIDENCE_V1","partition":"layer24","batch_id":"20261005T234600Z_belfast_2006_nw_zone_zip_blocked","source_record_id":"DFI_BELFAST_LIDAR_2006:NW_ZONE_ASCII_GRID_ZIP","source_url":"https://admin.opendatani.gov.uk/dataset/lidar-belfast-city-2006","resource_page":"https://admin.opendatani.gov.uk/dataset/lidar-belfast-city-2006/resource/6b86a69e-3b81-49ee-81fb-6fa7f51ebba7","payload_url":"https://opendatani.blob.core.windows.net/dfiriverslidar/BelfastCityLidar_NorthWest_18032006.zip","resource_id":"6b86a69e-3b81-49ee-81fb-6fa7f51ebba7","resource_name":"Belfast City Lidar North West Zone","access_utc":"2026-10-05T23:46:00Z","required_building_state":"BUILDING_PRESENT","binding_status":"LOCAL_OPENCODE_BUILDING_PRESENT_EXACT_NE_TILE_BIND_REQUIRED","payload_transport_status":"UNSUPPORTED_CONTENT_TYPE_APPLICATION_ZIP_NON_RETRYABLE","exact_tile_identifier":null,"crs":null,"evidence_slice_sha256":"3d2c3a23f837cd05019b119f0305f9b39789b4c741bff5db3c39f024565645f6","accepted_count_contribution":0,"source_area_count_contribution":0,"fake_data":false}}]}
