{"type":"FeatureCollection","name":"security_public_safety_6","features":[],"metadata":{"slot_id":"security_public_safety_6","lineage_id":"SECPS6_20260930T003421Z_01","page_generation":1,"batch_id":"BATCH_20261005T125819Z_ONS_FRA23_PREVIEW4_DUPLICATES","source_window_id":"ons_fra23_names_codes_preview_rows_1_4_2026-10-05","source_url":"https://www.data.gov.uk/dataset/c67aa912-c134-46b3-83c8-fba53c0dc840/fire-and-rescue-authorities-december-2023-names-and-codes-in-the-uk/datafile/82712a4f-4515-42a5-a74f-16b7202f1f5f/preview","final_url":"https://www.data.gov.uk/dataset/c67aa912-c134-46b3-83c8-fba53c0dc840/fire-and-rescue-authorities-december-2023-names-and-codes-in-the-uk/datafile/82712a4f-4515-42a5-a74f-16b7202f1f5f/preview","dataset_url":"https://www.data.gov.uk/dataset/c67aa912-c134-46b3-83c8-fba53c0dc840/fire-and-rescue-authorities-december-2023-names-and-codes-in-the-uk","accessed_utc":"2026-10-05T12:58:19Z","data_date":"2023-12-31","license":"Dataset licence field: Not set; National Data Library site content is OGL v3.0 except where otherwise stated.","evidence_slice_sha256":"25c9e21cae208417c49959955381b8382f2d6fed9e5a53f188f9b7ac45ed4903","new_source_records":0,"source_area_count_delta":0,"cumulative_source_area_count":62,"accepted_count":0,"duplicate_count":4,"rejected_count":0,"unmatched_count":0,"materialized_parcel_count":0,"direct_parcel_count":0,"planned_building_count":0,"cursor":null,"window_complete":true,"dataset_complete":false,"local_spatial_join_required":true,"fake_data":false}}
