{"type":"FeatureCollection","features":[{"type":"Feature","id":"burnley-adopted-2018-local-plan-housing-allocations:dd9d373f-d51e-4195-9344-88bb94e5db86","geometry":null,"properties":{"slot_id":"future_growth_4","lineage_id":"fg4-e4c9076d6f554f00","page_generation":1,"owner":"future_growth_4","partition":"future_growth","semantic_mode":"SOURCE_AREA_EXACT_IDENTIFIER","dataset":"burnley-adopted-2018-local-plan-housing-allocations","entity":"dd9d373f-d51e-4195-9344-88bb94e5db86","reference":"dd9d373f-d51e-4195-9344-88bb94e5db86","quality":"authoritative","organisation":"Burnley Borough Council","name":"Adopted 2018 Burnley Local Plan Housing Allocations","source_url":"https://www.data.gov.uk/dataset/dd9d373f-d51e-4195-9344-88bb94e5db86/adopted-2018-local-plan-housing-allocations","final_url":"https://burnley.gov.uk/wp-content/uploads/2023/02/Adopted-Housing-Allocations-with-Data.zip","access_utc":"2026-10-04T10:13:00Z","data_date":"2023-10-04","license":"Open Government Licence v3.0","field_evidence":{"dataset_identifier":"dd9d373f-d51e-4195-9344-88bb94e5db86","title":"Adopted 2018 Burnley Local Plan Housing Allocations","publisher":"Burnley Borough Council","topic":"Mapping","last_updated":"2023-10-04","download_format":"ZIP","download_file_added":"2023-03-01","download_url":"https://burnley.gov.uk/wp-content/uploads/2023/02/Adopted-Housing-Allocations-with-Data.zip","licence":"Open Government Licence v3.0"},"evidence_slice_sha256":"cbfe7d7253e673cd0be55f4cfff8a71e783af4b166ba25e0b9d00f09ce2376a4","confidence_score_0_100":99,"confidence":0.99,"evidence_grade":"A","exact_identifier_provided":true,"coverage_polygon_provided":false,"coverage_geometry_available":false,"coverage_geometry_note":"official council ZIP is linked; archive geometry not inspected in this batch","fake_data":false,"join_mode":"LOCAL_OPENCODE_SPATIAL_JOIN_PENDING","direct_parcel":false,"source_area_count_contribution":1,"planned_building_count_contribution":0}}]}