{"type":"FeatureCollection","features":[{"type":"Feature","geometry":null,"properties":{"slot_id":"future_growth_1","lineage_id":"future_growth_1-newstart-20260927T153100+0300","page_generation":null,"accepted_as_parcel":false,"source_area_count_contribution":1,"exact_identifier":"25/01510/OUT","exact_identifier_provided":true,"coverage_polygon_provided":false,"identifier_namespace":"Cherwell District Council planning application number","site_name":"Land South Of Perdiswell Farm, Shipton Road, Shipton On Cherwell","access_utc":"2026-10-07T00:38:00Z","data_date":"2026-06-01","source_url":"https://planningregister.cherwell.gov.uk/Planning/Display/25/01510/OUT","final_url":"https://planningregister.cherwell.gov.uk/Planning/Display/25/01510/OUT","license":"Cherwell District Council public planning register and application documents; document-specific reuse licence not stated on the application record","authority":"Cherwell District Council","application_type":"Outline Application","application_status":"Under Consultation","maximum_dwellings":500,"commercial_floorspace_use_class":"E","all_matters_reserved_except":"Access","site_location_plan":"SK001-A","site_location_plan_date":"2025-06-09","illustrative_masterplan":"SK010-D","illustrative_masterplan_date":"2026-06-01","evidence_grade":"A","confidence_score_0_100":99,"evidence_scope":"exact Cherwell outline application 25/01510/OUT plus official site-location-plan and revised illustrative-masterplan entries","evidence_slice_sha256":"2af2224111ef10a976ab3ccd889665957f39799fddc6af8897f8b34a0730e7d6","fake_data":false,"spatial_binding_method":"official planning application identifier plus application-specific Site Location Plan SK001-A; exact red-line polygon extraction, canonical parcel spatial join and materialization delegated to local OpenCode","planned_building_count_contribution":0}}]}