{"type":"FeatureCollection","features":[{"type":"Feature","geometry":null,"properties":{"slot_id":"future_growth_3","lineage_id":"future_growth_3-newstart-20261001T203100Z","page_generation":null,"accepted_as_parcel":false,"source_area_count_contribution":1,"exact_identifier":"LBBD73/CI","exact_identifier_provided":true,"coverage_polygon_provided":false,"identifier_namespace":"Planning Data brownfield-land reference","secondary_exact_identifier":"entity:1739868","source_entity":"LBBD73/CI - Thames Road","access_utc":"2026-10-03T16:05:17Z","data_date":"2024-12-31","source_url":"https://www.planning.data.gov.uk/entity/1739868","final_url":"https://www.planning.data.gov.uk/entity/1739868","license":"Open Government Licence v3.0; attribution © Crown copyright and database right 2026.","authority":"London Borough of Barking and Dagenham","site_address":"Thames Road","field_evidence":{"reference":"LBBD73/CI","entity":1739868,"dataset":"Brownfield land","organisation":"London Borough of Barking and Dagenham","entry_date":"2024-12-31","site_address":"Thames Road","point":"POINT (0.105903 51.525079)","hectares":2.6,"deliverable":"yes","ownership_status":"mixed-ownership","maximum_net_dwellings":3344,"minimum_net_dwellings":1844,"planning_permission_type":"full-planning-permission","planning_permission_status":"pending-decision","planning_permission_history":"https://online-befirst.lbbd.gov.uk/planning/index.html?fa=getApplication&id=17706|https://online-befirst.lbbd.gov.uk/planning/index.html?fa=getApplication&id=31037","notes":"Several sites within the larger site pending decision including 22/02211/FULL and 21/01232/FULL. Mixed ownership across wider site with not all intentions known, but a Local Plan allocation."},"source_payload_sha256":"6a87a458e986c0fc46afb77fc51ff12b4c9670657af7d6aed742a27f9b1b4a59","source_payload_sha256_basis":"canonicalized official Planning Data LBBD73/CI evidence fields","evidence_slice_sha256":"174eafd724b0721ab825a094700aac04c7e48ab57d9a8e2fdcde88efcd4abda9","evidence_grade":"A","confidence_score_0_100":99,"evidence_scope":"exact_official_identifier_from_authoritative_planning_data_brownfield_entity","fake_data":false,"spatial_binding_method":"official Planning Data brownfield reference LBBD73/CI / entity 1739868; canonical parcel spatial join and materialization delegated to local OpenCode","planned_building_count_contribution":0}}]}