{"type":"FeatureCollection","features":[{"type":"Feature","geometry":null,"properties":{"slot_id":"planned_buildings_1","lineage_id":"planned_buildings_1-0ffc4ebd6c6e4e41","semantic_mode":"DISTINCT_BUILDINGS","planned_building_id":"planning-application:RB2026/0297::STEEL_FRAMED_PREFABRICATED_GARAGE","building_status":"PLANNED","building_name":"Steel framed prefabricated garage, Bail Rigg Ulley Lane Aston","planning_reference":"RB2026/0297","authority":"Rotherham Metropolitan Borough Council","source_url":"https://planning.rotherham.gov.uk/decision.asp?AltRef=RB2026%2F0297","final_url":"https://planning.rotherham.gov.uk/decision.asp?AltRef=RB2026%2F0297","access_utc":"2026-10-05T23:51:00Z","source_data_date":"2026-05-12","license":"Open Government Licence v3.0","geometry_role":"official decision page exposes no machine-readable point or building footprint; geometry null; no geometry inferred","field_evidence":"Official decision notice explicitly permits erection of one steel framed prefabricated garage; decision type GRANTED CONDITIONALLY dated 12/05/2026; condition 01 requires commencement within three years.","identity_limitation":"Exactly one building is counted from the explicit singular garage wording; no other structures are inferred.","confidence_score_0_100":94,"evidence_grade":"A","fake_data":false}}]}
