{"features":[{"geometry":null,"properties":{"accepted_as_parcel":false,"access_utc":"2026-10-01T21:37:06Z","confidence":0.99,"confidence_score_0_100":99,"coverage_polygon_provided":false,"data_date":"2026-01","evidence_grade":"A","evidence_slice_sha256":"f7ae93707f6ce4cfc9ec0ca9f471ebd2c931c07bfbd5833b34797e736c0dfe26","exact_identifier":"10007455554","exact_identifier_provided":true,"fake_data":false,"field_evidence":{"bduk_gis":true,"bduk_gis_contract_name":"New Forest","bduk_gis_contract_scope":"Initial","bduk_gis_final_coverage_date":"2026-12-31","bduk_gis_supplier":"wessex internet","bduk_recognised_premises":true,"country":"England","current_gigabit":true,"future_gigabit":false,"local_authority_district_ons":"New Forest","local_authority_district_ons_code":"E07000091","lot_id":27,"lot_name":"Hampshire","postcode":"BH23 7AU","region_ons":"South East","region_ons_code":"E12000008","struprn":"str10007455554","subsidy_control_status":"Gigabit Grey/Black","uprn":"10007455554"},"final_url":"https://www.gov.uk/csv-preview/6a203e8831d692299df80d17/2026-06-02_202601_BDUK_uprn_release_sample.csv","identifier_namespace":"UPRN","license":"Open Government Licence v3.0","lineage_id":"internet_access_3-newstart-20261001T203900Z","owner":"cagdas aydin","page_generation":1,"partition":"plan0","publication_date":"2026-06-04","semantic_mode":"SOURCE_AREA_EXACT_IDENTIFIER","sha256":"f7ae93707f6ce4cfc9ec0ca9f471ebd2c931c07bfbd5833b34797e736c0dfe26","slot_id":"internet_access_3","source_area_count_contribution":1,"source_url":"https://www.gov.uk/csv-preview/6a203e8831d692299df80d17/2026-06-02_202601_BDUK_uprn_release_sample.csv","spatial_binding_method":"official exact UPRN; canonical parcel spatial join/materialization delegated to local OpenCode"},"type":"Feature"}],"name":"internet_access_3","type":"FeatureCollection"}