{"type":"FeatureCollection","name":"building_type_2_batch_0016","features":[{"type":"Feature","id":"42164656","geometry":{"type":"MultiPolygon","coordinates":[[[[-0.148431,51.517962],[-0.148429,51.517961],[-0.148279,51.517987],[-0.148302,51.518039],[-0.148451,51.518012],[-0.148431,51.517962]]]]},"properties":{"slot_id":"building_type_2","lineage_id":"building_type_2-20260930T173100Z-newstart","batch_id":"batch-0016","page_generation":1,"source_entity":42164656,"source_reference":"1066057","source_dataset":"listed-building-outline","source_organisation":"City of Westminster","building_evidence_status":"BUILDING_PRESENT","parcel_status":"UNPROCESSED","canonical_parcel_id":null,"building_type":"listed_building","building_use":null,"poi_accepted":false,"field_evidence":{"footprint":"official listed-building-outline MULTIPOLYGON","type":"official dataset classification: listed-building-outline","reference":"1066057","quality":"authoritative","name":"71 Wimpole Street London W1G 8AW"},"source_url":"https://www.planning.data.gov.uk/entity/42164656","final_url":"https://www.planning.data.gov.uk/entity/42164656","access_utc":"2026-10-02T02:36:03Z","data_date":"1970-02-05","licence":"Open Government Licence v3.0","evidence_slice_sha256":"3996db28210c557340bf123ee4d69b2dfcebf9d6052b4fa10829cf6ea168e23b","confidence_score_0_100":96,"evidence_grade":"A","fake_data":false,"local_spatial_join_required":true}}]}