{"type":"FeatureCollection","features":[{"type":"Feature","geometry":null,"properties":{"schema":"AAYS_LAYER24_EVIDENCE_V1","slot_id":"security_public_safety_4","lineage_id":"L24-SPS4-57de1ed0eaf0f860383f","page_generation":7,"criterion":"Security/Public Safety","record_role":"OFFICIAL_OTHER_CRIME_OBSERVATION","source_record_index":1,"month_year":"2020-09-01","area_type":"Borough","borough_snt":"Aviation Security(SO18)","area_name":"Aviation Security(SO18)","area_code":"SO18","crime_type":"Domestic Abuse","crime_subtype":"Domestic Abuse","measure":"Offences","count":1,"source_url":"https://www.data.gov.uk/dataset/b2224ba1-8151-438b-8446-513fbecee883/mps-monthly-crime-dashboard-data1/datafile/b51cb204-58ea-4f94-8eff-f6b9f46cf538/preview","access_utc":"2026-10-01T03:01:00Z","license":"Open Government Licence v3.0 except where otherwise stated","field_evidence":"National Data Library preview row 1 for MPS Other Crime CSV","evidence_slice_sha256":"1232dfe6982a6664689680f1c66d92970b7c92b23248be4958539bd0133948d1","confidence_score_0_100":98,"evidence_grade":"A","join_state":"UNPROCESSED_LOCAL_JOIN","fake_data":false}},{"type":"Feature","geometry":null,"properties":{"schema":"AAYS_LAYER24_EVIDENCE_V1","slot_id":"security_public_safety_4","lineage_id":"L24-SPS4-57de1ed0eaf0f860383f","page_generation":7,"criterion":"Security/Public Safety","record_role":"OFFICIAL_OTHER_CRIME_OBSERVATION","source_record_index":2,"month_year":"2020-09-01","area_type":"Borough","borough_snt":"Aviation Security(SO18)","area_name":"Aviation Security(SO18)","area_code":"SO18","crime_type":"Domestic Abuse","crime_subtype":"Domestic Abuse Incidents","measure":"Statistics","count":3,"source_url":"https://www.data.gov.uk/dataset/b2224ba1-8151-438b-8446-513fbecee883/mps-monthly-crime-dashboard-data1/datafile/b51cb204-58ea-4f94-8eff-f6b9f46cf538/preview","access_utc":"2026-10-01T03:01:00Z","license":"Open Government Licence v3.0 except where otherwise stated","field_evidence":"National Data Library preview row 2 for MPS Other Crime CSV","evidence_slice_sha256":"1232dfe6982a6664689680f1c66d92970b7c92b23248be4958539bd0133948d1","confidence_score_0_100":98,"evidence_grade":"A","join_state":"UNPROCESSED_LOCAL_JOIN","fake_data":false}},{"type":"Feature","geometry":null,"properties":{"schema":"AAYS_LAYER24_EVIDENCE_V1","slot_id":"security_public_safety_4","lineage_id":"L24-SPS4-57de1ed0eaf0f860383f","page_generation":7,"criterion":"Security/Public Safety","record_role":"OFFICIAL_OTHER_CRIME_OBSERVATION","source_record_index":3,"month_year":"2020-09-01","area_type":"Borough","borough_snt":"Aviation Security(SO18)","area_name":"Aviation Security(SO18)","area_code":"SO18","crime_type":"Domestic Abuse","crime_subtype":"Domestic Abuse Violence with Injury","measure":"Offences","count":1,"source_url":"https://www.data.gov.uk/dataset/b2224ba1-8151-438b-8446-513fbecee883/mps-monthly-crime-dashboard-data1/datafile/b51cb204-58ea-4f94-8eff-f6b9f46cf538/preview","access_utc":"2026-10-01T03:01:00Z","license":"Open Government Licence v3.0 except where otherwise stated","field_evidence":"National Data Library preview row 3 for MPS Other Crime CSV","evidence_slice_sha256":"1232dfe6982a6664689680f1c66d92970b7c92b23248be4958539bd0133948d1","confidence_score_0_100":98,"evidence_grade":"A","join_state":"UNPROCESSED_LOCAL_JOIN","fake_data":false}},{"type":"Feature","geometry":null,"properties":{"schema":"AAYS_LAYER24_EVIDENCE_V1","slot_id":"security_public_safety_4","lineage_id":"L24-SPS4-57de1ed0eaf0f860383f","page_generation":7,"criterion":"Security/Public Safety","record_role":"OFFICIAL_OTHER_CRIME_OBSERVATION","source_record_index":4,"month_year":"2020-09-01","area_type":"Borough","borough_snt":"Aviation Security(SO18)","area_name":"Aviation Security(SO18)","area_code":"SO18","crime_type":"Hate crime","crime_subtype":"Anti-Semitic","measure":"Offences","count":1,"source_url":"https://www.data.gov.uk/dataset/b2224ba1-8151-438b-8446-513fbecee883/mps-monthly-crime-dashboard-data1/datafile/b51cb204-58ea-4f94-8eff-f6b9f46cf538/preview","access_utc":"2026-10-01T03:01:00Z","license":"Open Government Licence v3.0 except where otherwise stated","field_evidence":"National Data Library preview row 4 for MPS Other Crime CSV","evidence_slice_sha256":"1232dfe6982a6664689680f1c66d92970b7c92b23248be4958539bd0133948d1","confidence_score_0_100":98,"evidence_grade":"A","join_state":"UNPROCESSED_LOCAL_JOIN","fake_data":false}}]}
