{"type":"FeatureCollection","features":[{"type":"Feature","geometry":null,"properties":{"slot_id":"future_growth_3","lineage_id":"future_growth_3-newstart-20261001T203100Z","page_generation":null,"accepted_as_parcel":false,"source_area_count_contribution":1,"exact_identifier":"A25","exact_identifier_provided":true,"coverage_polygon_provided":false,"identifier_namespace":"Guildford Borough Local Plan Strategy and Sites policy/site allocation reference","secondary_exact_identifier":"Gosden Hill Farm, Merrow Lane, Guildford","source_entity":"A25 - Gosden Hill Farm, Merrow Lane, Guildford","access_utc":"2026-10-04T00:55:11Z","data_date":"2019-04-25","source_url":"https://www.guildford.gov.uk/strategicdevelopmentframeworkspd?ccp=true","final_url":"https://www.guildford.gov.uk/strategicdevelopmentframeworkspd?ccp=true","license":"Guildford Borough Council website terms; Council owns and manages the website; no open-data licence is asserted for this HTML evidence capture.","authority":"Guildford Borough Council","site_address":"Gosden Hill Farm, Merrow Lane, Guildford","field_evidence":{"reference":"A25","dataset":"Guildford Borough Local Plan: Strategy and Sites 2015-2034","organisation":"Guildford Borough Council","site_name":"Gosden Hill Farm","location":"Merrow Lane, Guildford","allocation_status":"allocated for development in the adopted Local Plan","allocation_type":"strategic mixed-use development","plan_adopted_date":"2019-04-25","supporting_spd_adopted_date":"2020-07-21","current_local_plan_url":"https://guildford.gov.uk/guildfordlocalplan?ccp=true"},"source_payload_sha256":"1f607c2e12dad7f5f065d5cc6681d44f67e42113e59ff82f3e30749e08b77b87","source_payload_sha256_basis":"canonicalized official Guildford Borough Council Policy A25 evidence fields","evidence_slice_sha256":"392961eb628a29d046fba5906521b207ee8c58a3e21ae5255d47f5def1afa3b0","evidence_grade":"A","confidence_score_0_100":99,"evidence_scope":"exact_official_identifier_from_council_adopted_local_plan_site_allocation","fake_data":false,"spatial_binding_method":"official Guildford Borough Council Policy A25 plus Council Local Plan and Strategic Development Framework pages; canonical parcel spatial join and materialization delegated to local OpenCode","planned_building_count_contribution":0}}]}