{"type":"FeatureCollection","features":[{"type":"Feature","id":"planned_buildings_2-planning-data-brownfield-1730860","geometry":null,"properties":{"entity":1730860,"reference":"BR089","canonical_record_key":"planning-data:brownfield-land:1730860","planned_project_name":"Regency House And, 203-205 Watling Street, Radlett, WD7 7AG","planned_building_value":null,"planned_building_probability":null,"planned_building_complete_month":null,"source_quality":"authoritative","fake_data":false}}],"metadata":{"slot_id":"planned_buildings_2","batch_index":190,"source_index":13,"source_window":{"resource_index":1,"limit":1},"feature_count_before":537,"feature_count_after":538,"unique_real_site_project_before":378,"unique_real_site_project_after":379,"duplicate_count_new":0,"nearest_match_used":false,"parcel_match_used":false,"geometry_inference_used":false,"mirror_only":true}}