{"type":"FeatureCollection","features":[{"type":"Feature","id":"planned_buildings_2-planning-data-brownfield-1730851","geometry":null,"properties":{"entity":1730851,"reference":"BR080","canonical_record_key":"planning-data:brownfield-land:1730851","planned_project_name":"Vacant land Bushey Hall Golf Club car park, WD23 2EP","planned_building_value":null,"planned_building_probability":null,"planned_building_complete_month":null,"source_quality":"authoritative","fake_data":false}}],"metadata":{"slot_id":"planned_buildings_2","batch_index":198,"source_index":13,"source_window":{"resource_index":9,"limit":1},"feature_count_before":545,"feature_count_after":546,"unique_real_site_project_before":386,"unique_real_site_project_after":387,"duplicate_count_new":0,"nearest_match_used":false,"parcel_match_used":false,"geometry_inference_used":false,"mirror_only":true}}