{"type":"FeatureCollection","features":[{"type":"Feature","id":"planned_buildings_2-planning-data-brownfield-1730857","geometry":null,"properties":{"entity":1730857,"reference":"BR086","canonical_record_key":"planning-data:brownfield-land:1730857","planned_project_name":"Former Bushey Golf and Country Club","planned_building_value":null,"planned_building_probability":null,"planned_building_complete_month":null,"source_quality":"authoritative","fake_data":false}}],"metadata":{"slot_id":"planned_buildings_2","batch_index":194,"source_index":13,"source_window":{"resource_index":5,"limit":1},"feature_count_before":541,"feature_count_after":542,"unique_real_site_project_before":382,"unique_real_site_project_after":383,"duplicate_count_new":0,"nearest_match_used":false,"parcel_match_used":false,"geometry_inference_used":false,"mirror_only":true}}