{"type":"FeatureCollection","features":[{"type":"Feature","id":"planned_buildings_2-planning-data-brownfield-1730847","geometry":null,"properties":{"entity":1730847,"reference":"BR076","canonical_record_key":"planning-data:brownfield-land:1730847","planned_project_name":"Lupa House, York Way, Borehamwood, Hertfordshire, WD6 1PX","planned_building_value":null,"planned_building_probability":null,"planned_building_complete_month":null,"source_quality":"authoritative","fake_data":false}}],"metadata":{"slot_id":"planned_buildings_2","batch_index":192,"source_index":13,"source_window":{"resource_index":3,"limit":1},"feature_count_before":539,"feature_count_after":540,"unique_real_site_project_before":380,"unique_real_site_project_after":381,"duplicate_count_new":0,"nearest_match_used":false,"parcel_match_used":false,"geometry_inference_used":false,"mirror_only":true}}