{"type":"FeatureCollection","features":[{"type":"Feature","id":"planned_buildings_2-planning-data-brownfield-1730821","geometry":null,"properties":{"entity":1730821,"reference":"BR048","canonical_record_key":"planning-data:brownfield-land:1730821","planned_project_name":"23 Kimble Crescent, Bushey, WD23 4SR","planned_building_value":null,"planned_building_probability":null,"planned_building_complete_month":null,"source_quality":"authoritative","fake_data":false}}],"metadata":{"slot_id":"planned_buildings_2","batch_index":195,"source_index":13,"source_window":{"resource_index":6,"limit":1},"feature_count_before":542,"feature_count_after":543,"unique_real_site_project_before":383,"unique_real_site_project_after":384,"duplicate_count_new":0,"nearest_match_used":false,"parcel_match_used":false,"geometry_inference_used":false,"mirror_only":true}}