{"type":"FeatureCollection","features":[{"type":"Feature","id":"planned_buildings_2-planning-data-brownfield-1730856","geometry":null,"properties":{"entity":1730856,"reference":"BR085","canonical_record_key":"planning-data:brownfield-land:1730856","planned_project_name":"Park ESC, Key Stage 4 Centre, High Street, Potters Bar","planned_building_value":null,"planned_building_probability":null,"planned_building_complete_month":null,"source_quality":"authoritative","fake_data":false}}],"metadata":{"slot_id":"planned_buildings_2","batch_index":193,"source_index":13,"source_window":{"resource_index":4,"limit":1},"feature_count_before":540,"feature_count_after":541,"unique_real_site_project_before":381,"unique_real_site_project_after":382,"duplicate_count_new":0,"nearest_match_used":false,"parcel_match_used":false,"geometry_inference_used":false,"mirror_only":true}}