{"type":"FeatureCollection","features":[],"metadata":{"slot_id":"planned_buildings_2","batch_index":188,"source_index":12,"source_window":{"resource_index":11,"limit":1},"source_result":"ZERO_RESULT_IMMUTABLE_EVIDENCE_QUEUE_EXHAUSTED","feature_count_before":536,"feature_count_after":536,"unique_real_site_project_before":377,"unique_real_site_project_after":377,"duplicate_count_new":0,"zero_result":true,"source_queue_exhausted":true,"nearest_match_used":false,"parcel_match_used":false,"geometry_inference_used":false,"fake_data":false,"mirror_only":true,"next_source_index":13,"next_source_window_index":0,"next_batch_index":189}}