{"type":"FeatureCollection","features":[{"type":"Feature","id":"CHERWELL_23_00528_F_REPLACEMENT_OUTBUILDING_01","geometry":null,"properties":{"slot_id":"planned_buildings_4","owner":"planned_buildings_4","lineage_id":"pb4-8debc7c8ddf348a2","page_generation":1,"partition":"layer24","schema":"AAYS_LAYER24_EVIDENCE_V1","semantic_mode":"PLANNED_BUILDINGS_OFFICIAL_REFERENCE_DISTINCT_STRUCTURE","batch_id":"20261004T174750Z-cherwell-23-00528-f-window-001","publisher":"Cherwell District Council","source_family":"CHERWELL_PLANNING_REGISTER","source_url":"https://planningregister.cherwell.gov.uk/Planning/Display/23/00528/F","final_url":"https://planningregister.cherwell.gov.uk/Planning/Display/23/00528/F","access_utc":"2026-10-04T17:47:50Z","data_date":"2023-03-01","license":"Public planning register; document copyright/usage remains governed by council register terms","planning_reference":"23/00528/F","location":"Poplars Cottage The Paddocks Mollington Oxfordshire OX17 1BW","proposal":"Demolish existing modern conservatory; erection of kitchen extension in place of conservatory; replace brick outbuilding; and replace garage","status":"Application Permitted","geometry_status":"NOT_MATERIALIZED_LOCAL_OPENCODE","field_evidence":"Official Cherwell District Council Planning Register application 23/00528/F. Application Type: Full Development. Status: Application Permitted. Valid date: 01/03/2023. Location: Poplars Cottage The Paddocks Mollington Oxfordshire OX17 1BW. Proposal: Demolish existing modern conservatory; erection of kitchen extension in place of conservatory; replace brick outbuilding; and replace garage. Decision: Permitted. Decision Issued Date: 30/06/2023. Official documents include Proposed site layout drawing WG1280 006 revision A; Proposed floor plans drawing WG1280 007 revision C; Proposed elevations drawing WG1280 008 revision C; Proposed outbuilding elevations drawing WG1280 009 revision A; and dedicated Proposed garage elevations/floor plans drawing WG1280 010 revision A. The official proposal explicitly identifies two distinct replacement structures: a replacement brick outbuilding and a replacement garage. The kitchen extension replaces the existing conservatory and remains attached to the existing dwelling, so it is not counted as an additional distinct new structure. The proposed site layout and dedicated outbuilding/garage drawings independently support the two planned structures. Geometry/materialization is deferred to local OpenCode.","evidence_slice_sha256":"8a0806d5c13a94fa504ec3fc7a9697c7bdf6d5b554f60b2f687e96ecdffdea06","confidence":0.99,"evidence_grade":"A_OFFICIAL_LOCAL_AUTHORITY_PLANNING_REGISTER_TWO_DISTINCT_REPLACEMENT_STRUCTURES_PERMITTED","fake_data":false,"source_record_id":"CHERWELL_23_00528_F_REPLACEMENT_OUTBUILDING_01","planned_building":"replacement brick outbuilding","official_plan_reference":"WG1280 006-A; WG1280 009-A","official_plan_description":"Proposed site layout; Proposed outbuilding elevations"}},{"type":"Feature","id":"CHERWELL_23_00528_F_REPLACEMENT_GARAGE_02","geometry":null,"properties":{"slot_id":"planned_buildings_4","owner":"planned_buildings_4","lineage_id":"pb4-8debc7c8ddf348a2","page_generation":1,"partition":"layer24","schema":"AAYS_LAYER24_EVIDENCE_V1","semantic_mode":"PLANNED_BUILDINGS_OFFICIAL_REFERENCE_DISTINCT_STRUCTURE","batch_id":"20261004T174750Z-cherwell-23-00528-f-window-001","publisher":"Cherwell District Council","source_family":"CHERWELL_PLANNING_REGISTER","source_url":"https://planningregister.cherwell.gov.uk/Planning/Display/23/00528/F","final_url":"https://planningregister.cherwell.gov.uk/Planning/Display/23/00528/F","access_utc":"2026-10-04T17:47:50Z","data_date":"2023-03-01","license":"Public planning register; document copyright/usage remains governed by council register terms","planning_reference":"23/00528/F","location":"Poplars Cottage The Paddocks Mollington Oxfordshire OX17 1BW","proposal":"Demolish existing modern conservatory; erection of kitchen extension in place of conservatory; replace brick outbuilding; and replace garage","status":"Application Permitted","geometry_status":"NOT_MATERIALIZED_LOCAL_OPENCODE","field_evidence":"Official Cherwell District Council Planning Register application 23/00528/F. Application Type: Full Development. Status: Application Permitted. Valid date: 01/03/2023. Location: Poplars Cottage The Paddocks Mollington Oxfordshire OX17 1BW. Proposal: Demolish existing modern conservatory; erection of kitchen extension in place of conservatory; replace brick outbuilding; and replace garage. Decision: Permitted. Decision Issued Date: 30/06/2023. Official documents include Proposed site layout drawing WG1280 006 revision A; Proposed floor plans drawing WG1280 007 revision C; Proposed elevations drawing WG1280 008 revision C; Proposed outbuilding elevations drawing WG1280 009 revision A; and dedicated Proposed garage elevations/floor plans drawing WG1280 010 revision A. The official proposal explicitly identifies two distinct replacement structures: a replacement brick outbuilding and a replacement garage. The kitchen extension replaces the existing conservatory and remains attached to the existing dwelling, so it is not counted as an additional distinct new structure. The proposed site layout and dedicated outbuilding/garage drawings independently support the two planned structures. Geometry/materialization is deferred to local OpenCode.","evidence_slice_sha256":"8a0806d5c13a94fa504ec3fc7a9697c7bdf6d5b554f60b2f687e96ecdffdea06","confidence":0.99,"evidence_grade":"A_OFFICIAL_LOCAL_AUTHORITY_PLANNING_REGISTER_TWO_DISTINCT_REPLACEMENT_STRUCTURES_PERMITTED","fake_data":false,"source_record_id":"CHERWELL_23_00528_F_REPLACEMENT_GARAGE_02","planned_building":"replacement garage","official_plan_reference":"WG1280 006-A; WG1280 010-A","official_plan_description":"Proposed site layout; Proposed garage elevations/floor plans"}}]}
