{
  "type": "FeatureCollection",
  "features": [
    {
      "type": "Feature",
      "id": "met-campden-on-the-team:2026-07",
      "geometry": null,
      "properties": {
        "evidence_scope": "coverage_area",
        "coverage_area_id": "/area/your-area/met/kensington-and-chelsea/campden/on-the-team/top-reported-crimes-in-this-area",
        "coverage_area_name": "Campden",
        "identifier_scheme": "MET_POLICE_AREA_SCOPED_TEAM_PAGE_ROUTE",
        "exact_official_identifier": "/area/your-area/met/kensington-and-chelsea/campden/on-the-team/top-reported-crimes-in-this-area",
        "source_resolution": "MET_POLICE_OFFICIAL_CAMPDEN_ON_THE_TEAM_PAGE",
        "time_window": "2026-07",
        "measurement_date": "2026-07",
        "measurement_method": "official Metropolitan Police Campden area-scoped team page with July 2026 crime summary",
        "spatial_binding_method": "DEFERRED_TO_LOCAL_OPENCODE",
        "source_url": "https://www.met.police.uk/area/your-area/met/kensington-and-chelsea/campden/on-the-team/top-reported-crimes-in-this-area",
        "final_url": "https://www.met.police.uk/area/your-area/met/kensington-and-chelsea/campden/on-the-team/top-reported-crimes-in-this-area",
        "accessed_at_utc": "2026-10-02T17:05:00Z",
        "data_date": "2026-07",
        "licence": "NOT_STATED_ON_CAPTURED_PAGE",
        "sha256": "95560ebdee7f6c0fa9631a552ce12d2af069e669205126fb2cad48578c38f3dd",
        "field_evidence": {
          "page_title": "Campden | Your area | Metropolitan Police",
          "heading": "Campden",
          "team_heading": "Your Safer Neighbourhoods Team",
          "section": "On the team",
          "exact_official_identifier": "/area/your-area/met/kensington-and-chelsea/campden/on-the-team/top-reported-crimes-in-this-area",
          "team_members": [
            {
              "name": "Alexandra McDonagh",
              "role": "Superintendent"
            },
            {
              "name": "Charlotte Legg",
              "role": "Inspector"
            },
            {
              "name": "Jean-Pierre Carmier",
              "role": "Inspector"
            },
            {
              "name": "Alexander Purnell",
              "role": "Sergeant"
            },
            {
              "name": "Liam Szczepanski",
              "role": "Police Constable"
            },
            {
              "name": "Grace Quispe",
              "role": "PCSO"
            },
            {
              "name": "Sunny Spencer",
              "role": "Police Contable"
            }
          ],
          "reporting_period": "2026-07",
          "top_reported_crimes": {
            "Anti-social behaviour": 24,
            "Violence and sexual offences": 23,
            "Other theft": 21,
            "Shoplifting": 15
          },
          "source_url": "https://www.met.police.uk/area/your-area/met/kensington-and-chelsea/campden/on-the-team/top-reported-crimes-in-this-area",
          "accessed_at_utc": "2026-10-02T17:05:00Z"
        },
        "evidence_slice_sha256": "f3a32d5d46c1201ef89f3dca0564c98a9127da592543dcbfe6998eef00857bda",
        "confidence_score_0_100": 100,
        "evidence_grade": "A",
        "fake_data": false,
        "source_window_id": "met_campden_on_the_team_jul2026_sps5_20261002_v1",
        "cursor": "met_campden_on_the_team_jul2026_sps5_20261002_v1:record=1"
      }
    }
  ]
}
