{
  "type": "FeatureCollection",
  "features": [
    {
      "type": "Feature",
      "geometry": {
        "type": "Polygon",
        "coordinates": [
          [
            [
              -2.39912735885105,
              53.54674154492389
            ],
            [
              -2.398973637155222,
              53.546748350033944
            ],
            [
              -2.398952094355292,
              53.546576024455284
            ],
            [
              -2.399108833689085,
              53.546569209295335
            ],
            [
              -2.399101591947926,
              53.54650532595999
            ],
            [
              -2.398610551912334,
              53.54652619977603
            ],
            [
              -2.398598310338965,
              53.54641199805117
            ],
            [
              -2.39923946532122,
              53.54638621863334
            ],
            [
              -2.399290524597255,
              53.54684014198301
            ],
            [
              -2.399136642349644,
              53.546845959114485
            ],
            [
              -2.39912735885105,
              53.54674154492389
            ]
          ]
        ]
      },
      "properties": {
        "slot_id": "building_type_3",
        "lineage_id": "building_type_3-new-20260927T1328+0300",
        "owner": "cagdas aydin",
        "partition": "building_type_3",
        "page_generation": 61,
        "semantic_mode": null,
        "batch_id": "BT3-P110G61-20261008-GMFIRE-BOLTON10",
        "cursor": "BT3-P110G61-20261008-GMFIRE-BOLTON10-p110",
        "building_state": "BUILDING_PRESENT",
        "source_record_id": "os-openmap-local:important-building:EDC6B797-B613-4C20-BE55-A499BD541286",
        "semantic_identity": "os-openmap-local:important-building:EDC6B797-B613-4C20-BE55-A499BD541286",
        "source_row_ordinal": 1,
        "name": "Unknown",
        "building_type_use": "fire_station",
        "type_use_evidence": "OS CLASSIFICA=Fire Station; BUILDGTHEM=Emergency Service; FEATCODE=15023",
        "ID": "EDC6B797-B613-4C20-BE55-A499BD541286",
        "DISTNAME": "Unknown",
        "BUILDGTHEM": "Emergency Service",
        "CLASSIFICA": "Fire Station",
        "FEATCODE": 15023,
        "area_code": "E08000001",
        "area_name": "Bolton",
        "authority": "Ordnance Survey OS OpenMap Local via Trafford Data Lab",
        "source_url": "https://github.com/traffordDataLab/open_data/blob/834d8f847b874ccdef12d41d5e778dd108155feb/fire_stations/gm_fire_stations.geojson",
        "final_url": "https://github.com/traffordDataLab/open_data/blob/834d8f847b874ccdef12d41d5e778dd108155feb/fire_stations/gm_fire_stations.geojson",
        "http_status": 200,
        "access_utc": "2026-10-08T05:25:54.870Z",
        "data_date": "April 2018; source commit May 2018",
        "source_version": "OS OpenMap Local GM fire stations 2018-04 / blob e809a31f259e636cd9c3963aec063ebf9dc3dd95",
        "license": "Open Government Licence v3.0; Contains OS data © Crown copyright and database right 2018",
        "source_file_sha256": "bce185ba8766731a4fb2dfcefd94ae7325ee786675cb0cbb3dfb603ec1b29905",
        "field_evidence": [
          "ID",
          "DISTNAME",
          "BUILDGTHEM",
          "CLASSIFICA",
          "FEATCODE",
          "area_name",
          "geometry"
        ],
        "confidence_score_0_100": 96,
        "evidence_grade": "A_OS_OPENMAP_LOCAL_BUILDING_POLYGON",
        "fake_data": false,
        "evidence_slice_sha256": "d6e6133eee33e1fb048d4a6ba9d07ffc58937697a2d598bdebbd9d0d619fc9d4"
      }
    },
    {
      "type": "Feature",
      "geometry": {
        "type": "Polygon",
        "coordinates": [
          [
            [
              -2.398504094151957,
              53.54695323404456
            ],
            [
              -2.398479248193639,
              53.54673435949856
            ],
            [
              -2.398633430267821,
              53.546728362444384
            ],
            [
              -2.398647810546615,
              53.54686134277917
            ],
            [
              -2.398758539137199,
              53.546856479212195
            ],
            [
              -2.398768999068025,
              53.546941654330844
            ],
            [
              -2.398504094151957,
              53.54695323404456
            ]
          ]
        ]
      },
      "properties": {
        "slot_id": "building_type_3",
        "lineage_id": "building_type_3-new-20260927T1328+0300",
        "owner": "cagdas aydin",
        "partition": "building_type_3",
        "page_generation": 61,
        "semantic_mode": null,
        "batch_id": "BT3-P110G61-20261008-GMFIRE-BOLTON10",
        "cursor": "BT3-P110G61-20261008-GMFIRE-BOLTON10-p110",
        "building_state": "BUILDING_PRESENT",
        "source_record_id": "os-openmap-local:important-building:08C15D8D-65C0-4734-9BD5-E600622323BF",
        "semantic_identity": "os-openmap-local:important-building:08C15D8D-65C0-4734-9BD5-E600622323BF",
        "source_row_ordinal": 2,
        "name": "Unknown",
        "building_type_use": "fire_station",
        "type_use_evidence": "OS CLASSIFICA=Fire Station; BUILDGTHEM=Emergency Service; FEATCODE=15023",
        "ID": "08C15D8D-65C0-4734-9BD5-E600622323BF",
        "DISTNAME": "Unknown",
        "BUILDGTHEM": "Emergency Service",
        "CLASSIFICA": "Fire Station",
        "FEATCODE": 15023,
        "area_code": "E08000001",
        "area_name": "Bolton",
        "authority": "Ordnance Survey OS OpenMap Local via Trafford Data Lab",
        "source_url": "https://github.com/traffordDataLab/open_data/blob/834d8f847b874ccdef12d41d5e778dd108155feb/fire_stations/gm_fire_stations.geojson",
        "final_url": "https://github.com/traffordDataLab/open_data/blob/834d8f847b874ccdef12d41d5e778dd108155feb/fire_stations/gm_fire_stations.geojson",
        "http_status": 200,
        "access_utc": "2026-10-08T05:25:54.870Z",
        "data_date": "April 2018; source commit May 2018",
        "source_version": "OS OpenMap Local GM fire stations 2018-04 / blob e809a31f259e636cd9c3963aec063ebf9dc3dd95",
        "license": "Open Government Licence v3.0; Contains OS data © Crown copyright and database right 2018",
        "source_file_sha256": "bce185ba8766731a4fb2dfcefd94ae7325ee786675cb0cbb3dfb603ec1b29905",
        "field_evidence": [
          "ID",
          "DISTNAME",
          "BUILDGTHEM",
          "CLASSIFICA",
          "FEATCODE",
          "area_name",
          "geometry"
        ],
        "confidence_score_0_100": 96,
        "evidence_grade": "A_OS_OPENMAP_LOCAL_BUILDING_POLYGON",
        "fake_data": false,
        "evidence_slice_sha256": "d21e75706c6e0a3c90b58fcf84b3ff08855fa98837c9ed121cf96ee80c14ca67"
      }
    },
    {
      "type": "Feature",
      "geometry": {
        "type": "Polygon",
        "coordinates": [
          [
            [
              -2.398443427832955,
              53.546552104307864
            ],
            [
              -2.398576185539103,
              53.54654680793331
            ],
            [
              -2.398589197715231,
              53.54666271488374
            ],
            [
              -2.398456439648153,
              53.54666801127328
            ],
            [
              -2.398443427832955,
              53.546552104307864
            ]
          ]
        ]
      },
      "properties": {
        "slot_id": "building_type_3",
        "lineage_id": "building_type_3-new-20260927T1328+0300",
        "owner": "cagdas aydin",
        "partition": "building_type_3",
        "page_generation": 61,
        "semantic_mode": null,
        "batch_id": "BT3-P110G61-20261008-GMFIRE-BOLTON10",
        "cursor": "BT3-P110G61-20261008-GMFIRE-BOLTON10-p110",
        "building_state": "BUILDING_PRESENT",
        "source_record_id": "os-openmap-local:important-building:10E5CD25-8026-4DFC-A8A4-A47891A38CFE",
        "semantic_identity": "os-openmap-local:important-building:10E5CD25-8026-4DFC-A8A4-A47891A38CFE",
        "source_row_ordinal": 3,
        "name": "Unknown",
        "building_type_use": "fire_station",
        "type_use_evidence": "OS CLASSIFICA=Fire Station; BUILDGTHEM=Emergency Service; FEATCODE=15023",
        "ID": "10E5CD25-8026-4DFC-A8A4-A47891A38CFE",
        "DISTNAME": "Unknown",
        "BUILDGTHEM": "Emergency Service",
        "CLASSIFICA": "Fire Station",
        "FEATCODE": 15023,
        "area_code": "E08000001",
        "area_name": "Bolton",
        "authority": "Ordnance Survey OS OpenMap Local via Trafford Data Lab",
        "source_url": "https://github.com/traffordDataLab/open_data/blob/834d8f847b874ccdef12d41d5e778dd108155feb/fire_stations/gm_fire_stations.geojson",
        "final_url": "https://github.com/traffordDataLab/open_data/blob/834d8f847b874ccdef12d41d5e778dd108155feb/fire_stations/gm_fire_stations.geojson",
        "http_status": 200,
        "access_utc": "2026-10-08T05:25:54.870Z",
        "data_date": "April 2018; source commit May 2018",
        "source_version": "OS OpenMap Local GM fire stations 2018-04 / blob e809a31f259e636cd9c3963aec063ebf9dc3dd95",
        "license": "Open Government Licence v3.0; Contains OS data © Crown copyright and database right 2018",
        "source_file_sha256": "bce185ba8766731a4fb2dfcefd94ae7325ee786675cb0cbb3dfb603ec1b29905",
        "field_evidence": [
          "ID",
          "DISTNAME",
          "BUILDGTHEM",
          "CLASSIFICA",
          "FEATCODE",
          "area_name",
          "geometry"
        ],
        "confidence_score_0_100": 96,
        "evidence_grade": "A_OS_OPENMAP_LOCAL_BUILDING_POLYGON",
        "fake_data": false,
        "evidence_slice_sha256": "a8d2dbcfe48e5ea456c321ff04136de23b9f9805b1b3d0faa35a23508e2629db"
      }
    },
    {
      "type": "Feature",
      "geometry": {
        "type": "Polygon",
        "coordinates": [
          [
            [
              -2.416128929385483,
              53.597545579960105
            ],
            [
              -2.416206468161661,
              53.5973483758669
            ],
            [
              -2.41644402107277,
              53.59738170453858
            ],
            [
              -2.416487505679696,
              53.597270996670396
            ],
            [
              -2.416647130262922,
              53.597292911478675
            ],
            [
              -2.416527464452923,
              53.59760036961193
            ],
            [
              -2.416128929385483,
              53.597545579960105
            ]
          ]
        ]
      },
      "properties": {
        "slot_id": "building_type_3",
        "lineage_id": "building_type_3-new-20260927T1328+0300",
        "owner": "cagdas aydin",
        "partition": "building_type_3",
        "page_generation": 61,
        "semantic_mode": null,
        "batch_id": "BT3-P110G61-20261008-GMFIRE-BOLTON10",
        "cursor": "BT3-P110G61-20261008-GMFIRE-BOLTON10-p110",
        "building_state": "BUILDING_PRESENT",
        "source_record_id": "os-openmap-local:important-building:0444DA05-E6A4-429A-B72B-2CEA3449B743",
        "semantic_identity": "os-openmap-local:important-building:0444DA05-E6A4-429A-B72B-2CEA3449B743",
        "source_row_ordinal": 4,
        "name": "Unknown",
        "building_type_use": "fire_station",
        "type_use_evidence": "OS CLASSIFICA=Fire Station; BUILDGTHEM=Emergency Service; FEATCODE=15023",
        "ID": "0444DA05-E6A4-429A-B72B-2CEA3449B743",
        "DISTNAME": "Unknown",
        "BUILDGTHEM": "Emergency Service",
        "CLASSIFICA": "Fire Station",
        "FEATCODE": 15023,
        "area_code": "E08000001",
        "area_name": "Bolton",
        "authority": "Ordnance Survey OS OpenMap Local via Trafford Data Lab",
        "source_url": "https://github.com/traffordDataLab/open_data/blob/834d8f847b874ccdef12d41d5e778dd108155feb/fire_stations/gm_fire_stations.geojson",
        "final_url": "https://github.com/traffordDataLab/open_data/blob/834d8f847b874ccdef12d41d5e778dd108155feb/fire_stations/gm_fire_stations.geojson",
        "http_status": 200,
        "access_utc": "2026-10-08T05:25:54.870Z",
        "data_date": "April 2018; source commit May 2018",
        "source_version": "OS OpenMap Local GM fire stations 2018-04 / blob e809a31f259e636cd9c3963aec063ebf9dc3dd95",
        "license": "Open Government Licence v3.0; Contains OS data © Crown copyright and database right 2018",
        "source_file_sha256": "bce185ba8766731a4fb2dfcefd94ae7325ee786675cb0cbb3dfb603ec1b29905",
        "field_evidence": [
          "ID",
          "DISTNAME",
          "BUILDGTHEM",
          "CLASSIFICA",
          "FEATCODE",
          "area_name",
          "geometry"
        ],
        "confidence_score_0_100": 96,
        "evidence_grade": "A_OS_OPENMAP_LOCAL_BUILDING_POLYGON",
        "fake_data": false,
        "evidence_slice_sha256": "7a0739537c92672e2524f068213716ec7823786a9a20f9f03bf7db68c779c50a"
      }
    },
    {
      "type": "Feature",
      "geometry": {
        "type": "Polygon",
        "coordinates": [
          [
            [
              -2.41612106157403,
              53.59740619837078
            ],
            [
              -2.416097474263915,
              53.5974660528218
            ],
            [
              -2.415927859445642,
              53.59744237436024
            ],
            [
              -2.415951446982671,
              53.59738251994201
            ],
            [
              -2.41612106157403,
              53.59740619837078
            ]
          ]
        ]
      },
      "properties": {
        "slot_id": "building_type_3",
        "lineage_id": "building_type_3-new-20260927T1328+0300",
        "owner": "cagdas aydin",
        "partition": "building_type_3",
        "page_generation": 61,
        "semantic_mode": null,
        "batch_id": "BT3-P110G61-20261008-GMFIRE-BOLTON10",
        "cursor": "BT3-P110G61-20261008-GMFIRE-BOLTON10-p110",
        "building_state": "BUILDING_PRESENT",
        "source_record_id": "os-openmap-local:important-building:D5298574-958F-4B81-9E10-FF72AC96945E",
        "semantic_identity": "os-openmap-local:important-building:D5298574-958F-4B81-9E10-FF72AC96945E",
        "source_row_ordinal": 5,
        "name": "Unknown",
        "building_type_use": "fire_station",
        "type_use_evidence": "OS CLASSIFICA=Fire Station; BUILDGTHEM=Emergency Service; FEATCODE=15023",
        "ID": "D5298574-958F-4B81-9E10-FF72AC96945E",
        "DISTNAME": "Unknown",
        "BUILDGTHEM": "Emergency Service",
        "CLASSIFICA": "Fire Station",
        "FEATCODE": 15023,
        "area_code": "E08000001",
        "area_name": "Bolton",
        "authority": "Ordnance Survey OS OpenMap Local via Trafford Data Lab",
        "source_url": "https://github.com/traffordDataLab/open_data/blob/834d8f847b874ccdef12d41d5e778dd108155feb/fire_stations/gm_fire_stations.geojson",
        "final_url": "https://github.com/traffordDataLab/open_data/blob/834d8f847b874ccdef12d41d5e778dd108155feb/fire_stations/gm_fire_stations.geojson",
        "http_status": 200,
        "access_utc": "2026-10-08T05:25:54.870Z",
        "data_date": "April 2018; source commit May 2018",
        "source_version": "OS OpenMap Local GM fire stations 2018-04 / blob e809a31f259e636cd9c3963aec063ebf9dc3dd95",
        "license": "Open Government Licence v3.0; Contains OS data © Crown copyright and database right 2018",
        "source_file_sha256": "bce185ba8766731a4fb2dfcefd94ae7325ee786675cb0cbb3dfb603ec1b29905",
        "field_evidence": [
          "ID",
          "DISTNAME",
          "BUILDGTHEM",
          "CLASSIFICA",
          "FEATCODE",
          "area_name",
          "geometry"
        ],
        "confidence_score_0_100": 96,
        "evidence_grade": "A_OS_OPENMAP_LOCAL_BUILDING_POLYGON",
        "fake_data": false,
        "evidence_slice_sha256": "67856f8e64ae5ed0124ff830b7063f2fbbd6776e81f5d0f9dd614a1ffceb6298"
      }
    },
    {
      "type": "Feature",
      "geometry": {
        "type": "Polygon",
        "coordinates": [
          [
            [
              -2.415866786843933,
              53.597147320171516
            ],
            [
              -2.415959077134284,
              53.59715958286512
            ],
            [
              -2.415926680323944,
              53.59724553407719
            ],
            [
              -2.415834389855382,
              53.59723327135912
            ],
            [
              -2.415866786843933,
              53.597147320171516
            ]
          ]
        ]
      },
      "properties": {
        "slot_id": "building_type_3",
        "lineage_id": "building_type_3-new-20260927T1328+0300",
        "owner": "cagdas aydin",
        "partition": "building_type_3",
        "page_generation": 61,
        "semantic_mode": null,
        "batch_id": "BT3-P110G61-20261008-GMFIRE-BOLTON10",
        "cursor": "BT3-P110G61-20261008-GMFIRE-BOLTON10-p110",
        "building_state": "BUILDING_PRESENT",
        "source_record_id": "os-openmap-local:important-building:C7678968-C8D4-4A25-9EF9-6914B7D954EA",
        "semantic_identity": "os-openmap-local:important-building:C7678968-C8D4-4A25-9EF9-6914B7D954EA",
        "source_row_ordinal": 6,
        "name": "Unknown",
        "building_type_use": "fire_station",
        "type_use_evidence": "OS CLASSIFICA=Fire Station; BUILDGTHEM=Emergency Service; FEATCODE=15023",
        "ID": "C7678968-C8D4-4A25-9EF9-6914B7D954EA",
        "DISTNAME": "Unknown",
        "BUILDGTHEM": "Emergency Service",
        "CLASSIFICA": "Fire Station",
        "FEATCODE": 15023,
        "area_code": "E08000001",
        "area_name": "Bolton",
        "authority": "Ordnance Survey OS OpenMap Local via Trafford Data Lab",
        "source_url": "https://github.com/traffordDataLab/open_data/blob/834d8f847b874ccdef12d41d5e778dd108155feb/fire_stations/gm_fire_stations.geojson",
        "final_url": "https://github.com/traffordDataLab/open_data/blob/834d8f847b874ccdef12d41d5e778dd108155feb/fire_stations/gm_fire_stations.geojson",
        "http_status": 200,
        "access_utc": "2026-10-08T05:25:54.870Z",
        "data_date": "April 2018; source commit May 2018",
        "source_version": "OS OpenMap Local GM fire stations 2018-04 / blob e809a31f259e636cd9c3963aec063ebf9dc3dd95",
        "license": "Open Government Licence v3.0; Contains OS data © Crown copyright and database right 2018",
        "source_file_sha256": "bce185ba8766731a4fb2dfcefd94ae7325ee786675cb0cbb3dfb603ec1b29905",
        "field_evidence": [
          "ID",
          "DISTNAME",
          "BUILDGTHEM",
          "CLASSIFICA",
          "FEATCODE",
          "area_name",
          "geometry"
        ],
        "confidence_score_0_100": 96,
        "evidence_grade": "A_OS_OPENMAP_LOCAL_BUILDING_POLYGON",
        "fake_data": false,
        "evidence_slice_sha256": "6a5358aa05c0ebb92128c1b925d9d2c4975c0676922e2e611e5c80912a7fd7cf"
      }
    },
    {
      "type": "Feature",
      "geometry": {
        "type": "Polygon",
        "coordinates": [
          [
            [
              -2.435198867516977,
              53.575544510856254
            ],
            [
              -2.434830505567254,
              53.57552769455638
            ],
            [
              -2.434899043528777,
              53.57501043436939
            ],
            [
              -2.435604810226872,
              53.57504507702643
            ],
            [
              -2.435575584503774,
              53.57525766852218
            ],
            [
              -2.435362093104333,
              53.57524792968501
            ],
            [
              -2.435372629244112,
              53.57517104077402
            ],
            [
              -2.435249036932107,
              53.57516537865439
            ],
            [
              -2.435198867516977,
              53.575544510856254
            ]
          ]
        ]
      },
      "properties": {
        "slot_id": "building_type_3",
        "lineage_id": "building_type_3-new-20260927T1328+0300",
        "owner": "cagdas aydin",
        "partition": "building_type_3",
        "page_generation": 61,
        "semantic_mode": null,
        "batch_id": "BT3-P110G61-20261008-GMFIRE-BOLTON10",
        "cursor": "BT3-P110G61-20261008-GMFIRE-BOLTON10-p110",
        "building_state": "BUILDING_PRESENT",
        "source_record_id": "os-openmap-local:important-building:9F9B3F02-F997-4E73-AE49-19173E82CBD3",
        "semantic_identity": "os-openmap-local:important-building:9F9B3F02-F997-4E73-AE49-19173E82CBD3",
        "source_row_ordinal": 7,
        "name": "Unknown",
        "building_type_use": "fire_station",
        "type_use_evidence": "OS CLASSIFICA=Fire Station; BUILDGTHEM=Emergency Service; FEATCODE=15023",
        "ID": "9F9B3F02-F997-4E73-AE49-19173E82CBD3",
        "DISTNAME": "Unknown",
        "BUILDGTHEM": "Emergency Service",
        "CLASSIFICA": "Fire Station",
        "FEATCODE": 15023,
        "area_code": "E08000001",
        "area_name": "Bolton",
        "authority": "Ordnance Survey OS OpenMap Local via Trafford Data Lab",
        "source_url": "https://github.com/traffordDataLab/open_data/blob/834d8f847b874ccdef12d41d5e778dd108155feb/fire_stations/gm_fire_stations.geojson",
        "final_url": "https://github.com/traffordDataLab/open_data/blob/834d8f847b874ccdef12d41d5e778dd108155feb/fire_stations/gm_fire_stations.geojson",
        "http_status": 200,
        "access_utc": "2026-10-08T05:25:54.870Z",
        "data_date": "April 2018; source commit May 2018",
        "source_version": "OS OpenMap Local GM fire stations 2018-04 / blob e809a31f259e636cd9c3963aec063ebf9dc3dd95",
        "license": "Open Government Licence v3.0; Contains OS data © Crown copyright and database right 2018",
        "source_file_sha256": "bce185ba8766731a4fb2dfcefd94ae7325ee786675cb0cbb3dfb603ec1b29905",
        "field_evidence": [
          "ID",
          "DISTNAME",
          "BUILDGTHEM",
          "CLASSIFICA",
          "FEATCODE",
          "area_name",
          "geometry"
        ],
        "confidence_score_0_100": 96,
        "evidence_grade": "A_OS_OPENMAP_LOCAL_BUILDING_POLYGON",
        "fake_data": false,
        "evidence_slice_sha256": "0b929506da8424c8c144ec67f99e16aa2bad85ca25f1f92f10034c43d85494c8"
      }
    },
    {
      "type": "Feature",
      "geometry": {
        "type": "Polygon",
        "coordinates": [
          [
            [
              -2.436107610254044,
              53.57547594419933
            ],
            [
              -2.435939738075572,
              53.57546738824562
            ],
            [
              -2.435958760516899,
              53.575334740461244
            ],
            [
              -2.436126632173474,
              53.575343296389484
            ],
            [
              -2.436107610254044,
              53.57547594419933
            ]
          ]
        ]
      },
      "properties": {
        "slot_id": "building_type_3",
        "lineage_id": "building_type_3-new-20260927T1328+0300",
        "owner": "cagdas aydin",
        "partition": "building_type_3",
        "page_generation": 61,
        "semantic_mode": null,
        "batch_id": "BT3-P110G61-20261008-GMFIRE-BOLTON10",
        "cursor": "BT3-P110G61-20261008-GMFIRE-BOLTON10-p110",
        "building_state": "BUILDING_PRESENT",
        "source_record_id": "os-openmap-local:important-building:C9C99613-C7D9-41A5-AEEB-5A1F22DDBC22",
        "semantic_identity": "os-openmap-local:important-building:C9C99613-C7D9-41A5-AEEB-5A1F22DDBC22",
        "source_row_ordinal": 8,
        "name": "Unknown",
        "building_type_use": "fire_station",
        "type_use_evidence": "OS CLASSIFICA=Fire Station; BUILDGTHEM=Emergency Service; FEATCODE=15023",
        "ID": "C9C99613-C7D9-41A5-AEEB-5A1F22DDBC22",
        "DISTNAME": "Unknown",
        "BUILDGTHEM": "Emergency Service",
        "CLASSIFICA": "Fire Station",
        "FEATCODE": 15023,
        "area_code": "E08000001",
        "area_name": "Bolton",
        "authority": "Ordnance Survey OS OpenMap Local via Trafford Data Lab",
        "source_url": "https://github.com/traffordDataLab/open_data/blob/834d8f847b874ccdef12d41d5e778dd108155feb/fire_stations/gm_fire_stations.geojson",
        "final_url": "https://github.com/traffordDataLab/open_data/blob/834d8f847b874ccdef12d41d5e778dd108155feb/fire_stations/gm_fire_stations.geojson",
        "http_status": 200,
        "access_utc": "2026-10-08T05:25:54.870Z",
        "data_date": "April 2018; source commit May 2018",
        "source_version": "OS OpenMap Local GM fire stations 2018-04 / blob e809a31f259e636cd9c3963aec063ebf9dc3dd95",
        "license": "Open Government Licence v3.0; Contains OS data © Crown copyright and database right 2018",
        "source_file_sha256": "bce185ba8766731a4fb2dfcefd94ae7325ee786675cb0cbb3dfb603ec1b29905",
        "field_evidence": [
          "ID",
          "DISTNAME",
          "BUILDGTHEM",
          "CLASSIFICA",
          "FEATCODE",
          "area_name",
          "geometry"
        ],
        "confidence_score_0_100": 96,
        "evidence_grade": "A_OS_OPENMAP_LOCAL_BUILDING_POLYGON",
        "fake_data": false,
        "evidence_slice_sha256": "700d1e3089cdc265baf23549a55121134e20f3e4259899402d86eca4fe106bca"
      }
    },
    {
      "type": "Feature",
      "geometry": {
        "type": "Polygon",
        "coordinates": [
          [
            [
              -2.435388416683167,
              53.575516855679666
            ],
            [
              -2.436093432496787,
              53.57555104878175
            ],
            [
              -2.436081217721056,
              53.57564079724133
            ],
            [
              -2.43537558619787,
              53.5756056175869
            ],
            [
              -2.435388416683167,
              53.575516855679666
            ]
          ]
        ]
      },
      "properties": {
        "slot_id": "building_type_3",
        "lineage_id": "building_type_3-new-20260927T1328+0300",
        "owner": "cagdas aydin",
        "partition": "building_type_3",
        "page_generation": 61,
        "semantic_mode": null,
        "batch_id": "BT3-P110G61-20261008-GMFIRE-BOLTON10",
        "cursor": "BT3-P110G61-20261008-GMFIRE-BOLTON10-p110",
        "building_state": "BUILDING_PRESENT",
        "source_record_id": "os-openmap-local:important-building:609C65F7-0E67-48B5-A3C2-E56D40A978A7",
        "semantic_identity": "os-openmap-local:important-building:609C65F7-0E67-48B5-A3C2-E56D40A978A7",
        "source_row_ordinal": 9,
        "name": "Unknown",
        "building_type_use": "fire_station",
        "type_use_evidence": "OS CLASSIFICA=Fire Station; BUILDGTHEM=Emergency Service; FEATCODE=15023",
        "ID": "609C65F7-0E67-48B5-A3C2-E56D40A978A7",
        "DISTNAME": "Unknown",
        "BUILDGTHEM": "Emergency Service",
        "CLASSIFICA": "Fire Station",
        "FEATCODE": 15023,
        "area_code": "E08000001",
        "area_name": "Bolton",
        "authority": "Ordnance Survey OS OpenMap Local via Trafford Data Lab",
        "source_url": "https://github.com/traffordDataLab/open_data/blob/834d8f847b874ccdef12d41d5e778dd108155feb/fire_stations/gm_fire_stations.geojson",
        "final_url": "https://github.com/traffordDataLab/open_data/blob/834d8f847b874ccdef12d41d5e778dd108155feb/fire_stations/gm_fire_stations.geojson",
        "http_status": 200,
        "access_utc": "2026-10-08T05:25:54.870Z",
        "data_date": "April 2018; source commit May 2018",
        "source_version": "OS OpenMap Local GM fire stations 2018-04 / blob e809a31f259e636cd9c3963aec063ebf9dc3dd95",
        "license": "Open Government Licence v3.0; Contains OS data © Crown copyright and database right 2018",
        "source_file_sha256": "bce185ba8766731a4fb2dfcefd94ae7325ee786675cb0cbb3dfb603ec1b29905",
        "field_evidence": [
          "ID",
          "DISTNAME",
          "BUILDGTHEM",
          "CLASSIFICA",
          "FEATCODE",
          "area_name",
          "geometry"
        ],
        "confidence_score_0_100": 96,
        "evidence_grade": "A_OS_OPENMAP_LOCAL_BUILDING_POLYGON",
        "fake_data": false,
        "evidence_slice_sha256": "7834dc916135b3a361e4f881c0094cb3925f210f22caad90686f8a725b29ee3e"
      }
    },
    {
      "type": "Feature",
      "geometry": {
        "type": "Polygon",
        "coordinates": [
          [
            [
              -2.547807364611515,
              53.59547496274963
            ],
            [
              -2.547989124849941,
              53.595579653736046
            ],
            [
              -2.547798305548023,
              53.595697286927454
            ],
            [
              -2.547491107798949,
              53.59552018424337
            ],
            [
              -2.547762578599578,
              53.595353375286905
            ],
            [
              -2.547887861465198,
              53.595425517471
            ],
            [
              -2.547807364611515,
              53.59547496274963
            ]
          ]
        ]
      },
      "properties": {
        "slot_id": "building_type_3",
        "lineage_id": "building_type_3-new-20260927T1328+0300",
        "owner": "cagdas aydin",
        "partition": "building_type_3",
        "page_generation": 61,
        "semantic_mode": null,
        "batch_id": "BT3-P110G61-20261008-GMFIRE-BOLTON10",
        "cursor": "BT3-P110G61-20261008-GMFIRE-BOLTON10-p110",
        "building_state": "BUILDING_PRESENT",
        "source_record_id": "os-openmap-local:important-building:E58C1E64-B980-40BD-911E-AE54193BA8C1",
        "semantic_identity": "os-openmap-local:important-building:E58C1E64-B980-40BD-911E-AE54193BA8C1",
        "source_row_ordinal": 10,
        "name": "Unknown",
        "building_type_use": "fire_station",
        "type_use_evidence": "OS CLASSIFICA=Fire Station; BUILDGTHEM=Emergency Service; FEATCODE=15023",
        "ID": "E58C1E64-B980-40BD-911E-AE54193BA8C1",
        "DISTNAME": "Unknown",
        "BUILDGTHEM": "Emergency Service",
        "CLASSIFICA": "Fire Station",
        "FEATCODE": 15023,
        "area_code": "E08000001",
        "area_name": "Bolton",
        "authority": "Ordnance Survey OS OpenMap Local via Trafford Data Lab",
        "source_url": "https://github.com/traffordDataLab/open_data/blob/834d8f847b874ccdef12d41d5e778dd108155feb/fire_stations/gm_fire_stations.geojson",
        "final_url": "https://github.com/traffordDataLab/open_data/blob/834d8f847b874ccdef12d41d5e778dd108155feb/fire_stations/gm_fire_stations.geojson",
        "http_status": 200,
        "access_utc": "2026-10-08T05:25:54.870Z",
        "data_date": "April 2018; source commit May 2018",
        "source_version": "OS OpenMap Local GM fire stations 2018-04 / blob e809a31f259e636cd9c3963aec063ebf9dc3dd95",
        "license": "Open Government Licence v3.0; Contains OS data © Crown copyright and database right 2018",
        "source_file_sha256": "bce185ba8766731a4fb2dfcefd94ae7325ee786675cb0cbb3dfb603ec1b29905",
        "field_evidence": [
          "ID",
          "DISTNAME",
          "BUILDGTHEM",
          "CLASSIFICA",
          "FEATCODE",
          "area_name",
          "geometry"
        ],
        "confidence_score_0_100": 96,
        "evidence_grade": "A_OS_OPENMAP_LOCAL_BUILDING_POLYGON",
        "fake_data": false,
        "evidence_slice_sha256": "62689b9794ab6a78cf6bd2664193a499f0398d17ebecd04b5d0fe035ea8b283d"
      }
    }
  ]
}
