{"type":"FeatureCollection","features":[{"type":"Feature","geometry":null,"properties":{"slot_id":"future_growth_7","lineage_id":"future_growth_7_open_source_v2_20260813","page_generation":null,"batch_id":"batch_20261001T073200Z_lbcblr004","future_growth_evidence_type":"brownfield_land_exact_official_identifier","official_entity_id":1702406,"official_reference":"LBCBLR004","dataset":"brownfield-land","organisation":"London Borough of Camden","source_url":"https://www.planning.data.gov.uk/entity/1702406","final_url":"https://www.planning.data.gov.uk/entity/1702406","accessed_utc":"2026-10-01T04:32:00Z","data_date":"2025-12-07","field_evidence":{"future_growth":["dataset=brownfield-land","quality=authoritative","typology=geography"],"identifier":["entity=1702406","reference=LBCBLR004"],"coverage":["point=POINT (-0.18503 51.547748)","geometry not present; exact identifier retained for local canonical spatial resolution"]},"evidence_slice_sha256":"a9aa1193e888c4bccf0bacfd36b48e0fca729509f1604bb55bafcdb5c5f77982","evidence_grade":"A_EXACT_OFFICIAL_IDENTIFIER","confidence_score_0_100":92,"fake_data":false}}]}