{"type":"FeatureCollection","features":[{"type":"Feature","id":"PLANNINGDATA_LBO_42150173","geometry":{"type":"MultiPolygon","coordinates":[[[[-2.262773,53.48394],[-2.26278,53.484128],[-2.263346,53.484123],[-2.263343,53.483932],[-2.263162,53.483934],[-2.263162,53.483921],[-2.263102,53.483921],[-2.263092,53.483905],[-2.263061,53.483895],[-2.263016,53.483902],[-2.263,53.483923],[-2.262952,53.483924],[-2.262952,53.483936],[-2.262773,53.48394]]]]},"properties":{"slot_id":"building_type_3","lineage_id":"building_type_3-new-20260927T1328+0300","batch_id":"BT3-P71G61-20261005-PLANNINGDATA-LBO42150173","cursor":"BT3-P71G61-20261005-PLANNINGDATA-LBO42150173-p71","building_state":"BUILDING_PRESENT","source_record_id":"reference=LBIW23;outline_entity=42150173","entity":42150173,"reference":"LBIW23","name":"Church of St Philip","building_type_use":"church","type_use_evidence":"official_name_exact=Church of St Philip","dataset":"listed-building-outline","quality":"authoritative","start_date":"","entry_date":"2025-08-21","organisation":"Salford City Council","source_url":"https://www.planning.data.gov.uk/entity/42150173","final_url":"https://www.planning.data.gov.uk/entity/42150173","source_version":"Planning Data listed-building-outline entity 42150173 reference LBIW23; authoritative Salford City Council record","access_utc":"2026-10-05T04:42:10Z","data_date":"2025-08-21","license":"Open Government Licence v3.0; © Crown copyright and database right 2025","source_file_sha256":"afdbf06de8d075468eac03ccfef271188db469918b59aef6363681ecf6e93aa5","evidence_slice_sha256":"e97d6addedca130b80bb219c9ad2d24dd8f90af5605b0c19e4b21ffb381e4741","field_evidence":["entity","reference","name","quality","dataset","organisation","entry-date","geometry","point","listed-building","organisation-curie"],"confidence_score_0_100":99,"evidence_grade":"A_OFFICIAL_GOVERNMENT_BUILDING_OUTLINE_AND_NAMED_TYPE_USE","fake_data":false}}]}
