{"type":"FeatureCollection","features":[{"type":"Feature","id":"planning-data-brownfield-land:1736091","geometry":null,"properties":{"slot_id":"future_growth_4","lineage_id":"fg4-e4c9076d6f554f00","page_generation":1,"owner":"future_growth_4","partition":"future_growth","semantic_mode":"SOURCE_AREA_EXACT_IDENTIFIER","dataset":"planning-data-brownfield-land","entity":1736091,"reference":"RG012","quality":"authoritative","organisation":"London Borough of Lewisham","name":"RG012","site_address":"Catford Island","source_url":"https://www.planning.data.gov.uk/entity/1736091","final_url":"https://www.planning.data.gov.uk/entity/1736091","access_utc":"2026-10-02T16:03:32Z","data_date":"2025-12-08","license":"Open Government Licence v3.0","field_evidence":{"entity":1736091,"reference":"RG012","organisation":"London Borough of Lewisham","site_address":"Catford Island","point":"POINT (-0.0185 51.445)","hectares":2.3,"deliverable":"yes","ownership_status":"not-owned-by-a-public-authority","minimum_net_dwellings":602,"maximum_net_dwellings":602,"planning_permission_date":"2021-08-11","planning_permission_type":"full-planning-permission","planning_permission_status":"not-permissioned","notes":"Site Allocation LCA SA18 for 602 residential units including employment floorspace and main town centre floorspace. Lapsed DC/20/117525 for mixed use development including 52 residential units and commercial space."},"evidence_slice_sha256":"ab16c94294fdca67524d2aa48669eabdcc4c3584a1fea63fd94846e6b89b4a6e","confidence_score_0_100":99,"confidence":0.99,"evidence_grade":"A","exact_identifier_provided":true,"coverage_polygon_provided":false,"point":"POINT (-0.0185 51.445)","geojson_download_link_exposed":true,"fake_data":false,"join_mode":"LOCAL_OPENCODE_SPATIAL_JOIN_PENDING","direct_parcel":false,"source_area_count_contribution":1,"planned_building_count_contribution":0}}]}