{
  "type": "FeatureCollection",
  "features": [
    {
      "type": "Feature",
      "id": "planning-data:brownfield-site:1802537",
      "properties": {
        "slot_id": "future_growth_4",
        "lineage_id": "fg4-e4c9076d6f554f00",
        "page_generation": 1,
        "owner": "future_growth_4",
        "partition": "future_growth",
        "semantic_mode": "SOURCE_AREA_EXACT_IDENTIFIER",
        "batch_id": "20261009T010732Z_b027_BROWNFIELD_1802537",
        "dataset": "brownfield-site",
        "entity": 1802537,
        "reference": "OPDC/BLR/35",
        "semantic_identity": "planning-data:brownfield-site:1802537",
        "name": "ASDA, Park Royal",
        "organisation": "Old Oak and Park Royal Development Corporation",
        "source_url": "https://www.planning.data.gov.uk/entity/1802537",
        "final_url": "https://www.planning.data.gov.uk/entity/1802537",
        "http_status": "HTML_RETRIEVED_STATUS_NOT_EXPOSED_GEOJSON_CACHE_MISS",
        "access_utc": "2026-10-09T01:07:32.880Z",
        "data_date": "2020-12-22",
        "license": "Open Government Licence v3.0",
        "field_evidence": {
          "curie": "brownfield-site:OPDC/BLR/35",
          "prefix": "brownfield-site",
          "reference": "OPDC/BLR/35",
          "name": "ASDA, Park Royal",
          "dataset": "brownfield-site",
          "organisation-entity": "wikidata:Q20648596",
          "start-date": "",
          "end-date": "",
          "entry-date": "2020-12-22",
          "typology": "geography",
          "geometry": "MULTIPOLYGON (((-0.26755 51.527729, -0.268056 51.528474, -0.268581 51.529707, -0.26974 51.529331, -0.271319 51.528926, -0.270357 51.52714, -0.26755 51.527729)))",
          "point": "POINT (-0.269453 51.528367)",
          "entity": 1802537,
          "quality": "some",
          "brownfield-site": "OPDC/BLR/35"
        },
        "evidence_slice_sha256": "33af7307c6d01d385d99342ca8d24eb1f16f451d79ba47786fe74cc27ea78ce7",
        "geometry_sha256": "1634a88504a855ac434c24454c9425bc70b116eab8e2d56bf92226929c1d68dc",
        "confidence_score_0_100": 80,
        "confidence": 0.8,
        "evidence_grade": "B",
        "exact_identifier_provided": false,
        "coverage_polygon_provided": true,
        "fake_data": false,
        "join_mode": "LOCAL_OPENCODE_SPATIAL_JOIN_PENDING",
        "direct_parcel": false,
        "source_area_count_contribution": 1,
        "planned_building_count_contribution": 0
      },
      "geometry": {
        "type": "MultiPolygon",
        "coordinates": [
          [
            [
              [
                -0.26755,
                51.527729
              ],
              [
                -0.268056,
                51.528474
              ],
              [
                -0.268581,
                51.529707
              ],
              [
                -0.26974,
                51.529331
              ],
              [
                -0.271319,
                51.528926
              ],
              [
                -0.270357,
                51.52714
              ],
              [
                -0.26755,
                51.527729
              ]
            ]
          ]
        ]
      }
    }
  ]
}
