{"type":"FeatureCollection","name":"ONSDIGITAL_GEOSCRIPTS_CAUTH25_EXACTID_ROWS_001_015","features":[{"type":"Feature","id":"E47000001","geometry":null,"properties":{"slot_id":"gas_emissions_6","lineage_id":"LOCAL-NEW-92271296-1318-4c0c-a293-d0d4ebc2d06b","page_generation":1,"semantic_mode":"AREA_JOIN","partition":{"start":76904,"end":92283,"count":15380},"evidence_scope":"coverage_area","coverage_area_id":"E47000001","coverage_area_name":"Greater Manchester","coverage_area_identifier_scheme":"ONS_GSS_CAUTH25","boundary_vintage":"Combined Authority 2025 exact identifier list","source_area_record":true,"accepted_parcel_record":false,"spatial_binding_method":"EXACT_OFFICIAL_IDENTIFIER","source_window_record_index":1,"source_row_cursor":1,"source_url":"https://raw.githubusercontent.com/ONSdigital/geo-scripts/7ee374970b457a0e7d2228f96c63f078ab1825f3/output/lists/cauth25.csv","final_url":"https://raw.githubusercontent.com/ONSdigital/geo-scripts/7ee374970b457a0e7d2228f96c63f078ab1825f3/output/lists/cauth25.csv","source_access_utc":"2026-10-03T02:08:30Z","source_blob_sha":"b565e588577a5da9561d1543f2b0c9c84183315b","source_file_sha256":"da5b8e6ce8d09d29b5270d16457084fadcafc7854e43fb0afe02273c1ab26039","field_evidence":{"areacd":"E47000001","areanm":"Greater Manchester"},"evidence_slice_sha256":"6a410454d799aa545701687884cb169c171fb137d3033acfc4398e0997d1c45e","confidence_score_0_100":96,"evidence_grade":"A","licence":"Open Government Licence v3.0","licence_evidence_url":"https://www.ons.gov.uk/methodology/geography/licences","fake_data":false,"local_spatial_join_status":"DEFERRED_TO_LOCAL_OPENCODE"}},{"type":"Feature","id":"E47000002","geometry":null,"properties":{"slot_id":"gas_emissions_6","lineage_id":"LOCAL-NEW-92271296-1318-4c0c-a293-d0d4ebc2d06b","page_generation":1,"semantic_mode":"AREA_JOIN","partition":{"start":76904,"end":92283,"count":15380},"evidence_scope":"coverage_area","coverage_area_id":"E47000002","coverage_area_name":"South Yorkshire","coverage_area_identifier_scheme":"ONS_GSS_CAUTH25","boundary_vintage":"Combined Authority 2025 exact identifier list","source_area_record":true,"accepted_parcel_record":false,"spatial_binding_method":"EXACT_OFFICIAL_IDENTIFIER","source_window_record_index":2,"source_row_cursor":2,"source_url":"https://raw.githubusercontent.com/ONSdigital/geo-scripts/7ee374970b457a0e7d2228f96c63f078ab1825f3/output/lists/cauth25.csv","final_url":"https://raw.githubusercontent.com/ONSdigital/geo-scripts/7ee374970b457a0e7d2228f96c63f078ab1825f3/output/lists/cauth25.csv","source_access_utc":"2026-10-03T02:08:30Z","source_blob_sha":"b565e588577a5da9561d1543f2b0c9c84183315b","source_file_sha256":"da5b8e6ce8d09d29b5270d16457084fadcafc7854e43fb0afe02273c1ab26039","field_evidence":{"areacd":"E47000002","areanm":"South Yorkshire"},"evidence_slice_sha256":"6a410454d799aa545701687884cb169c171fb137d3033acfc4398e0997d1c45e","confidence_score_0_100":96,"evidence_grade":"A","licence":"Open Government Licence v3.0","licence_evidence_url":"https://www.ons.gov.uk/methodology/geography/licences","fake_data":false,"local_spatial_join_status":"DEFERRED_TO_LOCAL_OPENCODE"}},{"type":"Feature","id":"E47000003","geometry":null,"properties":{"slot_id":"gas_emissions_6","lineage_id":"LOCAL-NEW-92271296-1318-4c0c-a293-d0d4ebc2d06b","page_generation":1,"semantic_mode":"AREA_JOIN","partition":{"start":76904,"end":92283,"count":15380},"evidence_scope":"coverage_area","coverage_area_id":"E47000003","coverage_area_name":"West Yorkshire","coverage_area_identifier_scheme":"ONS_GSS_CAUTH25","boundary_vintage":"Combined Authority 2025 exact identifier list","source_area_record":true,"accepted_parcel_record":false,"spatial_binding_method":"EXACT_OFFICIAL_IDENTIFIER","source_window_record_index":3,"source_row_cursor":3,"source_url":"https://raw.githubusercontent.com/ONSdigital/geo-scripts/7ee374970b457a0e7d2228f96c63f078ab1825f3/output/lists/cauth25.csv","final_url":"https://raw.githubusercontent.com/ONSdigital/geo-scripts/7ee374970b457a0e7d2228f96c63f078ab1825f3/output/lists/cauth25.csv","source_access_utc":"2026-10-03T02:08:30Z","source_blob_sha":"b565e588577a5da9561d1543f2b0c9c84183315b","source_file_sha256":"da5b8e6ce8d09d29b5270d16457084fadcafc7854e43fb0afe02273c1ab26039","field_evidence":{"areacd":"E47000003","areanm":"West Yorkshire"},"evidence_slice_sha256":"6a410454d799aa545701687884cb169c171fb137d3033acfc4398e0997d1c45e","confidence_score_0_100":96,"evidence_grade":"A","licence":"Open Government Licence v3.0","licence_evidence_url":"https://www.ons.gov.uk/methodology/geography/licences","fake_data":false,"local_spatial_join_status":"DEFERRED_TO_LOCAL_OPENCODE"}},{"type":"Feature","id":"E47000004","geometry":null,"properties":{"slot_id":"gas_emissions_6","lineage_id":"LOCAL-NEW-92271296-1318-4c0c-a293-d0d4ebc2d06b","page_generation":1,"semantic_mode":"AREA_JOIN","partition":{"start":76904,"end":92283,"count":15380},"evidence_scope":"coverage_area","coverage_area_id":"E47000004","coverage_area_name":"Liverpool City Region","coverage_area_identifier_scheme":"ONS_GSS_CAUTH25","boundary_vintage":"Combined Authority 2025 exact identifier list","source_area_record":true,"accepted_parcel_record":false,"spatial_binding_method":"EXACT_OFFICIAL_IDENTIFIER","source_window_record_index":4,"source_row_cursor":4,"source_url":"https://raw.githubusercontent.com/ONSdigital/geo-scripts/7ee374970b457a0e7d2228f96c63f078ab1825f3/output/lists/cauth25.csv","final_url":"https://raw.githubusercontent.com/ONSdigital/geo-scripts/7ee374970b457a0e7d2228f96c63f078ab1825f3/output/lists/cauth25.csv","source_access_utc":"2026-10-03T02:08:30Z","source_blob_sha":"b565e588577a5da9561d1543f2b0c9c84183315b","source_file_sha256":"da5b8e6ce8d09d29b5270d16457084fadcafc7854e43fb0afe02273c1ab26039","field_evidence":{"areacd":"E47000004","areanm":"Liverpool City Region"},"evidence_slice_sha256":"6a410454d799aa545701687884cb169c171fb137d3033acfc4398e0997d1c45e","confidence_score_0_100":96,"evidence_grade":"A","licence":"Open Government Licence v3.0","licence_evidence_url":"https://www.ons.gov.uk/methodology/geography/licences","fake_data":false,"local_spatial_join_status":"DEFERRED_TO_LOCAL_OPENCODE"}},{"type":"Feature","id":"E47000006","geometry":null,"properties":{"slot_id":"gas_emissions_6","lineage_id":"LOCAL-NEW-92271296-1318-4c0c-a293-d0d4ebc2d06b","page_generation":1,"semantic_mode":"AREA_JOIN","partition":{"start":76904,"end":92283,"count":15380},"evidence_scope":"coverage_area","coverage_area_id":"E47000006","coverage_area_name":"Tees Valley","coverage_area_identifier_scheme":"ONS_GSS_CAUTH25","boundary_vintage":"Combined Authority 2025 exact identifier list","source_area_record":true,"accepted_parcel_record":false,"spatial_binding_method":"EXACT_OFFICIAL_IDENTIFIER","source_window_record_index":5,"source_row_cursor":5,"source_url":"https://raw.githubusercontent.com/ONSdigital/geo-scripts/7ee374970b457a0e7d2228f96c63f078ab1825f3/output/lists/cauth25.csv","final_url":"https://raw.githubusercontent.com/ONSdigital/geo-scripts/7ee374970b457a0e7d2228f96c63f078ab1825f3/output/lists/cauth25.csv","source_access_utc":"2026-10-03T02:08:30Z","source_blob_sha":"b565e588577a5da9561d1543f2b0c9c84183315b","source_file_sha256":"da5b8e6ce8d09d29b5270d16457084fadcafc7854e43fb0afe02273c1ab26039","field_evidence":{"areacd":"E47000006","areanm":"Tees Valley"},"evidence_slice_sha256":"6a410454d799aa545701687884cb169c171fb137d3033acfc4398e0997d1c45e","confidence_score_0_100":96,"evidence_grade":"A","licence":"Open Government Licence v3.0","licence_evidence_url":"https://www.ons.gov.uk/methodology/geography/licences","fake_data":false,"local_spatial_join_status":"DEFERRED_TO_LOCAL_OPENCODE"}},{"type":"Feature","id":"E47000007","geometry":null,"properties":{"slot_id":"gas_emissions_6","lineage_id":"LOCAL-NEW-92271296-1318-4c0c-a293-d0d4ebc2d06b","page_generation":1,"semantic_mode":"AREA_JOIN","partition":{"start":76904,"end":92283,"count":15380},"evidence_scope":"coverage_area","coverage_area_id":"E47000007","coverage_area_name":"West Midlands","coverage_area_identifier_scheme":"ONS_GSS_CAUTH25","boundary_vintage":"Combined Authority 2025 exact identifier list","source_area_record":true,"accepted_parcel_record":false,"spatial_binding_method":"EXACT_OFFICIAL_IDENTIFIER","source_window_record_index":6,"source_row_cursor":6,"source_url":"https://raw.githubusercontent.com/ONSdigital/geo-scripts/7ee374970b457a0e7d2228f96c63f078ab1825f3/output/lists/cauth25.csv","final_url":"https://raw.githubusercontent.com/ONSdigital/geo-scripts/7ee374970b457a0e7d2228f96c63f078ab1825f3/output/lists/cauth25.csv","source_access_utc":"2026-10-03T02:08:30Z","source_blob_sha":"b565e588577a5da9561d1543f2b0c9c84183315b","source_file_sha256":"da5b8e6ce8d09d29b5270d16457084fadcafc7854e43fb0afe02273c1ab26039","field_evidence":{"areacd":"E47000007","areanm":"West Midlands"},"evidence_slice_sha256":"6a410454d799aa545701687884cb169c171fb137d3033acfc4398e0997d1c45e","confidence_score_0_100":96,"evidence_grade":"A","licence":"Open Government Licence v3.0","licence_evidence_url":"https://www.ons.gov.uk/methodology/geography/licences","fake_data":false,"local_spatial_join_status":"DEFERRED_TO_LOCAL_OPENCODE"}},{"type":"Feature","id":"E47000008","geometry":null,"properties":{"slot_id":"gas_emissions_6","lineage_id":"LOCAL-NEW-92271296-1318-4c0c-a293-d0d4ebc2d06b","page_generation":1,"semantic_mode":"AREA_JOIN","partition":{"start":76904,"end":92283,"count":15380},"evidence_scope":"coverage_area","coverage_area_id":"E47000008","coverage_area_name":"Cambridgeshire and Peterborough","coverage_area_identifier_scheme":"ONS_GSS_CAUTH25","boundary_vintage":"Combined Authority 2025 exact identifier list","source_area_record":true,"accepted_parcel_record":false,"spatial_binding_method":"EXACT_OFFICIAL_IDENTIFIER","source_window_record_index":7,"source_row_cursor":7,"source_url":"https://raw.githubusercontent.com/ONSdigital/geo-scripts/7ee374970b457a0e7d2228f96c63f078ab1825f3/output/lists/cauth25.csv","final_url":"https://raw.githubusercontent.com/ONSdigital/geo-scripts/7ee374970b457a0e7d2228f96c63f078ab1825f3/output/lists/cauth25.csv","source_access_utc":"2026-10-03T02:08:30Z","source_blob_sha":"b565e588577a5da9561d1543f2b0c9c84183315b","source_file_sha256":"da5b8e6ce8d09d29b5270d16457084fadcafc7854e43fb0afe02273c1ab26039","field_evidence":{"areacd":"E47000008","areanm":"Cambridgeshire and Peterborough"},"evidence_slice_sha256":"6a410454d799aa545701687884cb169c171fb137d3033acfc4398e0997d1c45e","confidence_score_0_100":96,"evidence_grade":"A","licence":"Open Government Licence v3.0","licence_evidence_url":"https://www.ons.gov.uk/methodology/geography/licences","fake_data":false,"local_spatial_join_status":"DEFERRED_TO_LOCAL_OPENCODE"}},{"type":"Feature","id":"E47000009","geometry":null,"properties":{"slot_id":"gas_emissions_6","lineage_id":"LOCAL-NEW-92271296-1318-4c0c-a293-d0d4ebc2d06b","page_generation":1,"semantic_mode":"AREA_JOIN","partition":{"start":76904,"end":92283,"count":15380},"evidence_scope":"coverage_area","coverage_area_id":"E47000009","coverage_area_name":"West of England","coverage_area_identifier_scheme":"ONS_GSS_CAUTH25","boundary_vintage":"Combined Authority 2025 exact identifier list","source_area_record":true,"accepted_parcel_record":false,"spatial_binding_method":"EXACT_OFFICIAL_IDENTIFIER","source_window_record_index":8,"source_row_cursor":8,"source_url":"https://raw.githubusercontent.com/ONSdigital/geo-scripts/7ee374970b457a0e7d2228f96c63f078ab1825f3/output/lists/cauth25.csv","final_url":"https://raw.githubusercontent.com/ONSdigital/geo-scripts/7ee374970b457a0e7d2228f96c63f078ab1825f3/output/lists/cauth25.csv","source_access_utc":"2026-10-03T02:08:30Z","source_blob_sha":"b565e588577a5da9561d1543f2b0c9c84183315b","source_file_sha256":"da5b8e6ce8d09d29b5270d16457084fadcafc7854e43fb0afe02273c1ab26039","field_evidence":{"areacd":"E47000009","areanm":"West of England"},"evidence_slice_sha256":"6a410454d799aa545701687884cb169c171fb137d3033acfc4398e0997d1c45e","confidence_score_0_100":96,"evidence_grade":"A","licence":"Open Government Licence v3.0","licence_evidence_url":"https://www.ons.gov.uk/methodology/geography/licences","fake_data":false,"local_spatial_join_status":"DEFERRED_TO_LOCAL_OPENCODE"}},{"type":"Feature","id":"E47000012","geometry":null,"properties":{"slot_id":"gas_emissions_6","lineage_id":"LOCAL-NEW-92271296-1318-4c0c-a293-d0d4ebc2d06b","page_generation":1,"semantic_mode":"AREA_JOIN","partition":{"start":76904,"end":92283,"count":15380},"evidence_scope":"coverage_area","coverage_area_id":"E47000012","coverage_area_name":"York and North Yorkshire","coverage_area_identifier_scheme":"ONS_GSS_CAUTH25","boundary_vintage":"Combined Authority 2025 exact identifier list","source_area_record":true,"accepted_parcel_record":false,"spatial_binding_method":"EXACT_OFFICIAL_IDENTIFIER","source_window_record_index":9,"source_row_cursor":9,"source_url":"https://raw.githubusercontent.com/ONSdigital/geo-scripts/7ee374970b457a0e7d2228f96c63f078ab1825f3/output/lists/cauth25.csv","final_url":"https://raw.githubusercontent.com/ONSdigital/geo-scripts/7ee374970b457a0e7d2228f96c63f078ab1825f3/output/lists/cauth25.csv","source_access_utc":"2026-10-03T02:08:30Z","source_blob_sha":"b565e588577a5da9561d1543f2b0c9c84183315b","source_file_sha256":"da5b8e6ce8d09d29b5270d16457084fadcafc7854e43fb0afe02273c1ab26039","field_evidence":{"areacd":"E47000012","areanm":"York and North Yorkshire"},"evidence_slice_sha256":"6a410454d799aa545701687884cb169c171fb137d3033acfc4398e0997d1c45e","confidence_score_0_100":96,"evidence_grade":"A","licence":"Open Government Licence v3.0","licence_evidence_url":"https://www.ons.gov.uk/methodology/geography/licences","fake_data":false,"local_spatial_join_status":"DEFERRED_TO_LOCAL_OPENCODE"}},{"type":"Feature","id":"E47000013","geometry":null,"properties":{"slot_id":"gas_emissions_6","lineage_id":"LOCAL-NEW-92271296-1318-4c0c-a293-d0d4ebc2d06b","page_generation":1,"semantic_mode":"AREA_JOIN","partition":{"start":76904,"end":92283,"count":15380},"evidence_scope":"coverage_area","coverage_area_id":"E47000013","coverage_area_name":"East Midlands","coverage_area_identifier_scheme":"ONS_GSS_CAUTH25","boundary_vintage":"Combined Authority 2025 exact identifier list","source_area_record":true,"accepted_parcel_record":false,"spatial_binding_method":"EXACT_OFFICIAL_IDENTIFIER","source_window_record_index":10,"source_row_cursor":10,"source_url":"https://raw.githubusercontent.com/ONSdigital/geo-scripts/7ee374970b457a0e7d2228f96c63f078ab1825f3/output/lists/cauth25.csv","final_url":"https://raw.githubusercontent.com/ONSdigital/geo-scripts/7ee374970b457a0e7d2228f96c63f078ab1825f3/output/lists/cauth25.csv","source_access_utc":"2026-10-03T02:08:30Z","source_blob_sha":"b565e588577a5da9561d1543f2b0c9c84183315b","source_file_sha256":"da5b8e6ce8d09d29b5270d16457084fadcafc7854e43fb0afe02273c1ab26039","field_evidence":{"areacd":"E47000013","areanm":"East Midlands"},"evidence_slice_sha256":"6a410454d799aa545701687884cb169c171fb137d3033acfc4398e0997d1c45e","confidence_score_0_100":96,"evidence_grade":"A","licence":"Open Government Licence v3.0","licence_evidence_url":"https://www.ons.gov.uk/methodology/geography/licences","fake_data":false,"local_spatial_join_status":"DEFERRED_TO_LOCAL_OPENCODE"}},{"type":"Feature","id":"E47000014","geometry":null,"properties":{"slot_id":"gas_emissions_6","lineage_id":"LOCAL-NEW-92271296-1318-4c0c-a293-d0d4ebc2d06b","page_generation":1,"semantic_mode":"AREA_JOIN","partition":{"start":76904,"end":92283,"count":15380},"evidence_scope":"coverage_area","coverage_area_id":"E47000014","coverage_area_name":"North East","coverage_area_identifier_scheme":"ONS_GSS_CAUTH25","boundary_vintage":"Combined Authority 2025 exact identifier list","source_area_record":true,"accepted_parcel_record":false,"spatial_binding_method":"EXACT_OFFICIAL_IDENTIFIER","source_window_record_index":11,"source_row_cursor":11,"source_url":"https://raw.githubusercontent.com/ONSdigital/geo-scripts/7ee374970b457a0e7d2228f96c63f078ab1825f3/output/lists/cauth25.csv","final_url":"https://raw.githubusercontent.com/ONSdigital/geo-scripts/7ee374970b457a0e7d2228f96c63f078ab1825f3/output/lists/cauth25.csv","source_access_utc":"2026-10-03T02:08:30Z","source_blob_sha":"b565e588577a5da9561d1543f2b0c9c84183315b","source_file_sha256":"da5b8e6ce8d09d29b5270d16457084fadcafc7854e43fb0afe02273c1ab26039","field_evidence":{"areacd":"E47000014","areanm":"North East"},"evidence_slice_sha256":"6a410454d799aa545701687884cb169c171fb137d3033acfc4398e0997d1c45e","confidence_score_0_100":96,"evidence_grade":"A","licence":"Open Government Licence v3.0","licence_evidence_url":"https://www.ons.gov.uk/methodology/geography/licences","fake_data":false,"local_spatial_join_status":"DEFERRED_TO_LOCAL_OPENCODE"}},{"type":"Feature","id":"E47000015","geometry":null,"properties":{"slot_id":"gas_emissions_6","lineage_id":"LOCAL-NEW-92271296-1318-4c0c-a293-d0d4ebc2d06b","page_generation":1,"semantic_mode":"AREA_JOIN","partition":{"start":76904,"end":92283,"count":15380},"evidence_scope":"coverage_area","coverage_area_id":"E47000015","coverage_area_name":"Devon and Torbay","coverage_area_identifier_scheme":"ONS_GSS_CAUTH25","boundary_vintage":"Combined Authority 2025 exact identifier list","source_area_record":true,"accepted_parcel_record":false,"spatial_binding_method":"EXACT_OFFICIAL_IDENTIFIER","source_window_record_index":12,"source_row_cursor":12,"source_url":"https://raw.githubusercontent.com/ONSdigital/geo-scripts/7ee374970b457a0e7d2228f96c63f078ab1825f3/output/lists/cauth25.csv","final_url":"https://raw.githubusercontent.com/ONSdigital/geo-scripts/7ee374970b457a0e7d2228f96c63f078ab1825f3/output/lists/cauth25.csv","source_access_utc":"2026-10-03T02:08:30Z","source_blob_sha":"b565e588577a5da9561d1543f2b0c9c84183315b","source_file_sha256":"da5b8e6ce8d09d29b5270d16457084fadcafc7854e43fb0afe02273c1ab26039","field_evidence":{"areacd":"E47000015","areanm":"Devon and Torbay"},"evidence_slice_sha256":"6a410454d799aa545701687884cb169c171fb137d3033acfc4398e0997d1c45e","confidence_score_0_100":96,"evidence_grade":"A","licence":"Open Government Licence v3.0","licence_evidence_url":"https://www.ons.gov.uk/methodology/geography/licences","fake_data":false,"local_spatial_join_status":"DEFERRED_TO_LOCAL_OPENCODE"}},{"type":"Feature","id":"E47000016","geometry":null,"properties":{"slot_id":"gas_emissions_6","lineage_id":"LOCAL-NEW-92271296-1318-4c0c-a293-d0d4ebc2d06b","page_generation":1,"semantic_mode":"AREA_JOIN","partition":{"start":76904,"end":92283,"count":15380},"evidence_scope":"coverage_area","coverage_area_id":"E47000016","coverage_area_name":"Hull and East Yorkshire","coverage_area_identifier_scheme":"ONS_GSS_CAUTH25","boundary_vintage":"Combined Authority 2025 exact identifier list","source_area_record":true,"accepted_parcel_record":false,"spatial_binding_method":"EXACT_OFFICIAL_IDENTIFIER","source_window_record_index":13,"source_row_cursor":13,"source_url":"https://raw.githubusercontent.com/ONSdigital/geo-scripts/7ee374970b457a0e7d2228f96c63f078ab1825f3/output/lists/cauth25.csv","final_url":"https://raw.githubusercontent.com/ONSdigital/geo-scripts/7ee374970b457a0e7d2228f96c63f078ab1825f3/output/lists/cauth25.csv","source_access_utc":"2026-10-03T02:08:30Z","source_blob_sha":"b565e588577a5da9561d1543f2b0c9c84183315b","source_file_sha256":"da5b8e6ce8d09d29b5270d16457084fadcafc7854e43fb0afe02273c1ab26039","field_evidence":{"areacd":"E47000016","areanm":"Hull and East Yorkshire"},"evidence_slice_sha256":"6a410454d799aa545701687884cb169c171fb137d3033acfc4398e0997d1c45e","confidence_score_0_100":96,"evidence_grade":"A","licence":"Open Government Licence v3.0","licence_evidence_url":"https://www.ons.gov.uk/methodology/geography/licences","fake_data":false,"local_spatial_join_status":"DEFERRED_TO_LOCAL_OPENCODE"}},{"type":"Feature","id":"E47000017","geometry":null,"properties":{"slot_id":"gas_emissions_6","lineage_id":"LOCAL-NEW-92271296-1318-4c0c-a293-d0d4ebc2d06b","page_generation":1,"semantic_mode":"AREA_JOIN","partition":{"start":76904,"end":92283,"count":15380},"evidence_scope":"coverage_area","coverage_area_id":"E47000017","coverage_area_name":"Greater Lincolnshire","coverage_area_identifier_scheme":"ONS_GSS_CAUTH25","boundary_vintage":"Combined Authority 2025 exact identifier list","source_area_record":true,"accepted_parcel_record":false,"spatial_binding_method":"EXACT_OFFICIAL_IDENTIFIER","source_window_record_index":14,"source_row_cursor":14,"source_url":"https://raw.githubusercontent.com/ONSdigital/geo-scripts/7ee374970b457a0e7d2228f96c63f078ab1825f3/output/lists/cauth25.csv","final_url":"https://raw.githubusercontent.com/ONSdigital/geo-scripts/7ee374970b457a0e7d2228f96c63f078ab1825f3/output/lists/cauth25.csv","source_access_utc":"2026-10-03T02:08:30Z","source_blob_sha":"b565e588577a5da9561d1543f2b0c9c84183315b","source_file_sha256":"da5b8e6ce8d09d29b5270d16457084fadcafc7854e43fb0afe02273c1ab26039","field_evidence":{"areacd":"E47000017","areanm":"Greater Lincolnshire"},"evidence_slice_sha256":"6a410454d799aa545701687884cb169c171fb137d3033acfc4398e0997d1c45e","confidence_score_0_100":96,"evidence_grade":"A","licence":"Open Government Licence v3.0","licence_evidence_url":"https://www.ons.gov.uk/methodology/geography/licences","fake_data":false,"local_spatial_join_status":"DEFERRED_TO_LOCAL_OPENCODE"}},{"type":"Feature","id":"E47000018","geometry":null,"properties":{"slot_id":"gas_emissions_6","lineage_id":"LOCAL-NEW-92271296-1318-4c0c-a293-d0d4ebc2d06b","page_generation":1,"semantic_mode":"AREA_JOIN","partition":{"start":76904,"end":92283,"count":15380},"evidence_scope":"coverage_area","coverage_area_id":"E47000018","coverage_area_name":"Lancashire","coverage_area_identifier_scheme":"ONS_GSS_CAUTH25","boundary_vintage":"Combined Authority 2025 exact identifier list","source_area_record":true,"accepted_parcel_record":false,"spatial_binding_method":"EXACT_OFFICIAL_IDENTIFIER","source_window_record_index":15,"source_row_cursor":15,"source_url":"https://raw.githubusercontent.com/ONSdigital/geo-scripts/7ee374970b457a0e7d2228f96c63f078ab1825f3/output/lists/cauth25.csv","final_url":"https://raw.githubusercontent.com/ONSdigital/geo-scripts/7ee374970b457a0e7d2228f96c63f078ab1825f3/output/lists/cauth25.csv","source_access_utc":"2026-10-03T02:08:30Z","source_blob_sha":"b565e588577a5da9561d1543f2b0c9c84183315b","source_file_sha256":"da5b8e6ce8d09d29b5270d16457084fadcafc7854e43fb0afe02273c1ab26039","field_evidence":{"areacd":"E47000018","areanm":"Lancashire"},"evidence_slice_sha256":"6a410454d799aa545701687884cb169c171fb137d3033acfc4398e0997d1c45e","confidence_score_0_100":96,"evidence_grade":"A","licence":"Open Government Licence v3.0","licence_evidence_url":"https://www.ons.gov.uk/methodology/geography/licences","fake_data":false,"local_spatial_join_status":"DEFERRED_TO_LOCAL_OPENCODE"}}]}
