{"type":"FeatureCollection","features":[{"type":"Feature","geometry":{"type":"MultiPolygon","coordinates":[[[[-1.045575,53.535301],[-1.045467,53.535447],[-1.045285,53.535643],[-1.045564,53.535704],[-1.045588,53.535804],[-1.046098,53.535873],[-1.046156,53.535672],[-1.046242,53.535431],[-1.046196,53.535425],[-1.046207,53.535394],[-1.045575,53.535301]]]]},"properties":{"slot_id":"future_growth_3","lineage_id":"future_growth_3-newstart-20261001T203100Z","page_generation":null,"accepted_as_parcel":false,"source_area_count_contribution":1,"exact_identifier":"62","exact_identifier_provided":true,"coverage_polygon_provided":true,"identifier_namespace":"Planning Data brownfield-site reference","secondary_exact_identifier":"entity:1802729","source_entity":"62 - 28 Cow House Lane, Armthorpe","access_utc":"2026-10-04T06:41:00Z","data_date":"2025-12-03","source_url":"https://www.planning.data.gov.uk/entity/1802729","final_url":"https://www.planning.data.gov.uk/entity/1802729","license":"Open Government Licence v3.0; attribution © Crown copyright and database right 2026.","authority":"Doncaster Metropolitan Borough Council","site_address":"28 Cow House Lane, Armthorpe","field_evidence":{"reference":"62","entity":1802729,"dataset":"Brownfield site","organisation":"Doncaster Metropolitan Borough Council","entry_date":"2025-12-03","site_name":"28 Cow House Lane, Armthorpe","quality":"authoritative","geometry_wkt":"MULTIPOLYGON (((-1.045575 53.535301, -1.045467 53.535447, -1.045285 53.535643, -1.045564 53.535704, -1.045588 53.535804, -1.046098 53.535873, -1.046156 53.535672, -1.046242 53.535431, -1.046196 53.535425, -1.046207 53.535394, -1.045575 53.535301)))","point_wkt":"POINT (-1.04581 53.535579)","organisation_entity":"local-authority:DNC"},"source_payload_sha256":"b741f960eb371c479cf13d805b98613ea0c4530a70dbd4bd232b5e98d6ae672b","source_payload_sha256_basis":"canonicalized official Planning Data brownfield-site 62 evidence fields","evidence_slice_sha256":"ef9c37f14a863db3ab2cfbda3bcdee85e28f9611eb95481f269e79d98adab40d","evidence_grade":"A","confidence_score_0_100":99,"evidence_scope":"authoritative_official_published_multipolygon_from_planning_data_brownfield_site","fake_data":false,"spatial_binding_method":"official Planning Data brownfield-site entity 1802729 published MultiPolygon; canonical parcel spatial join and materialization delegated to local OpenCode","planned_building_count_contribution":0}}]}