{"type":"FeatureCollection","features":[{"type":"Feature","id":"CHERWELL_26_01600_F_OUTBUILDING_01","geometry":null,"properties":{"slot_id":"planned_buildings_4","owner":"planned_buildings_4","lineage_id":"pb4-8debc7c8ddf348a2","page_generation":1,"partition":"layer24","schema":"AAYS_LAYER24_EVIDENCE_V1","semantic_mode":"PLANNED_BUILDINGS_OFFICIAL_REFERENCE_DISTINCT_STRUCTURE","batch_id":"20261001T230700Z-cherwell-26-01600-f-window-001","source_record_id":"CHERWELL_26_01600_F_OUTBUILDING_01","publisher":"Cherwell District Council","source_family":"CHERWELL_PLANNING_REGISTER","source_url":"https://planningregister.cherwell.gov.uk/Planning/Display/26/01600/F","final_url":"https://planningregister.cherwell.gov.uk/Planning/Display/26/01600/F","access_utc":"2026-10-01T23:07:00Z","data_date":"2026-06-25","license":"Public planning register; document copyright/usage remains governed by council register terms","planning_reference":"26/01600/F","location":"Clematis Cottage Main Street Wroxton Oxfordshire OX15 6PT","proposal":"Erection of outbuilding in rear garden","planned_building":"rear-garden outbuilding","status":"Under Consultation","official_plan_reference":"WG1644 003 -","official_plan_description":"Proposed Outbuilding plans/elevations","geometry_status":"NOT_MATERIALIZED_LOCAL_OPENCODE","field_evidence":"Official Cherwell District Council Planning Register application 26/01600/F. Application Type: Full Development. Status: Under Consultation. Location: Clematis Cottage Main Street Wroxton Oxfordshire OX15 6PT. Proposal: Erection of outbuilding in rear garden. Valid date: 25/06/2026. Decision and Decision Issued Date are blank. Official proposed drawing WG1644-003 - Proposed Outbuilding.pdf is listed as Proposed Outbuilding plans/elevations (drawing/revision WG1644 003 -). One distinct planned structure is counted: the rear-garden outbuilding. Geometry/materialization is deferred to local OpenCode.","evidence_slice_sha256":"173934218e70d85772b312414249c8af811223ac7cb05574ff4ba18643d63fbc","confidence":0.99,"evidence_grade":"A_OFFICIAL_LOCAL_AUTHORITY_PLANNING_REGISTER_DISTINCT_OUTBUILDING","fake_data":false}}]}
