{"type":"FeatureCollection","features":[{"type":"Feature","id":"CHERWELL_26_00824_AGN_AGRICULTURAL_BUILDING_01","geometry":null,"properties":{"slot_id":"planned_buildings_4","owner":"planned_buildings_4","lineage_id":"pb4-8debc7c8ddf348a2","page_generation":1,"partition":"layer24","schema":"AAYS_LAYER24_EVIDENCE_V1","semantic_mode":"PLANNED_BUILDINGS_OFFICIAL_REFERENCE_DISTINCT_STRUCTURE","batch_id":"20261002T132722Z-cherwell-26-00824-agn-window-001","publisher":"Cherwell District Council","source_family":"CHERWELL_PLANNING_REGISTER","source_url":"https://planningregister.cherwell.gov.uk/Planning/Display/26/00824/AGN","final_url":"https://planningregister.cherwell.gov.uk/Planning/Display/26/00824/AGN","access_utc":"2026-10-02T13:27:22Z","data_date":"2026-05-21","license":"Public planning register; document copyright/usage remains governed by council register terms","planning_reference":"26/00824/AGN","location":"Barn Farm Wardington Road Wardington OX17 1FE","proposal":"Prior approval application for new steel portal frame general purpose agricultural building.","status":"Prior Approval Not Required","geometry_status":"NOT_MATERIALIZED_LOCAL_OPENCODE","field_evidence":"Official Cherwell District Council Planning Register application 26/00824/AGN. Application Type: Agricultural Notification. Status: Prior Approval Not Required. Valid date: 21/05/2026. Location: Barn Farm Wardington Road Wardington OX17 1FE. Proposal: Prior approval application for new steel portal frame general purpose agricultural building. Decision: Prior Approval Not Required. Decision Issued Date: 18/06/2026. Official documents list Site-Plan--24x24m-New-General-Purpose-Agricultural-Building (1).pdf as Site Block Plan (drawing/revision BP) and Promap-3506987-3606203.pdf as Location Plan (drawing/revision LP). The delegated officer report states that the proposal involves erecting a new steel portal frame general purpose agricultural building with a 24 x 24m external footprint, 6m eaves height and 9m overall height. One distinct new planned structure is counted from the official proposal: the steel portal frame general purpose agricultural building. Geometry/materialization is deferred to local OpenCode.","evidence_slice_sha256":"19d0fd405bd36d5fc514fc3a9931cb9115d3619554455f75fabc1c106658846c","confidence":0.99,"evidence_grade":"A_OFFICIAL_LOCAL_AUTHORITY_AGRICULTURAL_NOTIFICATION_DISTINCT_AGRICULTURAL_BUILDING","fake_data":false,"source_record_id":"CHERWELL_26_00824_AGN_AGRICULTURAL_BUILDING_01","planned_building":"steel portal frame general purpose agricultural building","official_plan_reference":"BP","official_plan_description":"Site Block Plan"}}]}
