{"type":"FeatureCollection","features":[{"type":"Feature","geometry":{"type":"MultiPolygon","coordinates":[[[[-1.015363,53.58243],[-1.015439,53.582439],[-1.015534,53.582172],[-1.015768,53.582189],[-1.015932,53.581608],[-1.015515,53.581548],[-1.015552,53.581513],[-1.015534,53.581501],[-1.015603,53.581347],[-1.015634,53.581311],[-1.015541,53.581298],[-1.015555,53.58132],[-1.015449,53.581538],[-1.01532,53.581519],[-1.015133,53.582023],[-1.014992,53.582076],[-1.0148,53.582058],[-1.014787,53.582084],[-1.015461,53.582163],[-1.015363,53.58243]]]]},"properties":{"slot_id":"future_growth_3","lineage_id":"future_growth_3-newstart-20261001T203100Z","page_generation":null,"accepted_as_parcel":false,"source_area_count_contribution":1,"exact_identifier":"60","exact_identifier_provided":true,"coverage_polygon_provided":true,"identifier_namespace":"Planning Data brownfield-site reference","secondary_exact_identifier":"entity:1802727","source_entity":"60 - Land West Of Abbey Road, Dunscroft, Doncaster, DN7 4LE","access_utc":"2026-10-03T18:27:13Z","data_date":"2025-12-03","source_url":"https://www.planning.data.gov.uk/entity/1802727","final_url":"https://www.planning.data.gov.uk/entity/1802727","license":"Open Government Licence v3.0; attribution © Crown copyright and database right 2026.","authority":"Doncaster Metropolitan Borough Council","site_address":"Land West Of Abbey Road, Dunscroft, Doncaster, DN7 4LE","field_evidence":{"reference":"60","entity":1802727,"dataset":"Brownfield site","organisation":"Doncaster Metropolitan Borough Council","start_date":"","entry_date":"2025-12-03","name":"Land West Of Abbey Road, Dunscroft, Doncaster, DN7 4LE","typology":"geography","quality":"authoritative","geometry_wkt":"MULTIPOLYGON (((-1.015363 53.58243, -1.015439 53.582439, -1.015534 53.582172, -1.015768 53.582189, -1.015932 53.581608, -1.015515 53.581548, -1.015552 53.581513, -1.015534 53.581501, -1.015603 53.581347, -1.015634 53.581311, -1.015541 53.581298, -1.015555 53.58132, -1.015449 53.581538, -1.01532 53.581519, -1.015133 53.582023, -1.014992 53.582076, -1.0148 53.582058, -1.014787 53.582084, -1.015461 53.582163, -1.015363 53.58243)))","point_wkt":"POINT (-1.015506 53.581875)"},"source_payload_sha256":"5589732bf77201f243e5953cbfdbbd7041f9d8cdf3658f788d72d6582797026f","source_payload_sha256_basis":"canonicalized official Planning Data brownfield-site reference 60 evidence fields","evidence_slice_sha256":"5ff856428c63903e4bc66d717102c1765e838a6dc153ac548936fe60ae6fe095","evidence_grade":"A","confidence_score_0_100":99,"evidence_scope":"direct_official_multipolygon_from_planning_data_brownfield_site_entity","fake_data":false,"spatial_binding_method":"official Planning Data brownfield-site entity 1802727 publishes a direct authoritative MultiPolygon boundary; canonical parcel spatial join and materialization delegated to local OpenCode","planned_building_count_contribution":0}}]}