{"type":"FeatureCollection","features":[{"type":"Feature","geometry":null,"properties":{"slot_id":"future_growth_1","lineage_id":"future_growth_1-newstart-20260927T153100+0300","page_generation":null,"accepted_as_parcel":false,"source_area_count_contribution":1,"exact_identifier":"SDNP/24/03588/REM","exact_identifier_provided":true,"coverage_polygon_provided":false,"identifier_namespace":"South Downs National Park Authority planning application","site_name":"Land North of Buckmore Farm, Petersfield","access_utc":"2026-10-03T19:31:00Z","data_date":"2026-06-04","source_url":"https://www.southdowns.gov.uk/new-homes-development-under-way-in-south-downs/","final_url":"https://www.southdowns.gov.uk/new-homes-development-under-way-in-south-downs/","documentation_url":"https://www.southdowns.gov.uk/meeting/planning-committee-9-october-2025/","gis_url":"https://services6.arcgis.com/LBG1Lnci7jBl9O0t/arcgis/rest/services/Local_Plan_Service/FeatureServer/13","license":"Publicly accessible South Downs National Park Authority planning committee, delivery update and ArcGIS service; layer-specific reuse licence not stated in the public service metadata","authority":"South Downs National Park Authority","approved_dwellings":85,"affordable_dwellings":39,"affordable_share_percent":45,"reserved_matters_status":"approval granted","delivery_status":"developer progressing construction","feature_service_layer_id":13,"feature_service_layer_name":"Housing Site Allocation","feature_service_geometry_type":"esriGeometryPolygon","feature_service_spatial_reference_epsg":27700,"evidence_grade":"A","confidence_score_0_100":99,"evidence_scope":"exact SDNPA reserved-matters application plus current authority delivery update and authority-hosted housing-allocation polygon layer","evidence_slice_sha256":"ead4eb3f1445e4b8dc684bd9f7b2a8b8db0a1d439b5e42de4d88566cbfc55cf1","fake_data":false,"spatial_binding_method":"official SDNP/24/03588/REM identifier plus SDNPA Housing Site Allocation polygon layer 13; exact boundary resolution, canonical parcel spatial join and materialization delegated to local OpenCode","planned_building_count_contribution":0}}]}