{"type":"FeatureCollection","features":[{"type":"Feature","id":"planned_buildings_2-planning-data-brownfield-1739894","geometry":null,"properties":{"slot_id":"planned_buildings_2","source_dataset_id":"planning_data_brownfield_land","source_index":6,"source_window_index":0,"entity":1739894,"reference":"LBBD99/ZB","official_site_key":"PLANNING-DATA-BROWNFIELD-1739894","canonical_record_key":"planning-data:brownfield-land:1739894","planned_project_name":"497-515 Gale Street, Dagenham","planned_project_type":"brownfield_land_register_site","planned_project_status":"not-permissioned","borough":"London Borough of Barking and Dagenham","official_minimum_net_dwellings":31,"official_maximum_net_dwellings":31,"official_hectares":0.27,"parcel_id":null,"planned_building_value":null,"planned_building_probability":null,"planned_building_complete_month":null,"matching_method":"direct_official_brownfield_entity_no_parcel_match","source_url":"https://www.planning.data.gov.uk/entity/1739894","source_quality":"official_planning_data_record","source_license":"Open Government Licence v3.0","demo_only":true,"fake_data":false,"final_ready":false,"production_merge":false}}],"metadata":{"slot_id":"planned_buildings_2","batch_index":105,"source_index":6,"source_window":{"resource_index":0,"limit":1},"feature_count_before":459,"feature_count_after":460,"unique_real_site_project_before":300,"unique_real_site_project_after":301,"duplicate_count_new":0,"nearest_match_used":false,"parcel_match_used":false,"fake_data":false,"mirror_only":true}}