{"type":"FeatureCollection","features":[{"type":"Feature","id":"planned_buildings_2-planning-data-brownfield-1739903","geometry":null,"properties":{"slot_id":"planned_buildings_2","source_dataset_id":"planning_data_brownfield_land","source_index":6,"source_window_index":7,"entity":1739903,"reference":"BR096","official_site_key":"PLANNING-DATA-BROWNFIELD-1739903","canonical_record_key":"planning-data:brownfield-land:1739903","planned_project_name":"Land East of Farm Way (site 2), Bushey WD23 3","planned_project_type":"brownfield_land_register_site","planned_project_status":"not-permissioned","borough":"Hertsmere Borough Council","official_minimum_net_dwellings":0,"official_maximum_net_dwellings":10,"official_hectares":0.246104,"parcel_id":null,"planned_building_value":null,"planned_building_probability":null,"planned_building_complete_month":null,"matching_method":"direct_official_brownfield_entity_no_parcel_match","source_url":"https://www.planning.data.gov.uk/entity/1739903","source_quality":"authoritative","source_license":"Open Government Licence v3.0","demo_only":true,"fake_data":false,"final_ready":false,"production_merge":false}}],"metadata":{"slot_id":"planned_buildings_2","batch_index":112,"source_index":6,"source_window":{"resource_index":7,"limit":1},"feature_count_before":466,"feature_count_after":467,"unique_real_site_project_before":307,"unique_real_site_project_after":308,"duplicate_count_new":0,"nearest_match_used":false,"parcel_match_used":false,"fake_data":false,"mirror_only":true}}