{"type":"FeatureCollection","features":[{"type":"Feature","id":"planned_buildings_2-planning-data-brownfield-1739894","geometry":null,"properties":{"entity":1739894,"reference":"LBBD99/ZB","canonical_record_key":"planning-data:brownfield-land:1739894","planned_project_name":"497-515 Gale Street, Dagenham","source_family":"planning_data_brownfield_land","fake_data":false}},{"type":"Feature","id":"planned_buildings_2-planning-data-brownfield-1739896","geometry":null,"properties":{"entity":1739896,"reference":"HDCBLR36","canonical_record_key":"planning-data:brownfield-land:1739896","planned_project_name":"Tudor House, 30 High Street, Fenstanton, PE28 9JZ","source_family":"planning_data_brownfield_land","fake_data":false}},{"type":"Feature","id":"planned_buildings_2-planning-data-brownfield-1739897","geometry":null,"properties":{"entity":1739897,"reference":"BR090","canonical_record_key":"planning-data:brownfield-land:1739897","planned_project_name":"Canada Life, Potters Bar EN6 5BA","source_family":"planning_data_brownfield_land","fake_data":false}},{"type":"Feature","id":"planned_buildings_2-planning-data-brownfield-1739898","geometry":null,"properties":{"entity":1739898,"reference":"BR091","canonical_record_key":"planning-data:brownfield-land:1739898","planned_project_name":"Kendal Hall Farm, Radlett, WD7 7LY","source_family":"planning_data_brownfield_land","fake_data":false}},{"type":"Feature","id":"planned_buildings_2-planning-data-brownfield-1739899","geometry":null,"properties":{"entity":1739899,"reference":"BR092","canonical_record_key":"planning-data:brownfield-land:1739899","planned_project_name":"Land rear of Catterick Way, Borehamwood, WD6 4QB","source_family":"planning_data_brownfield_land","fake_data":false}},{"type":"Feature","id":"planned_buildings_2-planning-data-brownfield-1739900","geometry":null,"properties":{"entity":1739900,"reference":"BR093","canonical_record_key":"planning-data:brownfield-land:1739900","planned_project_name":"26-30 Theobald Street, Borehamwood, WD6 4SE","source_family":"planning_data_brownfield_land","fake_data":false}},{"type":"Feature","id":"planned_buildings_2-planning-data-brownfield-1739901","geometry":null,"properties":{"entity":1739901,"reference":"BR094","canonical_record_key":"planning-data:brownfield-land:1739901","planned_project_name":"Edgewearbury House Farm, Elstree Village, WD6 3DE","source_family":"planning_data_brownfield_land","fake_data":false}},{"type":"Feature","id":"planned_buildings_2-planning-data-brownfield-1739903","geometry":null,"properties":{"entity":1739903,"reference":"BR096","canonical_record_key":"planning-data:brownfield-land:1739903","planned_project_name":"Land East of Farm Way (site 2), Bushey WD23 3","source_family":"planning_data_brownfield_land","fake_data":false}},{"type":"Feature","id":"planned_buildings_2-planning-data-brownfield-1739904","geometry":null,"properties":{"entity":1739904,"reference":"BR097","canonical_record_key":"planning-data:brownfield-land:1739904","planned_project_name":"Birchville Cottage, Heathbourne Road, Bushey, WD23 1PD","source_family":"planning_data_brownfield_land","fake_data":false}},{"type":"Feature","id":"planned_buildings_2-planning-data-brownfield-1739905","geometry":null,"properties":{"entity":1739905,"reference":"BR098","canonical_record_key":"planning-data:brownfield-land:1739905","planned_project_name":"Greenacres, Heathbourne Road, Bushey, WD23 1PB","source_family":"planning_data_brownfield_land","fake_data":false}},{"type":"Feature","id":"planned_buildings_2-planning-data-brownfield-1739906","geometry":null,"properties":{"entity":1739906,"reference":"BR099","canonical_record_key":"planning-data:brownfield-land:1739906","planned_project_name":"Kemp Place Car Park, Bushey, WD23 1DW","source_family":"planning_data_brownfield_land","fake_data":false}}],"metadata":{"schema_version":1,"slot_id":"planned_buildings_2","continuation_key":"planned_buildings_2_open_source_v2_20260813","run_id":"20260818T052100Z","batch_indices":[104,105,106,107,108,109,110,111,112,113,114,115],"source_5_processed_window_indices":[11],"source_5_zero_result_windows":[11],"source_5_queue_exhausted":true,"source_6_processed_window_indices":[0,1,2,3,4,5,6,7,8,9,10],"source_6_added_window_indices":[0,1,2,3,4,5,6,7,8,9,10],"logical_feature_count_before":459,"features_added":11,"logical_feature_count_after":470,"unique_real_site_project_before":300,"unique_real_site_project_added":11,"unique_real_site_project_after":311,"duplicate_count_new":0,"duplicate_features_written":0,"reprocessed_window_count":0,"nearest_match_used":false,"parcel_match_used":false,"geometry_inference_used":false,"planned_building_value_write_count":0,"planned_building_probability_write_count":0,"planned_building_complete_month_write_count":0,"next_source_index":6,"next_source_family":"planning_data_brownfield_land","next_source_window_index":11,"next_batch_index":116,"canonical_latest_overwritten":false,"mirror_only":true,"demo_only":true,"fake_data":false,"final_ready":false,"production_merge":false}}