{"type":"FeatureCollection","name":"building_type_ 9_batch-0004","features":[{"type":"Feature","geometry":{"type":"MultiPolygon","coordinates":[[[-0.032657,51.533192],[-0.032652,51.533171],[-0.032599,51.533095],[-0.032588,51.533097],[-0.032556,51.533087],[-0.032534,51.533057],[-0.032513,51.533051],[-0.032172,51.533146],[-0.032162,51.533131],[-0.032106,51.533147],[-0.032135,51.533198],[-0.032123,51.533197],[-0.032124,51.533203],[-0.032132,51.533206],[-0.03213,51.533227],[-0.032197,51.533321],[-0.032657,51.533192]]]},"properties":{"entity":42131712,"reference":"LB_539","name":"CHURCH OF ST PAUL WITH ST STEPHEN","organisation":"local-authority:TWH","building_state":"BUILDING_PRESENT","building_type":"church","building_use":"religous worship","entry_date":"2026-09-22","source_url":"https://www.planning.data.gov.uk/entity/42131712","licence":"Open Government Licence v3.0","fake_data":false}}]}