{"type":"FeatureCollection","features":[{"type":"Feature","geometry":null,"properties":{"slot_id":"future_growth_3","lineage_id":"future_growth_3-newstart-20261001T203100Z","page_generation":null,"accepted_as_parcel":false,"source_area_count_contribution":1,"exact_identifier":"PA68","exact_identifier_provided":true,"coverage_polygon_provided":false,"identifier_namespace":"Nottingham City Local Plan Part 2 adoption site reference","secondary_exact_identifier":"SR59","source_entity":62,"access_utc":"2026-10-01T23:53:36Z","data_date":"2020-01-13","source_url":"https://maps164.nottinghamcity.gov.uk/server/rest/services/OpenData/OpenData/MapServer/62","final_url":"https://maps164.nottinghamcity.gov.uk/server/rest/services/OpenData/OpenData/MapServer/62","license":"Open Government Licence v3.0 for Council Local Plan data; OS-derived mapping content subject to Crown/Ordnance Survey rights","authority":"Nottingham City Council","site_address":"Canal Quarter - Island Site","field_evidence":{"reference":"PA68","previous_reference":"SR59","dataset":"Local Plan Site Allocations 2020","organisation":"Nottingham City Council","adoption_date":"2020-01-13","local_plan_part":"Part 2 / Land and Planning Policies Document","site_name":"Canal Quarter - Island Site","layer_id":62,"geometry_type":"esriGeometryPolygon","official_identifier_field":"ADOPTION_SITE_REF","official_name_field":"SITE_NAME","plan_status":"adopted and in force","source_description":"Site allocations form part of the future development proposals in Nottingham City"},"source_payload_sha256":"64d723b99ad49e2ec995f31fdc34493adfc0dd518ba3d82923e46431fc3b74bb","source_payload_sha256_basis":"canonicalized official Nottingham City Council GIS layer metadata plus adopted Local Plan identifier fields","evidence_slice_sha256":"1df84f6a0497364f27e27d4af5a68aa8cf9f21959fc6b0b1e8a66ce0579ac9e4","evidence_grade":"A","confidence_score_0_100":99,"evidence_scope":"exact_official_identifier_on_authoritative_polygon_layer","fake_data":false,"spatial_binding_method":"official adopted Local Plan site reference PA68 on Nottingham City Council MapServer layer 62 (esriGeometryPolygon); polygon query, canonical parcel spatial join and materialization delegated to local OpenCode","planned_building_count_contribution":0}}]}