{
  "features": [
    {
      "geometry": null,
      "id": "gla-planning_data_map_02-101",
      "properties": {
        "accepted_count": 1,
        "batch_id": "20260930T175400Z_gla_brownfield_layer101",
        "canonical_join_status": "PENDING_LOCAL_OPENCODE_SPATIAL_JOIN",
        "category": "future_growth",
        "confidence_score_0_100": 93,
        "data_date": null,
        "data_date_note": "layer metadata reports ad-hoc update frequency; no record-level data date was retrieved in this turn",
        "direct_parcel": false,
        "evidence_grade": "A_OFFICIAL_EXACT_IDENTIFIER",
        "evidence_slice_sha256": "8e74c94b9eb2b94e95ed4bbd7f81c45e2c55e5e5cf7a557ab1c9294f75f4105b",
        "fake_data": false,
        "field_evidence": {
          "crs": "27700",
          "extent": "504833.7324999999,158488.61700000055,559097.595,199856.401000001",
          "geometry_type": "esriGeometryPolygon",
          "layer_id": "Brownfield Register (ID: 101)",
          "licence": "OGL v3.0",
          "service_item_id": "73c1cd055c5b478eb87d69f9ebb087d4"
        },
        "final_url": "https://gis.london.gov.uk/arcgis/rest/services/apps/planning_data_map_02/MapServer/101",
        "license": "Open Government Licence v3.0; contains OS data attribution per source metadata",
        "lineage_id": "d409404e-c2b6-4d79-b904-d05e944a949e",
        "page_generation": 1,
        "schema": "AAYS_LAYER24_EVIDENCE_V1",
        "slot_id": "future_growth_2",
        "source_crs": "EPSG:27700",
        "source_dataset": "Brownfield Register",
        "source_exact_identifier": {
          "layer_id": 101,
          "layer_name": "Brownfield Register",
          "service_item_id": "73c1cd055c5b478eb87d69f9ebb087d4"
        },
        "source_extent": [504833.7324999999, 158488.61700000055, 559097.595, 199856.401000001],
        "source_file_sha256": null,
        "source_file_sha256_note": "no bulk/query response body was retrievable through the available web transport; identifier evidence only",
        "source_geometry_type": "esriGeometryPolygon",
        "source_provider": "Greater London Authority",
        "source_url": "https://gis.london.gov.uk/arcgis/rest/services/apps/planning_data_map_02/MapServer/101"
      },
      "type": "Feature"
    }
  ],
  "name": "future_growth_source_identifiers",
  "type": "FeatureCollection"
}
