{"type":"FeatureCollection","features":[{"type":"Feature","geometry":null,"properties":{"slot_id":"future_growth_1","lineage_id":"future_growth_1-newstart-20260927T153100+0300","page_generation":null,"accepted_as_parcel":false,"source_area_count_contribution":1,"exact_identifier":"SBC003","exact_identifier_provided":true,"coverage_polygon_provided":false,"identifier_namespace":"South Tyneside SHLAA reference","site_name":"Land at North Farm (west)","access_utc":"2026-10-06T17:12:00Z","data_date":"2025-04","source_url":"https://publications.southtyneside.gov.uk/plans/local-plan-2023-2040/","final_url":"https://publications.southtyneside.gov.uk/plans/local-plan-2023-2040/","license":"South Tyneside Council public planning publication; page-specific reuse licence not stated on the source page","authority":"South Tyneside Council","shlaa_reference":"SBC003","total_site_capacity":263,"dwellings_built_to_date":0,"remaining_capacity":263,"years_1_5_2025_2030":80,"years_6_10_2030_2035":183,"years_11_17_2035_2041":0,"planning_application_number":null,"planning_status":null,"housing_trajectory_update":"April 2025","evidence_grade":"A","confidence_score_0_100":99,"evidence_scope":"exact South Tyneside Main Modifications Appendix 6 housing-trajectory row for SBC003","evidence_slice_sha256":"ff7c69c92a01c6c49fd8039bb7a2471274c510d4debbdafb4dc23994adf7082d","fake_data":false,"spatial_binding_method":"official SHLAA reference SBC003 plus Main Modifications housing-trajectory row; exact boundary resolution, canonical parcel spatial join and materialization delegated to local OpenCode","planned_building_count_contribution":0}}]}