{"type":"FeatureCollection","name":"height_difference_2","features":[],"metadata":{"slot_id":"height_difference_2","lineage_id":"height_difference_2_20260930T001051Z","page_generation":1,"partition":"source_area","schema":"AAYS_LAYER24_EVIDENCE_V1","fake_data":false,"owner":"cagdas aydin","batch_id":"batch_0055_north_somerset_white_hart_canonical_blocker_20261005T020200+0300","cursor":"BLOCKED_NORTH_SOMERSET_WHITE_HART_WITHOUT_HD2_CANONICAL_PARCEL_BINDING","source_area_count":0,"accepted_count":0,"unmatched_count":1,"source_window_path":"incoming/layer24/building_type_2/building_type_2-20260930T173100Z-newstart/batch-0070/","reason":"EXACT_BLOCKER: a previously unused verified official public no-login North Somerset Council / Planning Data listed-building-outline singleton window was processed (1 source record). Entity 42129411 (The White Hart; reference LSB707; listed building 1129138) is a real BUILDING_PRESENT MultiPolygon with authoritative footprint geometry, 2026-04-24 data date, and Open Government Licence v3.0, but canonical_parcel_id is null and local_spatial_join_required is true. Therefore it does not establish a height_difference_2 slot-bound canonical parcel selector or exact DEM/LIDAR tile binding. Local OpenCode must perform/publish the canonical parcel spatial join/materialization before Height Difference source acceptance."}}
