{"type":"FeatureCollection","features":[{"type":"Feature","geometry":{"type":"MultiPolygon","coordinates":[[[[0.040345,51.39963],[0.040408,51.399437],[0.045153,51.399679],[0.045122,51.399907],[0.043609,51.399805],[0.043574,51.399829],[0.041102,51.399748],[0.040482,51.39965],[0.040345,51.39963]]]]},"properties":{"slot_id":"future_growth_ 2","lineage_id":"future_growth_ 2-newstart-20261001T203100Z","page_generation":1,"owner":"future_growth_ 2","partition":"future_growth","semantic_mode":"SOURCE_AREA_EXACT_IDENTIFIER","accepted_as_parcel":false,"source_area_count_contribution":1,"exact_identifier":"BLR2","exact_identifier_provided":true,"coverage_polygon_provided":true,"identifier_namespace":"London Borough of Bromley Brownfield Land Register site reference","access_utc":"2026-10-02T19:27:00Z","data_date":"2020-12-22","source_url":"https://www.planning.data.gov.uk/entity/1801960","final_url":"https://www.planning.data.gov.uk/entity/1801960","dataset_url":"https://www.planning.data.gov.uk/dataset/brownfield-site","authoritative_identifier_url":"https://www.planning.data.gov.uk/entity/1707463","license":"Open Government Licence v.3.0","authority":"London Borough of Bromley","site_address":"Land adjacent to Bickley Station, BR1 2EB","hectares":0.9,"point":{"type":"Point","coordinates":[0.042703,51.39968]},"maximum_net_dwellings":30,"minimum_net_dwellings":null,"planning_permission_status":"not-permissioned","confidence_score_0_100":99,"confidence":0.99,"evidence_grade":"A","evidence_scope":"official_government_polygon_plus_authoritative_exact_identifier","field_evidence":{"authoritative_land_entity":1707463,"authoritative_land_quality":"authoritative","brownfield_land_start_date":"2017-12-31","deliverable":"yes","hectares":0.9,"notes":"The site is allocated for around 30 residential units in Bromley's Draft Local Plan.","planning_permission_status":"not-permissioned","polygon_entity":1801960,"polygon_entry_date":"2020-12-22","polygon_quality":"some","reference":"BLR2","site_name":"Land adjacent to Bickley Station, BR1 2EB"},"evidence_slice_sha256":"8d23efd70b2e5fdd6d23d81fff1138e01eaff68c34ec9beb3c02fcbe78e1b2ee","fake_data":false,"spatial_binding_method":"official Planning Data MultiPolygon source-area coverage plus authoritative BLR2 exact identifier; canonical parcel spatial join/materialization delegated to local OpenCode","planned_building_count_contribution":0}}]}