{"type":"FeatureCollection","features":[{"type":"Feature","geometry":null,"properties":{"slot_id":"planned_buildings_1","lineage_id":"planned_buildings_1-0ffc4ebd6c6e4e41","semantic_mode":"DISTINCT_BUILDINGS","planned_building_id":"planning-application:W/26/00951/FUL::DRIVE_THRU_RESTAURANT_01","building_status":"PLANNED","building_name":"Drive-thru restaurant, 6 Abbey Road","planning_reference":"W/26/00951/FUL","authority":"Wychavon District Council","source_url":"https://plan.wychavon.gov.uk/Planning/Display/W/26/00951/FUL","final_url":"https://plan.wychavon.gov.uk/Planning/Display/W/26/00951/FUL","access_utc":"2026-10-05T04:20:00Z","source_data_date":"2026-05-13","license":"Council planning-register copyright/consultation terms; no separate data licence stated on page","geometry_role":"null; no geometry inferred","field_evidence":"Valid; Pending Decision; decision Pending; proposal explicitly includes erection of a drive thru restaurant.","identity_limitation":"Only the explicitly erected drive-thru restaurant is counted as a distinct new building; the replacement petrol filling station/ancillary retail kiosk component is not counted because the kiosk is described as change of use in part of an existing takeaway; EV charging points, parking, landscaping and access works are not buildings.","confidence_score_0_100":99,"evidence_grade":"A","fake_data":false}}]}