{
  "type": "FeatureCollection",
  "name": "security_public_safety_6",
  "features": [
    {
      "type": "Feature",
      "id": "avon-and-somerset",
      "geometry": null,
      "properties": {
        "source_area_id": "avon-and-somerset",
        "source_area_name": "Avon and Somerset Constabulary",
        "source_area_kind": "police_force_exact_identifier",
        "source_window_id": "data_police_forces_2026-09-27",
        "source_url": "https://data.police.uk/api/forces",
        "source_record_ordinal": 1,
        "evidence_type": "exact_identifier",
        "canonical_parcel_id": null,
        "parcel_match_status": "DEFERRED_TO_LOCAL_OPENCODE"
      }
    },
    {
      "type": "Feature",
      "id": "bedfordshire",
      "geometry": null,
      "properties": {
        "source_area_id": "bedfordshire",
        "source_area_name": "Bedfordshire Police",
        "source_area_kind": "police_force_exact_identifier",
        "source_window_id": "data_police_forces_2026-09-27",
        "source_url": "https://data.police.uk/api/forces",
        "source_record_ordinal": 2,
        "evidence_type": "exact_identifier",
        "canonical_parcel_id": null,
        "parcel_match_status": "DEFERRED_TO_LOCAL_OPENCODE"
      }
    },
    {
      "type": "Feature",
      "id": "cambridgeshire",
      "geometry": null,
      "properties": {
        "source_area_id": "cambridgeshire",
        "source_area_name": "Cambridgeshire Constabulary",
        "source_area_kind": "police_force_exact_identifier",
        "source_window_id": "data_police_forces_2026-09-27",
        "source_url": "https://data.police.uk/api/forces",
        "source_record_ordinal": 3,
        "evidence_type": "exact_identifier",
        "canonical_parcel_id": null,
        "parcel_match_status": "DEFERRED_TO_LOCAL_OPENCODE"
      }
    },
    {
      "type": "Feature",
      "id": "cheshire",
      "geometry": null,
      "properties": {
        "source_area_id": "cheshire",
        "source_area_name": "Cheshire Constabulary",
        "source_area_kind": "police_force_exact_identifier",
        "source_window_id": "data_police_forces_2026-09-27",
        "source_url": "https://data.police.uk/api/forces",
        "source_record_ordinal": 4,
        "evidence_type": "exact_identifier",
        "canonical_parcel_id": null,
        "parcel_match_status": "DEFERRED_TO_LOCAL_OPENCODE"
      }
    },
    {
      "type": "Feature",
      "id": "city-of-london",
      "geometry": null,
      "properties": {
        "source_area_id": "city-of-london",
        "source_area_name": "City of London Police",
        "source_area_kind": "police_force_exact_identifier",
        "source_window_id": "data_police_forces_2026-09-27",
        "source_url": "https://data.police.uk/api/forces",
        "source_record_ordinal": 5,
        "evidence_type": "exact_identifier",
        "canonical_parcel_id": null,
        "parcel_match_status": "DEFERRED_TO_LOCAL_OPENCODE"
      }
    },
    {
      "type": "Feature",
      "id": "cleveland",
      "geometry": null,
      "properties": {
        "source_area_id": "cleveland",
        "source_area_name": "Cleveland Police",
        "source_area_kind": "police_force_exact_identifier",
        "source_window_id": "data_police_forces_2026-09-27",
        "source_url": "https://data.police.uk/api/forces",
        "source_record_ordinal": 6,
        "evidence_type": "exact_identifier",
        "canonical_parcel_id": null,
        "parcel_match_status": "DEFERRED_TO_LOCAL_OPENCODE"
      }
    },
    {
      "type": "Feature",
      "id": "cumbria",
      "geometry": null,
      "properties": {
        "source_area_id": "cumbria",
        "source_area_name": "Cumbria Constabulary",
        "source_area_kind": "police_force_exact_identifier",
        "source_window_id": "data_police_forces_2026-09-27",
        "source_url": "https://data.police.uk/api/forces",
        "source_record_ordinal": 7,
        "evidence_type": "exact_identifier",
        "canonical_parcel_id": null,
        "parcel_match_status": "DEFERRED_TO_LOCAL_OPENCODE"
      }
    },
    {
      "type": "Feature",
      "id": "derbyshire",
      "geometry": null,
      "properties": {
        "source_area_id": "derbyshire",
        "source_area_name": "Derbyshire Constabulary",
        "source_area_kind": "police_force_exact_identifier",
        "source_window_id": "data_police_forces_2026-09-27",
        "source_url": "https://data.police.uk/api/forces",
        "source_record_ordinal": 8,
        "evidence_type": "exact_identifier",
        "canonical_parcel_id": null,
        "parcel_match_status": "DEFERRED_TO_LOCAL_OPENCODE"
      }
    },
    {
      "type": "Feature",
      "id": "devon-and-cornwall",
      "geometry": null,
      "properties": {
        "source_area_id": "devon-and-cornwall",
        "source_area_name": "Devon & Cornwall Police",
        "source_area_kind": "police_force_exact_identifier",
        "source_window_id": "data_police_forces_2026-09-27",
        "source_url": "https://data.police.uk/api/forces",
        "source_record_ordinal": 9,
        "evidence_type": "exact_identifier",
        "canonical_parcel_id": null,
        "parcel_match_status": "DEFERRED_TO_LOCAL_OPENCODE"
      }
    },
    {
      "type": "Feature",
      "id": "dorset",
      "geometry": null,
      "properties": {
        "source_area_id": "dorset",
        "source_area_name": "Dorset Police",
        "source_area_kind": "police_force_exact_identifier",
        "source_window_id": "data_police_forces_2026-09-27",
        "source_url": "https://data.police.uk/api/forces",
        "source_record_ordinal": 10,
        "evidence_type": "exact_identifier",
        "canonical_parcel_id": null,
        "parcel_match_status": "DEFERRED_TO_LOCAL_OPENCODE"
      }
    },
    {
      "type": "Feature",
      "id": "durham",
      "geometry": null,
      "properties": {
        "source_area_id": "durham",
        "source_area_name": "Durham Constabulary",
        "source_area_kind": "police_force_exact_identifier",
        "source_window_id": "data_police_forces_2026-09-27",
        "source_url": "https://data.police.uk/api/forces",
        "source_record_ordinal": 11,
        "evidence_type": "exact_identifier",
        "canonical_parcel_id": null,
        "parcel_match_status": "DEFERRED_TO_LOCAL_OPENCODE"
      }
    },
    {
      "type": "Feature",
      "id": "essex",
      "geometry": null,
      "properties": {
        "source_area_id": "essex",
        "source_area_name": "Essex Police",
        "source_area_kind": "police_force_exact_identifier",
        "source_window_id": "data_police_forces_2026-09-27",
        "source_url": "https://data.police.uk/api/forces",
        "source_record_ordinal": 12,
        "evidence_type": "exact_identifier",
        "canonical_parcel_id": null,
        "parcel_match_status": "DEFERRED_TO_LOCAL_OPENCODE"
      }
    },
    {
      "type": "Feature",
      "id": "gloucestershire",
      "geometry": null,
      "properties": {
        "source_area_id": "gloucestershire",
        "source_area_name": "Gloucestershire Constabulary",
        "source_area_kind": "police_force_exact_identifier",
        "source_window_id": "data_police_forces_2026-09-27",
        "source_url": "https://data.police.uk/api/forces",
        "source_record_ordinal": 13,
        "evidence_type": "exact_identifier",
        "canonical_parcel_id": null,
        "parcel_match_status": "DEFERRED_TO_LOCAL_OPENCODE"
      }
    },
    {
      "type": "Feature",
      "id": "greater-manchester",
      "geometry": null,
      "properties": {
        "source_area_id": "greater-manchester",
        "source_area_name": "Greater Manchester Police",
        "source_area_kind": "police_force_exact_identifier",
        "source_window_id": "data_police_forces_2026-09-27",
        "source_url": "https://data.police.uk/api/forces",
        "source_record_ordinal": 14,
        "evidence_type": "exact_identifier",
        "canonical_parcel_id": null,
        "parcel_match_status": "DEFERRED_TO_LOCAL_OPENCODE"
      }
    },
    {
      "type": "Feature",
      "id": "gwent",
      "geometry": null,
      "properties": {
        "source_area_id": "gwent",
        "source_area_name": "Gwent Police",
        "source_area_kind": "police_force_exact_identifier",
        "source_window_id": "data_police_forces_2026-09-27",
        "source_url": "https://data.police.uk/api/forces",
        "source_record_ordinal": 15,
        "evidence_type": "exact_identifier",
        "canonical_parcel_id": null,
        "parcel_match_status": "DEFERRED_TO_LOCAL_OPENCODE"
      }
    },
    {
      "type": "Feature",
      "id": "hampshire",
      "geometry": null,
      "properties": {
        "source_area_id": "hampshire",
        "source_area_name": "Hampshire Constabulary",
        "source_area_kind": "police_force_exact_identifier",
        "source_window_id": "data_police_forces_2026-09-27",
        "source_url": "https://data.police.uk/api/forces",
        "source_record_ordinal": 16,
        "evidence_type": "exact_identifier",
        "canonical_parcel_id": null,
        "parcel_match_status": "DEFERRED_TO_LOCAL_OPENCODE"
      }
    },
    {
      "type": "Feature",
      "id": "dyfed-powys",
      "geometry": null,
      "properties": {
        "source_area_id": "dyfed-powys",
        "source_area_name": "Dyfed-Powys Police",
        "source_area_kind": "police_force_exact_identifier",
        "source_window_id": "data_police_forces_2026-09-27",
        "source_url": "https://data.police.uk/api/forces",
        "source_record_ordinal": 17,
        "evidence_type": "exact_identifier",
        "canonical_parcel_id": null,
        "parcel_match_status": "DEFERRED_TO_LOCAL_OPENCODE"
      }
    },
    {
      "type": "Feature",
      "id": "hertfordshire",
      "geometry": null,
      "properties": {
        "source_area_id": "hertfordshire",
        "source_area_name": "Hertfordshire Constabulary",
        "source_area_kind": "police_force_exact_identifier",
        "source_window_id": "data_police_forces_2026-09-27",
        "source_url": "https://data.police.uk/api/forces",
        "source_record_ordinal": 18,
        "evidence_type": "exact_identifier",
        "canonical_parcel_id": null,
        "parcel_match_status": "DEFERRED_TO_LOCAL_OPENCODE"
      }
    },
    {
      "type": "Feature",
      "id": "humberside",
      "geometry": null,
      "properties": {
        "source_area_id": "humberside",
        "source_area_name": "Humberside Police",
        "source_area_kind": "police_force_exact_identifier",
        "source_window_id": "data_police_forces_2026-09-27",
        "source_url": "https://data.police.uk/api/forces",
        "source_record_ordinal": 19,
        "evidence_type": "exact_identifier",
        "canonical_parcel_id": null,
        "parcel_match_status": "DEFERRED_TO_LOCAL_OPENCODE"
      }
    },
    {
      "type": "Feature",
      "id": "kent",
      "geometry": null,
      "properties": {
        "source_area_id": "kent",
        "source_area_name": "Kent Police",
        "source_area_kind": "police_force_exact_identifier",
        "source_window_id": "data_police_forces_2026-09-27",
        "source_url": "https://data.police.uk/api/forces",
        "source_record_ordinal": 20,
        "evidence_type": "exact_identifier",
        "canonical_parcel_id": null,
        "parcel_match_status": "DEFERRED_TO_LOCAL_OPENCODE"
      }
    },
    {
      "type": "Feature",
      "id": "lancashire",
      "geometry": null,
      "properties": {
        "source_area_id": "lancashire",
        "source_area_name": "Lancashire Constabulary",
        "source_area_kind": "police_force_exact_identifier",
        "source_window_id": "data_police_forces_2026-09-27",
        "source_url": "https://data.police.uk/api/forces",
        "source_record_ordinal": 21,
        "evidence_type": "exact_identifier",
        "canonical_parcel_id": null,
        "parcel_match_status": "DEFERRED_TO_LOCAL_OPENCODE"
      }
    },
    {
      "type": "Feature",
      "id": "leicestershire",
      "geometry": null,
      "properties": {
        "source_area_id": "leicestershire",
        "source_area_name": "Leicestershire Police",
        "source_area_kind": "police_force_exact_identifier",
        "source_window_id": "data_police_forces_2026-09-27",
        "source_url": "https://data.police.uk/api/forces",
        "source_record_ordinal": 22,
        "evidence_type": "exact_identifier",
        "canonical_parcel_id": null,
        "parcel_match_status": "DEFERRED_TO_LOCAL_OPENCODE"
      }
    },
    {
      "type": "Feature",
      "id": "lincolnshire",
      "geometry": null,
      "properties": {
        "source_area_id": "lincolnshire",
        "source_area_name": "Lincolnshire Police",
        "source_area_kind": "police_force_exact_identifier",
        "source_window_id": "data_police_forces_2026-09-27",
        "source_url": "https://data.police.uk/api/forces",
        "source_record_ordinal": 23,
        "evidence_type": "exact_identifier",
        "canonical_parcel_id": null,
        "parcel_match_status": "DEFERRED_TO_LOCAL_OPENCODE"
      }
    },
    {
      "type": "Feature",
      "id": "merseyside",
      "geometry": null,
      "properties": {
        "source_area_id": "merseyside",
        "source_area_name": "Merseyside Police",
        "source_area_kind": "police_force_exact_identifier",
        "source_window_id": "data_police_forces_2026-09-27",
        "source_url": "https://data.police.uk/api/forces",
        "source_record_ordinal": 24,
        "evidence_type": "exact_identifier",
        "canonical_parcel_id": null,
        "parcel_match_status": "DEFERRED_TO_LOCAL_OPENCODE"
      }
    },
    {
      "type": "Feature",
      "id": "metropolitan",
      "geometry": null,
      "properties": {
        "source_area_id": "metropolitan",
        "source_area_name": "Metropolitan Police Service",
        "source_area_kind": "police_force_exact_identifier",
        "source_window_id": "data_police_forces_2026-09-27",
        "source_url": "https://data.police.uk/api/forces",
        "source_record_ordinal": 25,
        "evidence_type": "exact_identifier",
        "canonical_parcel_id": null,
        "parcel_match_status": "DEFERRED_TO_LOCAL_OPENCODE"
      }
    },
    {
      "type": "Feature",
      "id": "norfolk",
      "geometry": null,
      "properties": {
        "source_area_id": "norfolk",
        "source_area_name": "Norfolk Constabulary",
        "source_area_kind": "police_force_exact_identifier",
        "source_window_id": "data_police_forces_2026-09-27",
        "source_url": "https://data.police.uk/api/forces",
        "source_record_ordinal": 26,
        "evidence_type": "exact_identifier",
        "canonical_parcel_id": null,
        "parcel_match_status": "DEFERRED_TO_LOCAL_OPENCODE"
      }
    },
    {
      "type": "Feature",
      "id": "north-wales",
      "geometry": null,
      "properties": {
        "source_area_id": "north-wales",
        "source_area_name": "North Wales Police",
        "source_area_kind": "police_force_exact_identifier",
        "source_window_id": "data_police_forces_2026-09-27",
        "source_url": "https://data.police.uk/api/forces",
        "source_record_ordinal": 27,
        "evidence_type": "exact_identifier",
        "canonical_parcel_id": null,
        "parcel_match_status": "DEFERRED_TO_LOCAL_OPENCODE"
      }
    },
    {
      "type": "Feature",
      "id": "north-yorkshire",
      "geometry": null,
      "properties": {
        "source_area_id": "north-yorkshire",
        "source_area_name": "North Yorkshire Police",
        "source_area_kind": "police_force_exact_identifier",
        "source_window_id": "data_police_forces_2026-09-27",
        "source_url": "https://data.police.uk/api/forces",
        "source_record_ordinal": 28,
        "evidence_type": "exact_identifier",
        "canonical_parcel_id": null,
        "parcel_match_status": "DEFERRED_TO_LOCAL_OPENCODE"
      }
    },
    {
      "type": "Feature",
      "id": "northamptonshire",
      "geometry": null,
      "properties": {
        "source_area_id": "northamptonshire",
        "source_area_name": "Northamptonshire Police",
        "source_area_kind": "police_force_exact_identifier",
        "source_window_id": "data_police_forces_2026-09-27",
        "source_url": "https://data.police.uk/api/forces",
        "source_record_ordinal": 29,
        "evidence_type": "exact_identifier",
        "canonical_parcel_id": null,
        "parcel_match_status": "DEFERRED_TO_LOCAL_OPENCODE"
      }
    },
    {
      "type": "Feature",
      "id": "northumbria",
      "geometry": null,
      "properties": {
        "source_area_id": "northumbria",
        "source_area_name": "Northumbria Police",
        "source_area_kind": "police_force_exact_identifier",
        "source_window_id": "data_police_forces_2026-09-27",
        "source_url": "https://data.police.uk/api/forces",
        "source_record_ordinal": 30,
        "evidence_type": "exact_identifier",
        "canonical_parcel_id": null,
        "parcel_match_status": "DEFERRED_TO_LOCAL_OPENCODE"
      }
    },
    {
      "type": "Feature",
      "id": "nottinghamshire",
      "geometry": null,
      "properties": {
        "source_area_id": "nottinghamshire",
        "source_area_name": "Nottinghamshire Police",
        "source_area_kind": "police_force_exact_identifier",
        "source_window_id": "data_police_forces_2026-09-27",
        "source_url": "https://data.police.uk/api/forces",
        "source_record_ordinal": 31,
        "evidence_type": "exact_identifier",
        "canonical_parcel_id": null,
        "parcel_match_status": "DEFERRED_TO_LOCAL_OPENCODE"
      }
    },
    {
      "type": "Feature",
      "id": "northern-ireland",
      "geometry": null,
      "properties": {
        "source_area_id": "northern-ireland",
        "source_area_name": "Police Service of Northern Ireland",
        "source_area_kind": "police_force_exact_identifier",
        "source_window_id": "data_police_forces_2026-09-27",
        "source_url": "https://data.police.uk/api/forces",
        "source_record_ordinal": 32,
        "evidence_type": "exact_identifier",
        "canonical_parcel_id": null,
        "parcel_match_status": "DEFERRED_TO_LOCAL_OPENCODE"
      }
    },
    {
      "type": "Feature",
      "id": "south-wales",
      "geometry": null,
      "properties": {
        "source_area_id": "south-wales",
        "source_area_name": "South Wales Police",
        "source_area_kind": "police_force_exact_identifier",
        "source_window_id": "data_police_forces_2026-09-27",
        "source_url": "https://data.police.uk/api/forces",
        "source_record_ordinal": 33,
        "evidence_type": "exact_identifier",
        "canonical_parcel_id": null,
        "parcel_match_status": "DEFERRED_TO_LOCAL_OPENCODE"
      }
    },
    {
      "type": "Feature",
      "id": "south-yorkshire",
      "geometry": null,
      "properties": {
        "source_area_id": "south-yorkshire",
        "source_area_name": "South Yorkshire Police",
        "source_area_kind": "police_force_exact_identifier",
        "source_window_id": "data_police_forces_2026-09-27",
        "source_url": "https://data.police.uk/api/forces",
        "source_record_ordinal": 34,
        "evidence_type": "exact_identifier",
        "canonical_parcel_id": null,
        "parcel_match_status": "DEFERRED_TO_LOCAL_OPENCODE"
      }
    },
    {
      "type": "Feature",
      "id": "staffordshire",
      "geometry": null,
      "properties": {
        "source_area_id": "staffordshire",
        "source_area_name": "Staffordshire Police",
        "source_area_kind": "police_force_exact_identifier",
        "source_window_id": "data_police_forces_2026-09-27",
        "source_url": "https://data.police.uk/api/forces",
        "source_record_ordinal": 35,
        "evidence_type": "exact_identifier",
        "canonical_parcel_id": null,
        "parcel_match_status": "DEFERRED_TO_LOCAL_OPENCODE"
      }
    },
    {
      "type": "Feature",
      "id": "suffolk",
      "geometry": null,
      "properties": {
        "source_area_id": "suffolk",
        "source_area_name": "Suffolk Constabulary",
        "source_area_kind": "police_force_exact_identifier",
        "source_window_id": "data_police_forces_2026-09-27",
        "source_url": "https://data.police.uk/api/forces",
        "source_record_ordinal": 36,
        "evidence_type": "exact_identifier",
        "canonical_parcel_id": null,
        "parcel_match_status": "DEFERRED_TO_LOCAL_OPENCODE"
      }
    },
    {
      "type": "Feature",
      "id": "surrey",
      "geometry": null,
      "properties": {
        "source_area_id": "surrey",
        "source_area_name": "Surrey Police",
        "source_area_kind": "police_force_exact_identifier",
        "source_window_id": "data_police_forces_2026-09-27",
        "source_url": "https://data.police.uk/api/forces",
        "source_record_ordinal": 37,
        "evidence_type": "exact_identifier",
        "canonical_parcel_id": null,
        "parcel_match_status": "DEFERRED_TO_LOCAL_OPENCODE"
      }
    },
    {
      "type": "Feature",
      "id": "sussex",
      "geometry": null,
      "properties": {
        "source_area_id": "sussex",
        "source_area_name": "Sussex Police",
        "source_area_kind": "police_force_exact_identifier",
        "source_window_id": "data_police_forces_2026-09-27",
        "source_url": "https://data.police.uk/api/forces",
        "source_record_ordinal": 38,
        "evidence_type": "exact_identifier",
        "canonical_parcel_id": null,
        "parcel_match_status": "DEFERRED_TO_LOCAL_OPENCODE"
      }
    },
    {
      "type": "Feature",
      "id": "thames-valley",
      "geometry": null,
      "properties": {
        "source_area_id": "thames-valley",
        "source_area_name": "Thames Valley Police",
        "source_area_kind": "police_force_exact_identifier",
        "source_window_id": "data_police_forces_2026-09-27",
        "source_url": "https://data.police.uk/api/forces",
        "source_record_ordinal": 39,
        "evidence_type": "exact_identifier",
        "canonical_parcel_id": null,
        "parcel_match_status": "DEFERRED_TO_LOCAL_OPENCODE"
      }
    },
    {
      "type": "Feature",
      "id": "warwickshire",
      "geometry": null,
      "properties": {
        "source_area_id": "warwickshire",
        "source_area_name": "Warwickshire Police",
        "source_area_kind": "police_force_exact_identifier",
        "source_window_id": "data_police_forces_2026-09-27",
        "source_url": "https://data.police.uk/api/forces",
        "source_record_ordinal": 40,
        "evidence_type": "exact_identifier",
        "canonical_parcel_id": null,
        "parcel_match_status": "DEFERRED_TO_LOCAL_OPENCODE"
      }
    },
    {
      "type": "Feature",
      "id": "west-mercia",
      "geometry": null,
      "properties": {
        "source_area_id": "west-mercia",
        "source_area_name": "West Mercia Police",
        "source_area_kind": "police_force_exact_identifier",
        "source_window_id": "data_police_forces_2026-09-27",
        "source_url": "https://data.police.uk/api/forces",
        "source_record_ordinal": 41,
        "evidence_type": "exact_identifier",
        "canonical_parcel_id": null,
        "parcel_match_status": "DEFERRED_TO_LOCAL_OPENCODE"
      }
    },
    {
      "type": "Feature",
      "id": "west-midlands",
      "geometry": null,
      "properties": {
        "source_area_id": "west-midlands",
        "source_area_name": "West Midlands Police",
        "source_area_kind": "police_force_exact_identifier",
        "source_window_id": "data_police_forces_2026-09-27",
        "source_url": "https://data.police.uk/api/forces",
        "source_record_ordinal": 42,
        "evidence_type": "exact_identifier",
        "canonical_parcel_id": null,
        "parcel_match_status": "DEFERRED_TO_LOCAL_OPENCODE"
      }
    },
    {
      "type": "Feature",
      "id": "west-yorkshire",
      "geometry": null,
      "properties": {
        "source_area_id": "west-yorkshire",
        "source_area_name": "West Yorkshire Police",
        "source_area_kind": "police_force_exact_identifier",
        "source_window_id": "data_police_forces_2026-09-27",
        "source_url": "https://data.police.uk/api/forces",
        "source_record_ordinal": 43,
        "evidence_type": "exact_identifier",
        "canonical_parcel_id": null,
        "parcel_match_status": "DEFERRED_TO_LOCAL_OPENCODE"
      }
    },
    {
      "type": "Feature",
      "id": "wiltshire",
      "geometry": null,
      "properties": {
        "source_area_id": "wiltshire",
        "source_area_name": "Wiltshire Police",
        "source_area_kind": "police_force_exact_identifier",
        "source_window_id": "data_police_forces_2026-09-27",
        "source_url": "https://data.police.uk/api/forces",
        "source_record_ordinal": 44,
        "evidence_type": "exact_identifier",
        "canonical_parcel_id": null,
        "parcel_match_status": "DEFERRED_TO_LOCAL_OPENCODE"
      }
    }
  ],
  "metadata": {
    "slot_name": "security_public_safety_6",
    "lineage_id": "security_public_safety_6__new__20260927T160800+0300",
    "page_generation": 4,
    "ownership": "this_chat_delivery_only",
    "partition": null,
    "receipt_category": "AAYS_SOURCE_AREA_V1",
    "record_semantics": "official source-area exact identifiers; not canonical parcels",
    "source_area_count": 44,
    "accepted_count": 0,
    "local_spatial_join_required": true,
    "geometry_available_in_this_window": false
  }
}
