{"type":"FeatureCollection","name":"height_difference_5","metadata":{"slot_id":"height_difference_5","owner":"height_difference_5","lineage_id":"height_difference_5-eb56f92ed3f0514c","page_generation":1,"schema":"AAYS_LAYER24_EVIDENCE_V1","partition":"layer24","semantic_mode_state":"ABSENT_IN_PRIOR_PHYSICAL_STATE_PRESERVED_BY_OMISSION","batch_id":"20261003T013501Z_belfast_2006_ne_zone_metadata_blocked","record_policy":"Official Belfast North East zone resource metadata only; no payload URL, tile/file, parcel binding, geometry or CRS synthesized.","fake_data":false},"features":[{"type":"Feature","geometry":null,"properties":{"slot_id":"height_difference_5","owner":"height_difference_5","lineage_id":"height_difference_5-eb56f92ed3f0514c","page_generation":1,"schema":"AAYS_LAYER24_EVIDENCE_V1","partition":"layer24","batch_id":"20261003T013501Z_belfast_2006_ne_zone_metadata_blocked","source_record_id":"DFI_BELFAST_LIDAR_2006:NE_ZONE_RESOURCE","source_url":"https://admin.opendatani.gov.uk/dataset/lidar-belfast-city-2006","resource_page":"https://admin.opendatani.gov.uk/dataset/lidar-belfast-city-2006/resource/f626f95b-557e-49ac-b731-03cde2c8da61","resource_id":"f626f95b-557e-49ac-b731-03cde2c8da61","resource_name":"Belfast City Lidar North East Zone","access_utc":"2026-10-03T01:35:01Z","required_building_state":"BUILDING_PRESENT","binding_status":"LOCAL_OPENCODE_BUILDING_PRESENT_EXACT_TILE_BIND_REQUIRED","payload_url":null,"payload_transport_status":"RESOURCE_METADATA_PAGE_ACCESSIBLE_DOWNLOAD_TARGET_NOT_EXPOSED","exact_tile_identifier":null,"crs":null,"evidence_slice_sha256":"c46054eba951d680a46f954e7339a2a7caa93a17f00cf499bbab5f3ad33c0ebc","accepted_count_contribution":0,"source_area_count_contribution":0,"fake_data":false}}]}
