{"type":"FeatureCollection","features":[{"type":"Feature","geometry":null,"properties":{"slot_id":"future_growth_1","lineage_id":"future_growth_1-newstart-20260927T153100+0300","page_generation":null,"accepted_as_parcel":false,"source_area_count_contribution":1,"exact_identifier":"HLB17","exact_identifier_provided":true,"coverage_polygon_provided":false,"identifier_namespace":"Gateshead Brownfield Register / Planning Data brownfield-land reference","site_name":"Churchill's site, Blaydon","access_utc":"2026-10-04T16:37:00Z","data_date":"2025-06","source_url":"https://online.gateshead.gov.uk/BrownfieldSites/BrownfieldSites/SiteSummary/299","final_url":"https://online.gateshead.gov.uk/BrownfieldSites/BrownfieldSites/SiteSummary/299","planning_data_url":"https://www.planning.data.gov.uk/entity/1723495","about_url":"https://online.gateshead.gov.uk/BrownfieldSites/Info/About","site_plan_url":"https://gis.gateshead.gov.uk/gatesheadmaps/BFR21/app.html","license":"Open Government Licence v3.0 for MHCLG Planning Data; Gateshead public tool terms do not state a record-specific reuse licence.","authority":"Gateshead Metropolitan Borough Council","planning_data_entity":1723495,"hectares":2.51,"minimum_net_dwellings":49,"maximum_net_dwellings":122,"planning_permission_status":"not-permissioned","ownership_status":"not-owned-by-a-public-authority","gateshead_site_summary_id":299,"evidence_grade":"A","confidence_score_0_100":99,"evidence_scope":"exact Gateshead Brownfield Sites Tool record plus MHCLG authoritative brownfield-land reference HLB17","evidence_slice_sha256":"ac351beb1641627d4c51db91d4ccfb09c10249b5fee47e16e76d3e7710127187","fake_data":false,"spatial_binding_method":"official unique brownfield reference HLB17 plus Gateshead SiteSummary 299 and public site-plan map; exact boundary retrieval, canonical parcel spatial join and materialization delegated to local OpenCode","planned_building_count_contribution":0}}]}