{"type":"FeatureCollection","name":"height_difference_5","metadata":{"slot_id":"height_difference_5","owner":"height_difference_5","lineage_id":"height_difference_5-eb56f92ed3f0514c","page_generation":1,"schema":"AAYS_LAYER24_EVIDENCE_V1","partition":"layer24","semantic_mode_state":"ABSENT_IN_PRIOR_PHYSICAL_STATE_PRESERVED_BY_OMISSION","batch_id":"20261006T161200Z_spatialni_data_supply_metadata_pdf_generic_crs_blocked","record_policy":"Official SpatialNI generic CRS guidance only; no Belfast-specific CRS assignment, tile/file, geometry or parcel binding synthesized.","fake_data":false},"features":[{"type":"Feature","geometry":null,"properties":{"slot_id":"height_difference_5","owner":"height_difference_5","lineage_id":"height_difference_5-eb56f92ed3f0514c","page_generation":1,"schema":"AAYS_LAYER24_EVIDENCE_V1","partition":"layer24","batch_id":"20261006T161200Z_spatialni_data_supply_metadata_pdf_generic_crs_blocked","source_record_id":"SPATIALNI:DATA_SUPPLY_METADATA_PDF:GENERIC_CRS","source_url":"https://support.spatialni.gov.uk/nima/DownloadDocs/Guidance/SpatialNI_Data_Supply_Metadata_Form.pdf","document_title":"Spatial NI Data Supply: Metadata","page_reference":2,"access_utc":"2026-10-06T16:12:00Z","required_building_state":"BUILDING_PRESENT","binding_status":"LOCAL_OPENCODE_BUILDING_PRESENT_EXACT_TILE_BIND_REQUIRED","dataset_specific_to_belfast_2006":false,"observed_crs_option":"Irish Grid (TM65) [EPSG:29902]","exact_tile_identifier":null,"crs":null,"evidence_slice_sha256":"194dbcf4b45eb41d7bf95cc729275d32b0ca714f59c9bec3f3916cf6793a14e5","accepted_count_contribution":0,"source_area_count_contribution":0,"fake_data":false}}]}
