{"type":"FeatureCollection","features":[{"type":"Feature","geometry":null,"properties":{"slot_id":"future_growth_3","lineage_id":"future_growth_3-newstart-20261001T203100Z","page_generation":null,"accepted_as_parcel":false,"source_area_count_contribution":1,"exact_identifier":"SL2","exact_identifier_provided":true,"coverage_polygon_provided":false,"identifier_namespace":"Runnymede 2030 Local Plan allocation policy","secondary_exact_identifier":"planning:lp_2030_allocation_sites|policy=SL2","source_entity":"ffd23290-76d1-4a43-a287-5d3df6635f72","access_utc":"2026-10-02T00:31:02Z","data_date":"2021-01-05","source_url":"https://www.data.gov.uk/dataset/ffd23290-76d1-4a43-a287-5d3df6635f72/allocation-sites","final_url":"https://maps.runnymede.gov.uk/geoserver/wfs?outputFormat=csv&request=GetFeature&service=WFS&typeName=planning%3Alp_2030_allocation_sites","license":"Open Government Licence v3.0","authority":"Runnymede Borough Council","site_address":null,"field_evidence":{"reference":"SL2","dataset":"Allocation Sites","organisation":"Runnymede Borough Council","local_plan":"Runnymede 2030 Local Plan","adoption_date":"2020-07-16","resource_updated":"2021-01-05","policy_code":"SL2","wfs_typename":"planning:lp_2030_allocation_sites","published_fields":["FID","id","geom","site","policy","allocation_type"],"geometry_field":"geom","source_format":"OGC WFS"},"source_payload_sha256":"4b66fe81ebf70c55f5796840e485ee208e97d9cafbabddd09ae9c83e35810a2e","source_payload_sha256_basis":"canonicalized official data.gov.uk Runnymede Allocation Sites metadata plus published WFS CSV preview schema","evidence_slice_sha256":"34560060f31dbe35eb8356ce17c850cca88ce4316204dc66622d3994244c019e","evidence_grade":"A","confidence_score_0_100":98,"evidence_scope":"exact_official_identifier_on_public_ogc_wfs_allocation_layer","fake_data":false,"spatial_binding_method":"official Runnymede Borough Council GeoServer OGC WFS planning:lp_2030_allocation_sites with policy SL2; feature geometry query, canonical parcel spatial join and materialization delegated to local OpenCode","planned_building_count_contribution":0}}]}