{"type":"FeatureCollection","features":[{"type":"Feature","geometry":null,"properties":{"slot_id":"future_growth_3","lineage_id":"future_growth_3-newstart-20261001T203100Z","page_generation":null,"accepted_as_parcel":false,"source_area_count_contribution":1,"exact_identifier":"BR00008","exact_identifier_provided":true,"coverage_polygon_provided":false,"identifier_namespace":"Planning Data brownfield-land reference","secondary_exact_identifier":"entity:1717150","source_entity":"BR00008 - Olympic Office Centre, 8 Fulton Road","access_utc":"2026-10-07T01:21:46Z","data_date":"2026-04-10","source_url":"https://www.planning.data.gov.uk/entity/1717150","final_url":"https://www.planning.data.gov.uk/entity/1717150","license":"Open Government Licence v3.0; attribution © Crown copyright and database right 2026.","authority":"London Borough of Brent","site_address":"Olympic Office Centre, 8 Fulton Road","field_evidence":{"reference":"BR00008","entity":1717150,"dataset":"Brownfield land","organisation":"London Borough of Brent","entry_date":"2026-04-10","site_address":"Olympic Office Centre, 8 Fulton Road","point":"POINT (-0.279051 51.560366)","notes":"17/5097 granted. Site Allocation reference BCSA5 in Brent Local Plan 2019-2041.","hectares":0.49,"deliverable":"yes","ownership_status":"not-owned-by-a-public-authority","minimum_net_dwellings":253,"maximum_net_dwellings":253,"planning_permission_date":"2021-04-15","planning_permission_type":"full-planning-permission","planning_permission_status":"permissioned","site_plan_url":"https://maps.london.gov.uk/brownfield-site-register","planning_permission_history":"https://pa.brent.gov.uk/online-applications/simpleSearchResults.do?action=firstPage"},"source_payload_sha256":"b79a79e2127c349b58975b3adb550d431d0a44f5553faf9425e66d9bc7b90b5e","source_payload_sha256_basis":"canonicalized official Planning Data BR00008 evidence fields","evidence_slice_sha256":"3ab571a3287f1c60fcae97ac788121a0c8e394d52f8ba83a4029db7bdf5018f7","evidence_grade":"A","confidence_score_0_100":99,"evidence_scope":"exact_official_identifier_from_authoritative_planning_data_brownfield_entity","fake_data":false,"spatial_binding_method":"official Planning Data brownfield reference BR00008 / entity 1717150 and Brent Local Plan allocation BCSA5; canonical parcel spatial join and materialization delegated to local OpenCode","planned_building_count_contribution":0}}]}