{"type":"FeatureCollection","name":"security_public_safety_2_ons_pfa24_exact_identifiers","features":[{"type":"Feature","geometry":null,"properties":{"slot_id":"security_public_safety_2","category":"security_public_safety","source_record_type":"exact_official_identifier","official_identifier":"E23000001","pfa24cd":"E23000001","pfa24nm":"Metropolitan Police","fid":1,"source_url":"https://www.data.gov.uk/dataset/555e3f52-418f-4872-816d-cb469f4f6ddb/police-force-areas-december-2024-boundaries-ew-bfe/datafile/14e72aff-62fe-4c11-8cff-47c301673f75/preview","access_utc":"2026-09-30T19:57:00Z","data_date":"2024-12","publisher":"Office for National Statistics","fake_data":false}},{"type":"Feature","geometry":null,"properties":{"slot_id":"security_public_safety_2","category":"security_public_safety","source_record_type":"exact_official_identifier","official_identifier":"E23000002","pfa24cd":"E23000002","pfa24nm":"Cumbria","fid":2,"source_url":"https://www.data.gov.uk/dataset/555e3f52-418f-4872-816d-cb469f4f6ddb/police-force-areas-december-2024-boundaries-ew-bfe/datafile/14e72aff-62fe-4c11-8cff-47c301673f75/preview","access_utc":"2026-09-30T19:57:00Z","data_date":"2024-12","publisher":"Office for National Statistics","fake_data":false}},{"type":"Feature","geometry":null,"properties":{"slot_id":"security_public_safety_2","category":"security_public_safety","source_record_type":"exact_official_identifier","official_identifier":"E23000003","pfa24cd":"E23000003","pfa24nm":"Lancashire","fid":3,"source_url":"https://www.data.gov.uk/dataset/555e3f52-418f-4872-816d-cb469f4f6ddb/police-force-areas-december-2024-boundaries-ew-bfe/datafile/14e72aff-62fe-4c11-8cff-47c301673f75/preview","access_utc":"2026-09-30T19:57:00Z","data_date":"2024-12","publisher":"Office for National Statistics","fake_data":false}},{"type":"Feature","geometry":null,"properties":{"slot_id":"security_public_safety_2","category":"security_public_safety","source_record_type":"exact_official_identifier","official_identifier":"E23000004","pfa24cd":"E23000004","pfa24nm":"Merseyside","fid":4,"source_url":"https://www.data.gov.uk/dataset/555e3f52-418f-4872-816d-cb469f4f6ddb/police-force-areas-december-2024-boundaries-ew-bfe/datafile/14e72aff-62fe-4c11-8cff-47c301673f75/preview","access_utc":"2026-09-30T19:57:00Z","data_date":"2024-12","publisher":"Office for National Statistics","fake_data":false}}],"metadata":{"schema":"AAYS_LAYER24_EVIDENCE_V1","slot_id":"security_public_safety_2","owner":"security_public_safety_2","partition":"layer24","lineage_id":"security_public_safety_2:new-start:2026-09-30T00:28:19Z","page_generation":1,"batch_id":"20260930T195700Z_ons_pfa24_bfe_preview","source_area_count":4,"accepted_count":0,"geometry_policy":"null_geometry_exact_identifier_source_area_only","local_next_step":"OpenCode canonical parcel PFA24 binding/spatial join and materialization","fake_data":false}}
