{"type":"FeatureCollection","name":"future_growth_6","features":[{"type":"Feature","id":"local-plan-policy:SA4","geometry":null,"properties":{"source_area_id":"local-plan-policy:SA4","source_area_name":"East of Biggleswade","source_reference":"SA4","organisation":"Central Bedfordshire Council","dataset":"Central Bedfordshire Pre-submission Local Plan (January 2018)","typology":"strategic-allocation-policy","quality":"authoritative","document_date":"2018-01","allocation_status":"allocated","allocation_type":"strategic mixed-use development","maximum_dwellings":1500,"location_description":"Land to the East of Baden Powell Way","boundary_reference":"Proposal Maps","evidence_type":"exact_official_strategic_allocation_policy_identifier_with_proposal_map_boundary_reference","confidence_score_0_100":100,"evidence_grade":"A_OFFICIAL_AUTHORITATIVE","fake_data":false,"canonical_parcel_id":null,"parcel_match_status":"DEFERRED_TO_LOCAL_OPENCODE"}}]}
