{"type":"FeatureCollection","features":[{"type":"Feature","id":"CHERWELL_26_00836_F_DETACHED_DOUBLE_GARAGE_01","geometry":null,"properties":{"slot_id":"planned_buildings_4","owner":"planned_buildings_4","lineage_id":"pb4-8debc7c8ddf348a2","page_generation":1,"partition":"layer24","schema":"AAYS_LAYER24_EVIDENCE_V1","semantic_mode":"PLANNED_BUILDINGS_OFFICIAL_REFERENCE_DISTINCT_STRUCTURE","batch_id":"20261001T223346Z-cherwell-26-00836-f-window-001","publisher":"Cherwell District Council","source_family":"CHERWELL_PLANNING_REGISTER","source_url":"https://planningregister.cherwell.gov.uk/Planning/Display/26/00836/F","final_url":"https://planningregister.cherwell.gov.uk/Planning/Display/26/00836/F","access_utc":"2026-10-01T22:33:46Z","data_date":"2026-04-01","license":"Public planning register; document copyright/usage remains governed by council register terms","planning_reference":"26/00836/F","location":"19 Milton Road Bloxham OX15 4HD","proposal":"Detached double garage and outbuilding for pool","status":"Application Permitted","geometry_status":"NOT_MATERIALIZED_LOCAL_OPENCODE","field_evidence":"Official Cherwell District Council Planning Register application 26/00836/F. Status: Application Permitted. Valid date: 01/04/2026. Location: 19 Milton Road Bloxham OX15 4HD. Proposal: Detached double garage and outbuilding for pool. Decision: Permitted; Decision Issued Date: 29/06/2026. Official proposed drawings include 01-PR-FP-01-P02 (Proposed Garage Floor Plans), 01-PR-EL-01-P02 (Proposed Garage Elevations), 01-PR-FP-02-P01 (Proposed Pool Building Plans), and 01-PR-EL-02-P01 (Proposed Pool Building Elevations). Two distinct structures are counted: the detached double garage and the pool outbuilding. Geometry/materialization is deferred to local OpenCode.","evidence_slice_sha256":"9566807307c20da408d4a37e8b85b588db32264e13e01029dba4549987febb8e","confidence":0.99,"evidence_grade":"A_OFFICIAL_LOCAL_AUTHORITY_PLANNING_REGISTER_TWO_DISTINCT_OUTBUILDINGS_PERMITTED","fake_data":false,"source_record_id":"CHERWELL_26_00836_F_DETACHED_DOUBLE_GARAGE_01","planned_building":"detached double garage","official_plan_reference":"01-PR-FP-01-P02","official_plan_description":"Proposed Garage Floor Plans"}},{"type":"Feature","id":"CHERWELL_26_00836_F_POOL_OUTBUILDING_01","geometry":null,"properties":{"slot_id":"planned_buildings_4","owner":"planned_buildings_4","lineage_id":"pb4-8debc7c8ddf348a2","page_generation":1,"partition":"layer24","schema":"AAYS_LAYER24_EVIDENCE_V1","semantic_mode":"PLANNED_BUILDINGS_OFFICIAL_REFERENCE_DISTINCT_STRUCTURE","batch_id":"20261001T223346Z-cherwell-26-00836-f-window-001","publisher":"Cherwell District Council","source_family":"CHERWELL_PLANNING_REGISTER","source_url":"https://planningregister.cherwell.gov.uk/Planning/Display/26/00836/F","final_url":"https://planningregister.cherwell.gov.uk/Planning/Display/26/00836/F","access_utc":"2026-10-01T22:33:46Z","data_date":"2026-04-01","license":"Public planning register; document copyright/usage remains governed by council register terms","planning_reference":"26/00836/F","location":"19 Milton Road Bloxham OX15 4HD","proposal":"Detached double garage and outbuilding for pool","status":"Application Permitted","geometry_status":"NOT_MATERIALIZED_LOCAL_OPENCODE","field_evidence":"Official Cherwell District Council Planning Register application 26/00836/F. Status: Application Permitted. Valid date: 01/04/2026. Location: 19 Milton Road Bloxham OX15 4HD. Proposal: Detached double garage and outbuilding for pool. Decision: Permitted; Decision Issued Date: 29/06/2026. Official proposed drawings include 01-PR-FP-01-P02 (Proposed Garage Floor Plans), 01-PR-EL-01-P02 (Proposed Garage Elevations), 01-PR-FP-02-P01 (Proposed Pool Building Plans), and 01-PR-EL-02-P01 (Proposed Pool Building Elevations). Two distinct structures are counted: the detached double garage and the pool outbuilding. Geometry/materialization is deferred to local OpenCode.","evidence_slice_sha256":"9566807307c20da408d4a37e8b85b588db32264e13e01029dba4549987febb8e","confidence":0.99,"evidence_grade":"A_OFFICIAL_LOCAL_AUTHORITY_PLANNING_REGISTER_TWO_DISTINCT_OUTBUILDINGS_PERMITTED","fake_data":false,"source_record_id":"CHERWELL_26_00836_F_POOL_OUTBUILDING_01","planned_building":"outbuilding for pool","official_plan_reference":"01-PR-FP-02-P01","official_plan_description":"Proposed Pool Building Plans"}}]}
