{"type":"FeatureCollection","name":"height_difference_5","metadata":{"slot_id":"height_difference_5","owner":"height_difference_5","lineage_id":"height_difference_5-eb56f92ed3f0514c","page_generation":1,"schema":"AAYS_LAYER24_EVIDENCE_V1","partition":"layer24","semantic_mode_state":"ABSENT_IN_PRIOR_PHYSICAL_STATE_PRESERVED_BY_OMISSION","batch_id":"20261007T091200Z_osni_lidar_coverage_map_pdf_blocked","record_policy":"Official OSNI coverage-map PDF blocker evidence only; no PDF bytes, grid-cell identifier, geometry, parcel binding or CRS synthesized.","fake_data":false},"features":[{"type":"Feature","geometry":null,"properties":{"slot_id":"height_difference_5","owner":"height_difference_5","lineage_id":"height_difference_5-eb56f92ed3f0514c","page_generation":1,"schema":"AAYS_LAYER24_EVIDENCE_V1","partition":"layer24","batch_id":"20261007T091200Z_osni_lidar_coverage_map_pdf_blocked","source_record_id":"OSNI_RIVER_BASIN_LIDAR:COVERAGE_MAP_PDF","source_url":"https://admin.opendatani.gov.uk/dataset/osni-open-data-river-basin-lidar-2007-dtms-and-dsms","resource_page":"https://admin.opendatani.gov.uk/dataset/osni-open-data-river-basin-lidar-2007-dtms-and-dsms/resource/beb80675-e490-419d-b809-1f466d71c419","resource_url":"https://admin.opendatani.gov.uk/dataset/e63b2e1c-b241-493a-827d-a792f5eff16e/resource/beb80675-e490-419d-b809-1f466d71c419/download/river-basin-lidar-coverage-map.pdf","resource_id":"beb80675-e490-419d-b809-1f466d71c419","resource_name":"River Basin Lidar Coverage Map","access_utc":"2026-10-07T09:12:00Z","required_building_state":"BUILDING_PRESENT","binding_status":"LOCAL_OPENCODE_BUILDING_PRESENT_EXACT_GRID_TILE_BIND_REQUIRED","payload_transport_status":"DOWNLOAD_TIMEOUT_NON_RETRYABLE","exact_grid_identifier":null,"crs":null,"evidence_slice_sha256":"4bdb504082dadb7b99aeb7fb6b37d5a9507b1ff327cf1509bce6de8849b50695","accepted_count_contribution":0,"source_area_count_contribution":0,"fake_data":false}}]}
