{"type":"FeatureCollection","features":[{"type":"Feature","geometry":null,"properties":{"slot_id":"future_growth_3","lineage_id":"future_growth_3-newstart-20261001T203100Z","page_generation":null,"accepted_as_parcel":false,"source_area_count_contribution":1,"exact_identifier":"SD64","exact_identifier_provided":true,"coverage_polygon_provided":false,"identifier_namespace":"South Downs Local Plan adopted housing site allocation policy reference","secondary_exact_identifier":"Land South of London Road, Coldwaltham","source_entity":"SD64 - Land South of London Road, Coldwaltham","access_utc":"2026-10-04T09:45:02Z","data_date":"2026-06-05","source_url":"https://services6.arcgis.com/LBG1Lnci7jBl9O0t/arcgis/rest/services/Local_Plan_Service/FeatureServer/13","final_url":"https://services6.arcgis.com/LBG1Lnci7jBl9O0t/arcgis/rest/services/Local_Plan_Service/FeatureServer/13","license":"South Downs National Park Authority; ArcGIS service copyright identifies SDNPA; mapping contains Ordnance Survey/Crown copyright data and reuse remains subject to stated mapping rights.","authority":"South Downs National Park Authority","site_address":"Land South of London Road, Coldwaltham","field_evidence":{"reference":"SD64","dataset":"South Downs Local Plan 2014-2033 / live Housing Site Allocation GIS layer","organisation":"South Downs National Park Authority","adopted":"2019-07-02","current_plan_status_checked":"2026-06-05","site_name":"Land South of London Road, Coldwaltham","settlement":"Coldwaltham","site_area_ha":8.1,"developable_area_ha":2.0,"current_use":"Agricultural","allocation_type":"Housing","housing_units_current_allocation_monitoring":28,"live_gis_service_layer":"Housing Site Allocation (13)","live_gis_service_item_id":"2fbdd71aed454f078315aa3bb03707ab","live_gis_spatial_reference":27700,"current_plan_note":"The 2019 South Downs Local Plan remains in place until the replacement plan is adopted, expected 2027.","local_plan_url":"https://www.southdowns.gov.uk/planning-policy/south-downs-local-plan/local-plan/","current_status_url":"https://www.southdowns.gov.uk/important-updates-on-plan-making-in-south-downs-national-park/","allocation_monitoring_evidence_url":"https://www.southdowns.gov.uk/wp-content/uploads/2024/11/TP1114-MI-RP-0001-South-Downs-Transport-Study-Stage-2-TA-V3-0.pdf"},"source_payload_sha256":"c7990737ece27de732e18f66278e10b5deaca6e2086bd2ef71d5197d29be9a19","source_payload_sha256_basis":"canonicalized official SDNPA live GIS service, adopted Local Plan, current-plan status and allocation-monitoring evidence fields","evidence_slice_sha256":"db2a7ea3a0aaa4d41cf4eb9b15863ebb73779866db3adb11a5b8d12d0d629fb6","evidence_grade":"A","confidence_score_0_100":98,"evidence_scope":"exact_official_identifier_bound_to_official_live_housing_site_allocation_feature_service","fake_data":false,"spatial_binding_method":"official SDNPA live ArcGIS FeatureServer Housing Site Allocation layer 13 plus adopted policy SD64; canonical parcel spatial join and materialization delegated to local OpenCode","planned_building_count_contribution":0}}]}