{"type":"FeatureCollection","name":"height_difference_5","metadata":{"slot_id":"height_difference_5","owner":"height_difference_5","lineage_id":"height_difference_5-eb56f92ed3f0514c","page_generation":1,"schema":"AAYS_LAYER24_EVIDENCE_V1","partition":"layer24","semantic_mode_state":"ABSENT_IN_PRIOR_PHYSICAL_STATE_PRESERVED_BY_OMISSION","batch_id":"20261005T071900Z_spatialni_data_supply_srs_guidance","record_policy":"Official Spatial NI SRS guidance evidence only; general EPSG option is not assigned to Belfast 2006 without dataset-specific evidence.","fake_data":false},"features":[{"type":"Feature","geometry":null,"properties":{"slot_id":"height_difference_5","owner":"height_difference_5","lineage_id":"height_difference_5-eb56f92ed3f0514c","page_generation":1,"schema":"AAYS_LAYER24_EVIDENCE_V1","partition":"layer24","batch_id":"20261005T071900Z_spatialni_data_supply_srs_guidance","source_record_id":"SPATIALNI:DATA_SUPPLY_METADATA:SRS_GUIDANCE","source_url":"https://support.spatialni.gov.uk/nima/DownloadDocs/Guidance/SpatialNI_Data_Supply_Metadata_Form.pdf","access_utc":"2026-10-05T07:19:00Z","required_building_state":"BUILDING_PRESENT","binding_status":"LOCAL_OPENCODE_BUILDING_PRESENT_EXACT_TILE_BIND_REQUIRED","guidance_srs":"Irish Grid (TM65) [EPSG:29902]","dataset_specific_binding":false,"exact_tile_identifier":null,"crs":null,"evidence_slice_sha256":"efbaac89e8db360b60ab901e1d794e82b6ef23a43df897029d8becdc62ffdd28","accepted_count_contribution":0,"source_area_count_contribution":0,"fake_data":false}}]}
