{"type":"FeatureCollection","features":[{"type":"Feature","geometry":null,"properties":{"slot_id":"future_growth_ 2","lineage_id":"future_growth_ 2-newstart-20261001T203100Z","page_generation":1,"owner":"future_growth_ 2","partition":"future_growth","semantic_mode":"SOURCE_AREA_EXACT_IDENTIFIER","accepted_as_parcel":false,"source_area_count_contribution":1,"exact_identifier":"KC8","exact_identifier_provided":true,"coverage_polygon_provided":false,"identifier_namespace":"Islington Council Local Plan Site Allocations site reference","access_utc":"2026-10-04T18:59:00Z","data_date":"2023-09-28","source_url":"https://www.islington.gov.uk/-/media/sharepoint-lists/public-records/planningandbuildingcontrol/publicity/publicconsultation/20232024/islington-council-local-plan-site-allocations.pdf?hash=98007803BDD179C372CCFA9529DB4A764896AD48&la=en","final_url":"https://www.islington.gov.uk/-/media/sharepoint-lists/public-records/planningandbuildingcontrol/publicity/publicconsultation/20232024/islington-council-local-plan-site-allocations.pdf?hash=98007803BDD179C372CCFA9529DB4A764896AD48&la=en","dataset_url":"https://www.islington.gov.uk/-/media/sharepoint-lists/public-records/planningandbuildingcontrol/publicity/publicconsultation/20232024/islington-council-local-plan-site-allocations.pdf?hash=98007803BDD179C372CCFA9529DB4A764896AD48&la=en","license":"not stated on source document","authority":"Islington Council","site_address":"Bemerton Estate South","hectares":1.4623,"point":null,"maximum_net_dwellings":null,"minimum_net_dwellings":null,"planning_permission_status":null,"confidence_score_0_100":99,"confidence":0.99,"evidence_grade":"A","evidence_scope":"official_exact_identifier","field_evidence":{"adopted_date":"2023-09-28","allocation":"Infill residential development including additional genuinely affordable housing; re-provision of community space and new retail/commercial spaces along Caledonian Road","approximate_size_sqm":14623,"current_previous_use":"Housing estate","ownership":"London Borough of Islington","reference":"KC8","site_name":"Bemerton Estate South"},"evidence_slice_sha256":"8ba869e2b7aba9f8a6e8890de0687eaa2963dab217cc84a43b7a91e07bc607d4","fake_data":false,"spatial_binding_method":"exact official Islington Council adopted Site Allocations identifier; canonical parcel spatial join/materialization delegated to local OpenCode","planned_building_count_contribution":0}}]}