{
  "type": "FeatureCollection",
  "name": "building_type_2_medway_church_st_james",
  "features": [
    {
      "type": "Feature",
      "geometry": {
        "type": "MultiPolygon",
        "coordinates": [
          [
            [
              [
                0.526178,
                51.455288
              ],
              [
                0.526195,
                51.455229
              ],
              [
                0.526252,
                51.455234
              ],
              [
                0.526257,
                51.455219
              ],
              [
                0.526306,
                51.455224
              ],
              [
                0.526312,
                51.455201
              ],
              [
                0.526378,
                51.455208
              ],
              [
                0.526371,
                51.455235
              ],
              [
                0.526475,
                51.455247
              ],
              [
                0.526478,
                51.455235
              ],
              [
                0.526554,
                51.455243
              ],
              [
                0.526551,
                51.455257
              ],
              [
                0.526684,
                51.455271
              ],
              [
                0.526663,
                51.455346
              ],
              [
                0.526495,
                51.455328
              ],
              [
                0.526492,
                51.455341
              ],
              [
                0.526232,
                51.455311
              ],
              [
                0.526237,
                51.455294
              ],
              [
                0.526178,
                51.455288
              ]
            ]
          ]
        ]
      },
      "properties": {
        "slot_id": "building_type_2",
        "lineage_id": "building_type_2-20260930T173100Z-newstart",
        "page_generation": 1,
        "batch_id": "20261008T015435Z_MEDWAY_ST_JAMES_42126861",
        "source_entity": 42126861,
        "source_reference": "1204117",
        "source_dataset": "listed-building-outline",
        "source_organisation": "Medway Council",
        "building_evidence_status": "BUILDING_PRESENT",
        "parcel_status": "UNPROCESSED",
        "canonical_parcel_id": null,
        "building_type": "church",
        "building_use": null,
        "poi_accepted": false,
        "field_evidence": {
          "footprint": "official listed-building-outline MULTIPOLYGON",
          "type": "official entity name Church of St James: church structure",
          "reference": "1204117",
          "quality": "authoritative",
          "name": "Church of St James",
          "source_organisation": "Medway Council"
        },
        "source_url": "https://www.planning.data.gov.uk/entity/42126861",
        "final_url": "https://www.planning.data.gov.uk/entity/42126861",
        "http_status": null,
        "http_status_note": "not separately provided by source view",
        "access_utc": "2026-10-08T01:54:35.606Z",
        "data_date": "2025-08-29",
        "licence": "Open Government Licence v3.0",
        "source_sha256": "5cc3a4d89955c26356e1f454d283def4d907f63787e93798795c9894da9e4d41",
        "source_sha256_scope": "curated exact evidence slice, not raw HTTP server bytes",
        "evidence_slice_sha256": "5cc3a4d89955c26356e1f454d283def4d907f63787e93798795c9894da9e4d41",
        "confidence_score_0_100": 96,
        "evidence_grade": "A",
        "fake_data": false,
        "local_spatial_join_required": true
      }
    }
  ]
}
