{"type":"FeatureCollection","features":[{"type":"Feature","geometry":null,"properties":{"slot_id":"future_growth_3","lineage_id":"future_growth_3-newstart-20261001T203100Z","page_generation":null,"accepted_as_parcel":false,"source_area_count_contribution":1,"exact_identifier":"SP34","exact_identifier_provided":true,"coverage_polygon_provided":false,"identifier_namespace":"New Forest National Park Local Plan Review Regulation 19 policy reference","secondary_exact_identifier":"Land at Knellers Lane, Ashurst","source_entity":"SP34 - Land at Knellers Lane, Ashurst","access_utc":"2026-10-05T08:38:21Z","data_date":"2026-08","source_url":"https://www.newforestnpa.gov.uk/document/am-740-26-annex-2-schedule-of-updates-to-the-local-plan-policies-map/","final_url":"https://www.newforestnpa.gov.uk/document/am-740-26-annex-2-schedule-of-updates-to-the-local-plan-policies-map/","license":"New Forest National Park Authority copyright; planning plans, drawings and material may be used for consultation purposes only, and Ordnance Survey-based mapping is protected by Crown Copyright; further copying/re-use requires permission as stated by the Authority.","authority":"New Forest National Park Authority","site_address":"Land at Knellers Lane, Ashurst","field_evidence":{"reference":"SP34","dataset":"AM 740/26 Annex 2 - Schedule of updates to the Local Plan Policies Map","organisation":"New Forest National Park Authority","site_name":"Land at Knellers Lane, Ashurst","consultation_stage":"Regulation 19","regulation18_consultation":"November 2025","regulation19_consultation":"August 2026","boundary_status":"Revised boundary at Regulation 19","interactive_map_available":true},"source_payload_sha256":"259e6710da1f89fc258fd75668b340d655036b934f322b6778c22128b9a2cc39","source_payload_sha256_basis":"canonicalized official New Forest National Park Authority AM 740/26 Policy SP34 evidence fields","evidence_slice_sha256":"54db1b318ba1d7537e6a9f222670e3a3f65771d302db1a201876c4d9235e621e","evidence_grade":"A","confidence_score_0_100":99,"evidence_scope":"exact_official_identifier_from_regulation19_policies_map_boundary_schedule","fake_data":false,"spatial_binding_method":"official New Forest National Park Authority Policy SP34 and explicit revised Regulation 19 policies-map boundary; canonical parcel spatial join and materialization delegated to local OpenCode","planned_building_count_contribution":0}}]}