{
  "type": "FeatureCollection",
  "metadata": {
    "slot_id": "security_public_safety_1",
    "source_area_count": 204,
    "source_area_delta_this_turn": 2,
    "latest_evidence_window": "LFB_BARKING_DAGENHAM_STATIONS_CURRENT_20261005T134800Z",
    "latest_status": "2_NEW_OFFICIAL_EXACT_IDENTIFIERS_ACCEPTED",
    "exact_blocker": "LOCAL_OPENCODE_EXACT_IDENTIFIER_TO_CANONICAL_SPATIAL_BINDING_REQUIRED",
    "first_missing_criterion": "LOCAL_OPENCODE_EXACT_IDENTIFIER_TO_CANONICAL_SPATIAL_BINDING",
    "record_scope": "CURRENT_BATCH_DELTA_ONLY"
  },
  "features": [
    {
      "type": "Feature",
      "geometry": null,
      "properties": {
        "slot_id": "security_public_safety_1",
        "evidence_scope": "coverage_exact_identifier",
        "coverage_area_id": "Barking",
        "exact_identifier": "Barking",
        "exact_identifier_type": "london-fire.gov.uk.fire_station.official_name",
        "coverage_area_name": "Barking",
        "source_url": "https://www.london-fire.gov.uk/community/barking-and-dagenham/",
        "final_url": "https://www.london-fire.gov.uk/community/barking-and-dagenham/",
        "access_utc": "2026-10-05T13:48:00Z",
        "data_date": "2026-10-05",
        "data_date_basis": "Current official page snapshot observed on access date",
        "license": "London Fire Brigade website; explicit reuse licence not asserted in extracted source window",
        "file_sha256": "a0b44f76c11e514049232ad500e6835a516ecd8951e052824bedf8461f9fc31b",
        "file_sha256_scope": "normalized two official Barking and Dagenham fire-station name/address records; not raw HTML bytes",
        "evidence_slice_sha256": "ba4a5ee1009110ecffcb0601b4ecb469c560311b5f90db52bcce20d27acc6195",
        "field_evidence": {
          "ordinal": 1,
          "id": "Barking",
          "address": "Alfred's Way, IG11 0BB"
        },
        "confidence_score_0_100": 100,
        "evidence_grade": "A_OFFICIAL_EXACT_IDENTIFIER",
        "fake_data": false,
        "spatial_binding_method": "DEFERRED_TO_LOCAL_OPENCODE",
        "canonical_parcel_id": null,
        "materialized_parcel_count": 0,
        "direct_parcel_count": 0
      }
    },
    {
      "type": "Feature",
      "geometry": null,
      "properties": {
        "slot_id": "security_public_safety_1",
        "evidence_scope": "coverage_exact_identifier",
        "coverage_area_id": "Dagenham",
        "exact_identifier": "Dagenham",
        "exact_identifier_type": "london-fire.gov.uk.fire_station.official_name",
        "coverage_area_name": "Dagenham",
        "source_url": "https://www.london-fire.gov.uk/community/barking-and-dagenham/",
        "final_url": "https://www.london-fire.gov.uk/community/barking-and-dagenham/",
        "access_utc": "2026-10-05T13:48:00Z",
        "data_date": "2026-10-05",
        "data_date_basis": "Current official page snapshot observed on access date",
        "license": "London Fire Brigade website; explicit reuse licence not asserted in extracted source window",
        "file_sha256": "a0b44f76c11e514049232ad500e6835a516ecd8951e052824bedf8461f9fc31b",
        "file_sha256_scope": "normalized two official Barking and Dagenham fire-station name/address records; not raw HTML bytes",
        "evidence_slice_sha256": "75cabfaaceb5f6174c1e85fb1d60f68ca6855a09fb42bb3e4c46c2cface2febd",
        "field_evidence": {
          "ordinal": 2,
          "id": "Dagenham",
          "address": "70 Rainham Road North, Dagenham, RM10 7ES"
        },
        "confidence_score_0_100": 100,
        "evidence_grade": "A_OFFICIAL_EXACT_IDENTIFIER",
        "fake_data": false,
        "spatial_binding_method": "DEFERRED_TO_LOCAL_OPENCODE",
        "canonical_parcel_id": null,
        "materialized_parcel_count": 0,
        "direct_parcel_count": 0
      }
    }
  ]
}
