{"type":"FeatureCollection","name":"security_public_safety_1_batch_exact_identifiers","features":[{"type":"Feature","geometry":null,"properties":{"slot_id":"security_public_safety_1","evidence_scope":"coverage_exact_identifier","exact_identifier":"Brixton Acre Lane","exact_identifier_type":"met.police.uk.safer_neighbourhood_team.official_name","coverage_area_name":"Brixton Acre Lane","evidence_grade":"A_OFFICIAL_EXACT_IDENTIFIER","fake_data":false,"canonical_parcel_id":null}},{"type":"Feature","geometry":null,"properties":{"slot_id":"security_public_safety_1","evidence_scope":"coverage_exact_identifier","exact_identifier":"Brixton North","exact_identifier_type":"met.police.uk.safer_neighbourhood_team.official_name","coverage_area_name":"Brixton North","evidence_grade":"A_OFFICIAL_EXACT_IDENTIFIER","fake_data":false,"canonical_parcel_id":null}},{"type":"Feature","geometry":null,"properties":{"slot_id":"security_public_safety_1","evidence_scope":"coverage_exact_identifier","exact_identifier":"Brixton Rush Common","exact_identifier_type":"met.police.uk.safer_neighbourhood_team.official_name","coverage_area_name":"Brixton Rush Common","evidence_grade":"A_OFFICIAL_EXACT_IDENTIFIER","fake_data":false,"canonical_parcel_id":null}},{"type":"Feature","geometry":null,"properties":{"slot_id":"security_public_safety_1","evidence_scope":"coverage_exact_identifier","exact_identifier":"Brixton Windrush","exact_identifier_type":"met.police.uk.safer_neighbourhood_team.official_name","coverage_area_name":"Brixton Windrush","evidence_grade":"A_OFFICIAL_EXACT_IDENTIFIER","fake_data":false,"canonical_parcel_id":null}},{"type":"Feature","geometry":null,"properties":{"slot_id":"security_public_safety_1","evidence_scope":"coverage_exact_identifier","exact_identifier":"Clapham Common and Abbeville","exact_identifier_type":"met.police.uk.safer_neighbourhood_team.official_name","coverage_area_name":"Clapham Common and Abbeville","evidence_grade":"A_OFFICIAL_EXACT_IDENTIFIER","fake_data":false,"canonical_parcel_id":null}},{"type":"Feature","geometry":null,"properties":{"slot_id":"security_public_safety_1","evidence_scope":"coverage_exact_identifier","exact_identifier":"Clapham East","exact_identifier_type":"met.police.uk.safer_neighbourhood_team.official_name","coverage_area_name":"Clapham East","evidence_grade":"A_OFFICIAL_EXACT_IDENTIFIER","fake_data":false,"canonical_parcel_id":null}},{"type":"Feature","geometry":null,"properties":{"slot_id":"security_public_safety_1","evidence_scope":"coverage_exact_identifier","exact_identifier":"Clapham Park","exact_identifier_type":"met.police.uk.safer_neighbourhood_team.official_name","coverage_area_name":"Clapham Park","evidence_grade":"A_OFFICIAL_EXACT_IDENTIFIER","fake_data":false,"canonical_parcel_id":null}},{"type":"Feature","geometry":null,"properties":{"slot_id":"security_public_safety_1","evidence_scope":"coverage_exact_identifier","exact_identifier":"Clapham Town","exact_identifier_type":"met.police.uk.safer_neighbourhood_team.official_name","coverage_area_name":"Clapham Town","evidence_grade":"A_OFFICIAL_EXACT_IDENTIFIER","fake_data":false,"canonical_parcel_id":null}},{"type":"Feature","geometry":null,"properties":{"slot_id":"security_public_safety_1","evidence_scope":"coverage_exact_identifier","exact_identifier":"Gipsy Hill","exact_identifier_type":"met.police.uk.safer_neighbourhood_team.official_name","coverage_area_name":"Gipsy Hill","evidence_grade":"A_OFFICIAL_EXACT_IDENTIFIER","fake_data":false,"canonical_parcel_id":null}},{"type":"Feature","geometry":null,"properties":{"slot_id":"security_public_safety_1","evidence_scope":"coverage_exact_identifier","exact_identifier":"Herne Hill and Loughborough Junction","exact_identifier_type":"met.police.uk.safer_neighbourhood_team.official_name","coverage_area_name":"Herne Hill and Loughborough Junction","evidence_grade":"A_OFFICIAL_EXACT_IDENTIFIER","fake_data":false,"canonical_parcel_id":null}},{"type":"Feature","geometry":null,"properties":{"slot_id":"security_public_safety_1","evidence_scope":"coverage_exact_identifier","exact_identifier":"Kennington","exact_identifier_type":"met.police.uk.safer_neighbourhood_team.official_name","coverage_area_name":"Kennington","evidence_grade":"A_OFFICIAL_EXACT_IDENTIFIER","fake_data":false,"canonical_parcel_id":null}},{"type":"Feature","geometry":null,"properties":{"slot_id":"security_public_safety_1","evidence_scope":"coverage_exact_identifier","exact_identifier":"Knight's Hill","exact_identifier_type":"met.police.uk.safer_neighbourhood_team.official_name","coverage_area_name":"Knight's Hill","evidence_grade":"A_OFFICIAL_EXACT_IDENTIFIER","fake_data":false,"canonical_parcel_id":null}},{"type":"Feature","geometry":null,"properties":{"slot_id":"security_public_safety_1","evidence_scope":"coverage_exact_identifier","exact_identifier":"Myatt's Fields","exact_identifier_type":"met.police.uk.safer_neighbourhood_team.official_name","coverage_area_name":"Myatt's Fields","evidence_grade":"A_OFFICIAL_EXACT_IDENTIFIER","fake_data":false,"canonical_parcel_id":null}},{"type":"Feature","geometry":null,"properties":{"slot_id":"security_public_safety_1","evidence_scope":"coverage_exact_identifier","exact_identifier":"Oval","exact_identifier_type":"met.police.uk.safer_neighbourhood_team.official_name","coverage_area_name":"Oval","evidence_grade":"A_OFFICIAL_EXACT_IDENTIFIER","fake_data":false,"canonical_parcel_id":null}},{"type":"Feature","geometry":null,"properties":{"slot_id":"security_public_safety_1","evidence_scope":"coverage_exact_identifier","exact_identifier":"St Martin's","exact_identifier_type":"met.police.uk.safer_neighbourhood_team.official_name","coverage_area_name":"St Martin's","evidence_grade":"A_OFFICIAL_EXACT_IDENTIFIER","fake_data":false,"canonical_parcel_id":null}},{"type":"Feature","geometry":null,"properties":{"slot_id":"security_public_safety_1","evidence_scope":"coverage_exact_identifier","exact_identifier":"Stockwell East","exact_identifier_type":"met.police.uk.safer_neighbourhood_team.official_name","coverage_area_name":"Stockwell East","evidence_grade":"A_OFFICIAL_EXACT_IDENTIFIER","fake_data":false,"canonical_parcel_id":null}},{"type":"Feature","geometry":null,"properties":{"slot_id":"security_public_safety_1","evidence_scope":"coverage_exact_identifier","exact_identifier":"Stockwell West and Larkhall","exact_identifier_type":"met.police.uk.safer_neighbourhood_team.official_name","coverage_area_name":"Stockwell West and Larkhall","evidence_grade":"A_OFFICIAL_EXACT_IDENTIFIER","fake_data":false,"canonical_parcel_id":null}},{"type":"Feature","geometry":null,"properties":{"slot_id":"security_public_safety_1","evidence_scope":"coverage_exact_identifier","exact_identifier":"Streatham Common and Vale","exact_identifier_type":"met.police.uk.safer_neighbourhood_team.official_name","coverage_area_name":"Streatham Common and Vale","evidence_grade":"A_OFFICIAL_EXACT_IDENTIFIER","fake_data":false,"canonical_parcel_id":null}},{"type":"Feature","geometry":null,"properties":{"slot_id":"security_public_safety_1","evidence_scope":"coverage_exact_identifier","exact_identifier":"Streatham Hill East","exact_identifier_type":"met.police.uk.safer_neighbourhood_team.official_name","coverage_area_name":"Streatham Hill East","evidence_grade":"A_OFFICIAL_EXACT_IDENTIFIER","fake_data":false,"canonical_parcel_id":null}},{"type":"Feature","geometry":null,"properties":{"slot_id":"security_public_safety_1","evidence_scope":"coverage_exact_identifier","exact_identifier":"Streatham Hill West and Thornton","exact_identifier_type":"met.police.uk.safer_neighbourhood_team.official_name","coverage_area_name":"Streatham Hill West and Thornton","evidence_grade":"A_OFFICIAL_EXACT_IDENTIFIER","fake_data":false,"canonical_parcel_id":null}},{"type":"Feature","geometry":null,"properties":{"slot_id":"security_public_safety_1","evidence_scope":"coverage_exact_identifier","exact_identifier":"Streatham St Leonard's","exact_identifier_type":"met.police.uk.safer_neighbourhood_team.official_name","coverage_area_name":"Streatham St Leonard's","evidence_grade":"A_OFFICIAL_EXACT_IDENTIFIER","fake_data":false,"canonical_parcel_id":null}},{"type":"Feature","geometry":null,"properties":{"slot_id":"security_public_safety_1","evidence_scope":"coverage_exact_identifier","exact_identifier":"Streatham Wells","exact_identifier_type":"met.police.uk.safer_neighbourhood_team.official_name","coverage_area_name":"Streatham Wells","evidence_grade":"A_OFFICIAL_EXACT_IDENTIFIER","fake_data":false,"canonical_parcel_id":null}},{"type":"Feature","geometry":null,"properties":{"slot_id":"security_public_safety_1","evidence_scope":"coverage_exact_identifier","exact_identifier":"Vauxhall","exact_identifier_type":"met.police.uk.safer_neighbourhood_team.official_name","coverage_area_name":"Vauxhall","evidence_grade":"A_OFFICIAL_EXACT_IDENTIFIER","fake_data":false,"canonical_parcel_id":null}},{"type":"Feature","geometry":null,"properties":{"slot_id":"security_public_safety_1","evidence_scope":"coverage_exact_identifier","exact_identifier":"Waterloo and South Bank","exact_identifier_type":"met.police.uk.safer_neighbourhood_team.official_name","coverage_area_name":"Waterloo and South Bank","evidence_grade":"A_OFFICIAL_EXACT_IDENTIFIER","fake_data":false,"canonical_parcel_id":null}},{"type":"Feature","geometry":null,"properties":{"slot_id":"security_public_safety_1","evidence_scope":"coverage_exact_identifier","exact_identifier":"West Dulwich","exact_identifier_type":"met.police.uk.safer_neighbourhood_team.official_name","coverage_area_name":"West Dulwich","evidence_grade":"A_OFFICIAL_EXACT_IDENTIFIER","fake_data":false,"canonical_parcel_id":null}}]}
