{"type":"FeatureCollection","features":[{"type":"Feature","geometry":null,"properties":{"slot_id":"planned_buildings_1","lineage_id":"planned_buildings_1-0ffc4ebd6c6e4e41","semantic_mode":"DISTINCT_BUILDINGS","planned_building_id":"planning-application:RB2026/1288::STORAGE_BUILDING","building_status":"PLANNED","building_name":"Storage building, land behind Keyline Derwent Way West Melton","planning_reference":"RB2026/1288","authority":"Rotherham Metropolitan Borough Council","source_url":"https://planning.rotherham.gov.uk/fulldetail.asp?AltRef=RB2026%2F1288","final_url":"https://planning.rotherham.gov.uk/fulldetail.asp?AltRef=RB2026%2F1288","access_utc":"2026-10-03T01:21:08Z","source_data_date":"2026-09-14","license":"Open Government Licence v3.0","geometry_role":"official planning page exposes no machine-readable point or building footprint; geometry null; no geometry inferred","field_evidence":"Official Registered/Valid application explicitly states erection of a storage building; the official page states no decision.","identity_limitation":"Exactly one storage building explicitly stated by the source is counted as one distinct new planned building; the re-use shop is not separately counted because its wording does not establish a distinct new building.","confidence_score_0_100":98,"evidence_grade":"A","fake_data":false}}]}