{"features":[{"geometry":{"coordinates":[[[[-2.272521,52.999748],[-2.272615,52.999777],[-2.272669,52.999712],[-2.272776,52.999744],[-2.272833,52.999674],[-2.272721,52.999642],[-2.272738,52.999615],[-2.272878,52.999658],[-2.272935,52.999674],[-2.27297,52.999633],[-2.272771,52.99957],[-2.272789,52.999549],[-2.272532,52.999475],[-2.272533,52.999474],[-2.272316,52.999414],[-2.272247,52.999503],[-2.272123,52.999468],[-2.272101,52.999495],[-2.272123,52.9995],[-2.272117,52.99951],[-2.27222,52.999539],[-2.272142,52.999641],[-2.272521,52.999748]]]],"type":"MultiPolygon"},"id":"42235656","properties":{"access_utc":"2026-10-04T12:57:00Z","batch_id":"batch-0046","building_evidence_status":"BUILDING_PRESENT","building_type":"listed_building","building_use":null,"canonical_parcel_id":null,"confidence_score_0_100":94,"data_date":"2007-10-03","evidence_grade":"A","evidence_slice_sha256":"4ca45945f7c16f0b36da167cea4d14e5ffbd0223e26b5d761b88094746cf1730","fake_data":false,"field_evidence":{"description":"Former stable block and coach house.","footprint":"official listed-building-outline MULTIPOLYGON","reference":"6/35","type":"official dataset classification: listed-building-outline","use":"no current use inferred from former-use description"},"final_url":"https://www.planning.data.gov.uk/entity/42235656","licence":"Open Government Licence v3.0","lineage_id":"building_type_9-20261001T200900Z-newstart","local_spatial_join_required":true,"page_generation":1,"parcel_status":"UNPROCESSED","poi_accepted":false,"slot_id":"building_type_9","source_dataset":"listed-building-outline","source_entity":42235656,"source_organisation":"Newcastle-under-Lyme Borough Council","source_reference":"6/35","source_url":"https://www.planning.data.gov.uk/entity/42235656"},"type":"Feature"},{"geometry":{"coordinates":[[[[-2.301063,53.054918],[-2.30109,53.054989],[-2.301275,53.054963],[-2.30129,53.055004],[-2.3016,53.054962],[-2.301582,53.054917],[-2.301688,53.054903],[-2.301661,53.054833],[-2.301553,53.054847],[-2.301538,53.054806],[-2.301228,53.054848],[-2.301245,53.054892],[-2.301063,53.054918]]]],"type":"MultiPolygon"},"id":"42235541","properties":{"access_utc":"2026-10-04T12:57:00Z","batch_id":"batch-0046","building_evidence_status":"BUILDING_PRESENT","building_type":"listed_building","building_use":"church","canonical_parcel_id":null,"confidence_score_0_100":96,"data_date":"2007-07-17","evidence_grade":"A","evidence_slice_sha256":"b16671e0a4ef73ca3cffeab36c14db8a3066664cc0e5c6704682b9f69f6614d7","fake_data":false,"field_evidence":{"description":"Parish Church","footprint":"official listed-building-outline MULTIPOLYGON","reference":"4/5","type":"official dataset classification: listed-building-outline","use":"explicit in official description: church"},"final_url":"https://www.planning.data.gov.uk/entity/42235541","licence":"Open Government Licence v3.0","lineage_id":"building_type_9-20261001T200900Z-newstart","local_spatial_join_required":true,"page_generation":1,"parcel_status":"UNPROCESSED","poi_accepted":false,"slot_id":"building_type_9","source_dataset":"listed-building-outline","source_entity":42235541,"source_organisation":"Newcastle-under-Lyme Borough Council","source_reference":"4/5","source_url":"https://www.planning.data.gov.uk/entity/42235541"},"type":"Feature"},{"geometry":{"coordinates":[[[[-2.461454,52.888966],[-2.461305,52.888878],[-2.461118,52.888777],[-2.461062,52.888744],[-2.461027,52.888765],[-2.461091,52.888802],[-2.460888,52.888931],[-2.460952,52.888975],[-2.461172,52.889116],[-2.461223,52.889078],[-2.461275,52.889052],[-2.461343,52.889015],[-2.461454,52.888966]]]],"type":"MultiPolygon"},"id":"42235491","properties":{"access_utc":"2026-10-04T12:57:00Z","batch_id":"batch-0046","building_evidence_status":"BUILDING_PRESENT","building_type":"listed_building","building_use":null,"canonical_parcel_id":null,"confidence_score_0_100":94,"data_date":"2012-08-20","evidence_grade":"A","evidence_slice_sha256":"50e380e63ba35f638cf6671c518386fbb58ff5408c638a13d76bf1d4292aac33","fake_data":false,"field_evidence":{"description":"Former Chapel","footprint":"official listed-building-outline MULTIPOLYGON","reference":"11/166","type":"official dataset classification: listed-building-outline","use":"no current use inferred from former-use description"},"final_url":"https://www.planning.data.gov.uk/entity/42235491","licence":"Open Government Licence v3.0","lineage_id":"building_type_9-20261001T200900Z-newstart","local_spatial_join_required":true,"page_generation":1,"parcel_status":"UNPROCESSED","poi_accepted":false,"slot_id":"building_type_9","source_dataset":"listed-building-outline","source_entity":42235491,"source_organisation":"Newcastle-under-Lyme Borough Council","source_reference":"11/166","source_url":"https://www.planning.data.gov.uk/entity/42235491"},"type":"Feature"}],"name":"building_type_9_batch_0046","type":"FeatureCollection"}