{"type":"FeatureCollection","features":[{"type":"Feature","geometry":null,"properties":{"slot_id":"future_growth_7","lineage_id":"future_growth_7_open_source_v2_20260813","page_generation":null,"batch_id":"batch_20261002T130100Z_lp4220194","official_entity_id":4220194,"official_reference":"blackpool-borough-council-local-plan-2045","dataset":"local-plan","organisation":"Blackpool Borough Council","source_url":"https://www.planning.data.gov.uk/entity/4220194","final_url":"https://www.planning.data.gov.uk/entity/4220194","documentation_url":"https://www.blackpool.gov.uk/Residents/Planning-environment-and-community/Planning/Planning-policy/Blackpool-local-plan/New-local-plan-to-2042/New-local-plan-to-2045.aspx","accessed_utc":"2026-10-02T13:00:00Z","data_date":"2026-03-30","licence":"Open Government Licence v3.0","source_sha256":"8b5ed51873a055bfa49798c6a8653f051b84f6365f489724036896ef4a004e8c","source_sha256_basis":"canonical_official_field_evidence_json","field_evidence":{"entry-date":"2026-03-30","start-date":"","end-date":"","entity":4220194,"name":"New Local Plan to 2045","dataset":"local-plan","typology":"legal-instrument","reference":"blackpool-borough-council-local-plan-2045","prefix":"local-plan","organisation-entity":55,"geometry":"","point":"","quality":"some","organisations":"local-authority:BPL","period-end-date":"2045-01-01","documentation-url":"https://www.blackpool.gov.uk/Residents/Planning-environment-and-community/Planning/Planning-policy/Blackpool-local-plan/New-local-plan-to-2042/New-local-plan-to-2045.aspx","local-plan-process":"draft","local-plan-boundary":"E60000014","local-planning-authorities":"E60000014"},"evidence_slice_sha256":"49a37674177bc3a277179872e68074ca4d955c040b6dadf9dc9c397a5ae4cd39","evidence_grade":"A_EXACT_OFFICIAL_IDENTIFIER","confidence_score_0_100":95,"exact_official_identifier_used_as_source_area_evidence":true,"official_boundary_download_action_available":true,"geometry_materialized_here":false,"point_not_used_as_coverage":true,"fake_data":false}}]}
