{"type":"FeatureCollection","features":[{"type":"Feature","geometry":null,"properties":{"slot_id":"future_growth_7","lineage_id":"future_growth_7_open_source_v2_20260813","page_generation":null,"batch_id":"batch_20261001T061000Z_lbcblr051","future_growth_evidence_type":"brownfield_land_exact_official_identifier","official_entity_id":1702388,"official_reference":"LBCBLR051","dataset":"brownfield-land","organisation":"London Borough of Camden","source_url":"https://www.planning.data.gov.uk/entity/1702388","final_url":"https://www.planning.data.gov.uk/entity/1702388","accessed_utc":"2026-10-01T06:10:00Z","data_date":"2025-12-07","field_evidence":{"future_growth":["dataset=brownfield-land","quality=authoritative","deliverable=yes"],"identifier":["entity=1702388","reference=LBCBLR051"],"coverage":["point=POINT (-0.137004 51.541273)","geometry not present in rendered entity; exact identifier retained for local canonical spatial resolution"]},"evidence_slice_sha256":"b13d28579bad332068c8fbcb3165517a4b4ea2800f05cd626ea1c2dc4f0d40b4","evidence_grade":"A_EXACT_OFFICIAL_IDENTIFIER","confidence_score_0_100":92,"fake_data":false}}]}