{"type":"FeatureCollection","features":[{"type":"Feature","geometry":null,"properties":{"slot_id":"future_growth_1","lineage_id":"future_growth_1-newstart-20260927T153100+0300","page_generation":null,"accepted_as_parcel":false,"source_area_count_contribution":1,"exact_identifier":"H15","exact_identifier_provided":true,"coverage_polygon_provided":false,"identifier_namespace":"Harrow Site Allocations Local Plan","site_number":1980,"site_name":"Bacon Lane, Kilby's Industrial Estate & 1, 3, & 5","access_utc":"2026-10-02T03:30:00Z","data_date":"2025-06-30","source_url":"https://www.harrow.gov.uk/downloads/file/33244/LBHED20E_Housing_Monitoring_Schedules_2023_24_updated_30.6.25.pdf","final_url":"https://www.harrow.gov.uk/downloads/file/33244/LBHED20E_Housing_Monitoring_Schedules_2023_24_updated_30.6.25.pdf","local_plan_url":"https://www.harrow.gov.uk/downloads/file/23269/local-plan-site-allocations.pdf","gis_url":"https://services.arcgis.com/drifeOPKLpgnJ8Qa/arcgis/rest/services/planning_local_plan_data_15/FeatureServer/26","license":"Layer-specific reuse licence not stated in the public GLA ArcGIS service metadata; Harrow monitoring and Local Plan documents are publicly accessible without login","authority":"London Borough of Harrow","policy_reference":"H15 (LDF)","planning_application":"P/3667/19","permission_date":"2021-03-15","scheme_units":23,"completed_2022_23":5,"completed_2023_24":10,"cumulative_completed_units":15,"remaining_units":8,"feature_service_layer_id":26,"feature_service_layer_name":"Local Plan Site Allocations","feature_service_item_id":"b793c76c89904c329beb0abfc27bcaf7","spatial_reference_epsg":27700,"evidence_grade":"A","confidence_score_0_100":99,"evidence_scope":"exact Harrow Local Plan allocation H15 plus official 2023/24 housing-monitoring record and public Harrow Local Plan Site Allocations GIS layer 26","evidence_slice_sha256":"aba1249d94b93537fd72e652e710eae976f5aea570332a44f4eed90f83e98718","fake_data":false,"spatial_binding_method":"official H15 allocation identifier plus public Harrow Local Plan Site Allocations FeatureServer layer 26; exact boundary resolution, canonical parcel spatial join and materialization delegated to local OpenCode","planned_building_count_contribution":0}}]}