{"type":"FeatureCollection","features":[{"type":"Feature","geometry":null,"properties":{"slot_id":"planned_buildings_1","lineage_id":"planned_buildings_1-0ffc4ebd6c6e4e41","semantic_mode":"DISTINCT_BUILDINGS","planned_building_id":"planning-application:2025/1988/FPA::DWELLING_01","building_status":"PLANNED","building_name":"Dwelling 1, High Hesket","planning_reference":"2025/1988/FPA","authority":"Westmorland & Furness Council","source_url":"https://planningregister.westmorlandandfurness.gov.uk/planning/display/2025/1988/FPA","final_url":"https://planningregister.westmorlandandfurness.gov.uk/planning/display/2025/1988/FPA","access_utc":"2026-10-04T11:51:05Z","source_data_date":"2025-10-15","license":"Open Government Licence v3.0","geometry_role":"null; no geometry inferred","field_evidence":"Valid; Committee Meeting; decision Pending; 25 dwellings.","identity_limitation":"01/25 explicit; no machine-readable plot id.","confidence_score_0_100":97,"evidence_grade":"A","fake_data":false}},{"type":"Feature","geometry":null,"properties":{"slot_id":"planned_buildings_1","lineage_id":"planned_buildings_1-0ffc4ebd6c6e4e41","semantic_mode":"DISTINCT_BUILDINGS","planned_building_id":"planning-application:2025/1988/FPA::DWELLING_02","building_status":"PLANNED","building_name":"Dwelling 2, High Hesket","planning_reference":"2025/1988/FPA","authority":"Westmorland & Furness Council","source_url":"https://planningregister.westmorlandandfurness.gov.uk/planning/display/2025/1988/FPA","final_url":"https://planningregister.westmorlandandfurness.gov.uk/planning/display/2025/1988/FPA","access_utc":"2026-10-04T11:51:05Z","source_data_date":"2025-10-15","license":"Open Government Licence v3.0","geometry_role":"null; no geometry inferred","field_evidence":"Valid; Committee Meeting; decision Pending; 25 dwellings.","identity_limitation":"02/25 explicit; no machine-readable plot id.","confidence_score_0_100":97,"evidence_grade":"A","fake_data":false}},{"type":"Feature","geometry":null,"properties":{"slot_id":"planned_buildings_1","lineage_id":"planned_buildings_1-0ffc4ebd6c6e4e41","semantic_mode":"DISTINCT_BUILDINGS","planned_building_id":"planning-application:2025/1988/FPA::DWELLING_03","building_status":"PLANNED","building_name":"Dwelling 3, High Hesket","planning_reference":"2025/1988/FPA","authority":"Westmorland & Furness Council","source_url":"https://planningregister.westmorlandandfurness.gov.uk/planning/display/2025/1988/FPA","final_url":"https://planningregister.westmorlandandfurness.gov.uk/planning/display/2025/1988/FPA","access_utc":"2026-10-04T11:51:05Z","source_data_date":"2025-10-15","license":"Open Government Licence v3.0","geometry_role":"null; no geometry inferred","field_evidence":"Valid; Committee Meeting; decision Pending; 25 dwellings.","identity_limitation":"03/25 explicit; no machine-readable plot id.","confidence_score_0_100":97,"evidence_grade":"A","fake_data":false}},{"type":"Feature","geometry":null,"properties":{"slot_id":"planned_buildings_1","lineage_id":"planned_buildings_1-0ffc4ebd6c6e4e41","semantic_mode":"DISTINCT_BUILDINGS","planned_building_id":"planning-application:2025/1988/FPA::DWELLING_04","building_status":"PLANNED","building_name":"Dwelling 4, High Hesket","planning_reference":"2025/1988/FPA","authority":"Westmorland & Furness Council","source_url":"https://planningregister.westmorlandandfurness.gov.uk/planning/display/2025/1988/FPA","final_url":"https://planningregister.westmorlandandfurness.gov.uk/planning/display/2025/1988/FPA","access_utc":"2026-10-04T11:51:05Z","source_data_date":"2025-10-15","license":"Open Government Licence v3.0","geometry_role":"null; no geometry inferred","field_evidence":"Valid; Committee Meeting; decision Pending; 25 dwellings.","identity_limitation":"04/25 explicit; no machine-readable plot id.","confidence_score_0_100":97,"evidence_grade":"A","fake_data":false}},{"type":"Feature","geometry":null,"properties":{"slot_id":"planned_buildings_1","lineage_id":"planned_buildings_1-0ffc4ebd6c6e4e41","semantic_mode":"DISTINCT_BUILDINGS","planned_building_id":"planning-application:2025/1988/FPA::DWELLING_05","building_status":"PLANNED","building_name":"Dwelling 5, High Hesket","planning_reference":"2025/1988/FPA","authority":"Westmorland & Furness Council","source_url":"https://planningregister.westmorlandandfurness.gov.uk/planning/display/2025/1988/FPA","final_url":"https://planningregister.westmorlandandfurness.gov.uk/planning/display/2025/1988/FPA","access_utc":"2026-10-04T11:51:05Z","source_data_date":"2025-10-15","license":"Open Government Licence v3.0","geometry_role":"null; no geometry inferred","field_evidence":"Valid; Committee Meeting; decision Pending; 25 dwellings.","identity_limitation":"05/25 explicit; no machine-readable plot id.","confidence_score_0_100":97,"evidence_grade":"A","fake_data":false}},{"type":"Feature","geometry":null,"properties":{"slot_id":"planned_buildings_1","lineage_id":"planned_buildings_1-0ffc4ebd6c6e4e41","semantic_mode":"DISTINCT_BUILDINGS","planned_building_id":"planning-application:2025/1988/FPA::DWELLING_06","building_status":"PLANNED","building_name":"Dwelling 6, High Hesket","planning_reference":"2025/1988/FPA","authority":"Westmorland & Furness Council","source_url":"https://planningregister.westmorlandandfurness.gov.uk/planning/display/2025/1988/FPA","final_url":"https://planningregister.westmorlandandfurness.gov.uk/planning/display/2025/1988/FPA","access_utc":"2026-10-04T11:51:05Z","source_data_date":"2025-10-15","license":"Open Government Licence v3.0","geometry_role":"null; no geometry inferred","field_evidence":"Valid; Committee Meeting; decision Pending; 25 dwellings.","identity_limitation":"06/25 explicit; no machine-readable plot id.","confidence_score_0_100":97,"evidence_grade":"A","fake_data":false}},{"type":"Feature","geometry":null,"properties":{"slot_id":"planned_buildings_1","lineage_id":"planned_buildings_1-0ffc4ebd6c6e4e41","semantic_mode":"DISTINCT_BUILDINGS","planned_building_id":"planning-application:2025/1988/FPA::DWELLING_07","building_status":"PLANNED","building_name":"Dwelling 7, High Hesket","planning_reference":"2025/1988/FPA","authority":"Westmorland & Furness Council","source_url":"https://planningregister.westmorlandandfurness.gov.uk/planning/display/2025/1988/FPA","final_url":"https://planningregister.westmorlandandfurness.gov.uk/planning/display/2025/1988/FPA","access_utc":"2026-10-04T11:51:05Z","source_data_date":"2025-10-15","license":"Open Government Licence v3.0","geometry_role":"null; no geometry inferred","field_evidence":"Valid; Committee Meeting; decision Pending; 25 dwellings.","identity_limitation":"07/25 explicit; no machine-readable plot id.","confidence_score_0_100":97,"evidence_grade":"A","fake_data":false}},{"type":"Feature","geometry":null,"properties":{"slot_id":"planned_buildings_1","lineage_id":"planned_buildings_1-0ffc4ebd6c6e4e41","semantic_mode":"DISTINCT_BUILDINGS","planned_building_id":"planning-application:2025/1988/FPA::DWELLING_08","building_status":"PLANNED","building_name":"Dwelling 8, High Hesket","planning_reference":"2025/1988/FPA","authority":"Westmorland & Furness Council","source_url":"https://planningregister.westmorlandandfurness.gov.uk/planning/display/2025/1988/FPA","final_url":"https://planningregister.westmorlandandfurness.gov.uk/planning/display/2025/1988/FPA","access_utc":"2026-10-04T11:51:05Z","source_data_date":"2025-10-15","license":"Open Government Licence v3.0","geometry_role":"null; no geometry inferred","field_evidence":"Valid; Committee Meeting; decision Pending; 25 dwellings.","identity_limitation":"08/25 explicit; no machine-readable plot id.","confidence_score_0_100":97,"evidence_grade":"A","fake_data":false}},{"type":"Feature","geometry":null,"properties":{"slot_id":"planned_buildings_1","lineage_id":"planned_buildings_1-0ffc4ebd6c6e4e41","semantic_mode":"DISTINCT_BUILDINGS","planned_building_id":"planning-application:2025/1988/FPA::DWELLING_09","building_status":"PLANNED","building_name":"Dwelling 9, High Hesket","planning_reference":"2025/1988/FPA","authority":"Westmorland & Furness Council","source_url":"https://planningregister.westmorlandandfurness.gov.uk/planning/display/2025/1988/FPA","final_url":"https://planningregister.westmorlandandfurness.gov.uk/planning/display/2025/1988/FPA","access_utc":"2026-10-04T11:51:05Z","source_data_date":"2025-10-15","license":"Open Government Licence v3.0","geometry_role":"null; no geometry inferred","field_evidence":"Valid; Committee Meeting; decision Pending; 25 dwellings.","identity_limitation":"09/25 explicit; no machine-readable plot id.","confidence_score_0_100":97,"evidence_grade":"A","fake_data":false}},{"type":"Feature","geometry":null,"properties":{"slot_id":"planned_buildings_1","lineage_id":"planned_buildings_1-0ffc4ebd6c6e4e41","semantic_mode":"DISTINCT_BUILDINGS","planned_building_id":"planning-application:2025/1988/FPA::DWELLING_10","building_status":"PLANNED","building_name":"Dwelling 10, High Hesket","planning_reference":"2025/1988/FPA","authority":"Westmorland & Furness Council","source_url":"https://planningregister.westmorlandandfurness.gov.uk/planning/display/2025/1988/FPA","final_url":"https://planningregister.westmorlandandfurness.gov.uk/planning/display/2025/1988/FPA","access_utc":"2026-10-04T11:51:05Z","source_data_date":"2025-10-15","license":"Open Government Licence v3.0","geometry_role":"null; no geometry inferred","field_evidence":"Valid; Committee Meeting; decision Pending; 25 dwellings.","identity_limitation":"10/25 explicit; no machine-readable plot id.","confidence_score_0_100":97,"evidence_grade":"A","fake_data":false}},{"type":"Feature","geometry":null,"properties":{"slot_id":"planned_buildings_1","lineage_id":"planned_buildings_1-0ffc4ebd6c6e4e41","semantic_mode":"DISTINCT_BUILDINGS","planned_building_id":"planning-application:2025/1988/FPA::DWELLING_11","building_status":"PLANNED","building_name":"Dwelling 11, High Hesket","planning_reference":"2025/1988/FPA","authority":"Westmorland & Furness Council","source_url":"https://planningregister.westmorlandandfurness.gov.uk/planning/display/2025/1988/FPA","final_url":"https://planningregister.westmorlandandfurness.gov.uk/planning/display/2025/1988/FPA","access_utc":"2026-10-04T11:51:05Z","source_data_date":"2025-10-15","license":"Open Government Licence v3.0","geometry_role":"null; no geometry inferred","field_evidence":"Valid; Committee Meeting; decision Pending; 25 dwellings.","identity_limitation":"11/25 explicit; no machine-readable plot id.","confidence_score_0_100":97,"evidence_grade":"A","fake_data":false}},{"type":"Feature","geometry":null,"properties":{"slot_id":"planned_buildings_1","lineage_id":"planned_buildings_1-0ffc4ebd6c6e4e41","semantic_mode":"DISTINCT_BUILDINGS","planned_building_id":"planning-application:2025/1988/FPA::DWELLING_12","building_status":"PLANNED","building_name":"Dwelling 12, High Hesket","planning_reference":"2025/1988/FPA","authority":"Westmorland & Furness Council","source_url":"https://planningregister.westmorlandandfurness.gov.uk/planning/display/2025/1988/FPA","final_url":"https://planningregister.westmorlandandfurness.gov.uk/planning/display/2025/1988/FPA","access_utc":"2026-10-04T11:51:05Z","source_data_date":"2025-10-15","license":"Open Government Licence v3.0","geometry_role":"null; no geometry inferred","field_evidence":"Valid; Committee Meeting; decision Pending; 25 dwellings.","identity_limitation":"12/25 explicit; no machine-readable plot id.","confidence_score_0_100":97,"evidence_grade":"A","fake_data":false}},{"type":"Feature","geometry":null,"properties":{"slot_id":"planned_buildings_1","lineage_id":"planned_buildings_1-0ffc4ebd6c6e4e41","semantic_mode":"DISTINCT_BUILDINGS","planned_building_id":"planning-application:2025/1988/FPA::DWELLING_13","building_status":"PLANNED","building_name":"Dwelling 13, High Hesket","planning_reference":"2025/1988/FPA","authority":"Westmorland & Furness Council","source_url":"https://planningregister.westmorlandandfurness.gov.uk/planning/display/2025/1988/FPA","final_url":"https://planningregister.westmorlandandfurness.gov.uk/planning/display/2025/1988/FPA","access_utc":"2026-10-04T11:51:05Z","source_data_date":"2025-10-15","license":"Open Government Licence v3.0","geometry_role":"null; no geometry inferred","field_evidence":"Valid; Committee Meeting; decision Pending; 25 dwellings.","identity_limitation":"13/25 explicit; no machine-readable plot id.","confidence_score_0_100":97,"evidence_grade":"A","fake_data":false}},{"type":"Feature","geometry":null,"properties":{"slot_id":"planned_buildings_1","lineage_id":"planned_buildings_1-0ffc4ebd6c6e4e41","semantic_mode":"DISTINCT_BUILDINGS","planned_building_id":"planning-application:2025/1988/FPA::DWELLING_14","building_status":"PLANNED","building_name":"Dwelling 14, High Hesket","planning_reference":"2025/1988/FPA","authority":"Westmorland & Furness Council","source_url":"https://planningregister.westmorlandandfurness.gov.uk/planning/display/2025/1988/FPA","final_url":"https://planningregister.westmorlandandfurness.gov.uk/planning/display/2025/1988/FPA","access_utc":"2026-10-04T11:51:05Z","source_data_date":"2025-10-15","license":"Open Government Licence v3.0","geometry_role":"null; no geometry inferred","field_evidence":"Valid; Committee Meeting; decision Pending; 25 dwellings.","identity_limitation":"14/25 explicit; no machine-readable plot id.","confidence_score_0_100":97,"evidence_grade":"A","fake_data":false}},{"type":"Feature","geometry":null,"properties":{"slot_id":"planned_buildings_1","lineage_id":"planned_buildings_1-0ffc4ebd6c6e4e41","semantic_mode":"DISTINCT_BUILDINGS","planned_building_id":"planning-application:2025/1988/FPA::DWELLING_15","building_status":"PLANNED","building_name":"Dwelling 15, High Hesket","planning_reference":"2025/1988/FPA","authority":"Westmorland & Furness Council","source_url":"https://planningregister.westmorlandandfurness.gov.uk/planning/display/2025/1988/FPA","final_url":"https://planningregister.westmorlandandfurness.gov.uk/planning/display/2025/1988/FPA","access_utc":"2026-10-04T11:51:05Z","source_data_date":"2025-10-15","license":"Open Government Licence v3.0","geometry_role":"null; no geometry inferred","field_evidence":"Valid; Committee Meeting; decision Pending; 25 dwellings.","identity_limitation":"15/25 explicit; no machine-readable plot id.","confidence_score_0_100":97,"evidence_grade":"A","fake_data":false}},{"type":"Feature","geometry":null,"properties":{"slot_id":"planned_buildings_1","lineage_id":"planned_buildings_1-0ffc4ebd6c6e4e41","semantic_mode":"DISTINCT_BUILDINGS","planned_building_id":"planning-application:2025/1988/FPA::DWELLING_16","building_status":"PLANNED","building_name":"Dwelling 16, High Hesket","planning_reference":"2025/1988/FPA","authority":"Westmorland & Furness Council","source_url":"https://planningregister.westmorlandandfurness.gov.uk/planning/display/2025/1988/FPA","final_url":"https://planningregister.westmorlandandfurness.gov.uk/planning/display/2025/1988/FPA","access_utc":"2026-10-04T11:51:05Z","source_data_date":"2025-10-15","license":"Open Government Licence v3.0","geometry_role":"null; no geometry inferred","field_evidence":"Valid; Committee Meeting; decision Pending; 25 dwellings.","identity_limitation":"16/25 explicit; no machine-readable plot id.","confidence_score_0_100":97,"evidence_grade":"A","fake_data":false}},{"type":"Feature","geometry":null,"properties":{"slot_id":"planned_buildings_1","lineage_id":"planned_buildings_1-0ffc4ebd6c6e4e41","semantic_mode":"DISTINCT_BUILDINGS","planned_building_id":"planning-application:2025/1988/FPA::DWELLING_17","building_status":"PLANNED","building_name":"Dwelling 17, High Hesket","planning_reference":"2025/1988/FPA","authority":"Westmorland & Furness Council","source_url":"https://planningregister.westmorlandandfurness.gov.uk/planning/display/2025/1988/FPA","final_url":"https://planningregister.westmorlandandfurness.gov.uk/planning/display/2025/1988/FPA","access_utc":"2026-10-04T11:51:05Z","source_data_date":"2025-10-15","license":"Open Government Licence v3.0","geometry_role":"null; no geometry inferred","field_evidence":"Valid; Committee Meeting; decision Pending; 25 dwellings.","identity_limitation":"17/25 explicit; no machine-readable plot id.","confidence_score_0_100":97,"evidence_grade":"A","fake_data":false}},{"type":"Feature","geometry":null,"properties":{"slot_id":"planned_buildings_1","lineage_id":"planned_buildings_1-0ffc4ebd6c6e4e41","semantic_mode":"DISTINCT_BUILDINGS","planned_building_id":"planning-application:2025/1988/FPA::DWELLING_18","building_status":"PLANNED","building_name":"Dwelling 18, High Hesket","planning_reference":"2025/1988/FPA","authority":"Westmorland & Furness Council","source_url":"https://planningregister.westmorlandandfurness.gov.uk/planning/display/2025/1988/FPA","final_url":"https://planningregister.westmorlandandfurness.gov.uk/planning/display/2025/1988/FPA","access_utc":"2026-10-04T11:51:05Z","source_data_date":"2025-10-15","license":"Open Government Licence v3.0","geometry_role":"null; no geometry inferred","field_evidence":"Valid; Committee Meeting; decision Pending; 25 dwellings.","identity_limitation":"18/25 explicit; no machine-readable plot id.","confidence_score_0_100":97,"evidence_grade":"A","fake_data":false}},{"type":"Feature","geometry":null,"properties":{"slot_id":"planned_buildings_1","lineage_id":"planned_buildings_1-0ffc4ebd6c6e4e41","semantic_mode":"DISTINCT_BUILDINGS","planned_building_id":"planning-application:2025/1988/FPA::DWELLING_19","building_status":"PLANNED","building_name":"Dwelling 19, High Hesket","planning_reference":"2025/1988/FPA","authority":"Westmorland & Furness Council","source_url":"https://planningregister.westmorlandandfurness.gov.uk/planning/display/2025/1988/FPA","final_url":"https://planningregister.westmorlandandfurness.gov.uk/planning/display/2025/1988/FPA","access_utc":"2026-10-04T11:51:05Z","source_data_date":"2025-10-15","license":"Open Government Licence v3.0","geometry_role":"null; no geometry inferred","field_evidence":"Valid; Committee Meeting; decision Pending; 25 dwellings.","identity_limitation":"19/25 explicit; no machine-readable plot id.","confidence_score_0_100":97,"evidence_grade":"A","fake_data":false}},{"type":"Feature","geometry":null,"properties":{"slot_id":"planned_buildings_1","lineage_id":"planned_buildings_1-0ffc4ebd6c6e4e41","semantic_mode":"DISTINCT_BUILDINGS","planned_building_id":"planning-application:2025/1988/FPA::DWELLING_20","building_status":"PLANNED","building_name":"Dwelling 20, High Hesket","planning_reference":"2025/1988/FPA","authority":"Westmorland & Furness Council","source_url":"https://planningregister.westmorlandandfurness.gov.uk/planning/display/2025/1988/FPA","final_url":"https://planningregister.westmorlandandfurness.gov.uk/planning/display/2025/1988/FPA","access_utc":"2026-10-04T11:51:05Z","source_data_date":"2025-10-15","license":"Open Government Licence v3.0","geometry_role":"null; no geometry inferred","field_evidence":"Valid; Committee Meeting; decision Pending; 25 dwellings.","identity_limitation":"20/25 explicit; no machine-readable plot id.","confidence_score_0_100":97,"evidence_grade":"A","fake_data":false}},{"type":"Feature","geometry":null,"properties":{"slot_id":"planned_buildings_1","lineage_id":"planned_buildings_1-0ffc4ebd6c6e4e41","semantic_mode":"DISTINCT_BUILDINGS","planned_building_id":"planning-application:2025/1988/FPA::DWELLING_21","building_status":"PLANNED","building_name":"Dwelling 21, High Hesket","planning_reference":"2025/1988/FPA","authority":"Westmorland & Furness Council","source_url":"https://planningregister.westmorlandandfurness.gov.uk/planning/display/2025/1988/FPA","final_url":"https://planningregister.westmorlandandfurness.gov.uk/planning/display/2025/1988/FPA","access_utc":"2026-10-04T11:51:05Z","source_data_date":"2025-10-15","license":"Open Government Licence v3.0","geometry_role":"null; no geometry inferred","field_evidence":"Valid; Committee Meeting; decision Pending; 25 dwellings.","identity_limitation":"21/25 explicit; no machine-readable plot id.","confidence_score_0_100":97,"evidence_grade":"A","fake_data":false}},{"type":"Feature","geometry":null,"properties":{"slot_id":"planned_buildings_1","lineage_id":"planned_buildings_1-0ffc4ebd6c6e4e41","semantic_mode":"DISTINCT_BUILDINGS","planned_building_id":"planning-application:2025/1988/FPA::DWELLING_22","building_status":"PLANNED","building_name":"Dwelling 22, High Hesket","planning_reference":"2025/1988/FPA","authority":"Westmorland & Furness Council","source_url":"https://planningregister.westmorlandandfurness.gov.uk/planning/display/2025/1988/FPA","final_url":"https://planningregister.westmorlandandfurness.gov.uk/planning/display/2025/1988/FPA","access_utc":"2026-10-04T11:51:05Z","source_data_date":"2025-10-15","license":"Open Government Licence v3.0","geometry_role":"null; no geometry inferred","field_evidence":"Valid; Committee Meeting; decision Pending; 25 dwellings.","identity_limitation":"22/25 explicit; no machine-readable plot id.","confidence_score_0_100":97,"evidence_grade":"A","fake_data":false}},{"type":"Feature","geometry":null,"properties":{"slot_id":"planned_buildings_1","lineage_id":"planned_buildings_1-0ffc4ebd6c6e4e41","semantic_mode":"DISTINCT_BUILDINGS","planned_building_id":"planning-application:2025/1988/FPA::DWELLING_23","building_status":"PLANNED","building_name":"Dwelling 23, High Hesket","planning_reference":"2025/1988/FPA","authority":"Westmorland & Furness Council","source_url":"https://planningregister.westmorlandandfurness.gov.uk/planning/display/2025/1988/FPA","final_url":"https://planningregister.westmorlandandfurness.gov.uk/planning/display/2025/1988/FPA","access_utc":"2026-10-04T11:51:05Z","source_data_date":"2025-10-15","license":"Open Government Licence v3.0","geometry_role":"null; no geometry inferred","field_evidence":"Valid; Committee Meeting; decision Pending; 25 dwellings.","identity_limitation":"23/25 explicit; no machine-readable plot id.","confidence_score_0_100":97,"evidence_grade":"A","fake_data":false}},{"type":"Feature","geometry":null,"properties":{"slot_id":"planned_buildings_1","lineage_id":"planned_buildings_1-0ffc4ebd6c6e4e41","semantic_mode":"DISTINCT_BUILDINGS","planned_building_id":"planning-application:2025/1988/FPA::DWELLING_24","building_status":"PLANNED","building_name":"Dwelling 24, High Hesket","planning_reference":"2025/1988/FPA","authority":"Westmorland & Furness Council","source_url":"https://planningregister.westmorlandandfurness.gov.uk/planning/display/2025/1988/FPA","final_url":"https://planningregister.westmorlandandfurness.gov.uk/planning/display/2025/1988/FPA","access_utc":"2026-10-04T11:51:05Z","source_data_date":"2025-10-15","license":"Open Government Licence v3.0","geometry_role":"null; no geometry inferred","field_evidence":"Valid; Committee Meeting; decision Pending; 25 dwellings.","identity_limitation":"24/25 explicit; no machine-readable plot id.","confidence_score_0_100":97,"evidence_grade":"A","fake_data":false}},{"type":"Feature","geometry":null,"properties":{"slot_id":"planned_buildings_1","lineage_id":"planned_buildings_1-0ffc4ebd6c6e4e41","semantic_mode":"DISTINCT_BUILDINGS","planned_building_id":"planning-application:2025/1988/FPA::DWELLING_25","building_status":"PLANNED","building_name":"Dwelling 25, High Hesket","planning_reference":"2025/1988/FPA","authority":"Westmorland & Furness Council","source_url":"https://planningregister.westmorlandandfurness.gov.uk/planning/display/2025/1988/FPA","final_url":"https://planningregister.westmorlandandfurness.gov.uk/planning/display/2025/1988/FPA","access_utc":"2026-10-04T11:51:05Z","source_data_date":"2025-10-15","license":"Open Government Licence v3.0","geometry_role":"null; no geometry inferred","field_evidence":"Valid; Committee Meeting; decision Pending; 25 dwellings.","identity_limitation":"25/25 explicit; no machine-readable plot id.","confidence_score_0_100":97,"evidence_grade":"A","fake_data":false}}]}