{"type":"FeatureCollection","name":"building_type_2_batch_0022","features":[{"type":"Feature","id":"42130920","geometry":{"type":"MultiPolygon","coordinates":[[[[-1.888046,52.475731],[-1.887978,52.475714],[-1.887948,52.475753],[-1.88794,52.47575],[-1.8878,52.475913],[-1.887883,52.47594],[-1.887902,52.475937],[-1.887942,52.475951],[-1.88802,52.475853],[-1.88797,52.475837],[-1.88802,52.47577],[-1.888017,52.475768],[-1.888046,52.475731]]]]},"properties":{"slot_id":"building_type_2","lineage_id":"building_type_2-20260930T173100Z-newstart","batch_id":"batch-0022","page_generation":1,"source_entity":42130920,"source_reference":"393","source_dataset":"listed-building-outline","source_organisation":"Birmingham City Council","building_evidence_status":"BUILDING_PRESENT","parcel_status":"UNPROCESSED","canonical_parcel_id":null,"building_type":"listed_building","building_use":null,"poi_accepted":false,"field_evidence":{"footprint":"official listed-building-outline MULTIPOLYGON","type":"official dataset classification: listed-building-outline","reference":"393","quality":"authoritative","name":"85, Digbeth, City Centre, Birmingham"},"source_url":"https://www.planning.data.gov.uk/entity/42130920","final_url":"https://www.planning.data.gov.uk/entity/42130920","access_utc":"2026-10-02T17:26:20Z","data_date":"2026-10-01","licence":"Open Government Licence v3.0","evidence_slice_sha256":"e5e0e4f3c40f21530c1dec77a6dabc8848a533bd03e722e699570443abf264a6","confidence_score_0_100":96,"evidence_grade":"A","fake_data":false,"local_spatial_join_required":true}}]}