{"type":"FeatureCollection","name":"height_difference_5","metadata":{"slot_id":"height_difference_5","owner":"height_difference_5","lineage_id":"height_difference_5-eb56f92ed3f0514c","page_generation":1,"schema":"AAYS_LAYER24_EVIDENCE_V1","partition":"layer24","semantic_mode_state":"ABSENT_IN_PRIOR_PHYSICAL_STATE_PRESERVED_BY_OMISSION","batch_id":"20261007T153900Z_spatialni_data_preparation_crs_guide","record_policy":"Official Spatial NI generic projection-standard evidence only; no Belfast-specific CRS, tile filename, geometry or parcel binding synthesized.","fake_data":false},"features":[{"type":"Feature","geometry":null,"properties":{"slot_id":"height_difference_5","owner":"height_difference_5","lineage_id":"height_difference_5-eb56f92ed3f0514c","page_generation":1,"schema":"AAYS_LAYER24_EVIDENCE_V1","partition":"layer24","batch_id":"20261007T153900Z_spatialni_data_preparation_crs_guide","source_record_id":"SPATIALNI:DATA_PREPARATION_GUIDE:PROJECTIONS","source_url":"https://docs.spatialni.gov.uk/NimaSupport/Guidance/General/DataSupply/Quick_Reference_Guide_Data_Preparation.pdf","source_page":1,"access_utc":"2026-10-07T15:39:00Z","required_building_state":"BUILDING_PRESENT","binding_status":"LOCAL_OPENCODE_BUILDING_PRESENT_EXACT_TILE_BIND_REQUIRED","official_projection_candidates":["EPSG:29902","EPSG:29903","EPSG:2157"],"belfast_2006_dataset_specific_crs":null,"exact_tile_identifier":null,"evidence_slice_sha256":"adca9dbc29e25807086f9e83c4470642d9fba50ffcedffeba76ac763ec8baf5f","accepted_count_contribution":0,"source_area_count_contribution":0,"fake_data":false}}]}
