{"type":"FeatureCollection","features":[{"type":"Feature","geometry":{"type":"MultiPolygon","coordinates":[[[[-0.016681,51.424432],[-0.016528,51.424505],[-0.016608,51.424562],[-0.016704,51.424583],[-0.016793,51.424593],[-0.01699,51.424545],[-0.016832,51.424384],[-0.016848,51.424374],[-0.016818,51.424374],[-0.016795,51.424392],[-0.016681,51.424432]]]]},"properties":{"slot_id":"future_growth_3","lineage_id":"future_growth_3-newstart-20261001T203100Z","page_generation":null,"accepted_as_parcel":false,"source_area_count_contribution":1,"exact_identifier":"BL002","exact_identifier_provided":true,"coverage_polygon_provided":true,"identifier_namespace":"Planning Data brownfield-site reference","secondary_exact_identifier":"entity:1800782","source_entity":"BL002 - 117 Dunfield Road","access_utc":"2026-10-05T02:01:00Z","data_date":"2020-12-22","source_url":"https://www.planning.data.gov.uk/entity/1800782","final_url":"https://www.planning.data.gov.uk/entity/1800782","license":"Open Government Licence v3.0; attribution © Crown copyright and database right 2026.","authority":"London Borough of Lewisham","site_address":"117 Dunfield Road","field_evidence":{"reference":"BL002","entity":1800782,"dataset":"brownfield-site","organisation":"London Borough of Lewisham","entry_date":"2020-12-22","name":"117 Dunfield Road","geometry":"MULTIPOLYGON (((-0.016681 51.424432, -0.016528 51.424505, -0.016608 51.424562, -0.016704 51.424583, -0.016793 51.424593, -0.01699 51.424545, -0.016832 51.424384, -0.016848 51.424374, -0.016818 51.424374, -0.016795 51.424392, -0.016681 51.424432)))","point":"POINT (-0.016766 51.424501)","quality":"some"},"source_payload_sha256":"883340bb040a7158c537ad3963de01832a51f242fac18b5d658757b577b8c20c","source_payload_sha256_basis":"canonicalized official Planning Data brownfield-site entity fields","evidence_slice_sha256":"8c984f46d03c8d190775fce2dbe45e792e45015bdcf9d443db1ece856829d18f","evidence_grade":"A","confidence_score_0_100":98,"evidence_scope":"direct_official_polygon_from_mhclg_planning_data_brownfield_site_entity","fake_data":false,"spatial_binding_method":"official Planning Data brownfield-site reference BL002 / entity 1800782 with direct MULTIPOLYGON geometry; canonical parcel spatial join and materialization delegated to local OpenCode","planned_building_count_contribution":0}}]}