{"type":"FeatureCollection","features":[{"type":"Feature","id":"crawley-brownfield-land-register-part-one-text-summary:CBCBLR020","geometry":null,"properties":{"slot_id":"future_growth_4","lineage_id":"fg4-e4c9076d6f554f00","page_generation":1,"owner":"future_growth_4","partition":"future_growth","semantic_mode":"SOURCE_AREA_EXACT_IDENTIFIER","dataset":"crawley-brownfield-land-register-part-one-text-summary","entity":"CBCBLR020","reference":"CBCBLR020","quality":"authoritative","organisation":"Crawley Borough Council","name":"Longley House, East Park, Southgate, Crawley","site_address":"Longley House, East Park, Southgate, Crawley","source_url":"https://crawley.gov.uk/planning/planning-policy/engagement-and-monitoring/brownfield-land-register/publications/brownfield-land-register-part-one-text-summary/brownfield-land-register-part-one-text-summary","final_url":"https://crawley.gov.uk/planning/planning-policy/engagement-and-monitoring/brownfield-land-register/publications/brownfield-land-register-part-one-text-summary/brownfield-land-register-part-one-text-summary","access_utc":"2026-10-03T20:11:00Z","data_date":"2025-09-22","license":"Crawley Borough Council official publication; no explicit reuse licence stated on source window","field_evidence":{"site_reference":"CBCBLR020","site_address":"Longley House, East Park, Southgate, Crawley","site_area_ha":0.29,"ownership_status":"owned by a public authority","planning_status":"permissioned – full planning permission","permission_date":"2025-09-22","deliverable_within_five_years":true,"local_plan_policy":"H2","local_plan":"Crawley borough Local Plan 2023 to 2040","planning_application":"CR/2020/0024/FUL","residential_units":121,"demolition_expected":"early 2026","first_added_date":"2017-11-29","end_date":"not applicable"},"evidence_slice_sha256":"bc03bddc8643c3e4d276420753901141653c612e18212d209a89366421bbc761","confidence_score_0_100":99,"confidence":0.99,"evidence_grade":"A","exact_identifier_provided":true,"coverage_polygon_provided":false,"fake_data":false,"join_mode":"LOCAL_OPENCODE_SPATIAL_JOIN_PENDING","direct_parcel":false,"source_area_count_contribution":1,"planned_building_count_contribution":0}}]}