{"type":"FeatureCollection","features":[{"type":"Feature","geometry":null,"properties":{"slot_id":"future_growth_1","lineage_id":"future_growth_1-newstart-20260927T153100+0300","page_generation":null,"accepted_as_parcel":false,"source_area_count_contribution":1,"entity":1706610,"exact_identifier":"BR0005a","exact_identifier_provided":true,"coverage_polygon_provided":false,"identifier_namespace":"Plymouth Brownfield Land Register / Planning Data brownfield-land","site_name":"Royal Assurance site, Armada Way, City Centre","access_utc":"2026-10-02T12:51:00Z","data_date":"2022-12-01","source_url":"https://www.planning.data.gov.uk/entity/1706610","final_url":"https://www.planning.data.gov.uk/entity/1706610","site_plan_url":"https://experience.arcgis.com/experience/edb773ed67224408808eaacda46b1626","license":"Open Government Licence v3.0","authority":"Plymouth City Council","hectares":0.49,"deliverable":"yes","ownership_status":"mixed-ownership","minimum_net_dwellings":110,"maximum_net_dwellings":121,"planning_permission_status":"not-permissioned","point_wkt":"POINT (-4.143105 50.370885)","evidence_grade":"A","confidence_score_0_100":99,"evidence_scope":"exact Planning Data authoritative brownfield-land entity 1706610 / BR0005a plus official Plymouth site-plan link","evidence_slice_sha256":"b8f54a2d7767bc0e99ae58660609f34c3d6ac87de56e3aa633ae70d9c101b818","fake_data":false,"spatial_binding_method":"official exact identifier BR0005a and authoritative point/site-plan URL; canonical parcel spatial join and materialization delegated to local OpenCode","planned_building_count_contribution":0}}]}