{"type":"FeatureCollection","name":"future_growth_9_batch_69","demo_only":true,"metadata":{"schema_version":3,"slot_id":"future_growth_9","continuation_key":"future_growth_9_open_source_v2_20260813","run_id":"future_growth_9_bounded12_20260818T112500Z","batch_index":69,"feature_count_before":68,"feature_count_added":1,"feature_count_after":69,"source_window":{"dataset":"brownfield-land","window_index":68,"window_size":1,"entity":1712161},"fake_data":false,"final_ready":false,"production_merge":false,"duplicate_count":0,"nearest_match_used":false},"features":[{"type":"Feature","id":"future_growth_9:planning_data_bradford:ky-119","geometry":{"type":"Point","coordinates":[-1.917066,53.866623]},"properties":{"slot_id":"future_growth_9","source_feature_id":"KY/119","planning_data_entity":1712161,"source_url":"https://www.planning.data.gov.uk/entity/1712161","source_dataset_url":"https://www.planning.data.gov.uk/dataset/brownfield-land","source_entry_date":"2019-12-01","source_sha256":"e062bda074cb6bd93fbcd1f3a64126629046983cbfc6f28f0732773953e26389","license":"Open Government Licence v3.0","future_growth_evidence_type":"area_proxy","direct_project_evidence":false,"evidence_summary":"Official current brownfield record identifies West Lane with capacity for 15 to 19 dwellings; owner intentions are unknown and no project inference is made.","matching_method":"direct official brownfield-land reference identity plus published WGS84 point; no nearest matching, no cross-parcel identity inference","accuracy_scale_1_4":3,"future_growth_value":null,"future_growth_probability":null,"site_name":"West Lane, Keighley","hectares":0.42,"net_dwellings_range_from":15,"net_dwellings_range_to":19,"fake_data":false,"final_ready":false,"production_merge":false,"demo_only":true}}]}