{"type":"FeatureCollection","name":"future_growth_9_batch_63","demo_only":true,"metadata":{"schema_version":3,"slot_id":"future_growth_9","continuation_key":"future_growth_9_open_source_v2_20260813","run_id":"future_growth_9_bounded12_20260818T112500Z","batch_index":63,"feature_count_before":62,"feature_count_added":1,"feature_count_after":63,"source_window":{"dataset":"brownfield-land","window_index":62,"window_size":1,"entity":1712212},"fake_data":false,"final_ready":false,"production_merge":false,"duplicate_count":0,"nearest_match_used":false},"features":[{"type":"Feature","id":"future_growth_9:planning_data_bradford:qb-027","geometry":{"type":"Point","coordinates":[-1.851857,53.778973]},"properties":{"slot_id":"future_growth_9","source_feature_id":"QB/027","planning_data_entity":1712212,"source_url":"https://www.planning.data.gov.uk/entity/1712212","source_dataset_url":"https://www.planning.data.gov.uk/dataset/brownfield-land","source_entry_date":"2017-11-01","source_sha256":"5db926ac265dbe30e90caf5c6f6e7c7cb5a4b561abe4c3ed97b2242f092350f6","license":"Open Government Licence v3.0","planning_status":"permissioned","future_growth_evidence_type":"direct_project","direct_project_evidence":true,"evidence_summary":"Buildings were demolished in readiness and the former mill has permission for demolition and new build for 5 homes.","matching_method":"direct official brownfield-land reference identity plus published WGS84 point; no nearest matching, no cross-parcel identity inference","accuracy_scale_1_4":4,"future_growth_value":null,"future_growth_probability":null,"site_name":"West Scholes Mill, Lane Side,- Queensbury","hectares":0.31,"net_dwellings_range_from":0,"net_dwellings_range_to":0,"planning_permission_date":"2014-11-26","planning_permission_type":"reserved-matters-approval","fake_data":false,"final_ready":false,"production_merge":false,"demo_only":true}}]}