{"type":"FeatureCollection","name":"future_growth_9_batch_72","demo_only":true,"metadata":{"schema_version":3,"slot_id":"future_growth_9","continuation_key":"future_growth_9_open_source_v2_20260813","run_id":"future_growth_9_bounded12_20260818T112500Z","batch_index":72,"feature_count_before":71,"feature_count_added":1,"feature_count_after":72,"source_window":{"dataset":"brownfield-land","window_index":71,"window_size":1,"entity":1720439},"fake_data":false,"final_ready":false,"production_merge":false,"duplicate_count":0,"nearest_match_used":false},"features":[{"type":"Feature","id":"future_growth_9:planning_data_bradford:cc-067b","geometry":{"type":"Point","coordinates":[-1.752241,53.795207]},"properties":{"slot_id":"future_growth_9","source_feature_id":"CC/067B","planning_data_entity":1720439,"source_url":"https://www.planning.data.gov.uk/entity/1720439","source_dataset_url":"https://www.planning.data.gov.uk/dataset/brownfield-land","source_entry_date":"2022-11-01","source_sha256":"f267ce40689e71165e19f9ab7d14c260dbfb1f1e79b8a0f20a6adce851233fec","license":"Open Government Licence v3.0","planning_status":"not-permissioned","future_growth_evidence_type":"area_proxy","direct_project_evidence":false,"evidence_summary":"Official current brownfield record marks 5 Cheapside deliverable and records a full planning permission dated 2019-02-13; no residential unit count is inferred.","matching_method":"direct official brownfield-land reference identity plus published WGS84 point; no nearest matching, no cross-parcel identity inference","accuracy_scale_1_4":3,"future_growth_value":null,"future_growth_probability":null,"site_name":"5 Cheapside, City Centre","hectares":0.02,"net_dwellings_range_from":0,"net_dwellings_range_to":0,"planning_permission_date":"2019-02-13","planning_permission_type":"full-planning-permission","fake_data":false,"final_ready":false,"production_merge":false,"demo_only":true}}]}