{"type":"FeatureCollection","name":"future_growth_9_batch_66","demo_only":true,"metadata":{"schema_version":3,"slot_id":"future_growth_9","continuation_key":"future_growth_9_open_source_v2_20260813","run_id":"future_growth_9_bounded12_20260818T112500Z","batch_index":66,"feature_count_before":65,"feature_count_added":1,"feature_count_after":66,"source_window":{"dataset":"brownfield-land","window_index":65,"window_size":1,"entity":1729807},"fake_data":false,"final_ready":false,"production_merge":false,"duplicate_count":0,"nearest_match_used":false},"features":[{"type":"Feature","id":"future_growth_9:planning_data_bradford:nw-125","geometry":{"type":"Point","coordinates":[-1.817526,53.803803]},"properties":{"slot_id":"future_growth_9","source_feature_id":"NW/125","planning_data_entity":1729807,"source_url":"https://www.planning.data.gov.uk/entity/1729807","source_dataset_url":"https://www.planning.data.gov.uk/dataset/brownfield-land","source_entry_date":"2022-11-01","source_sha256":"838f2322e45e2fc01c00fdcef86d45f01fc28a4bffe47fba3207e09a7f792d6a","license":"Open Government Licence v3.0","future_growth_evidence_type":"area_proxy","direct_project_evidence":false,"evidence_summary":"Official current brownfield record identifies Allerton Mills with capacity for 200 net dwellings.","matching_method":"direct official brownfield-land reference identity plus published WGS84 point; no nearest matching, no cross-parcel identity inference","accuracy_scale_1_4":3,"future_growth_value":null,"future_growth_probability":null,"site_name":"Allerton Mills, Allerton Rd","hectares":1.18,"net_dwellings_range_from":200,"net_dwellings_range_to":200,"fake_data":false,"final_ready":false,"production_merge":false,"demo_only":true}}]}