{"type":"FeatureCollection","features":[{"type":"Feature","geometry":{"type":"MultiPolygon","coordinates":[[[[-1.154327,53.503637],[-1.154325,53.503642],[-1.154451,53.503713],[-1.154519,53.503718],[-1.154553,53.503711],[-1.154595,53.503682],[-1.154674,53.503543],[-1.154666,53.503541],[-1.154687,53.503502],[-1.154297,53.503428],[-1.154217,53.503579],[-1.154327,53.503637]]]]},"properties":{"slot_id":"future_growth_ 2","lineage_id":"future_growth_ 2-newstart-20261001T203100Z","page_generation":1,"owner":"future_growth_ 2","partition":"future_growth","semantic_mode":"SOURCE_AREA_EXACT_IDENTIFIER","accepted_as_parcel":false,"source_area_count_contribution":1,"exact_identifier":"119","exact_identifier_provided":true,"coverage_polygon_provided":true,"identifier_namespace":"Planning Data brownfield-site reference","access_utc":"2026-10-04T05:29:00Z","data_date":"2024-12-24","source_url":"https://www.planning.data.gov.uk/entity/1802786","final_url":"https://www.planning.data.gov.uk/entity/1802786","dataset_url":"https://www.planning.data.gov.uk/dataset/brownfield-site","license":"Open Government Licence v3.0","authority":"Doncaster Metropolitan Borough Council","site_address":"Britannia House, Low Road, Balby, Doncaster, DN4 8PP","hectares":null,"point":"POINT (-1.154452 53.503569)","maximum_net_dwellings":null,"minimum_net_dwellings":null,"planning_permission_status":null,"confidence_score_0_100":99,"confidence":0.99,"evidence_grade":"A","evidence_scope":"official_polygon_and_exact_identifier","field_evidence":{"dataset":"Brownfield site","entity":1802786,"entry_date":"2024-12-24","geometry_wkt":"MULTIPOLYGON (((-1.154327 53.503637, -1.154325 53.503642, -1.154451 53.503713, -1.154519 53.503718, -1.154553 53.503711, -1.154595 53.503682, -1.154674 53.503543, -1.154666 53.503541, -1.154687 53.503502, -1.154297 53.503428, -1.154217 53.503579, -1.154327 53.503637)))","name":"Britannia House, Low Road, Balby, Doncaster, DN4 8PP","organisation":"Doncaster Metropolitan Borough Council","point":"POINT (-1.154452 53.503569)","reference":"119"},"evidence_slice_sha256":"c4e897a22db78beea22ad9d00db9b2fe758af46145a182919bd0897054353c08","fake_data":false,"spatial_binding_method":"official Planning Data brownfield-site MultiPolygon; canonical parcel spatial join/materialization delegated to local OpenCode","planned_building_count_contribution":0}}]}