{"type":"FeatureCollection","features":[{"type":"Feature","id":"CHERWELL_26_00298_F_DOMESTIC_GARAGE_01","geometry":null,"properties":{"slot_id":"planned_buildings_4","owner":"planned_buildings_4","lineage_id":"pb4-8debc7c8ddf348a2","page_generation":1,"partition":"layer24","schema":"AAYS_LAYER24_EVIDENCE_V1","semantic_mode":"PLANNED_BUILDINGS_OFFICIAL_REFERENCE_DISTINCT_STRUCTURE","batch_id":"20261002T155427Z-cherwell-26-00298-f-window-001","publisher":"Cherwell District Council","source_family":"CHERWELL_PLANNING_REGISTER","source_url":"https://planningregister.cherwell.gov.uk/Planning/Display/26/00298/F","final_url":"https://planningregister.cherwell.gov.uk/Planning/Display/26/00298/F","access_utc":"2026-10-02T15:54:27Z","data_date":"2026-02-03","license":"Public planning register; document copyright/usage remains governed by council register terms","planning_reference":"26/00298/F","location":"1 Eaves Road Ambrosden OX25 2BF","proposal":"Proposed domestic garage","status":"Application Withdrawn","geometry_status":"NOT_MATERIALIZED_LOCAL_OPENCODE","field_evidence":"Official Cherwell District Council Planning Register application 26/00298/F. Application Type: Full Development. Status: Application Withdrawn. Valid date: 03/02/2026. Location: 1 Eaves Road Ambrosden OX25 2BF. Proposal: Proposed domestic garage. Decision: Application Withdrawn. Decision Issued Date: 19/02/2026. Official documents list Graven Hill Garage Plans D92-25-113-010 Plot 554 Loc Plan.pdf as Location Plan (drawing/revision D92 25 113 010), Graven Hill Garage Plans D92-25-113-012 P2 Plot 554 Pr Block.pdf as Proposed Block plan (D92 25 113 012 P2), and Graven Hill Garage Plans D92-25-113-700 P2 Plot 554.pdf as Plot 554 proposed garage (D92 25 113 700 P2). One distinct planned structure is counted from the official proposal: the proposed domestic garage, independently supported by the proposed block plan and dedicated proposed-garage drawing. The later withdrawal records the application outcome but does not alter the fact that the official source window contains a distinct proposed structure reference. Geometry/materialization is deferred to local OpenCode.","evidence_slice_sha256":"2a40b873b27ad67c7ff27caec1796d16dfe8d4015a3217adb9da9394810cf5dc","confidence":0.99,"evidence_grade":"A_OFFICIAL_LOCAL_AUTHORITY_PLANNING_REGISTER_DISTINCT_DOMESTIC_GARAGE_WITHDRAWN","fake_data":false,"source_record_id":"CHERWELL_26_00298_F_DOMESTIC_GARAGE_01","planned_building":"proposed domestic garage","official_plan_reference":"D92 25 113 700 P2","official_plan_description":"Plot 554 proposed garage"}}]}
