{"type":"FeatureCollection","name":"ONS_CDN_LSOA11_EAST_RIDING_E06000011_EXACTID_ROWS_061_065","features":[{"type":"Feature","id":"E01012980","geometry":null,"properties":{"slot_id":"gas_emissions_6","lineage_id":"LOCAL-NEW-92271296-1318-4c0c-a293-d0d4ebc2d06b","page_generation":1,"semantic_mode":"AREA_JOIN","partition":{"start":76904,"end":92283,"count":15380},"evidence_scope":"coverage_area","coverage_area_id":"E01012980","coverage_area_name":"East Riding of Yorkshire 045C","coverage_area_identifier_scheme":"ONS_GSS_LSOA11","parent_area_id":"E06000011","parent_area_name":"East Riding of Yorkshire","boundary_vintage":"LSOA 2011","source_area_record":true,"accepted_parcel_record":false,"spatial_binding_method":"EXACT_OFFICIAL_IDENTIFIER","source_window_record_index":1,"source_row_cursor":61,"source_url":"https://raw.githubusercontent.com/ONSdigital/cdn.ons.gov.uk-assets/130bb351004270950dd4a434e27d80b588e7d0af/assets/topojson/lsoa_by_lad/topo_E06000011.json","final_url":"https://raw.githubusercontent.com/ONSdigital/cdn.ons.gov.uk-assets/130bb351004270950dd4a434e27d80b588e7d0af/assets/topojson/lsoa_by_lad/topo_E06000011.json","source_access_utc":"2026-10-03T01:34:20Z","source_blob_sha":"da8a0878698fa99db0be964534a0f6206f209dcc","source_file_sha256":"3ff555142d6a8762c24ae6f027e4e0aa04bafc9fbd3c43c4c3bcd8a77db56eac","field_evidence":{"LSOA11CD":"E01012980","LSOA11NM":"East Riding of Yorkshire 045C","parent_LAD":"E06000011"},"evidence_slice_sha256":"8fdb67dd4c10d55e88eed6e7c6251303c5cdc8181d0c0f46394563a9a86ccdd8","confidence_score_0_100":96,"evidence_grade":"A","licence":"Open Government Licence v3.0","licence_evidence_url":"https://www.ons.gov.uk/methodology/geography/licences","fake_data":false,"local_spatial_join_status":"DEFERRED_TO_LOCAL_OPENCODE"}},{"type":"Feature","id":"E01012981","geometry":null,"properties":{"slot_id":"gas_emissions_6","lineage_id":"LOCAL-NEW-92271296-1318-4c0c-a293-d0d4ebc2d06b","page_generation":1,"semantic_mode":"AREA_JOIN","partition":{"start":76904,"end":92283,"count":15380},"evidence_scope":"coverage_area","coverage_area_id":"E01012981","coverage_area_name":"East Riding of Yorkshire 008B","coverage_area_identifier_scheme":"ONS_GSS_LSOA11","parent_area_id":"E06000011","parent_area_name":"East Riding of Yorkshire","boundary_vintage":"LSOA 2011","source_area_record":true,"accepted_parcel_record":false,"spatial_binding_method":"EXACT_OFFICIAL_IDENTIFIER","source_window_record_index":2,"source_row_cursor":62,"source_url":"https://raw.githubusercontent.com/ONSdigital/cdn.ons.gov.uk-assets/130bb351004270950dd4a434e27d80b588e7d0af/assets/topojson/lsoa_by_lad/topo_E06000011.json","final_url":"https://raw.githubusercontent.com/ONSdigital/cdn.ons.gov.uk-assets/130bb351004270950dd4a434e27d80b588e7d0af/assets/topojson/lsoa_by_lad/topo_E06000011.json","source_access_utc":"2026-10-03T01:34:20Z","source_blob_sha":"da8a0878698fa99db0be964534a0f6206f209dcc","source_file_sha256":"3ff555142d6a8762c24ae6f027e4e0aa04bafc9fbd3c43c4c3bcd8a77db56eac","field_evidence":{"LSOA11CD":"E01012981","LSOA11NM":"East Riding of Yorkshire 008B","parent_LAD":"E06000011"},"evidence_slice_sha256":"8fdb67dd4c10d55e88eed6e7c6251303c5cdc8181d0c0f46394563a9a86ccdd8","confidence_score_0_100":96,"evidence_grade":"A","licence":"Open Government Licence v3.0","licence_evidence_url":"https://www.ons.gov.uk/methodology/geography/licences","fake_data":false,"local_spatial_join_status":"DEFERRED_TO_LOCAL_OPENCODE"}},{"type":"Feature","id":"E01012982","geometry":null,"properties":{"slot_id":"gas_emissions_6","lineage_id":"LOCAL-NEW-92271296-1318-4c0c-a293-d0d4ebc2d06b","page_generation":1,"semantic_mode":"AREA_JOIN","partition":{"start":76904,"end":92283,"count":15380},"evidence_scope":"coverage_area","coverage_area_id":"E01012982","coverage_area_name":"East Riding of Yorkshire 045D","coverage_area_identifier_scheme":"ONS_GSS_LSOA11","parent_area_id":"E06000011","parent_area_name":"East Riding of Yorkshire","boundary_vintage":"LSOA 2011","source_area_record":true,"accepted_parcel_record":false,"spatial_binding_method":"EXACT_OFFICIAL_IDENTIFIER","source_window_record_index":3,"source_row_cursor":63,"source_url":"https://raw.githubusercontent.com/ONSdigital/cdn.ons.gov.uk-assets/130bb351004270950dd4a434e27d80b588e7d0af/assets/topojson/lsoa_by_lad/topo_E06000011.json","final_url":"https://raw.githubusercontent.com/ONSdigital/cdn.ons.gov.uk-assets/130bb351004270950dd4a434e27d80b588e7d0af/assets/topojson/lsoa_by_lad/topo_E06000011.json","source_access_utc":"2026-10-03T01:34:20Z","source_blob_sha":"da8a0878698fa99db0be964534a0f6206f209dcc","source_file_sha256":"3ff555142d6a8762c24ae6f027e4e0aa04bafc9fbd3c43c4c3bcd8a77db56eac","field_evidence":{"LSOA11CD":"E01012982","LSOA11NM":"East Riding of Yorkshire 045D","parent_LAD":"E06000011"},"evidence_slice_sha256":"8fdb67dd4c10d55e88eed6e7c6251303c5cdc8181d0c0f46394563a9a86ccdd8","confidence_score_0_100":96,"evidence_grade":"A","licence":"Open Government Licence v3.0","licence_evidence_url":"https://www.ons.gov.uk/methodology/geography/licences","fake_data":false,"local_spatial_join_status":"DEFERRED_TO_LOCAL_OPENCODE"}},{"type":"Feature","id":"E01012983","geometry":null,"properties":{"slot_id":"gas_emissions_6","lineage_id":"LOCAL-NEW-92271296-1318-4c0c-a293-d0d4ebc2d06b","page_generation":1,"semantic_mode":"AREA_JOIN","partition":{"start":76904,"end":92283,"count":15380},"evidence_scope":"coverage_area","coverage_area_id":"E01012983","coverage_area_name":"East Riding of Yorkshire 008C","coverage_area_identifier_scheme":"ONS_GSS_LSOA11","parent_area_id":"E06000011","parent_area_name":"East Riding of Yorkshire","boundary_vintage":"LSOA 2011","source_area_record":true,"accepted_parcel_record":false,"spatial_binding_method":"EXACT_OFFICIAL_IDENTIFIER","source_window_record_index":4,"source_row_cursor":64,"source_url":"https://raw.githubusercontent.com/ONSdigital/cdn.ons.gov.uk-assets/130bb351004270950dd4a434e27d80b588e7d0af/assets/topojson/lsoa_by_lad/topo_E06000011.json","final_url":"https://raw.githubusercontent.com/ONSdigital/cdn.ons.gov.uk-assets/130bb351004270950dd4a434e27d80b588e7d0af/assets/topojson/lsoa_by_lad/topo_E06000011.json","source_access_utc":"2026-10-03T01:34:20Z","source_blob_sha":"da8a0878698fa99db0be964534a0f6206f209dcc","source_file_sha256":"3ff555142d6a8762c24ae6f027e4e0aa04bafc9fbd3c43c4c3bcd8a77db56eac","field_evidence":{"LSOA11CD":"E01012983","LSOA11NM":"East Riding of Yorkshire 008C","parent_LAD":"E06000011"},"evidence_slice_sha256":"8fdb67dd4c10d55e88eed6e7c6251303c5cdc8181d0c0f46394563a9a86ccdd8","confidence_score_0_100":96,"evidence_grade":"A","licence":"Open Government Licence v3.0","licence_evidence_url":"https://www.ons.gov.uk/methodology/geography/licences","fake_data":false,"local_spatial_join_status":"DEFERRED_TO_LOCAL_OPENCODE"}},{"type":"Feature","id":"E01012984","geometry":null,"properties":{"slot_id":"gas_emissions_6","lineage_id":"LOCAL-NEW-92271296-1318-4c0c-a293-d0d4ebc2d06b","page_generation":1,"semantic_mode":"AREA_JOIN","partition":{"start":76904,"end":92283,"count":15380},"evidence_scope":"coverage_area","coverage_area_id":"E01012984","coverage_area_name":"East Riding of Yorkshire 044C","coverage_area_identifier_scheme":"ONS_GSS_LSOA11","parent_area_id":"E06000011","parent_area_name":"East Riding of Yorkshire","boundary_vintage":"LSOA 2011","source_area_record":true,"accepted_parcel_record":false,"spatial_binding_method":"EXACT_OFFICIAL_IDENTIFIER","source_window_record_index":5,"source_row_cursor":65,"source_url":"https://raw.githubusercontent.com/ONSdigital/cdn.ons.gov.uk-assets/130bb351004270950dd4a434e27d80b588e7d0af/assets/topojson/lsoa_by_lad/topo_E06000011.json","final_url":"https://raw.githubusercontent.com/ONSdigital/cdn.ons.gov.uk-assets/130bb351004270950dd4a434e27d80b588e7d0af/assets/topojson/lsoa_by_lad/topo_E06000011.json","source_access_utc":"2026-10-03T01:34:20Z","source_blob_sha":"da8a0878698fa99db0be964534a0f6206f209dcc","source_file_sha256":"3ff555142d6a8762c24ae6f027e4e0aa04bafc9fbd3c43c4c3bcd8a77db56eac","field_evidence":{"LSOA11CD":"E01012984","LSOA11NM":"East Riding of Yorkshire 044C","parent_LAD":"E06000011"},"evidence_slice_sha256":"8fdb67dd4c10d55e88eed6e7c6251303c5cdc8181d0c0f46394563a9a86ccdd8","confidence_score_0_100":96,"evidence_grade":"A","licence":"Open Government Licence v3.0","licence_evidence_url":"https://www.ons.gov.uk/methodology/geography/licences","fake_data":false,"local_spatial_join_status":"DEFERRED_TO_LOCAL_OPENCODE"}}]}
