{"type":"FeatureCollection","name":"ONS_CDN_LSOA11_EAST_RIDING_E06000011_EXACTID_ROWS_066_070","features":[{"type":"Feature","id":"E01012985","geometry":null,"properties":{"slot_id":"gas_emissions_6","lineage_id":"LOCAL-NEW-92271296-1318-4c0c-a293-d0d4ebc2d06b","page_generation":1,"semantic_mode":"AREA_JOIN","partition":{"start":76904,"end":92283,"count":15380},"evidence_scope":"coverage_area","coverage_area_id":"E01012985","coverage_area_name":"East Riding of Yorkshire 044D","coverage_area_identifier_scheme":"ONS_GSS_LSOA11","parent_area_id":"E06000011","parent_area_name":"East Riding of Yorkshire","boundary_vintage":"LSOA 2011","source_area_record":true,"accepted_parcel_record":false,"spatial_binding_method":"EXACT_OFFICIAL_IDENTIFIER","source_window_record_index":1,"source_row_cursor":66,"source_url":"https://raw.githubusercontent.com/ONSdigital/cdn.ons.gov.uk-assets/130bb351004270950dd4a434e27d80b588e7d0af/assets/topojson/lsoa_by_lad/topo_E06000011.json","final_url":"https://raw.githubusercontent.com/ONSdigital/cdn.ons.gov.uk-assets/130bb351004270950dd4a434e27d80b588e7d0af/assets/topojson/lsoa_by_lad/topo_E06000011.json","source_access_utc":"2026-10-03T12:08:00Z","source_blob_sha":"da8a0878698fa99db0be964534a0f6206f209dcc","source_file_sha256":"3ff555142d6a8762c24ae6f027e4e0aa04bafc9fbd3c43c4c3bcd8a77db56eac","field_evidence":{"LSOA11CD":"E01012985","LSOA11NM":"East Riding of Yorkshire 044D","parent_LAD":"E06000011"},"evidence_slice_sha256":"151ac238bd3ac11090ad98b9191e04bae8863ceb8ea05380a652846596155c7e","confidence_score_0_100":96,"evidence_grade":"A","licence":"Open Government Licence v3.0","licence_evidence_url":"https://www.ons.gov.uk/methodology/geography/licences","fake_data":false,"local_spatial_join_status":"DEFERRED_TO_LOCAL_OPENCODE"}},{"type":"Feature","id":"E01012986","geometry":null,"properties":{"slot_id":"gas_emissions_6","lineage_id":"LOCAL-NEW-92271296-1318-4c0c-a293-d0d4ebc2d06b","page_generation":1,"semantic_mode":"AREA_JOIN","partition":{"start":76904,"end":92283,"count":15380},"evidence_scope":"coverage_area","coverage_area_id":"E01012986","coverage_area_name":"East Riding of Yorkshire 010A","coverage_area_identifier_scheme":"ONS_GSS_LSOA11","parent_area_id":"E06000011","parent_area_name":"East Riding of Yorkshire","boundary_vintage":"LSOA 2011","source_area_record":true,"accepted_parcel_record":false,"spatial_binding_method":"EXACT_OFFICIAL_IDENTIFIER","source_window_record_index":2,"source_row_cursor":67,"source_url":"https://raw.githubusercontent.com/ONSdigital/cdn.ons.gov.uk-assets/130bb351004270950dd4a434e27d80b588e7d0af/assets/topojson/lsoa_by_lad/topo_E06000011.json","final_url":"https://raw.githubusercontent.com/ONSdigital/cdn.ons.gov.uk-assets/130bb351004270950dd4a434e27d80b588e7d0af/assets/topojson/lsoa_by_lad/topo_E06000011.json","source_access_utc":"2026-10-03T12:08:00Z","source_blob_sha":"da8a0878698fa99db0be964534a0f6206f209dcc","source_file_sha256":"3ff555142d6a8762c24ae6f027e4e0aa04bafc9fbd3c43c4c3bcd8a77db56eac","field_evidence":{"LSOA11CD":"E01012986","LSOA11NM":"East Riding of Yorkshire 010A","parent_LAD":"E06000011"},"evidence_slice_sha256":"151ac238bd3ac11090ad98b9191e04bae8863ceb8ea05380a652846596155c7e","confidence_score_0_100":96,"evidence_grade":"A","licence":"Open Government Licence v3.0","licence_evidence_url":"https://www.ons.gov.uk/methodology/geography/licences","fake_data":false,"local_spatial_join_status":"DEFERRED_TO_LOCAL_OPENCODE"}},{"type":"Feature","id":"E01012987","geometry":null,"properties":{"slot_id":"gas_emissions_6","lineage_id":"LOCAL-NEW-92271296-1318-4c0c-a293-d0d4ebc2d06b","page_generation":1,"semantic_mode":"AREA_JOIN","partition":{"start":76904,"end":92283,"count":15380},"evidence_scope":"coverage_area","coverage_area_id":"E01012987","coverage_area_name":"East Riding of Yorkshire 010B","coverage_area_identifier_scheme":"ONS_GSS_LSOA11","parent_area_id":"E06000011","parent_area_name":"East Riding of Yorkshire","boundary_vintage":"LSOA 2011","source_area_record":true,"accepted_parcel_record":false,"spatial_binding_method":"EXACT_OFFICIAL_IDENTIFIER","source_window_record_index":3,"source_row_cursor":68,"source_url":"https://raw.githubusercontent.com/ONSdigital/cdn.ons.gov.uk-assets/130bb351004270950dd4a434e27d80b588e7d0af/assets/topojson/lsoa_by_lad/topo_E06000011.json","final_url":"https://raw.githubusercontent.com/ONSdigital/cdn.ons.gov.uk-assets/130bb351004270950dd4a434e27d80b588e7d0af/assets/topojson/lsoa_by_lad/topo_E06000011.json","source_access_utc":"2026-10-03T12:08:00Z","source_blob_sha":"da8a0878698fa99db0be964534a0f6206f209dcc","source_file_sha256":"3ff555142d6a8762c24ae6f027e4e0aa04bafc9fbd3c43c4c3bcd8a77db56eac","field_evidence":{"LSOA11CD":"E01012987","LSOA11NM":"East Riding of Yorkshire 010B","parent_LAD":"E06000011"},"evidence_slice_sha256":"151ac238bd3ac11090ad98b9191e04bae8863ceb8ea05380a652846596155c7e","confidence_score_0_100":96,"evidence_grade":"A","licence":"Open Government Licence v3.0","licence_evidence_url":"https://www.ons.gov.uk/methodology/geography/licences","fake_data":false,"local_spatial_join_status":"DEFERRED_TO_LOCAL_OPENCODE"}},{"type":"Feature","id":"E01012988","geometry":null,"properties":{"slot_id":"gas_emissions_6","lineage_id":"LOCAL-NEW-92271296-1318-4c0c-a293-d0d4ebc2d06b","page_generation":1,"semantic_mode":"AREA_JOIN","partition":{"start":76904,"end":92283,"count":15380},"evidence_scope":"coverage_area","coverage_area_id":"E01012988","coverage_area_name":"East Riding of Yorkshire 010C","coverage_area_identifier_scheme":"ONS_GSS_LSOA11","parent_area_id":"E06000011","parent_area_name":"East Riding of Yorkshire","boundary_vintage":"LSOA 2011","source_area_record":true,"accepted_parcel_record":false,"spatial_binding_method":"EXACT_OFFICIAL_IDENTIFIER","source_window_record_index":4,"source_row_cursor":69,"source_url":"https://raw.githubusercontent.com/ONSdigital/cdn.ons.gov.uk-assets/130bb351004270950dd4a434e27d80b588e7d0af/assets/topojson/lsoa_by_lad/topo_E06000011.json","final_url":"https://raw.githubusercontent.com/ONSdigital/cdn.ons.gov.uk-assets/130bb351004270950dd4a434e27d80b588e7d0af/assets/topojson/lsoa_by_lad/topo_E06000011.json","source_access_utc":"2026-10-03T12:08:00Z","source_blob_sha":"da8a0878698fa99db0be964534a0f6206f209dcc","source_file_sha256":"3ff555142d6a8762c24ae6f027e4e0aa04bafc9fbd3c43c4c3bcd8a77db56eac","field_evidence":{"LSOA11CD":"E01012988","LSOA11NM":"East Riding of Yorkshire 010C","parent_LAD":"E06000011"},"evidence_slice_sha256":"151ac238bd3ac11090ad98b9191e04bae8863ceb8ea05380a652846596155c7e","confidence_score_0_100":96,"evidence_grade":"A","licence":"Open Government Licence v3.0","licence_evidence_url":"https://www.ons.gov.uk/methodology/geography/licences","fake_data":false,"local_spatial_join_status":"DEFERRED_TO_LOCAL_OPENCODE"}},{"type":"Feature","id":"E01012989","geometry":null,"properties":{"slot_id":"gas_emissions_6","lineage_id":"LOCAL-NEW-92271296-1318-4c0c-a293-d0d4ebc2d06b","page_generation":1,"semantic_mode":"AREA_JOIN","partition":{"start":76904,"end":92283,"count":15380},"evidence_scope":"coverage_area","coverage_area_id":"E01012989","coverage_area_name":"East Riding of Yorkshire 008D","coverage_area_identifier_scheme":"ONS_GSS_LSOA11","parent_area_id":"E06000011","parent_area_name":"East Riding of Yorkshire","boundary_vintage":"LSOA 2011","source_area_record":true,"accepted_parcel_record":false,"spatial_binding_method":"EXACT_OFFICIAL_IDENTIFIER","source_window_record_index":5,"source_row_cursor":70,"source_url":"https://raw.githubusercontent.com/ONSdigital/cdn.ons.gov.uk-assets/130bb351004270950dd4a434e27d80b588e7d0af/assets/topojson/lsoa_by_lad/topo_E06000011.json","final_url":"https://raw.githubusercontent.com/ONSdigital/cdn.ons.gov.uk-assets/130bb351004270950dd4a434e27d80b588e7d0af/assets/topojson/lsoa_by_lad/topo_E06000011.json","source_access_utc":"2026-10-03T12:08:00Z","source_blob_sha":"da8a0878698fa99db0be964534a0f6206f209dcc","source_file_sha256":"3ff555142d6a8762c24ae6f027e4e0aa04bafc9fbd3c43c4c3bcd8a77db56eac","field_evidence":{"LSOA11CD":"E01012989","LSOA11NM":"East Riding of Yorkshire 008D","parent_LAD":"E06000011"},"evidence_slice_sha256":"151ac238bd3ac11090ad98b9191e04bae8863ceb8ea05380a652846596155c7e","confidence_score_0_100":96,"evidence_grade":"A","licence":"Open Government Licence v3.0","licence_evidence_url":"https://www.ons.gov.uk/methodology/geography/licences","fake_data":false,"local_spatial_join_status":"DEFERRED_TO_LOCAL_OPENCODE"}}]}
