{"type":"FeatureCollection","name":"future_growth_9_batch_60","demo_only":true,"metadata":{"schema_version":3,"slot_id":"future_growth_9","continuation_key":"future_growth_9_open_source_v2_20260813","run_id":"future_growth_9_bounded12_20260818T110243Z","batch_index":60,"feature_count_before":59,"feature_count_added":1,"feature_count_after":60,"source_window":{"dataset":"brownfield-land","window_index":59,"window_size":1,"entity":1713299},"fake_data":false,"final_ready":false,"production_merge":false,"duplicate_count":0,"nearest_match_used":false},"features":[{"type":"Feature","id":"future_growth_9:planning_data_bradford:nw-007","geometry":{"type":"Point","coordinates":[-1.762652,53.80704]},"properties":{"slot_id":"future_growth_9","source_feature_id":"NW/007","planning_data_entity":1713299,"source_url":"https://www.planning.data.gov.uk/entity/1713299","source_dataset_url":"https://www.planning.data.gov.uk/dataset/brownfield-land","source_entry_date":"2022-11-01","source_sha256":"cd0ac2e8fa6cd054d549c7da845801f16a6def77123c7f0872c86ee63a2fd383","license":"Open Government Licence v3.0","future_growth_evidence_type":"area_proxy","direct_project_evidence":false,"evidence_summary":"Official current brownfield record identifies residential redevelopment potential subject to conservation area consent, with maximum net dwelling capacity 14.","matching_method":"direct official brownfield-land reference identity plus published WGS84 point; no nearest matching, no cross-parcel identity inference","accuracy_scale_1_4":3,"future_growth_value":null,"future_growth_probability":null,"site_name":"Spring Bank Place, Manningham","hectares":0.57,"net_dwellings_range_from":null,"net_dwellings_range_to":14,"fake_data":false,"final_ready":false,"production_merge":false,"demo_only":true}}]}