{"type":"FeatureCollection","name":"future_growth_9_batch_55","demo_only":true,"metadata":{"schema_version":3,"slot_id":"future_growth_9","continuation_key":"future_growth_9_open_source_v2_20260813","run_id":"future_growth_9_bounded12_20260818T110243Z","batch_index":55,"feature_count_before":54,"feature_count_added":1,"feature_count_after":55,"source_window":{"dataset":"brownfield-land","window_index":54,"window_size":1,"entity":1712225},"fake_data":false,"final_ready":false,"production_merge":false,"duplicate_count":0,"nearest_match_used":false},"features":[{"type":"Feature","id":"future_growth_9:planning_data_bradford:se-082","geometry":{"type":"Point","coordinates":[-1.759913,53.779751]},"properties":{"slot_id":"future_growth_9","source_feature_id":"SE/082","planning_data_entity":1712225,"source_url":"https://www.planning.data.gov.uk/entity/1712225","source_dataset_url":"https://www.planning.data.gov.uk/dataset/brownfield-land","source_entry_date":"2017-11-01","source_sha256":"9beeb8e8cec3a2363820c702743055834c53f7f741a21b3aee8414ecd43ded8a","license":"Open Government Licence v3.0","future_growth_evidence_type":"area_proxy","direct_project_evidence":false,"evidence_summary":"Cleared site had permission which expired; official record states capacity for at least 7 homes.","matching_method":"direct official brownfield-land reference identity plus published WGS84 point; no nearest matching, no cross-parcel identity inference","accuracy_scale_1_4":3,"future_growth_value":null,"future_growth_probability":null,"site_name":"Coates Terrace/Manchester Road, Bowling","hectares":0.16,"net_dwellings_range_from":7,"net_dwellings_range_to":7,"fake_data":false,"final_ready":false,"production_merge":false,"demo_only":true}}]}