{"type":"FeatureCollection","name":"future_growth_9_batch_52","demo_only":true,"metadata":{"schema_version":3,"slot_id":"future_growth_9","continuation_key":"future_growth_9_open_source_v2_20260813","run_id":"future_growth_9_bounded12_20260818T110243Z","batch_index":52,"feature_count_before":51,"feature_count_added":1,"feature_count_after":52,"source_window":{"dataset":"brownfield-land","window_index":51,"window_size":1,"entity":1712218},"fake_data":false,"final_ready":false,"production_merge":false,"duplicate_count":0,"nearest_match_used":false},"features":[{"type":"Feature","id":"future_growth_9:planning_data_bradford:se-026","geometry":{"type":"Point","coordinates":[-1.717125,53.792296]},"properties":{"slot_id":"future_growth_9","source_feature_id":"SE/026","planning_data_entity":1712218,"source_url":"https://www.planning.data.gov.uk/entity/1712218","source_dataset_url":"https://www.planning.data.gov.uk/dataset/brownfield-land","source_entry_date":"2019-12-01","source_sha256":"a56f8865e8482f3926e5bdb89841aaf4b9d592fde4a60fa57a652db4e0f5bd76","license":"Open Government Licence v3.0","future_growth_evidence_type":"direct_project","direct_project_evidence":true,"evidence_summary":"Planning enquiries have been made to bring the cleared site forward and an application is expected in the near future.","matching_method":"direct official brownfield-land reference identity plus published WGS84 point; no nearest matching, no cross-parcel identity inference","accuracy_scale_1_4":4,"future_growth_value":null,"future_growth_probability":null,"site_name":"Laisterdyke Lane, Laisterdyke","hectares":1.99,"fake_data":false,"final_ready":false,"production_merge":false,"demo_only":true}}]}