{"type":"FeatureCollection","name":"future_growth_9_batch_51","demo_only":true,"metadata":{"schema_version":3,"slot_id":"future_growth_9","continuation_key":"future_growth_9_open_source_v2_20260813","run_id":"future_growth_9_bounded12_20260818T110243Z","batch_index":51,"feature_count_before":50,"feature_count_added":1,"feature_count_after":51,"source_window":{"dataset":"brownfield-land","window_index":50,"window_size":1,"entity":1713287},"fake_data":false,"final_ready":false,"production_merge":false,"duplicate_count":0,"nearest_match_used":false},"features":[{"type":"Feature","id":"future_growth_9:planning_data_bradford:ky-170","geometry":{"type":"Point","coordinates":[-1.910189,53.865341]},"properties":{"slot_id":"future_growth_9","source_feature_id":"KY/170","planning_data_entity":1713287,"source_url":"https://www.planning.data.gov.uk/entity/1713287","source_dataset_url":"https://www.planning.data.gov.uk/dataset/brownfield-land","source_entry_date":"2018-11-01","source_sha256":"09966e45c342a924ca481116b9c186676d47f9853d85e1059db7269de9c70d55","license":"Open Government Licence v3.0","future_growth_evidence_type":"direct_project","direct_project_evidence":true,"evidence_summary":"Buildings have conversion permission to 5 apartments.","matching_method":"direct official brownfield-land reference identity plus published WGS84 point; no nearest matching, no cross-parcel identity inference","accuracy_scale_1_4":4,"future_growth_value":null,"future_growth_probability":null,"site_name":"10 Church Street","hectares":0.04,"net_dwellings_range_from":5,"net_dwellings_range_to":5,"fake_data":false,"final_ready":false,"production_merge":false,"demo_only":true}}]}