{"type":"FeatureCollection","name":"future_growth_9_batch_50","demo_only":true,"metadata":{"schema_version":3,"slot_id":"future_growth_9","continuation_key":"future_growth_9_open_source_v2_20260813","run_id":"future_growth_9_bounded12_20260818T110243Z","batch_index":50,"feature_count_before":49,"feature_count_added":1,"feature_count_after":50,"source_window":{"dataset":"brownfield-land","window_index":49,"window_size":1,"entity":1712095},"fake_data":false,"final_ready":false,"production_merge":false,"duplicate_count":0,"nearest_match_used":false},"features":[{"type":"Feature","id":"future_growth_9:planning_data_bradford:cc-047","geometry":{"type":"Point","coordinates":[-1.758619,53.795453]},"properties":{"slot_id":"future_growth_9","source_feature_id":"CC/047","planning_data_entity":1712095,"source_url":"https://www.planning.data.gov.uk/entity/1712095","source_dataset_url":"https://www.planning.data.gov.uk/dataset/brownfield-land","source_entry_date":"2019-12-01","source_sha256":"2a065f89419b8c02d38aad96b566f9211fc2e7798b7445cf83a0fc64719c9878","license":"Open Government Licence v3.0","future_growth_evidence_type":"area_proxy","direct_project_evidence":false,"evidence_summary":"Former office building is vacant; prior permission expired; City Centre AAP identifies potential for around 80 units.","matching_method":"direct official brownfield-land reference identity plus published WGS84 point; no nearest matching, no cross-parcel identity inference","accuracy_scale_1_4":3,"future_growth_value":null,"future_growth_probability":null,"site_name":"Westgate/Grattan Road, City Centre","hectares":0.12,"fake_data":false,"final_ready":false,"production_merge":false,"demo_only":true}}]}