{"type":"FeatureCollection","name":"future_growth_9_batch_57","demo_only":true,"metadata":{"schema_version":3,"slot_id":"future_growth_9","continuation_key":"future_growth_9_open_source_v2_20260813","run_id":"future_growth_9_bounded12_20260818T110243Z","batch_index":57,"feature_count_before":56,"feature_count_added":1,"feature_count_after":57,"source_window":{"dataset":"brownfield-land","window_index":56,"window_size":1,"entity":1729806},"fake_data":false,"final_ready":false,"production_merge":false,"duplicate_count":0,"nearest_match_used":false},"features":[{"type":"Feature","id":"future_growth_9:planning_data_bradford:nw-054","geometry":{"type":"Point","coordinates":[-1.777177,53.799472]},"properties":{"slot_id":"future_growth_9","source_feature_id":"NW/054","planning_data_entity":1729806,"source_url":"https://www.planning.data.gov.uk/entity/1729806","source_dataset_url":"https://www.planning.data.gov.uk/dataset/brownfield-land","source_entry_date":"2022-11-01","source_sha256":"3ed7685d06421178b5ffaf0d2950bbb5e236c1a8df9d60c9a75152ac37943752","license":"Open Government Licence v3.0","future_growth_evidence_type":"area_proxy","direct_project_evidence":false,"evidence_summary":"Official current brownfield record identifies Whetley Mills with capacity for 250 net dwellings and no current permission.","matching_method":"direct official brownfield-land reference identity plus published WGS84 point; no nearest matching, no cross-parcel identity inference","accuracy_scale_1_4":3,"future_growth_value":null,"future_growth_probability":null,"site_name":"Whetley Mills, Thornton Rd","hectares":3.81,"net_dwellings_range_from":250,"net_dwellings_range_to":250,"fake_data":false,"final_ready":false,"production_merge":false,"demo_only":true}}]}