{"type":"FeatureCollection","name":"building_type_9_batch_0029","features":[{"type":"Feature","id":"42162485","geometry":{"type":"MultiPolygon","coordinates":[[[[-1.132284,52.634585],[-1.132252,52.634592],[-1.132261,52.634606],[-1.132239,52.634612],[-1.132269,52.634651],[-1.132417,52.634613],[-1.132371,52.634563],[-1.132284,52.634585]]]]},"properties":{"slot_id":"building_type_9","lineage_id":"building_type_9-20261001T200900Z-newstart","batch_id":"batch-0029","page_generation":1,"source_entity":42162485,"source_reference":"DLC238_v1","source_dataset":"listed-building-outline","source_organisation":"Leicester City Council","building_evidence_status":"BUILDING_PRESENT","parcel_status":"UNPROCESSED","canonical_parcel_id":null,"building_type":"listed_building","building_use":null,"poi_accepted":false,"field_evidence":{"footprint":"official listed-building-outline MULTIPOLYGON","type":"official dataset classification: listed-building-outline","name":"47, MARKET PLACE, LEICESTER","reference":"DLC238_v1","use":"no use inferred"},"source_url":"https://www.planning.data.gov.uk/entity/42162485","final_url":"https://www.planning.data.gov.uk/entity/42162485","access_utc":"2026-10-06T06:40:00Z","data_date":"1975-03-14","licence":"Open Government Licence v3.0","evidence_slice_sha256":"baf0fa935f885f0a736b9d069d8bf5c17b2d6883650fd8f0fe2b81cc61435856","confidence_score_0_100":94,"evidence_grade":"A","fake_data":false,"local_spatial_join_required":true}},{"type":"Feature","id":"42162451","geometry":{"type":"MultiPolygon","coordinates":[[[[-1.115408,52.619612],[-1.115187,52.619217],[-1.115008,52.619258],[-1.114991,52.619266],[-1.11498,52.619274],[-1.114973,52.61928],[-1.114967,52.61929],[-1.114958,52.619332],[-1.114946,52.619363],[-1.11493,52.619388],[-1.114914,52.619407],[-1.114894,52.619426],[-1.114876,52.619438],[-1.114799,52.619481],[-1.114772,52.619501],[-1.11475,52.619524],[-1.114738,52.619544],[-1.114733,52.619566],[-1.114736,52.6196],[-1.114742,52.619613],[-1.114749,52.619624],[-1.114795,52.619682],[-1.114829,52.619728],[-1.115408,52.619612]]]]},"properties":{"slot_id":"building_type_9","lineage_id":"building_type_9-20261001T200900Z-newstart","batch_id":"batch-0029","page_generation":1,"source_entity":42162451,"source_reference":"DLC270_v1","source_dataset":"listed-building-outline","source_organisation":"Leicester City Council","building_evidence_status":"BUILDING_PRESENT","parcel_status":"UNPROCESSED","canonical_parcel_id":null,"building_type":"listed_building","building_use":null,"poi_accepted":false,"field_evidence":{"footprint":"official listed-building-outline MULTIPOLYGON","type":"official dataset classification: listed-building-outline","name":"WHITE HOUSE","reference":"DLC270_v1","use":"no use inferred"},"source_url":"https://www.planning.data.gov.uk/entity/42162451","final_url":"https://www.planning.data.gov.uk/entity/42162451","access_utc":"2026-10-06T06:40:00Z","data_date":"1975-03-14","licence":"Open Government Licence v3.0","evidence_slice_sha256":"98caafd9520f47d5b6ea10138fd1cf4c0cbfd1a6a19a802ea827d71ade28628f","confidence_score_0_100":94,"evidence_grade":"A","fake_data":false,"local_spatial_join_required":true}},{"type":"Feature","id":"42162489","geometry":{"type":"MultiPolygon","coordinates":[[[[-1.111813,52.620375],[-1.112585,52.620219],[-1.11256,52.620179],[-1.11299,52.620095],[-1.112869,52.61985],[-1.11162,52.620099],[-1.111628,52.620112],[-1.111679,52.620113],[-1.111713,52.620107],[-1.111733,52.620137],[-1.111683,52.620148],[-1.111669,52.620169],[-1.111745,52.620275],[-1.111823,52.620258],[-1.111844,52.620288],[-1.111801,52.6203],[-1.111776,52.620322],[-1.111813,52.620375]]]]},"properties":{"slot_id":"building_type_9","lineage_id":"building_type_9-20261001T200900Z-newstart","batch_id":"batch-0029","page_generation":1,"source_entity":42162489,"source_reference":"DLC224_v1","source_dataset":"listed-building-outline","source_organisation":"Leicester City Council","building_evidence_status":"BUILDING_PRESENT","parcel_status":"UNPROCESSED","canonical_parcel_id":null,"building_type":"listed_building","building_use":null,"poi_accepted":false,"field_evidence":{"footprint":"official listed-building-outline MULTIPOLYGON","type":"official dataset classification: listed-building-outline","name":"THE FIRS","reference":"DLC224_v1","use":"no use inferred"},"source_url":"https://www.planning.data.gov.uk/entity/42162489","final_url":"https://www.planning.data.gov.uk/entity/42162489","access_utc":"2026-10-06T06:40:00Z","data_date":"1950-01-05","licence":"Open Government Licence v3.0","evidence_slice_sha256":"a642582aa36362b57423e0554ba38800cbe96cfe1e4200c3175a19095668ecac","confidence_score_0_100":94,"evidence_grade":"A","fake_data":false,"local_spatial_join_required":true}},{"type":"Feature","id":"42162432","geometry":{"type":"MultiPolygon","coordinates":[[[[-1.125518,52.629032],[-1.125686,52.628798],[-1.125122,52.628656],[-1.124953,52.628952],[-1.125049,52.628976],[-1.125057,52.628964],[-1.12523,52.62901],[-1.12529,52.62901],[-1.125397,52.629038],[-1.125426,52.629006],[-1.125518,52.629032]]]]},"properties":{"slot_id":"building_type_9","lineage_id":"building_type_9-20261001T200900Z-newstart","batch_id":"batch-0029","page_generation":1,"source_entity":42162432,"source_reference":"DLC268_v1","source_dataset":"listed-building-outline","source_organisation":"Leicester City Council","building_evidence_status":"BUILDING_PRESENT","parcel_status":"UNPROCESSED","canonical_parcel_id":null,"building_type":"listed_building","building_use":null,"poi_accepted":false,"field_evidence":{"footprint":"official listed-building-outline MULTIPOLYGON","type":"official dataset classification: listed-building-outline","name":"98-104, NEW WALK","reference":"DLC268_v1","use":"no use inferred"},"source_url":"https://www.planning.data.gov.uk/entity/42162432","final_url":"https://www.planning.data.gov.uk/entity/42162432","access_utc":"2026-10-06T06:40:00Z","data_date":"1975-03-14","licence":"Open Government Licence v3.0","evidence_slice_sha256":"a70c95afade6f0d9b8756da9a5c16c347758538166c977f78bc18e6e64fec0f4","confidence_score_0_100":94,"evidence_grade":"A","fake_data":false,"local_spatial_join_required":true}}]}