{
  "type": "FeatureCollection",
  "features": [
    {
      "type": "Feature",
      "id": "planning-data:brownfield-site:WBR/17/0158",
      "geometry": {
        "type": "MultiPolygon",
        "coordinates": [
          [
            [
              [
                -0.150666,
                51.44382
              ],
              [
                -0.1511,
                51.443351
              ],
              [
                -0.151206,
                51.443098
              ],
              [
                -0.15082,
                51.443028
              ],
              [
                -0.150715,
                51.442981
              ],
              [
                -0.150003,
                51.442889
              ],
              [
                -0.149898,
                51.44294
              ],
              [
                -0.149876,
                51.443016
              ],
              [
                -0.150524,
                51.444039
              ],
              [
                -0.150696,
                51.44384
              ],
              [
                -0.150666,
                51.44382
              ]
            ]
          ]
        ]
      },
      "properties": {
        "semantic_identity": "planning-data:brownfield-site:WBR/17/0158",
        "source_area_id": "planning-data:brownfield-site:WBR/17/0158",
        "source_area_type": "brownfield-site",
        "source_reference": "WBR/17/0158",
        "source_entity": 1802075,
        "source_name": "Sainsbury's Car Park",
        "source_dataset": "brownfield-site",
        "organisation": "London Borough of Wandsworth",
        "organisation_entity": "local-authority:WND",
        "data_date": "2020-12-22",
        "entry_date": "2020-12-22",
        "source_url": "https://www.planning.data.gov.uk/entity/1802075",
        "final_url": "https://www.planning.data.gov.uk/entity/1802075",
        "source_geometry_wkt_sha256": "27728d978a304c96858b9c4b1128c62eb49ff53e5aa4ea6c9c75d2054e3f2e47",
        "evidence_slice_sha256": "0a32705ab9124810e9d42c539f38d313a5dae77ab35a3d18920646fd26d33a15",
        "license": "Open Government Licence v3.0",
        "evidence_grade": "B",
        "confidence": 0.78,
        "source_quality": "some",
        "semantic_mode": "AREA_JOIN",
        "canonical_binding_status": "NOT_ATTEMPTED_LOCAL_OPENCODE",
        "fake_data": false
      }
    }
  ]
}
