{"type":"FeatureCollection","features":[{"type":"Feature","id":"lfb-soa-2020-21:Campden","geometry":null,"properties":{"evidence_scope":"coverage_area","coverage_area_id":"LFB_SOA_2020_21_ANNEX2B:CAMPDEN","coverage_area_name":"Campden","identifier_scheme":"LFB_SOA_2020_21_WARD_NAME","exact_official_identifier":"CAMPDEN","source_resolution":"LFB_OFFICIAL_SOA_2020_21_WARD_TABLE","time_window":"2016/17-2020/21","measurement_date":"2020/21","measurement_method":"official LFB Statement of Assurance ward-level Annex 2B row","spatial_binding_method":"PARCEL_JOIN_DEFERRED_TO_LOCAL_OPENCODE","source_url":"https://data.london.gov.uk/download/24yl6/7e393854-a780-42ca-bc55-acf6e4b38450/Statement%20of%20Assurance%202020-21%20-%20Data%20appendix%20FINAL.pdf","final_url":"https://data.london.gov.uk/download/24yl6/7e393854-a780-42ca-bc55-acf6e4b38450/Statement%20of%20Assurance%202020-21%20-%20Data%20appendix%20FINAL.pdf","accessed_at_utc":"2026-10-04T22:00:00Z","data_date":"2020/21","licence":"Open Government Licence v3","sha256":"dc39738abf3f67e069844b40d8ed4434ce9c6f7ba41e8870bb041fe2900f2afc","field_evidence":{"document_title":"Statement of Assurance 2020-21 - Data appendix FINAL","publisher":"London Fire Brigade / London Fire Commissioner","annex":"Annex 2B | Incidents, fires and fire casualties - ward data","borough":"KENSINGTON AND CHELSEA","ward":"CAMPDEN","periods":["2016/17","2017/18","2018/19","2019/20","2020/21"],"published_row_values":[8,5,12,8,13,0,0,2,0,2,5,1,4,6,7,0,0,0,0,0,0,0,0,0,1,0,0,0,0,0],"table_heading_groups":["Primary fires","Arson","Dwelling fires","Fire serious injuries","Fires in care homes and sheltered housing","Fire deaths"],"source_page_text_location":"PDF page 49-50; Campden row at extracted line 1996","pdf_screenshot_status":"ATTEMPTED_WEB_SCREENSHOT_CACHE_MISS","geometry_materialized":false,"source_url":"https://data.london.gov.uk/download/24yl6/7e393854-a780-42ca-bc55-acf6e4b38450/Statement%20of%20Assurance%202020-21%20-%20Data%20appendix%20FINAL.pdf","accessed_at_utc":"2026-10-04T22:00:00Z"},"evidence_slice_sha256":"29c2de8b22cd23d722ac8df1cc0b12b5657d9d6ae7f1702e7d97f5a7cdd2ba21","confidence_score_0_100":99,"evidence_grade":"A","fake_data":false,"source_window_id":"lfb_statement_assurance_2020_21_annex2b_campden_sps5_20261004_v1","cursor":"lfb_statement_assurance_2020_21_annex2b_campden_sps5_20261004_v1:record=1"}}]}
