{"type":"FeatureCollection","features":[{"type":"Feature","properties":{"slot_id":"building_type_3","lineage_id":"building_type_3-new-20260927T1328+0300","batch_id":"BT3-P88G61-20261006-PLANNINGDATA-LBO42120802","cursor":"BT3-P88G61-20261006-PLANNINGDATA-LBO42120802-p88","building_state":"BUILDING_PRESENT","source_record_id":"reference=1064901;outline_entity=42120802","entity":42120802,"reference":"1064901","name":"ST PANCRAS AND ISLINGTON CEMETERY, CHURCH OF ENGLAND CHAPEL","building_type_use":"chapel","type_use_evidence":"official_name_exact=ST PANCRAS AND ISLINGTON CEMETERY, CHURCH OF ENGLAND CHAPEL","dataset":"listed-building-outline","quality":"authoritative","start_date":"1983-04-07","entry_date":"2026-05-01","organisation":"London Borough of Barnet","listed_building":"1064901","source_url":"https://www.planning.data.gov.uk/entity/42120802","final_url":"https://www.planning.data.gov.uk/entity/42120802","source_version":"Planning Data listed-building-outline entity 42120802 reference 1064901; authoritative London Borough of Barnet; entry-date 2026-05-01","access_utc":"2026-10-06T10:38:00Z","data_date":"2026-05-01","license":"Open Government Licence v3.0; © Crown copyright and database right 2026","source_file_sha256":"42fca51fabe2c8913e1a4227d74c6858ace34da5068c5c1078dc640ee267226e","evidence_slice_sha256":"bd055bc9316a10c3b0d69131e50c51e40dbb3691b8215fc67e2efb6396e06401","field_evidence":["entity","reference","name","quality","dataset","organisation","start-date","entry-date","geometry","listed-building"],"confidence_score_0_100":99,"evidence_grade":"A_OFFICIAL_GOVERNMENT_BUILDING_OUTLINE_AND_NAMED_TYPE_USE","fake_data":false},"geometry":{"type":"MultiPolygon","coordinates":[[[[-0.168357,51.597856],[-0.168302,51.597865],[-0.168305,51.597873],[-0.16828,51.597876],[-0.168274,51.597869],[-0.168266,51.597878],[-0.168193,51.597884],[-0.168187,51.597891],[-0.168199,51.597895],[-0.168205,51.59791],[-0.168157,51.597913],[-0.168152,51.597919],[-0.168164,51.597923],[-0.168171,51.59794],[-0.168181,51.597966],[-0.168174,51.597973],[-0.168184,51.597977],[-0.168228,51.597966],[-0.168235,51.597982],[-0.168228,51.597988],[-0.168238,51.597992],[-0.168246,51.597984],[-0.168304,51.597974],[-0.16832,51.59798],[-0.168325,51.597974],[-0.168319,51.597972],[-0.168404,51.597967],[-0.168393,51.59794],[-0.168405,51.597936],[-0.168389,51.597931],[-0.168371,51.597889],[-0.16838,51.597882],[-0.168368,51.597882],[-0.168357,51.597856]]]]}}]}
