{"type":"FeatureCollection","features":[],"metadata":{"slot_id":"planned_buildings_2","batch_index":87,"source_index":3,"source_window":{"resource_index":30,"limit":1},"source_family":"gla_city_hall_housing_zones_numbered_detail","source_result":"ZERO_RESULT_SOURCE_EXHAUSTED","feature_count_delta":0,"feature_count_before":444,"feature_count_after":444,"unique_real_site_project_before":285,"unique_real_site_project_after":285,"duplicate_count_new":0,"zero_result":true,"source_exhausted":true,"nearest_match_used":false,"parcel_match_used":false,"geometry_inference_used":false,"fake_data":false,"mirror_only":true,"next_source_index":4,"next_source_window_index":0,"next_batch_index":88}}