{"type":"FeatureCollection","features":[{"type":"Feature","id":"planned_buildings_2-planning-data-brownfield-1739873","geometry":null,"properties":{"slot_id":"planned_buildings_2","source_dataset_id":"planning_data_brownfield_land","source_index":4,"source_window_index":2,"entity":1739873,"reference":"LBBD 78/BB","official_site_key":"PLANNING-DATA-BROWNFIELD-1739873","canonical_record_key":"planning-data:brownfield-land:1739873","planned_project_name":"Tesco Car Park, Highbridge Road","planned_project_type":"brownfield_land_register_site","planned_project_status":"official_brownfield_register_site_partly_permissioned","borough":"London Borough of Barking and Dagenham","official_hectares":3.05,"official_deliverable":"yes","official_notes":"Partly permissioned. New app: 22/00262/FULL pending decision","parcel_id":null,"planned_building_value":null,"planned_building_probability":null,"planned_building_complete_month":null,"matching_method":"direct_official_brownfield_entity_no_parcel_match","source_url":"https://www.planning.data.gov.uk/entity/1739873","source_quality":"authoritative","source_license":"Open Government Licence v3.0","demo_only":true,"fake_data":false,"final_ready":false,"production_merge":false}}],"metadata":{"slot_id":"planned_buildings_2","batch_index":90,"source_index":4,"source_window":{"resource_index":2,"limit":1},"feature_count_before":446,"feature_count_after":447,"unique_real_site_project_before":287,"unique_real_site_project_after":288,"duplicate_count_new":0,"nearest_match_used":false,"parcel_match_used":false,"fake_data":false,"mirror_only":true}}