{"type":"FeatureCollection","features":[{"type":"Feature","id":"planned_buildings_2-gla-hz-029-abbey-wood-plumstead-thamesmead","geometry":null,"properties":{"slot_id":"planned_buildings_2","source_dataset_id":"gla_city_hall_housing_zones_detail","source_index":3,"source_window_index":28,"published_zone_number":29,"official_site_key":"GLA-HZ-CITYHALL-029","canonical_record_key":"london-city-hall:housing-zones:29:abbey-wood-plumstead-and-thamesmead","planned_project_name":"Abbey Wood, Plumstead and Thamesmead","planned_project_type":"housing_zone_program_area","planned_project_status":"official_housing_zone_program_record","borough":"London Borough of Greenwich","official_total_homes":1459,"parcel_id":null,"planned_building_value":null,"planned_building_probability":null,"planned_building_complete_month":null,"matching_method":"direct_official_housing_zone_program_record_no_parcel_match","source_url":"https://www.london.gov.uk/programmes-strategies/housing-and-land/mayors-priorities-londons-housing-and-land/housing-zones","source_quality":"authoritative","demo_only":true,"fake_data":false,"final_ready":false,"production_merge":false}}],"metadata":{"slot_id":"planned_buildings_2","batch_index":85,"source_index":3,"source_window":{"resource_index":28,"limit":1},"feature_count_before":442,"feature_count_after":443,"unique_real_site_project_before":283,"unique_real_site_project_after":284,"duplicate_count_new":0,"nearest_match_used":false,"parcel_match_used":false,"fake_data":false,"mirror_only":true}}