{
  "type": "FeatureCollection",
  "features": [
    {
      "type": "Feature",
      "id": "brownfield-site:1802799:132",
      "geometry": {
        "type": "MultiPolygon",
        "coordinates": [
          [
            [
              [
                -1.113434,
                53.535588
              ],
              [
                -1.113219,
                53.535638
              ],
              [
                -1.113388,
                53.535901
              ],
              [
                -1.113539,
                53.535857
              ],
              [
                -1.113555,
                53.535846
              ],
              [
                -1.11357,
                53.535819
              ],
              [
                -1.113568,
                53.535803
              ],
              [
                -1.113507,
                53.535715
              ],
              [
                -1.113434,
                53.535588
              ]
            ]
          ]
        ]
      },
      "properties": {
        "slot_id": "future_growth_7",
        "lineage_id": "future_growth_7_open_source_v2_20260813",
        "page_generation": null,
        "batch_id": "batch_20261008T033402Z_bfs1802799",
        "semantic_mode": "AREA_JOIN",
        "semantic_identity": "brownfield-site:1802799:132",
        "official_entity_id": 1802799,
        "official_reference": "132",
        "organisation": "Doncaster Metropolitan Borough Council",
        "source_url": "https://www.planning.data.gov.uk/entity/1802799",
        "final_url": "https://www.planning.data.gov.uk/entity/1802799",
        "http_status": null,
        "http_status_evidence": "HTTP status not exposed by public HTML read; source page and GeoJSON snippet were readable",
        "accessed_utc": "2026-10-08T03:34:02Z",
        "data_date": "2025-12-03",
        "data_version": "official entity entry 2025-12-03",
        "licence": "Open Government Licence v3.0",
        "licence_url": "https://www.nationalarchives.gov.uk/doc/open-government-licence/version/3/",
        "dataset": "brownfield-site",
        "entity": 1802799,
        "reference": "132",
        "source_window": "brownfield-site:entity:1802799:entry-2025-12-03",
        "official_geojson_url": "https://www.planning.data.gov.uk/entity/1802799.geojson",
        "official_geojson_download_status": "not independently read; boundary transcribed exactly from official entity JSON geometry",
        "source_sha256": "e4c153bc5931d05a7d9d6c3890ee4d44b4a9a6c9c279ef60dfb6624ab155f36c",
        "source_sha256_basis": "canonical official field_evidence JSON; not remote HTML bytes",
        "field_evidence": {
          "curie": "brownfield-site:132",
          "prefix": "brownfield-site",
          "reference": "132",
          "name": "170 Beckett Road, Wheatley, Doncaster, DN2 4BD",
          "dataset": "brownfield-site",
          "organisation-entity": "local-authority:DNC",
          "start-date": "",
          "end-date": "",
          "entry-date": "2025-12-03",
          "typology": "geography",
          "geometry": "MULTIPOLYGON (((-1.113434 53.535588, -1.113219 53.535638, -1.113388 53.535901, -1.113539 53.535857, -1.113555 53.535846, -1.11357 53.535819, -1.113568 53.535803, -1.113507 53.535715, -1.113434 53.535588)))",
          "point": "POINT (-1.113404 53.535741)",
          "entity": 1802799,
          "quality": "authoritative",
          "brownfield-site": "132"
        },
        "evidence_slice_sha256": "4a7a777e27f19787909f6d1a0c0b79125d69230b7437c41c6ee0dccafe5ca999",
        "evidence_grade": "A_EXACT_OFFICIAL_IDENTIFIER",
        "confidence_score_0_100": 95,
        "official_geometry_available": true,
        "official_geometry_type": "MULTIPOLYGON",
        "source_geometry_materialized_here": true,
        "source_area_only": true,
        "point_not_used_as_coverage": true,
        "fake_data": false
      }
    }
  ]
}
