{"type":"FeatureCollection","features":[{"type":"Feature","geometry":null,"properties":{"slot_id":"future_growth_1","lineage_id":"future_growth_1-newstart-20260927T153100+0300","page_generation":null,"accepted_as_parcel":false,"source_area_count_contribution":1,"exact_identifier":"Daresbury Tax Site","exact_identifier_provided":true,"coverage_polygon_provided":false,"identifier_namespace":"SI 2024/383 special tax site designation","site_name":"Daresbury Tax Site (Sci-Tech business park)","access_utc":"2026-10-03T23:03:00Z","data_date":"2024-04-08","source_url":"https://www.gov.uk/government/publications/maps-of-liverpool-city-region-investment-zone-tax-sites","final_url":"https://www.gov.uk/government/publications/maps-of-liverpool-city-region-investment-zone-tax-sites","legislation_url":"https://www.legislation.gov.uk/uksi/2024/383/contents/made","license":"Open Government Licence v3.0 / Crown copyright","authority":"HM Revenue & Customs","investment_zone":"Liverpool City Region Investment Zone","map_title":"Liverpool City Region Combined Authority - Daresbury Tax Site","map_date":"2024-01-19","designation_effective_date":"2024-04-08","location_description":"land around Sci-Tech business park at the junction of the A558 Daresbury Expressway and A56 Chester Road","evidence_grade":"A","confidence_score_0_100":99,"evidence_scope":"exact HMRC Daresbury special tax-site designation, legal map title/date and SI 2024/383 statutory designation","evidence_slice_sha256":"218fb40721b64eab3450e42dc08d3313c679f1ff7393631eb41e5a5e66f2d938","fake_data":false,"spatial_binding_method":"official HMRC legal tax-site map identifier and statutory instrument; exact map boundary resolution, canonical parcel spatial join and materialization delegated to local OpenCode","planned_building_count_contribution":0}}]}