{
  "type": "FeatureCollection",
  "features": [
    {
      "type": "Feature",
      "id": "data-police-neighbourhood:E05009390N",
      "geometry": null,
      "properties": {
        "evidence_scope": "coverage_area",
        "coverage_area_id": "E05009390N",
        "coverage_area_name": "Campden",
        "identifier_scheme": "POLICE_FORCE_SPECIFIC_NEIGHBOURHOOD_TEAM_ID",
        "exact_official_identifier": "E05009390N",
        "force_id": "metropolitan",
        "source_resolution": "DATA_POLICE_UK_METROPOLITAN_NEIGHBOURHOODS_API",
        "time_window": "CURRENT_OFFICIAL_API_SNAPSHOT",
        "measurement_date": "2026-10-01",
        "measurement_method": "official data.police.uk force neighbourhood list exact identifier evidence",
        "spatial_binding_method": "DEFERRED_TO_LOCAL_OPENCODE",
        "source_url": "https://data.police.uk/api/metropolitan/neighbourhoods",
        "final_url": "https://data.police.uk/api/metropolitan/neighbourhoods",
        "accessed_at_utc": "2026-10-01T21:30:12Z",
        "data_date": "2026-10-01",
        "licence": "Open Government Licence v3.0",
        "licence_evidence_url": "https://data.police.uk/",
        "sha256": "6377bbb35b28d41c5748243bfdf672edbe48ac3aaa82d8a7af3e9ef187640341",
        "field_evidence": {
          "api_record": {
            "id": "E05009390N",
            "name": "Campden"
          },
          "identifier_definition": "Police force specific team identifier",
          "force": "metropolitan",
          "source_url": "https://data.police.uk/api/metropolitan/neighbourhoods",
          "licence_evidence_url": "https://data.police.uk/",
          "data_date_basis": "API snapshot has no per-record publication date; data_date equals access-date snapshot",
          "accessed_at_utc": "2026-10-01T21:30:12Z"
        },
        "evidence_slice_sha256": "2fca91ce8e2384108962afaf26c885ba93ba9c81703a0a066756be8081f49742",
        "confidence_score_0_100": 100,
        "evidence_grade": "A",
        "fake_data": false,
        "source_window_id": "data_police_metropolitan_neighbourhoods_campden_E05009390N_sps5_20261001_v1",
        "cursor": "data_police_metropolitan_neighbourhoods_campden_E05009390N_sps5_20261001_v1:record=1"
      }
    }
  ]
}
