{"type":"FeatureCollection","features":[{"type":"Feature","geometry":null,"properties":{"slot_id":"future_growth_3","lineage_id":"future_growth_3-newstart-20261001T203100Z","page_generation":null,"accepted_as_parcel":false,"source_area_count_contribution":1,"exact_identifier":"SP14","exact_identifier_provided":true,"coverage_polygon_provided":false,"identifier_namespace":"West Berkshire Local Plan Review 2023-2041 strategic policy reference","secondary_exact_identifier":"North East Thatcham","source_entity":"Policy SP14","access_utc":"2026-10-02T13:30:53Z","data_date":"2025-06-10","source_url":"https://www.westberks.gov.uk/article/45556/North-East-Thatcham-Masterplan","final_url":"https://www.westberks.gov.uk/article/45556/North-East-Thatcham-Masterplan","license":"West Berkshire Council copyright; no explicit reuse licence is stated on the Local Plan HTML source page; factual policy identifiers and attributes only.","authority":"West Berkshire Council","site_address":"North East Thatcham","field_evidence":{"reference":"SP14","dataset":"West Berkshire Local Plan Review 2023-2041","organisation":"West Berkshire Council","plan_adopted":"2025-06-10","site_name":"North East Thatcham","site_status":"strategic site allocation","allocated_dwellings_approx":2500,"expected_dwellings_by_2041_approx":1760,"affordable_housing_min_percent":40,"custom_self_build_percent":3,"community_facilities":true,"green_infrastructure_approx_percent":50,"masterplan_required":true},"source_payload_sha256":"c1d0d6817d859f2a0b66b69b78b7ce2b4bee6cc8aae1ee38343e72cf4804fb8c","source_payload_sha256_basis":"canonicalized official West Berkshire Council Policy SP14 evidence fields","evidence_slice_sha256":"51ec77a4fe599bbcf2bd50db02838be3093b5b51f6f3f91c962d738be2ac8737","evidence_grade":"A","confidence_score_0_100":99,"evidence_scope":"exact_official_identifier_from_council_adopted_local_plan_html","fake_data":false,"spatial_binding_method":"official West Berkshire Policy SP14 site reference from the adopted Local Plan / North East Thatcham masterplan page; canonical parcel spatial join and materialization delegated to local OpenCode","planned_building_count_contribution":0}}]}