{
  "type": "FeatureCollection",
  "features": [
    {
      "type": "Feature",
      "id": "planning-data:brownfield-site:1801668",
      "properties": {
        "slot_id": "future_growth_4",
        "lineage_id": "fg4-e4c9076d6f554f00",
        "page_generation": 1,
        "owner": "future_growth_4",
        "partition": "future_growth",
        "semantic_mode": "SOURCE_AREA_EXACT_IDENTIFIER",
        "batch_id": "20261009T062126Z_b035_BROWNFIELD_1801668",
        "dataset": "brownfield-site",
        "entity": 1801668,
        "reference": "BL004",
        "semantic_identity": "planning-data:brownfield-site:1801668",
        "name": "Home Park Housing Office, 129 Winchfield Road",
        "organisation": "London Borough of Lewisham",
        "source_url": "https://www.planning.data.gov.uk/entity/1801668",
        "final_url": "https://www.planning.data.gov.uk/entity/1801668",
        "http_status": "HTML_SEARCH_INDEX_VERIFIED_GEOJSON_JSON_DIRECT_CACHE_MISS",
        "access_utc": "2026-10-09T06:21:26.575Z",
        "data_date": "2020-12-22",
        "license": "Open Government Licence v3.0",
        "field_evidence": {
          "entry-date": "2020-12-22",
          "entity": 1801668,
          "name": "Home Park Housing Office, 129 Winchfield Road",
          "dataset": "brownfield-site",
          "typology": "geography",
          "reference": "BL004",
          "prefix": "brownfield-site",
          "organisation": "London Borough of Lewisham",
          "geometry": "MULTIPOLYGON (((-0.03988 51.424905, -0.039576 51.424918, -0.039584 51.424955, -0.039344 51.425006, -0.039466 51.425414, -0.039491 51.425513, -0.039857 51.425465, -0.039992 51.425443, -0.040011 51.425437, -0.040021 51.425428, -0.040022 51.425417, -0.040089 51.425413, -0.040056 51.425355, -0.039985 51.425155, -0.039938 51.425161, -0.039908 51.425072, -0.039894 51.424979, -0.039884 51.424939, -0.03988 51.424905)))",
          "quality": "some",
          "source_page_verification": "indexed official Planning Data HTML",
          "geojson_direct_access": "CACHE_MISS",
          "json_direct_access": "CACHE_MISS"
        },
        "evidence_slice_sha256": "65ec66fe823e47ef0ab457f7cee98f22ce3105825a60861d3fb4f648fc311ead",
        "geometry_sha256": "2834ecb087aeeac830a374886361abd037037d54180dd0fee6ebba7c4f3c4e12",
        "confidence_score_0_100": 80,
        "confidence": 0.8,
        "evidence_grade": "B",
        "exact_identifier_provided": false,
        "coverage_polygon_provided": true,
        "fake_data": false,
        "join_mode": "LOCAL_OPENCODE_SPATIAL_JOIN_PENDING",
        "direct_parcel": false,
        "source_area_count_contribution": 1,
        "planned_building_count_contribution": 0
      },
      "geometry": {
        "type": "MultiPolygon",
        "coordinates": [
          [
            [
              [
                -0.03988,
                51.424905
              ],
              [
                -0.039576,
                51.424918
              ],
              [
                -0.039584,
                51.424955
              ],
              [
                -0.039344,
                51.425006
              ],
              [
                -0.039466,
                51.425414
              ],
              [
                -0.039491,
                51.425513
              ],
              [
                -0.039857,
                51.425465
              ],
              [
                -0.039992,
                51.425443
              ],
              [
                -0.040011,
                51.425437
              ],
              [
                -0.040021,
                51.425428
              ],
              [
                -0.040022,
                51.425417
              ],
              [
                -0.040089,
                51.425413
              ],
              [
                -0.040056,
                51.425355
              ],
              [
                -0.039985,
                51.425155
              ],
              [
                -0.039938,
                51.425161
              ],
              [
                -0.039908,
                51.425072
              ],
              [
                -0.039894,
                51.424979
              ],
              [
                -0.039884,
                51.424939
              ],
              [
                -0.03988,
                51.424905
              ]
            ]
          ]
        ]
      }
    }
  ]
}
