{"type":"FeatureCollection","features":[{"type":"Feature","id":353927,"geometry":{"type":"MultiPolygon","coordinates":[[[[-73.869957915648,40.900305259723],[-73.869953578094,40.900283350548],[-73.869946517529,40.900284155732],[-73.869936282361,40.900270382996],[-73.869932735696,40.900252472864],[-73.869937813044,40.900240195073],[-73.869944873605,40.900239389889],[-73.869941725318,40.900223493689],[-73.869936990244,40.900223397406],[-73.869932338203,40.900222715901],[-73.869927896147,40.900221466427],[-73.869923782686,40.900219684235],[-73.869920108102,40.900217414476],[-73.869916971961,40.900214720294],[-73.869914457196,40.900211674723],[-73.86991263367,40.900208357084],[-73.869911863559,40.900205875381],[-73.869911547493,40.900204857477],[-73.86991123052,40.90020127139],[-73.869911689687,40.900197693382],[-73.869912912936,40.90019422069],[-73.869914866852,40.900190946929],[-73.869917500237,40.900187958486],[-73.869920741721,40.900185337225],[-73.869924504535,40.900183152387],[-73.869928686498,40.900181464187],[-73.869933175966,40.900180316625],[-73.870020952121,40.900170310242],[-73.870024917164,40.900190335181],[-73.870030597182,40.900189687824],[-73.870040713107,40.900240778302],[-73.87005137199,40.900294605963],[-73.869957915648,40.900305259723]]]]},"properties":{"source_id":"353927","building_type":"Building","building_present":true,"DOITT_ID":"353927","BIN":"2019299","FEATURE_CODE":"2100","BASE_BBL":"2033800084","construction_year":1910,"geom_source":"Photogrammetric","ground_elevation":197.0,"height_roof":33.49,"last_edited_date":"2017-08-22T18:57:18.000Z","last_status_type":"Constructed","mappluto_bbl":"2033800084","evidence_grade":"A_OFFICIAL_CITY_BUILDING_FOOTPRINT_AND_TYPE"}},{"type":"Feature","id":273343,"geometry":{"type":"MultiPolygon","coordinates":[[[[-73.944297631696,40.626386164317],[-73.944363840136,40.626380395224],[-73.944370823102,40.626426916775],[-73.944304614617,40.626432684972],[-73.944297631696,40.626386164317]]]]},"properties":{"source_id":"273343","building_type":"Garage","building_present":true,"DOITT_ID":"273343","BIN":"3373792","FEATURE_CODE":"5110","BASE_BBL":"3076140055","construction_year":1925,"geom_source":"Photogrammetric","ground_elevation":24.0,"height_roof":9.16,"last_edited_date":"2017-08-17T16:16:44.000Z","last_status_type":"Constructed","mappluto_bbl":"3076140055","evidence_grade":"A_OFFICIAL_CITY_BUILDING_FOOTPRINT_AND_TYPE"}},{"type":"Feature","id":480499,"geometry":{"type":"MultiPolygon","coordinates":[[[[-73.904306481667,40.706474946929],[-73.904316259083,40.70646537541],[-73.904279605723,40.706443694826],[-73.904269829488,40.706453266344],[-73.904183939342,40.706402458233],[-73.904246093659,40.706341609222],[-73.904330373445,40.706391464107],[-73.904319145603,40.706402457231],[-73.904357462488,40.706425122544],[-73.904368690326,40.706414130316],[-73.904443956212,40.706458652901],[-73.904381801966,40.706519502018],[-73.904306481667,40.706474946929]]]]},"properties":{"source_id":"480499","building_type":"Building","building_present":true,"DOITT_ID":"480499","BIN":"4083456","FEATURE_CODE":"2100","BASE_BBL":"4034860061","construction_year":1910,"geom_source":"Photogrammetric","ground_elevation":107.0,"height_roof":34.76,"last_edited_date":"2020-01-28T17:24:50.000Z","last_status_type":"Constructed","mappluto_bbl":"4034860061","evidence_grade":"A_OFFICIAL_CITY_BUILDING_FOOTPRINT_AND_TYPE"}},{"type":"Feature","id":30050,"geometry":{"type":"MultiPolygon","coordinates":[[[[-73.910088335176,40.662852365508],[-73.910239157186,40.662829774057],[-73.910262919923,40.662921771386],[-73.910112097714,40.662944361967],[-73.910088335176,40.662852365508]]]]},"properties":{"source_id":"30050","building_type":"Building","building_present":true,"DOITT_ID":"30050","BIN":"3345332","FEATURE_CODE":"2100","BASE_BBL":"3035740001","construction_year":1976,"geom_source":"Photogrammetric","ground_elevation":30.0,"height_roof":32.33,"last_edited_date":"2017-08-22T15:36:25.000Z","last_status_type":"Constructed","mappluto_bbl":"3035740001","evidence_grade":"A_OFFICIAL_CITY_BUILDING_FOOTPRINT_AND_TYPE"}}]}
