{"type":"FeatureCollection","name":"building_type_2_batch_0023","features":[{"type":"Feature","id":"42130894","geometry":{"type":"MultiPolygon","coordinates":[[[[-1.903693,52.481637],[-1.903415,52.481491],[-1.903354,52.481533],[-1.903631,52.48168],[-1.903693,52.481637]]]]},"properties":{"slot_id":"building_type_2","lineage_id":"building_type_2-20260930T173100Z-newstart","batch_id":"batch-0023","page_generation":1,"source_entity":42130894,"source_reference":"367","source_dataset":"listed-building-outline","source_organisation":"Birmingham City Council","building_evidence_status":"BUILDING_PRESENT","parcel_status":"UNPROCESSED","canonical_parcel_id":null,"building_type":"listed_building","building_use":null,"poi_accepted":false,"field_evidence":{"footprint":"official listed-building-outline MULTIPOLYGON","type":"official dataset classification: listed-building-outline","reference":"367","quality":"authoritative","name":"93, Cornwall Street, City Centre, Birmingham"},"source_url":"https://www.planning.data.gov.uk/entity/42130894","final_url":"https://www.planning.data.gov.uk/entity/42130894","access_utc":"2026-10-02T18:36:20Z","data_date":"2026-06-22","licence":"Open Government Licence v3.0","evidence_slice_sha256":"7969ee59162e03dce0c2e2f832a389510759aabb1f1b90a0d6ae0e3bc2e93dc5","confidence_score_0_100":96,"evidence_grade":"A","fake_data":false,"local_spatial_join_required":true}}]}