{"type":"FeatureCollection","name":"height_difference_2","features":[],"metadata":{"slot_id":"height_difference_2","lineage_id":"height_difference_2_20260930T001051Z","page_generation":1,"partition":"source_area","schema":"AAYS_LAYER24_EVIDENCE_V1","fake_data":false,"batch_id":"batch_0019_cross_slot_null_canonical_20261001T162100Z","source_window_opened":false,"cursor":"BLOCKED_CROSS_SLOT_DTM_RESOURCE_NULL_CANONICAL_FOR_THIS_SLOT","source_area_count":0,"accepted_count":0,"cross_slot_review_sha256":"608f242eb2b7d1d870084f30a06041b4ddab22eeb6676bb8af759291e5753a3d","reason":"EXACT_BLOCKER: post-checkpoint diff exposed a new official Orkney Islands Council 2023 DTM resource only in another slot (height_difference_1), but its record has canonical_parcel_id=null, geometry=null, CRS not explicit in the source window, and no exact 1 km tile/GeoTIFF bytes. It is not an admissible BUILDING_PRESENT parcel selector for height_difference_2. A non-null canonical_parcel_id plus parcel geometry/bbox or an exact missing DEM/LIDAR tile id remains required before opening a new official DEM/LIDAR window for this slot."}}
