{"features":[{"geometry":null,"id":"staffordshire:stafford-borough:eccleshall-and-swynnerton","properties":{"accepted_as_parcel":false,"access_utc":"2026-10-06T15:08:00Z","canonical_binding":"LOCAL_OPENCODE_PENDING_NOT_CLAIMED","canonical_url":"https://www.staffordshire.police.uk/area/your-area/staffordshire/stafford-borough/eccleshall-and-swynnerton/","confidence_score_0_100":100,"data_date":"2026-10-06 access snapshot","direct_parcel":false,"duplicate":false,"evidence_grade":"A_OFFICIAL_FORCE_WEBSITE_EXACT_AREA_SLUG","fake_data":false,"force_id":"staffordshire","identifier":"eccleshall-and-swynnerton","identifier_field":"canonical_team_slug","identifier_version":"Staffordshire Police Stafford Borough Local Policing Team URL slug","name":"Eccleshall and Swynnerton","parent_area":"Stafford Borough","record_type":"SOURCE_AREA_EXACT_IDENTIFIER","source_area_counted":true,"source_url":"https://www.staffordshire.police.uk/area/your-area/staffordshire/stafford-borough/"},"type":"Feature"},{"geometry":null,"id":"staffordshire:stafford-borough:fulford-barlaston-and-oulton","properties":{"accepted_as_parcel":false,"access_utc":"2026-10-06T15:08:00Z","canonical_binding":"LOCAL_OPENCODE_PENDING_NOT_CLAIMED","canonical_url":"https://www.staffordshire.police.uk/area/your-area/staffordshire/stafford-borough/fulford-barlaston-and-oulton/","confidence_score_0_100":100,"data_date":"2026-10-06 access snapshot","direct_parcel":false,"duplicate":false,"evidence_grade":"A_OFFICIAL_FORCE_WEBSITE_EXACT_AREA_SLUG","fake_data":false,"force_id":"staffordshire","identifier":"fulford-barlaston-and-oulton","identifier_field":"canonical_team_slug","identifier_version":"Staffordshire Police Stafford Borough Local Policing Team URL slug","name":"Fulford Barlaston and Oulton","parent_area":"Stafford Borough","record_type":"SOURCE_AREA_EXACT_IDENTIFIER","source_area_counted":true,"source_url":"https://www.staffordshire.police.uk/area/your-area/staffordshire/stafford-borough/"},"type":"Feature"},{"geometry":null,"id":"staffordshire:stafford-borough:milford-baswich-and-weeping-cross","properties":{"accepted_as_parcel":false,"access_utc":"2026-10-06T15:08:00Z","canonical_binding":"LOCAL_OPENCODE_PENDING_NOT_CLAIMED","canonical_url":"https://www.staffordshire.police.uk/area/your-area/staffordshire/stafford-borough/milford-baswich-and-weeping-cross/","confidence_score_0_100":100,"data_date":"2026-10-06 access snapshot","direct_parcel":false,"duplicate":false,"evidence_grade":"A_OFFICIAL_FORCE_WEBSITE_EXACT_AREA_SLUG","fake_data":false,"force_id":"staffordshire","identifier":"milford-baswich-and-weeping-cross","identifier_field":"canonical_team_slug","identifier_version":"Staffordshire Police Stafford Borough Local Policing Team URL slug","name":"Milford, Baswich and Weeping Cross","parent_area":"Stafford Borough","record_type":"SOURCE_AREA_EXACT_IDENTIFIER","source_area_counted":true,"source_url":"https://www.staffordshire.police.uk/area/your-area/staffordshire/stafford-borough/"},"type":"Feature"},{"geometry":null,"id":"staffordshire:stafford-borough:milwich-chartley-haywood-hixon","properties":{"accepted_as_parcel":false,"access_utc":"2026-10-06T15:08:00Z","canonical_binding":"LOCAL_OPENCODE_PENDING_NOT_CLAIMED","canonical_url":"https://www.staffordshire.police.uk/area/your-area/staffordshire/stafford-borough/milwich-chartley-haywood-hixon/","confidence_score_0_100":100,"data_date":"2026-10-06 access snapshot","direct_parcel":false,"duplicate":false,"evidence_grade":"A_OFFICIAL_FORCE_WEBSITE_EXACT_AREA_SLUG","fake_data":false,"force_id":"staffordshire","identifier":"milwich-chartley-haywood-hixon","identifier_field":"canonical_team_slug","identifier_version":"Staffordshire Police Stafford Borough Local Policing Team URL slug","name":"Milwich, Chartley, Haywood and Hixon","parent_area":"Stafford Borough","record_type":"SOURCE_AREA_EXACT_IDENTIFIER","source_area_counted":true,"source_url":"https://www.staffordshire.police.uk/area/your-area/staffordshire/stafford-borough/"},"type":"Feature"},{"geometry":null,"id":"staffordshire:stafford-borough:south-west-stone","properties":{"accepted_as_parcel":false,"access_utc":"2026-10-06T15:08:00Z","canonical_binding":"LOCAL_OPENCODE_PENDING_NOT_CLAIMED","canonical_url":"https://www.staffordshire.police.uk/area/your-area/staffordshire/stafford-borough/south-west-stone/","confidence_score_0_100":100,"data_date":"2026-10-06 access snapshot","direct_parcel":false,"duplicate":false,"evidence_grade":"A_OFFICIAL_FORCE_WEBSITE_EXACT_AREA_SLUG","fake_data":false,"force_id":"staffordshire","identifier":"south-west-stone","identifier_field":"canonical_team_slug","identifier_version":"Staffordshire Police Stafford Borough Local Policing Team URL slug","name":"South West Stone","parent_area":"Stafford Borough","record_type":"SOURCE_AREA_EXACT_IDENTIFIER","source_area_counted":true,"source_url":"https://www.staffordshire.police.uk/area/your-area/staffordshire/stafford-borough/"},"type":"Feature"},{"geometry":null,"id":"staffordshire:stafford-borough:stafford-north","properties":{"accepted_as_parcel":false,"access_utc":"2026-10-06T15:08:00Z","canonical_binding":"LOCAL_OPENCODE_PENDING_NOT_CLAIMED","canonical_url":"https://www.staffordshire.police.uk/area/your-area/staffordshire/stafford-borough/stafford-north/","confidence_score_0_100":100,"data_date":"2026-10-06 access snapshot","direct_parcel":false,"duplicate":false,"evidence_grade":"A_OFFICIAL_FORCE_WEBSITE_EXACT_AREA_SLUG","fake_data":false,"force_id":"staffordshire","identifier":"stafford-north","identifier_field":"canonical_team_slug","identifier_version":"Staffordshire Police Stafford Borough Local Policing Team URL slug","name":"Stafford North","parent_area":"Stafford Borough","record_type":"SOURCE_AREA_EXACT_IDENTIFIER","source_area_counted":true,"source_url":"https://www.staffordshire.police.uk/area/your-area/staffordshire/stafford-borough/"},"type":"Feature"},{"geometry":null,"id":"staffordshire:stafford-borough:stafford-south","properties":{"accepted_as_parcel":false,"access_utc":"2026-10-06T15:08:00Z","canonical_binding":"LOCAL_OPENCODE_PENDING_NOT_CLAIMED","canonical_url":"https://www.staffordshire.police.uk/area/your-area/staffordshire/stafford-borough/stafford-south/","confidence_score_0_100":100,"data_date":"2026-10-06 access snapshot","direct_parcel":false,"duplicate":false,"evidence_grade":"A_OFFICIAL_FORCE_WEBSITE_EXACT_AREA_SLUG","fake_data":false,"force_id":"staffordshire","identifier":"stafford-south","identifier_field":"canonical_team_slug","identifier_version":"Staffordshire Police Stafford Borough Local Policing Team URL slug","name":"Stafford South","parent_area":"Stafford Borough","record_type":"SOURCE_AREA_EXACT_IDENTIFIER","source_area_counted":true,"source_url":"https://www.staffordshire.police.uk/area/your-area/staffordshire/stafford-borough/"},"type":"Feature"},{"geometry":null,"id":"staffordshire:stafford-borough:stafford-town","properties":{"accepted_as_parcel":false,"access_utc":"2026-10-06T15:08:00Z","canonical_binding":"LOCAL_OPENCODE_PENDING_NOT_CLAIMED","canonical_url":"https://www.staffordshire.police.uk/area/your-area/staffordshire/stafford-borough/stafford-town/","confidence_score_0_100":100,"data_date":"2026-10-06 access snapshot","direct_parcel":false,"duplicate":false,"evidence_grade":"A_OFFICIAL_FORCE_WEBSITE_EXACT_AREA_SLUG","fake_data":false,"force_id":"staffordshire","identifier":"stafford-town","identifier_field":"canonical_team_slug","identifier_version":"Staffordshire Police Stafford Borough Local Policing Team URL slug","name":"Stafford Town","parent_area":"Stafford Borough","record_type":"SOURCE_AREA_EXACT_IDENTIFIER","source_area_counted":true,"source_url":"https://www.staffordshire.police.uk/area/your-area/staffordshire/stafford-borough/"},"type":"Feature"},{"geometry":null,"id":"staffordshire:stafford-borough:stone-town","properties":{"accepted_as_parcel":false,"access_utc":"2026-10-06T15:08:00Z","canonical_binding":"LOCAL_OPENCODE_PENDING_NOT_CLAIMED","canonical_url":"https://www.staffordshire.police.uk/area/your-area/staffordshire/stafford-borough/stone-town/","confidence_score_0_100":100,"data_date":"2026-10-06 access snapshot","direct_parcel":false,"duplicate":false,"evidence_grade":"A_OFFICIAL_FORCE_WEBSITE_EXACT_AREA_SLUG","fake_data":false,"force_id":"staffordshire","identifier":"stone-town","identifier_field":"canonical_team_slug","identifier_version":"Staffordshire Police Stafford Borough Local Policing Team URL slug","name":"Stone Town","parent_area":"Stafford Borough","record_type":"SOURCE_AREA_EXACT_IDENTIFIER","source_area_counted":true,"source_url":"https://www.staffordshire.police.uk/area/your-area/staffordshire/stafford-borough/"},"type":"Feature"}],"name":"security_public_safety_3","properties":{"accepted_count":0,"batch_id":"20261006T150800Z-staffordshire-stafford-borough-lpt-slugs-000-008","fake_data":false,"lineage_id":"L24-SPS3-57442c9c2a0f429be2d2","page_generation":1,"partition":{"count":30761,"end":92283,"start":61523},"schema":"AAYS_LAYER24_EVIDENCE_V1","slot_id":"security_public_safety_3","source_area_count":9},"type":"FeatureCollection"}
