{"type":"FeatureCollection","name":"height_difference_4_20261002T030400Z-ea-dsm1m-metadata","features":[{"type":"Feature","geometry":{"type":"Point","coordinates":[-1.202938,51.510277]},"properties":{"slot_id":"height_difference_4","owner":"height_difference_4","lineage_id":"height_difference_4-b0366fed520fdde8","page_generation":1,"partition":"layer24","schema":"AAYS_LAYER24_EVIDENCE_V1","semantic_mode":"HEIGHT_DIFFERENCE_OFFICIAL_DEM_EVIDENCE_ONLY","batch_id":"20261002T030400Z-ea-dsm1m-metadata","source_record_id":"EA_DSM1M_METADATA_9BA4D5AC_20261002T030400Z","publisher":"Environment Agency","platform":"Defra Data Services Platform","dataset":"LIDAR Composite Digital Surface Model (DSM) - 1m","metadata_identifier":"9ba4d5ac-d596-445a-9056-dae3ddec0178","source_url":"https://dsp.environment.data.gov.uk/dataset/9ba4d5ac-d596-445a-9056-dae3ddec0178","final_url":"https://dsp.environment.data.gov.uk/dataset/9ba4d5ac-d596-445a-9056-dae3ddec0178","access_utc":"2026-10-02T03:04:00Z","official_no_login":true,"data_date":{"creation":"2023-02-08","revision":"2023-12-15","survey_period_start":"2000-06-06","survey_period_end":"2022-04-02","composite_vintage":"2022"},"license":"Open Government Licence","crs":"EPSG:27700","horizontal_units":"metres","vertical_datum":"Ordnance Survey Newlyn","transformation":"OSTN15","resolution_m":1,"format":"GeoTIFF","tile_size_km":5,"vertical_accuracy_rmse_m":0.15,"target":{"building_state":"BUILDING_PRESENT","building_entity":42122663,"building_reference":"1313121","centroid_wgs84":[-1.202938,51.510277],"centroid_epsg27700":[455411.669,179339.727],"provenance_commit":"7659c26b3fa4458508d06a5eb29a7b98b14c783e"},"tile":{"grid_basis":"OS National Grid aligned 5 km GeoTIFF tiles","target_grid_cell":"SU57NE","bbox_epsg27700":{"xmin":455000,"ymin":175000,"xmax":460000,"ymax":180000},"target_inside":true,"binding_basis":"Target EPSG:27700 centroid carried forward from verified BUILDING_PRESENT evidence; dataset metadata corroborates 5 km OS-grid-aligned raster supply."},"field_evidence":{"dataset_identity":"Official Environment Agency dataset metadata and identifier.","surface_model":"Official metadata states DSM includes terrain plus surface objects such as buildings and vegetation.","tile_supply":"Official metadata states GeoTIFF rasters in 5 km tiles aligned to the OS National Grid.","crs":"Official metadata exposes EPSG:27700.","resolution":"Official metadata states 1 m spatial resolution.","date":"Official metadata exposes creation 2023-02-08, revision 2023-12-15 and survey period 2000-06-06 through 2022-04-02.","license":"Official metadata states Open Government Licence and no public access constraints.","vertical_reference":"Official metadata states metres referenced to Ordnance Survey Newlyn using OSTN15."},"source_original_file_sha256":null,"source_sha256_status":"NO_BINARY_TILE_DOWNLOADED_IN_THIS_METADATA_WINDOW","confidence":0.97,"evidence_grade":"A_OFFICIAL_DSM_METADATA_SUPPORTING_HEIGHT_DIFFERENCE","accepted":true,"accepted_scope":"SUPPLEMENTAL_OFFICIAL_SOURCE_METADATA","height_difference_computed":false,"fake_data":false,"source_record_sha256":"36433fb7f2b1e610b32a19195da108c07eb9c8e380464c7f4e8a7399a6420318","evidence_slice_sha256":"ede5ec3c2d662981b96998b69bed11e954a3e4da031ba465835a1fad1c6e1a6e"}}]}
