{"type":"FeatureCollection","features":[{"type":"Feature","geometry":null,"properties":{"slot_id":"height_difference_2","lineage_id":"height_difference_2_20260930T001051Z","source_id":"13787b9a-26a4-4775-8523-806d13af58fc","source_window_url":"https://environment.data.gov.uk/spatialdata/lidar-composite-digital-terrain-model-dtm-1m/wcs","resolution_m":1,"tile_size_m":5000,"crs":"EPSG:27700","data_date":"2000-06-06/2022-04-02","binding_status":"UNMATCHED_TO_BUILDING_PRESENT_CANONICAL_PARCEL","fake_data":false}}],"metadata":{"source_area_count":1,"accepted_count":0,"duplicate_count":0,"rejected_count":0,"unmatched_count":1,"cursor":"COMPOSITE_DTM_1M_DATASET_IDENTIFIER_CURSOR"}}
