{
  "type": "FeatureCollection",
  "features": [
    {
      "type": "Feature",
      "id": "planning-data:brownfield-site:WBR/17/0140",
      "geometry": {
        "type": "MultiPolygon",
        "coordinates": [
          [
            [
              [
                -0.177304,
                51.469633
              ],
              [
                -0.177317,
                51.469672
              ],
              [
                -0.177339,
                51.469717
              ],
              [
                -0.177375,
                51.469807
              ],
              [
                -0.177405,
                51.469906
              ],
              [
                -0.177408,
                51.46992
              ],
              [
                -0.177833,
                51.470009
              ],
              [
                -0.178462,
                51.470165
              ],
              [
                -0.17879,
                51.470258
              ],
              [
                -0.178938,
                51.470056
              ],
              [
                -0.178836,
                51.470027
              ],
              [
                -0.178848,
                51.470008
              ],
              [
                -0.177326,
                51.46963
              ],
              [
                -0.177304,
                51.469633
              ]
            ]
          ]
        ]
      },
      "properties": {
        "semantic_identity": "planning-data:brownfield-site:WBR/17/0140",
        "source_area_id": "planning-data:brownfield-site:WBR/17/0140",
        "source_area_type": "brownfield-site",
        "source_reference": "WBR/17/0140",
        "source_entity": 1801784,
        "source_name": "36 Lombard Road",
        "source_dataset": "brownfield-site",
        "organisation": "London Borough of Wandsworth",
        "organisation_entity": "local-authority:WND",
        "data_date": "2020-12-22",
        "entry_date": "2020-12-22",
        "source_url": "https://www.planning.data.gov.uk/entity/1801784",
        "final_url": "https://www.planning.data.gov.uk/entity/1801784",
        "source_geometry_wkt_sha256": "a9430bbf369b943b9cd4bf612b4375585150783c427f1aa82092feab3a7e9c7b",
        "evidence_slice_sha256": "2fdfc23b6d1c67f2f3cb1fb7d5ebdc792d650f3fbe56c3ce0c5a967f6c22eecc",
        "license": "Open Government Licence v3.0",
        "evidence_grade": "B",
        "confidence": 0.78,
        "source_quality": "some",
        "semantic_mode": "AREA_JOIN",
        "canonical_binding_status": "NOT_ATTEMPTED_LOCAL_OPENCODE",
        "fake_data": false
      }
    }
  ]
}
