{"type":"FeatureCollection","name":"gas_emissions_2_source_area_evidence","metadata":{"slot_id":"gas_emissions_2","lineage_id":"L24-GE2-600c3339868ccb329689","page_generation":4,"batch_id":"20260929T235710Z_0171_0220","source_url":"https://www.ons.gov.uk/explore-local-statistics/api/v1/data/greenhouse-gas-emissions.csv?geo=ltla,K02000001&time=2024-01-01","final_url":"https://www.ons.gov.uk/explore-local-statistics/api/v1/data/greenhouse-gas-emissions.csv?geo=ltla,K02000001&time=2024-01-01","accessed_at_utc":"2026-09-29T23:57:10Z","data_year":2024,"source_published_date":"2026-06-25","source_last_updated_date":"2026-06-30","license":"Open Government Licence v3.0","license_url":"https://www.nationalarchives.gov.uk/doc/open-government-licence/version/3/","evidence_slice_sha256":"66cd8e97f8a1f7ccc7ae4b0645a61567ff66e9d84ff7685cfaae0c8ed0038752","field_evidence":{"official_identifier":"areacd","area_name":"areanm","reference_period":"period","measurement":"value"},"confidence_score_0_100":95,"evidence_grade":"A_OFFICIAL_EXACT_IDENTIFIER","fake_data":false,"canonical_parcel_binding_status":"LOCAL_OPENCODE_SPATIAL_JOIN_REQUIRED"},"features":[{"type":"Feature","geometry":null,"properties":{"source_record_ordinal":171,"official_identifier":"E07000171","area_name":"Bassetlaw","reference_period":"2024-01-01/P1Y","greenhouse_gas_emissions_tco2e_per_capita_raw":"7.71"}},{"type":"Feature","geometry":null,"properties":{"source_record_ordinal":172,"official_identifier":"E07000172","area_name":"Broxtowe","reference_period":"2024-01-01/P1Y","greenhouse_gas_emissions_tco2e_per_capita_raw":"5.2"}},{"type":"Feature","geometry":null,"properties":{"source_record_ordinal":173,"official_identifier":"E07000173","area_name":"Gedling","reference_period":"2024-01-01/P1Y","greenhouse_gas_emissions_tco2e_per_capita_raw":"3.58"}},{"type":"Feature","geometry":null,"properties":{"source_record_ordinal":174,"official_identifier":"E07000174","area_name":"Mansfield","reference_period":"2024-01-01/P1Y","greenhouse_gas_emissions_tco2e_per_capita_raw":"3.19"}},{"type":"Feature","geometry":null,"properties":{"source_record_ordinal":175,"official_identifier":"E07000175","area_name":"Newark and Sherwood","reference_period":"2024-01-01/P1Y","greenhouse_gas_emissions_tco2e_per_capita_raw":"7.21"}},{"type":"Feature","geometry":null,"properties":{"source_record_ordinal":176,"official_identifier":"E07000176","area_name":"Rushcliffe","reference_period":"2024-01-01/P1Y","greenhouse_gas_emissions_tco2e_per_capita_raw":"6.2"}},{"type":"Feature","geometry":null,"properties":{"source_record_ordinal":177,"official_identifier":"E07000177","area_name":"Cherwell","reference_period":"2024-01-01/P1Y","greenhouse_gas_emissions_tco2e_per_capita_raw":"6.36"}},{"type":"Feature","geometry":null,"properties":{"source_record_ordinal":178,"official_identifier":"E07000178","area_name":"Oxford","reference_period":"2024-01-01/P1Y","greenhouse_gas_emissions_tco2e_per_capita_raw":"3.36"}},{"type":"Feature","geometry":null,"properties":{"source_record_ordinal":179,"official_identifier":"E07000179","area_name":"South Oxfordshire","reference_period":"2024-01-01/P1Y","greenhouse_gas_emissions_tco2e_per_capita_raw":"5.33"}},{"type":"Feature","geometry":null,"properties":{"source_record_ordinal":180,"official_identifier":"E07000180","area_name":"Vale of White Horse","reference_period":"2024-01-01/P1Y","greenhouse_gas_emissions_tco2e_per_capita_raw":"5.55"}},{"type":"Feature","geometry":null,"properties":{"source_record_ordinal":181,"official_identifier":"E07000181","area_name":"West Oxfordshire","reference_period":"2024-01-01/P1Y","greenhouse_gas_emissions_tco2e_per_capita_raw":"4.73"}},{"type":"Feature","geometry":null,"properties":{"source_record_ordinal":182,"official_identifier":"E07000192","area_name":"Cannock Chase","reference_period":"2024-01-01/P1Y","greenhouse_gas_emissions_tco2e_per_capita_raw":"2.91"}},{"type":"Feature","geometry":null,"properties":{"source_record_ordinal":183,"official_identifier":"E07000193","area_name":"East Staffordshire","reference_period":"2024-01-01/P1Y","greenhouse_gas_emissions_tco2e_per_capita_raw":"5.96"}},{"type":"Feature","geometry":null,"properties":{"source_record_ordinal":184,"official_identifier":"E07000194","area_name":"Lichfield","reference_period":"2024-01-01/P1Y","greenhouse_gas_emissions_tco2e_per_capita_raw":"6.25"}},{"type":"Feature","geometry":null,"properties":{"source_record_ordinal":185,"official_identifier":"E07000195","area_name":"Newcastle-under-Lyme","reference_period":"2024-01-01/P1Y","greenhouse_gas_emissions_tco2e_per_capita_raw":"6"}},{"type":"Feature","geometry":null,"properties":{"source_record_ordinal":186,"official_identifier":"E07000196","area_name":"South Staffordshire","reference_period":"2024-01-01/P1Y","greenhouse_gas_emissions_tco2e_per_capita_raw":"7.49"}},{"type":"Feature","geometry":null,"properties":{"source_record_ordinal":187,"official_identifier":"E07000197","area_name":"Stafford","reference_period":"2024-01-01/P1Y","greenhouse_gas_emissions_tco2e_per_capita_raw":"7.86"}},{"type":"Feature","geometry":null,"properties":{"source_record_ordinal":188,"official_identifier":"E07000198","area_name":"Staffordshire Moorlands","reference_period":"2024-01-01/P1Y","greenhouse_gas_emissions_tco2e_per_capita_raw":"10.5"}},{"type":"Feature","geometry":null,"properties":{"source_record_ordinal":189,"official_identifier":"E07000199","area_name":"Tamworth","reference_period":"2024-01-01/P1Y","greenhouse_gas_emissions_tco2e_per_capita_raw":"2.84"}},{"type":"Feature","geometry":null,"properties":{"source_record_ordinal":190,"official_identifier":"E07000200","area_name":"Babergh","reference_period":"2024-01-01/P1Y","greenhouse_gas_emissions_tco2e_per_capita_raw":"5.12"}},{"type":"Feature","geometry":null,"properties":{"source_record_ordinal":191,"official_identifier":"E07000202","area_name":"Ipswich","reference_period":"2024-01-01/P1Y","greenhouse_gas_emissions_tco2e_per_capita_raw":"2.93"}},{"type":"Feature","geometry":null,"properties":{"source_record_ordinal":192,"official_identifier":"E07000203","area_name":"Mid Suffolk","reference_period":"2024-01-01/P1Y","greenhouse_gas_emissions_tco2e_per_capita_raw":"6.59"}},{"type":"Feature","geometry":null,"properties":{"source_record_ordinal":193,"official_identifier":"E07000207","area_name":"Elmbridge","reference_period":"2024-01-01/P1Y","greenhouse_gas_emissions_tco2e_per_capita_raw":"4.06"}},{"type":"Feature","geometry":null,"properties":{"source_record_ordinal":194,"official_identifier":"E07000208","area_name":"Epsom and Ewell","reference_period":"2024-01-01/P1Y","greenhouse_gas_emissions_tco2e_per_capita_raw":"2.56"}},{"type":"Feature","geometry":null,"properties":{"source_record_ordinal":195,"official_identifier":"E07000209","area_name":"Guildford","reference_period":"2024-01-01/P1Y","greenhouse_gas_emissions_tco2e_per_capita_raw":"4.6"}},{"type":"Feature","geometry":null,"properties":{"source_record_ordinal":196,"official_identifier":"E07000210","area_name":"Mole Valley","reference_period":"2024-01-01/P1Y","greenhouse_gas_emissions_tco2e_per_capita_raw":"5.16"}},{"type":"Feature","geometry":null,"properties":{"source_record_ordinal":197,"official_identifier":"E07000211","area_name":"Reigate and Banstead","reference_period":"2024-01-01/P1Y","greenhouse_gas_emissions_tco2e_per_capita_raw":"4.03"}},{"type":"Feature","geometry":null,"properties":{"source_record_ordinal":198,"official_identifier":"E07000212","area_name":"Runnymede","reference_period":"2024-01-01/P1Y","greenhouse_gas_emissions_tco2e_per_capita_raw":"5.7"}},{"type":"Feature","geometry":null,"properties":{"source_record_ordinal":199,"official_identifier":"E07000213","area_name":"Spelthorne","reference_period":"2024-01-01/P1Y","greenhouse_gas_emissions_tco2e_per_capita_raw":"3.55"}},{"type":"Feature","geometry":null,"properties":{"source_record_ordinal":200,"official_identifier":"E07000214","area_name":"Surrey Heath","reference_period":"2024-01-01/P1Y","greenhouse_gas_emissions_tco2e_per_capita_raw":"4.91"}},{"type":"Feature","geometry":null,"properties":{"source_record_ordinal":201,"official_identifier":"E07000215","area_name":"Tandridge","reference_period":"2024-01-01/P1Y","greenhouse_gas_emissions_tco2e_per_capita_raw":"5.72"}},{"type":"Feature","geometry":null,"properties":{"source_record_ordinal":202,"official_identifier":"E07000216","area_name":"Waverley","reference_period":"2024-01-01/P1Y","greenhouse_gas_emissions_tco2e_per_capita_raw":"3.41"}},{"type":"Feature","geometry":null,"properties":{"source_record_ordinal":203,"official_identifier":"E07000217","area_name":"Woking","reference_period":"2024-01-01/P1Y","greenhouse_gas_emissions_tco2e_per_capita_raw":"3.13"}},{"type":"Feature","geometry":null,"properties":{"source_record_ordinal":204,"official_identifier":"E07000218","area_name":"North Warwickshire","reference_period":"2024-01-01/P1Y","greenhouse_gas_emissions_tco2e_per_capita_raw":"12.75"}},{"type":"Feature","geometry":null,"properties":{"source_record_ordinal":205,"official_identifier":"E07000219","area_name":"Nuneaton and Bedworth","reference_period":"2024-01-01/P1Y","greenhouse_gas_emissions_tco2e_per_capita_raw":"3.39"}},{"type":"Feature","geometry":null,"properties":{"source_record_ordinal":206,"official_identifier":"E07000220","area_name":"Rugby","reference_period":"2024-01-01/P1Y","greenhouse_gas_emissions_tco2e_per_capita_raw":"14.01"}},{"type":"Feature","geometry":null,"properties":{"source_record_ordinal":207,"official_identifier":"E07000221","area_name":"Stratford-on-Avon","reference_period":"2024-01-01/P1Y","greenhouse_gas_emissions_tco2e_per_capita_raw":"6.91"}},{"type":"Feature","geometry":null,"properties":{"source_record_ordinal":208,"official_identifier":"E07000222","area_name":"Warwick","reference_period":"2024-01-01/P1Y","greenhouse_gas_emissions_tco2e_per_capita_raw":"5.6"}},{"type":"Feature","geometry":null,"properties":{"source_record_ordinal":209,"official_identifier":"E07000223","area_name":"Adur","reference_period":"2024-01-01/P1Y","greenhouse_gas_emissions_tco2e_per_capita_raw":"3.12"}},{"type":"Feature","geometry":null,"properties":{"source_record_ordinal":210,"official_identifier":"E07000224","area_name":"Arun","reference_period":"2024-01-01/P1Y","greenhouse_gas_emissions_tco2e_per_capita_raw":"2.88"}},{"type":"Feature","geometry":null,"properties":{"source_record_ordinal":211,"official_identifier":"E07000225","area_name":"Chichester","reference_period":"2024-01-01/P1Y","greenhouse_gas_emissions_tco2e_per_capita_raw":"4.24"}},{"type":"Feature","geometry":null,"properties":{"source_record_ordinal":212,"official_identifier":"E07000226","area_name":"Crawley","reference_period":"2024-01-01/P1Y","greenhouse_gas_emissions_tco2e_per_capita_raw":"3.84"}},{"type":"Feature","geometry":null,"properties":{"source_record_ordinal":213,"official_identifier":"E07000227","area_name":"Horsham","reference_period":"2024-01-01/P1Y","greenhouse_gas_emissions_tco2e_per_capita_raw":"3.91"}},{"type":"Feature","geometry":null,"properties":{"source_record_ordinal":214,"official_identifier":"E07000228","area_name":"Mid Sussex","reference_period":"2024-01-01/P1Y","greenhouse_gas_emissions_tco2e_per_capita_raw":"3.85"}},{"type":"Feature","geometry":null,"properties":{"source_record_ordinal":215,"official_identifier":"E07000229","area_name":"Worthing","reference_period":"2024-01-01/P1Y","greenhouse_gas_emissions_tco2e_per_capita_raw":"2.32"}},{"type":"Feature","geometry":null,"properties":{"source_record_ordinal":216,"official_identifier":"E07000234","area_name":"Bromsgrove","reference_period":"2024-01-01/P1Y","greenhouse_gas_emissions_tco2e_per_capita_raw":"6.53"}},{"type":"Feature","geometry":null,"properties":{"source_record_ordinal":217,"official_identifier":"E07000235","area_name":"Malvern Hills","reference_period":"2024-01-01/P1Y","greenhouse_gas_emissions_tco2e_per_capita_raw":"6.73"}},{"type":"Feature","geometry":null,"properties":{"source_record_ordinal":218,"official_identifier":"E07000236","area_name":"Redditch","reference_period":"2024-01-01/P1Y","greenhouse_gas_emissions_tco2e_per_capita_raw":"3.56"}},{"type":"Feature","geometry":null,"properties":{"source_record_ordinal":219,"official_identifier":"E07000237","area_name":"Worcester","reference_period":"2024-01-01/P1Y","greenhouse_gas_emissions_tco2e_per_capita_raw":"3.23"}},{"type":"Feature","geometry":null,"properties":{"source_record_ordinal":220,"official_identifier":"E07000238","area_name":"Wychavon","reference_period":"2024-01-01/P1Y","greenhouse_gas_emissions_tco2e_per_capita_raw":"7.5"}}]}
