{"features":[{"geometry":{"coordinates":[[[[-1.25805,51.753651],[-1.257918,51.753681],[-1.257969,51.753761],[-1.258056,51.75381],[-1.258098,51.753801],[-1.258078,51.753735],[-1.258086,51.753734],[-1.25805,51.753651]]]],"type":"MultiPolygon"},"id":"42227836","properties":{"access_utc":"2026-10-04T05:55:00Z","batch_id":"batch-0042","building_evidence_status":"BUILDING_PRESENT","building_type":"listed_building","building_use":null,"canonical_parcel_id":null,"confidence_score_0_100":94,"data_date":"1954-01-12","evidence_grade":"A","evidence_slice_sha256":"353574cc2a6af84c925d33cb63679bedcafd2513e04807592c59632a7f823558","fake_data":false,"field_evidence":{"footprint":"official listed-building-outline MULTIPOLYGON","name":"1 and 2 Ship Street","reference":"1425","type":"official dataset classification: listed-building-outline","use":"no use inferred"},"final_url":"https://www.planning.data.gov.uk/entity/42227836","licence":"Open Government Licence v3.0","lineage_id":"building_type_9-20261001T200900Z-newstart","local_spatial_join_required":true,"page_generation":1,"parcel_status":"UNPROCESSED","poi_accepted":false,"slot_id":"building_type_9","source_dataset":"listed-building-outline","source_entity":42227836,"source_organisation":"Oxford City Council","source_reference":"1425","source_url":"https://www.planning.data.gov.uk/entity/42227836"},"type":"Feature"},{"geometry":{"coordinates":[[[[-1.246712,51.752156],[-1.246696,51.752158],[-1.246688,51.752168],[-1.246689,51.752178],[-1.246705,51.752183],[-1.246681,51.752213],[-1.246661,51.752207],[-1.246653,51.752217],[-1.246673,51.752223],[-1.246665,51.752232],[-1.246801,51.752273],[-1.246783,51.752295],[-1.246831,51.75231],[-1.246837,51.752303],[-1.246829,51.7523],[-1.246843,51.752283],[-1.246851,51.752286],[-1.246858,51.752278],[-1.246827,51.752268],[-1.246863,51.752224],[-1.246875,51.752228],[-1.246882,51.752218],[-1.24673,51.752172],[-1.246728,51.752161],[-1.246712,51.752156]]]],"type":"MultiPolygon"},"id":"42227417","properties":{"access_utc":"2026-10-04T05:55:00Z","batch_id":"batch-0042","building_evidence_status":"BUILDING_PRESENT","building_type":"listed_building","building_use":null,"canonical_parcel_id":null,"confidence_score_0_100":94,"data_date":"1954-01-12","evidence_grade":"A","evidence_slice_sha256":"7f1c4af1d9c9540af593cce1654b3f8ba55e30c478e02805a75ce5eb16c3c227","fake_data":false,"field_evidence":{"footprint":"official listed-building-outline MULTIPOLYGON","name":"Magdalen College, The Founder's Tower, Great Quadrangle","reference":"982","type":"official dataset classification: listed-building-outline","use":"no use inferred"},"final_url":"https://www.planning.data.gov.uk/entity/42227417","licence":"Open Government Licence v3.0","lineage_id":"building_type_9-20261001T200900Z-newstart","local_spatial_join_required":true,"page_generation":1,"parcel_status":"UNPROCESSED","poi_accepted":false,"slot_id":"building_type_9","source_dataset":"listed-building-outline","source_entity":42227417,"source_organisation":"Oxford City Council","source_reference":"982","source_url":"https://www.planning.data.gov.uk/entity/42227417"},"type":"Feature"},{"geometry":{"coordinates":[[[[-1.25312,51.751775],[-1.253092,51.751726],[-1.253023,51.751734],[-1.253032,51.75175],[-1.25299,51.751755],[-1.253008,51.75179],[-1.25312,51.751775]]]],"type":"MultiPolygon"},"id":"42227897","properties":{"access_utc":"2026-10-04T05:55:00Z","batch_id":"batch-0042","building_evidence_status":"BUILDING_PRESENT","building_type":"listed_building","building_use":null,"canonical_parcel_id":null,"confidence_score_0_100":94,"data_date":"1972-06-27","evidence_grade":"A","evidence_slice_sha256":"175884905732f9aebcd2571e6e6c0d7d80b176e7ee557c457ed8b29e31ec3c40","fake_data":false,"field_evidence":{"footprint":"official listed-building-outline MULTIPOLYGON","name":"6-9 Magpie Lane","reference":"1489","type":"official dataset classification: listed-building-outline","use":"no use inferred"},"final_url":"https://www.planning.data.gov.uk/entity/42227897","licence":"Open Government Licence v3.0","lineage_id":"building_type_9-20261001T200900Z-newstart","local_spatial_join_required":true,"page_generation":1,"parcel_status":"UNPROCESSED","poi_accepted":false,"slot_id":"building_type_9","source_dataset":"listed-building-outline","source_entity":42227897,"source_organisation":"Oxford City Council","source_reference":"1489","source_url":"https://www.planning.data.gov.uk/entity/42227897"},"type":"Feature"},{"geometry":{"coordinates":[[[[-1.238236,51.75135],[-1.23831,51.751425],[-1.238354,51.751391],[-1.23828,51.751317],[-1.238236,51.75135]]]],"type":"MultiPolygon"},"id":"42227358","properties":{"access_utc":"2026-10-04T05:55:00Z","batch_id":"batch-0042","building_evidence_status":"BUILDING_PRESENT","building_type":"listed_building","building_use":null,"canonical_parcel_id":null,"confidence_score_0_100":94,"data_date":"1972-06-27","evidence_grade":"A","evidence_slice_sha256":"a02b00f9eb768012a1ef3a06ab9819dbe65439b0db57d980931710ec575a5c10","fake_data":false,"field_evidence":{"footprint":"official listed-building-outline MULTIPOLYGON","name":"7-9 London Place","reference":"915","type":"official dataset classification: listed-building-outline","use":"no use inferred"},"final_url":"https://www.planning.data.gov.uk/entity/42227358","licence":"Open Government Licence v3.0","lineage_id":"building_type_9-20261001T200900Z-newstart","local_spatial_join_required":true,"page_generation":1,"parcel_status":"UNPROCESSED","poi_accepted":false,"slot_id":"building_type_9","source_dataset":"listed-building-outline","source_entity":42227358,"source_organisation":"Oxford City Council","source_reference":"915","source_url":"https://www.planning.data.gov.uk/entity/42227358"},"type":"Feature"},{"geometry":{"coordinates":[[[[-1.253972,51.751864],[-1.254047,51.751866],[-1.25408,51.751861],[-1.254077,51.751851],[-1.254082,51.75183],[-1.254236,51.751839],[-1.254242,51.751798],[-1.253986,51.75178],[-1.253972,51.751864]]]],"type":"MultiPolygon"},"id":"42227930","properties":{"access_utc":"2026-10-04T05:55:00Z","batch_id":"batch-0042","building_evidence_status":"BUILDING_PRESENT","building_type":"listed_building","building_use":null,"canonical_parcel_id":null,"confidence_score_0_100":94,"data_date":"1954-01-12","evidence_grade":"A","evidence_slice_sha256":"e21bfc1f272727eb2db79c0cd61590d93aac7dc732a9fb5822cde4170a43be87","fake_data":false,"field_evidence":{"footprint":"official listed-building-outline MULTIPOLYGON","name":"12 Oriel Street","reference":"1523","type":"official dataset classification: listed-building-outline","use":"no use inferred"},"final_url":"https://www.planning.data.gov.uk/entity/42227930","licence":"Open Government Licence v3.0","lineage_id":"building_type_9-20261001T200900Z-newstart","local_spatial_join_required":true,"page_generation":1,"parcel_status":"UNPROCESSED","poi_accepted":false,"slot_id":"building_type_9","source_dataset":"listed-building-outline","source_entity":42227930,"source_organisation":"Oxford City Council","source_reference":"1523","source_url":"https://www.planning.data.gov.uk/entity/42227930"},"type":"Feature"},{"geometry":{"coordinates":[[[[-1.268702,51.763425],[-1.268697,51.763384],[-1.268551,51.763391],[-1.268554,51.763417],[-1.26859,51.763416],[-1.268591,51.76343],[-1.268702,51.763425]]]],"type":"MultiPolygon"},"id":"42226657","properties":{"access_utc":"2026-10-04T05:55:00Z","batch_id":"batch-0042","building_evidence_status":"BUILDING_PRESENT","building_type":"listed_building","building_use":null,"canonical_parcel_id":null,"confidence_score_0_100":94,"data_date":"1968-01-29","evidence_grade":"A","evidence_slice_sha256":"d0bbb89aa50993d55ece4ba4be287a816610db1f898abbbbb27430470d63fc72","fake_data":false,"field_evidence":{"footprint":"official listed-building-outline MULTIPOLYGON","name":"149-156 Kingston Road","reference":"157","type":"official dataset classification: listed-building-outline","use":"no use inferred"},"final_url":"https://www.planning.data.gov.uk/entity/42226657","licence":"Open Government Licence v3.0","lineage_id":"building_type_9-20261001T200900Z-newstart","local_spatial_join_required":true,"page_generation":1,"parcel_status":"UNPROCESSED","poi_accepted":false,"slot_id":"building_type_9","source_dataset":"listed-building-outline","source_entity":42226657,"source_organisation":"Oxford City Council","source_reference":"157","source_url":"https://www.planning.data.gov.uk/entity/42226657"},"type":"Feature"}],"name":"building_type_9_batch_0042","type":"FeatureCollection"}