{"type":"FeatureCollection","name":"building_type_2_batch_0065","features":[{"type":"Feature","id":"42129050","geometry":{"type":"MultiPolygon","coordinates":[[[[-2.861442,51.442629],[-2.861418,51.442635],[-2.861402,51.442659],[-2.861489,51.442682],[-2.86145,51.442737],[-2.865129,51.443752],[-2.865032,51.443815],[-2.865028,51.443825],[-2.865164,51.44391],[-2.865186,51.443908],[-2.865463,51.443722],[-2.865458,51.44371],[-2.865322,51.443632],[-2.865305,51.443636],[-2.865187,51.443714],[-2.86312,51.443142],[-2.861716,51.442744],[-2.861729,51.442723],[-2.861614,51.442692],[-2.861621,51.44268],[-2.861585,51.44267],[-2.861565,51.442649],[-2.861528,51.442638],[-2.86152,51.442649],[-2.861472,51.442637],[-2.861481,51.442627],[-2.861466,51.442618],[-2.861451,51.442631],[-2.861442,51.442629]]]]},"properties":{"slot_id":"building_type_2","lineage_id":"building_type_2-20260930T173100Z-newstart","batch_id":"batch-0065","page_generation":1,"source_entity":42129050,"source_reference":"LSB1036","source_dataset":"listed-building-outline","source_organisation":"North Somerset Council","building_evidence_status":"BUILDING_PRESENT","parcel_status":"UNPROCESSED","canonical_parcel_id":null,"building_type":"listed_building","building_use":null,"poi_accepted":false,"field_evidence":{"footprint":"official listed-building-outline MULTIPOLYGON","type":"official dataset classification: listed-building-outline","reference":"LSB1036","quality":"authoritative","name":"The Pier including the Tollhouse","listed_building":"1129687"},"source_url":"https://www.planning.data.gov.uk/entity/42129050","final_url":"https://www.planning.data.gov.uk/entity/42129050","access_utc":"2026-10-04T18:43:32Z","data_date":"2026-04-24","licence":"Open Government Licence v3.0","evidence_slice_sha256":"eee0b2c1e2c1ddd989b6d8454134a225b20c26141a9b502c68aa1287e80ab315","confidence_score_0_100":96,"evidence_grade":"A","fake_data":false,"local_spatial_join_required":true}}]}