{"type":"FeatureCollection","name":"building_type_9_batch_0034","features":[{"type":"Feature","id":"42118318","geometry":{"type":"MultiPolygon","coordinates":[[[[-1.607006,54.955074],[-1.606407,54.955243],[-1.606521,54.955377],[-1.607119,54.955202],[-1.607006,54.955074]]]]},"properties":{"slot_id":"building_type_9","lineage_id":"building_type_9-20261001T200900Z-newstart","batch_id":"batch-0034","page_generation":1,"source_entity":42118318,"source_reference":"430260","source_dataset":"listed-building-outline","source_organisation":"Gateshead Metropolitan Borough Council","building_evidence_status":"BUILDING_PRESENT","parcel_status":"UNPROCESSED","canonical_parcel_id":null,"building_type":"listed_building","building_use":null,"poi_accepted":false,"field_evidence":{"footprint":"official listed-building-outline MULTIPOLYGON","type":"official dataset classification: listed-building-outline","name":"3-8, WOODBINE PLACE","reference":"430260","use":"no use inferred"},"source_url":"https://www.planning.data.gov.uk/entity/42118318","final_url":"https://www.planning.data.gov.uk/entity/42118318","access_utc":"2026-10-06T23:52:00Z","data_date":"2023-08-17","licence":"Open Government Licence v3.0","evidence_slice_sha256":"85ca791d9c996beec66a7e072f4108509e59220525d9f0d654fb2cf212463ad6","confidence_score_0_100":94,"evidence_grade":"A","fake_data":false,"local_spatial_join_required":true}},{"type":"Feature","id":"42118441","geometry":{"type":"MultiPolygon","coordinates":[[[[-1.671474,54.945284],[-1.671502,54.945224],[-1.671163,54.945167],[-1.671132,54.945226],[-1.671474,54.945284]]]]},"properties":{"slot_id":"building_type_9","lineage_id":"building_type_9-20261001T200900Z-newstart","batch_id":"batch-0034","page_generation":1,"source_entity":42118441,"source_reference":"303891","source_dataset":"listed-building-outline","source_organisation":"Gateshead Metropolitan Borough Council","building_evidence_status":"BUILDING_PRESENT","parcel_status":"UNPROCESSED","canonical_parcel_id":null,"building_type":"listed_building","building_use":null,"poi_accepted":false,"field_evidence":{"footprint":"official listed-building-outline MULTIPOLYGON","type":"official dataset classification: listed-building-outline","name":"12 AND 14, FRONT STREET","reference":"303891","use":"no use inferred"},"source_url":"https://www.planning.data.gov.uk/entity/42118441","final_url":"https://www.planning.data.gov.uk/entity/42118441","access_utc":"2026-10-06T23:52:00Z","data_date":"2023-08-17","licence":"Open Government Licence v3.0","evidence_slice_sha256":"d978c9bf69e385d45877f0eba1eaa759e94fd1cd1df92895a0d4bcde03713dac","confidence_score_0_100":94,"evidence_grade":"A","fake_data":false,"local_spatial_join_required":true}},{"type":"Feature","id":"42118409","geometry":{"type":"MultiPolygon","coordinates":[[[[-1.765386,54.97747],[-1.76533,54.97747],[-1.765328,54.977354],[-1.765384,54.977354],[-1.765383,54.977213],[-1.765315,54.977213],[-1.765315,54.977264],[-1.765295,54.977265],[-1.765295,54.977284],[-1.765316,54.977284],[-1.765316,54.9773],[-1.765124,54.9773],[-1.765124,54.977354],[-1.765159,54.977354],[-1.765161,54.977469],[-1.765126,54.977469],[-1.765127,54.977526],[-1.765386,54.977525],[-1.765386,54.97747]]]]},"properties":{"slot_id":"building_type_9","lineage_id":"building_type_9-20261001T200900Z-newstart","batch_id":"batch-0034","page_generation":1,"source_entity":42118409,"source_reference":"303858","source_dataset":"listed-building-outline","source_organisation":"Gateshead Metropolitan Borough Council","building_evidence_status":"BUILDING_PRESENT","parcel_status":"UNPROCESSED","canonical_parcel_id":null,"building_type":"listed_building","building_use":null,"poi_accepted":false,"field_evidence":{"footprint":"official listed-building-outline MULTIPOLYGON","type":"official dataset classification: listed-building-outline","name":"THE RECTORY","reference":"303858","use":"no use inferred"},"source_url":"https://www.planning.data.gov.uk/entity/42118409","final_url":"https://www.planning.data.gov.uk/entity/42118409","access_utc":"2026-10-06T23:52:00Z","data_date":"2023-08-17","licence":"Open Government Licence v3.0","evidence_slice_sha256":"0ad1ed891418572aa9bf19131db310e14cd5094f1fac80196976e53bd76e7116","confidence_score_0_100":94,"evidence_grade":"A","fake_data":false,"local_spatial_join_required":true}},{"type":"Feature","id":"42118258","geometry":{"type":"MultiPolygon","coordinates":[[[[-1.606471,54.934957],[-1.606439,54.934904],[-1.606533,54.934883],[-1.606528,54.934875],[-1.606572,54.934864],[-1.606559,54.934842],[-1.606544,54.934844],[-1.606536,54.934828],[-1.606544,54.934817],[-1.606532,54.934797],[-1.606514,54.934795],[-1.606499,54.934769],[-1.606508,54.934757],[-1.606495,54.934735],[-1.606471,54.934732],[-1.606459,54.93471],[-1.606332,54.934737],[-1.606333,54.934742],[-1.606241,54.934762],[-1.606375,54.934977],[-1.606471,54.934957]]]]},"properties":{"slot_id":"building_type_9","lineage_id":"building_type_9-20261001T200900Z-newstart","batch_id":"batch-0034","page_generation":1,"source_entity":42118258,"source_reference":"430187","source_dataset":"listed-building-outline","source_organisation":"Gateshead Metropolitan Borough Council","building_evidence_status":"BUILDING_PRESENT","parcel_status":"UNPROCESSED","canonical_parcel_id":null,"building_type":"listed_building","building_use":null,"poi_accepted":false,"field_evidence":{"footprint":"official listed-building-outline MULTIPOLYGON","type":"official dataset classification: listed-building-outline","name":"BRACKENDENE (NORTH, SOUTH AND WEST HOUSES)","reference":"430187","use":"no use inferred"},"source_url":"https://www.planning.data.gov.uk/entity/42118258","final_url":"https://www.planning.data.gov.uk/entity/42118258","access_utc":"2026-10-06T23:52:00Z","data_date":"2023-08-17","licence":"Open Government Licence v3.0","evidence_slice_sha256":"5f7d3920ea1a499f10cd51311fdd3fb4a19a79eeb2e37d7073e93244f658c7be","confidence_score_0_100":94,"evidence_grade":"A","fake_data":false,"local_spatial_join_required":true}}]}