{"type":"FeatureCollection","features":[{"type":"Feature","geometry":null,"properties":{"slot_id":"future_growth_3","lineage_id":"future_growth_3-newstart-20261001T203100Z","page_generation":null,"accepted_as_parcel":false,"source_area_count_contribution":1,"exact_identifier":"s0001","exact_identifier_provided":true,"coverage_polygon_provided":false,"identifier_namespace":"Swindon Borough Council SHELAA SLAA1 ref","secondary_exact_identifier":"swindon-shelaa-2025:s0001","source_entity":11667,"access_utc":"2026-10-01T22:40:12Z","data_date":"2025-09","source_url":"https://www.swindon.gov.uk/downloads/file/11667/0303_strategic_housing_and_economic_land_availability_assessment_2025_regulation_18","final_url":"https://www.swindon.gov.uk/download/downloads/id/11667/0303_strategic_housing_and_economic_land_availability_assessment_2025_regulation_18.pdf","license":"Swindon Borough Council copyright ©2025; all rights reserved; reproduction requires written permission","authority":"Swindon Borough Council","site_address":"Land adjacent to Symmetry Park, A420, South Marston","hectares":0.98,"deliverable":"developable","field_evidence":{"reference":"s0001","dataset":"SHELAA 2025","organisation":"Swindon Borough Council","published":"2025-09","evidence_page":28,"site_name":"Land adjacent to Symmetry Park, A420, South Marston","plan_area":"Northeast","gross_site_area_ha":0.98,"suitability":"Suitable","availability":"Available","achievability":"Potentially achievable","deliverability":"Developable","indicative_constrained_residential_yield":20},"source_payload_sha256":"2247a3b1039ab46cb6221f427d9bc0a6d02369e10be5ae77850b739f39fce381","source_payload_sha256_basis":"canonicalized official SHELAA Annex 4 table fields exposed by Swindon Borough Council PDF","evidence_slice_sha256":"8bba2879a915998cdfbf64478d681bd9876484da863a88663815f95aed720099","evidence_grade":"A","confidence_score_0_100":99,"evidence_scope":"exact_official_identifier","fake_data":false,"spatial_binding_method":"official exact SHELAA SLAA1 site reference; Council document states identified sites have redline GIS boundaries; canonical geometry resolution, parcel spatial join and materialization delegated to local OpenCode","planned_building_count_contribution":0}}]}