{"features":[{"geometry":{"coordinates":[[[[-2.013363,53.552683],[-2.013363,53.55262],[-2.013145,53.552619],[-2.013146,53.552631],[-2.013021,53.552631],[-2.013026,53.55268],[-2.013182,53.552684],[-2.013363,53.552683]]]],"type":"MultiPolygon"},"id":"42228492","properties":{"access_utc":"2026-10-04T17:39:00Z","batch_id":"batch-0047","building_evidence_status":"BUILDING_PRESENT","building_type":"listed_building","building_use":null,"canonical_parcel_id":null,"confidence_score_0_100":94,"data_date":"2026-05-13","evidence_grade":"A","evidence_slice_sha256":"6de8b7ef65330b954676744dc25d27ba93644bc7f7b1b0672231b996deebbbc4","fake_data":false,"field_evidence":{"footprint":"official listed-building-outline MULTIPOLYGON","name":"Mow Halls","reference":"373","type":"official dataset classification: listed-building-outline","use":"no current use inferred"},"final_url":"https://www.planning.data.gov.uk/entity/42228492","licence":"Open Government Licence v3.0","lineage_id":"building_type_9-20261001T200900Z-newstart","local_spatial_join_required":true,"page_generation":1,"parcel_status":"UNPROCESSED","poi_accepted":false,"slot_id":"building_type_9","source_dataset":"listed-building-outline","source_entity":42228492,"source_organisation":"Oldham Metropolitan Borough Council","source_reference":"373","source_url":"https://www.planning.data.gov.uk/entity/42228492"},"type":"Feature"}],"name":"building_type_9_batch_0047","type":"FeatureCollection"}