{"type":"FeatureCollection","features":[{"type":"Feature","id":"CHERWELL_24_01290_F_GARDEN_OUTBUILDING_01","geometry":null,"properties":{"slot_id":"planned_buildings_4","owner":"planned_buildings_4","lineage_id":"pb4-8debc7c8ddf348a2","page_generation":1,"partition":"layer24","schema":"AAYS_LAYER24_EVIDENCE_V1","semantic_mode":"PLANNED_BUILDINGS_OFFICIAL_REFERENCE_DISTINCT_STRUCTURE","batch_id":"20261006T213100Z-cherwell-24-01290-f-window-001","publisher":"Cherwell District Council","source_family":"CHERWELL_PLANNING_REGISTER","source_url":"https://planningregister.cherwell.gov.uk/Planning/Display/24/01290/F","final_url":"https://planningregister.cherwell.gov.uk/Planning/Display/24/01290/F","access_utc":"2026-10-06T21:31:00Z","data_date":"2024-06-12","license":"Public planning register; document copyright/usage remains governed by council register terms","planning_reference":"24/01290/F","location":"17 Croft Avenue Kidlington OX5 2HU","proposal":"Proposed garden outbuilding","status":"Application Permitted","geometry_status":"NOT_MATERIALIZED_LOCAL_OPENCODE","field_evidence":"Official Cherwell District Council Planning Register application 24/01290/F. Application Type: Full Development. Status: Application Permitted. Valid date: 12/06/2024. Location: 17 Croft Avenue Kidlington OX5 2HU. Proposal: Proposed garden outbuilding. Decision: Permitted. Decision Issued Date: 22/08/2024. Official documents include Site plan (drawing BP), Proposed floor plan (drawing 1), and Proposed elevations (drawing 2). The official proposal identifies one distinct proposed garden outbuilding. The site plan together with dedicated proposed floor-plan and elevation drawings independently support that single new structure. No extension, parking area, landscaping element, or existing structure is counted as a separate planned building. Geometry/materialization is deferred to local OpenCode.","evidence_slice_sha256":"f63fb6c5e0678a729f85793790182295c71b2a546cf2bed5174ad7a5791628e7","confidence":0.99,"evidence_grade":"A_OFFICIAL_LOCAL_AUTHORITY_PLANNING_REGISTER_GARDEN_OUTBUILDING_PERMITTED","fake_data":false,"source_record_id":"CHERWELL_24_01290_F_GARDEN_OUTBUILDING_01","planned_building":"garden outbuilding","official_plan_reference":"BP; 1; 2","official_plan_description":"Site plan; Proposed floor plan; Proposed elevations"}}]}