{"type":"FeatureCollection","name":"building_type_9_batch_0021","features":[{"type":"Feature","id":"42227358","geometry":{"type":"MultiPolygon","coordinates":[[[[-1.238236,51.75135],[-1.23831,51.751425],[-1.238354,51.751391],[-1.23828,51.751317],[-1.238236,51.75135]]]]},"properties":{"slot_id":"building_type_9","lineage_id":"building_type_9-20261001T200900Z-newstart","batch_id":"batch-0021","page_generation":1,"source_entity":42227358,"source_reference":"915","source_dataset":"listed-building-outline","source_organisation":"Oxford City Council","building_evidence_status":"BUILDING_PRESENT","parcel_status":"UNPROCESSED","canonical_parcel_id":null,"building_type":"listed_building","building_use":null,"poi_accepted":false,"field_evidence":{"footprint":"official listed-building-outline MULTIPOLYGON","type":"official dataset classification: listed-building-outline","name":"7-9 London Place","reference":"915","use":"no use inferred"},"source_url":"https://www.planning.data.gov.uk/entity/42227358","final_url":"https://www.planning.data.gov.uk/entity/42227358","access_utc":"2026-10-05T03:36:00Z","data_date":"1972-06-27","licence":"Open Government Licence v3.0","evidence_slice_sha256":"a1594efb2d0b6113787d9d0193ab95825bd7bf92873093405719d16ab2dd4c90","confidence_score_0_100":94,"evidence_grade":"A","fake_data":false,"local_spatial_join_required":true}},{"type":"Feature","id":"42227897","geometry":{"type":"MultiPolygon","coordinates":[[[[-1.25312,51.751775],[-1.253092,51.751726],[-1.253023,51.751734],[-1.253032,51.75175],[-1.25299,51.751755],[-1.253008,51.75179],[-1.25312,51.751775]]]]},"properties":{"slot_id":"building_type_9","lineage_id":"building_type_9-20261001T200900Z-newstart","batch_id":"batch-0021","page_generation":1,"source_entity":42227897,"source_reference":"1489","source_dataset":"listed-building-outline","source_organisation":"Oxford City Council","building_evidence_status":"BUILDING_PRESENT","parcel_status":"UNPROCESSED","canonical_parcel_id":null,"building_type":"listed_building","building_use":null,"poi_accepted":false,"field_evidence":{"footprint":"official listed-building-outline MULTIPOLYGON","type":"official dataset classification: listed-building-outline","name":"6-9 Magpie Lane","reference":"1489","use":"no use inferred"},"source_url":"https://www.planning.data.gov.uk/entity/42227897","final_url":"https://www.planning.data.gov.uk/entity/42227897","access_utc":"2026-10-05T03:36:00Z","data_date":"1972-06-27","licence":"Open Government Licence v3.0","evidence_slice_sha256":"65c59a34cbbbc1d69d0c042c2023943bf7b6d3508ca98a6d4e09514c932235c7","confidence_score_0_100":94,"evidence_grade":"A","fake_data":false,"local_spatial_join_required":true}},{"type":"Feature","id":"42227836","geometry":{"type":"MultiPolygon","coordinates":[[[[-1.25805,51.753651],[-1.257918,51.753681],[-1.257969,51.753761],[-1.258056,51.75381],[-1.258098,51.753801],[-1.258078,51.753735],[-1.258086,51.753734],[-1.25805,51.753651]]]]},"properties":{"slot_id":"building_type_9","lineage_id":"building_type_9-20261001T200900Z-newstart","batch_id":"batch-0021","page_generation":1,"source_entity":42227836,"source_reference":"1425","source_dataset":"listed-building-outline","source_organisation":"Oxford City Council","building_evidence_status":"BUILDING_PRESENT","parcel_status":"UNPROCESSED","canonical_parcel_id":null,"building_type":"listed_building","building_use":null,"poi_accepted":false,"field_evidence":{"footprint":"official listed-building-outline MULTIPOLYGON","type":"official dataset classification: listed-building-outline","name":"1 and 2 Ship Street","reference":"1425","use":"no use inferred"},"source_url":"https://www.planning.data.gov.uk/entity/42227836","final_url":"https://www.planning.data.gov.uk/entity/42227836","access_utc":"2026-10-05T03:36:00Z","data_date":"1954-01-12","licence":"Open Government Licence v3.0","evidence_slice_sha256":"ef9a8c1cf3ce1810661b8e84386b477b1c9b711568cf8554d80895a4b667be02","confidence_score_0_100":94,"evidence_grade":"A","fake_data":false,"local_spatial_join_required":true}},{"type":"Feature","id":"42226925","geometry":{"type":"MultiPolygon","coordinates":[[[[-1.260855,51.752824],[-1.260834,51.752796],[-1.260834,51.752792],[-1.260747,51.75268],[-1.260739,51.752679],[-1.260712,51.752645],[-1.260589,51.752683],[-1.260728,51.752862],[-1.260855,51.752824]]]]},"properties":{"slot_id":"building_type_9","lineage_id":"building_type_9-20261001T200900Z-newstart","batch_id":"batch-0021","page_generation":1,"source_entity":42226925,"source_reference":"453","source_dataset":"listed-building-outline","source_organisation":"Oxford City Council","building_evidence_status":"BUILDING_PRESENT","parcel_status":"UNPROCESSED","canonical_parcel_id":null,"building_type":"listed_building","building_use":"college","poi_accepted":false,"field_evidence":{"footprint":"official listed-building-outline MULTIPOLYGON","type":"official dataset classification: listed-building-outline","name":"St Peter's College, Linton House","reference":"453","use":"explicit in official entity name: college"},"source_url":"https://www.planning.data.gov.uk/entity/42226925","final_url":"https://www.planning.data.gov.uk/entity/42226925","access_utc":"2026-10-05T03:36:00Z","data_date":"1954-01-12","licence":"Open Government Licence v3.0","evidence_slice_sha256":"0d5f5acede16157208beb51fc5fabe4edb567c9df9563eff97112427923242e5","confidence_score_0_100":96,"evidence_grade":"A","fake_data":false,"local_spatial_join_required":true}}]}