{"type":"FeatureCollection","name":"height_difference_2","features":[],"metadata":{"slot_id":"height_difference_2","lineage_id":"height_difference_2_20260930T001051Z","page_generation":1,"partition":"source_area","schema":"AAYS_LAYER24_EVIDENCE_V1","fake_data":false,"owner":"cagdas aydin","batch_id":"batch_0073_somerset_house_building_present_canonical_blocker_20261005T175100+0300","cursor":"BLOCKED_SOMERSET_HOUSE_BUILDING_PRESENT_WITHOUT_HD2_CANONICAL_PARCEL_BINDING","source_area_count":0,"accepted_count":0,"unmatched_count":1,"source_window_path":"incoming/layer24/building_type_2/building_type_2-20260930T173100Z-newstart/batch-0047/","reason":"EXACT_BLOCKER: a previously unused verified official public no-login North Somerset Council / Planning Data listed-building-outline window was processed (1 source record). Entity 42129568 (Somerset House; reference LSB922) is BUILDING_PRESENT with authoritative MultiPolygon geometry, 2026-04-24 data date, Open Government Licence v3.0, and fake_data=false, but canonical_parcel_id is null, parcel_status is UNPROCESSED, and local_spatial_join_required is true. Therefore it does not establish a slot-bound height_difference_2 canonical parcel selector or exact official DEM/LIDAR tile binding. Local OpenCode must publish the canonical parcel spatial join/materialization before Height Difference source acceptance."}}
