{"type":"FeatureCollection","features":[{"type":"Feature","id":"new-forest-national-park-local-plan-update-september-2026:SP34","geometry":null,"properties":{"slot_id":"future_growth_4","lineage_id":"fg4-e4c9076d6f554f00","page_generation":1,"owner":"future_growth_4","partition":"future_growth","semantic_mode":"SOURCE_AREA_EXACT_IDENTIFIER","dataset":"new-forest-national-park-local-plan-update-september-2026","entity":"SP34","reference":"SP34","quality":"authoritative","organisation":"New Forest National Park Authority","name":"Land at Knellers Lane, Ashurst","source_url":"https://www.newforestnpa.gov.uk/document/nfnpa-local-plan-update-cp-september-2026/","final_url":"https://www.newforestnpa.gov.uk/document/nfnpa-local-plan-update-cp-september-2026/","access_utc":"2026-10-05T00:18:00Z","data_date":"2026-09","license":"not stated on source window","field_evidence":{"policy_reference":"SP34","site_name":"Land at Knellers Lane, Ashurst","indicative_dwellings":70,"policy_requirement":"retain green gap with the A326","plan_stage":"Regulation 19 Submission draft consultation","plan_period":"2024-2043","source_document":"NFNPA Local Plan Update CP September 2026"},"evidence_slice_sha256":"6ec37879ddd449ce76ba1f6e259fbc2fe3223e8f30ab2bd859594c65ebe4ddd1","confidence_score_0_100":99,"confidence":0.99,"evidence_grade":"A","exact_identifier_provided":true,"coverage_polygon_provided":false,"fake_data":false,"join_mode":"LOCAL_OPENCODE_SPATIAL_JOIN_PENDING","direct_parcel":false,"source_area_count_contribution":1,"planned_building_count_contribution":0}}]}