{"type":"FeatureCollection","name":"building_type_2_batch_0029","features":[{"type":"Feature","id":"42115681","geometry":{"type":"MultiPolygon","coordinates":[[[[-0.096455,51.481941],[-0.096557,51.481918],[-0.096519,51.48185],[-0.096416,51.481873],[-0.096455,51.481941]]]]},"properties":{"slot_id":"building_type_2","lineage_id":"building_type_2-20260930T173100Z-newstart","batch_id":"batch-0029","page_generation":1,"source_entity":42115681,"source_reference":"471441","source_dataset":"listed-building-outline","source_organisation":"London Borough of Southwark","building_evidence_status":"BUILDING_PRESENT","parcel_status":"UNPROCESSED","canonical_parcel_id":null,"building_type":"listed_building","building_use":null,"poi_accepted":false,"field_evidence":{"footprint":"official listed-building-outline MULTIPOLYGON","type":"official dataset classification: listed-building-outline","reference":"471441","quality":"authoritative","name":"No given name"},"source_url":"https://www.planning.data.gov.uk/entity/42115681","final_url":"https://www.planning.data.gov.uk/entity/42115681","access_utc":"2026-10-03T02:49:50Z","data_date":"2023-08-16","licence":"Open Government Licence v3.0","evidence_slice_sha256":"836644b04ba7ce1755d0950f54e25f0a9448540db62c5b5fc3b8a4bd0b8e1672","confidence_score_0_100":96,"evidence_grade":"A","fake_data":false,"local_spatial_join_required":true}}]}