{"type":"FeatureCollection","name":"building_type_ 9_batch_0001","features":[{"type":"Feature","id":"42122983","geometry":{"type":"MultiPolygon","coordinates":[[[[-1.499741,51.49119],[-1.499547,51.49115],[-1.499525,51.491192],[-1.499719,51.491232],[-1.499741,51.49119]]]]},"properties":{"slot_id":"building_type_ 9","lineage_id":"building_type_ 9-20260930T174300Z-newstart","batch_id":"batch-0001","page_generation":1,"source_entity":42122983,"source_reference":"1113667","source_dataset":"listed-building-outline","source_organisation":"West Berkshire Council","building_evidence_status":"BUILDING_PRESENT","parcel_status":"UNPROCESSED","canonical_parcel_id":null,"building_type":"listed_building","building_use":null,"poi_accepted":false,"field_evidence":{"footprint":"official listed-building-outline MULTIPOLYGON","type":"official dataset classification: listed-building-outline","reference":"1113667"},"source_url":"https://www.planning.data.gov.uk/entity/42122983","final_url":"https://www.planning.data.gov.uk/entity/42122983","access_utc":"2026-09-30T17:43:00Z","data_date":"2026-06-03","licence":"Open Government Licence v3.0","source_payload_sha256":"0d976ea0c24fbb39f3bb64c4208f76a45f7635d4ea01b7e01199fdf9a542dabb","evidence_slice_sha256":"0d976ea0c24fbb39f3bb64c4208f76a45f7635d4ea01b7e01199fdf9a542dabb","confidence_score_0_100":90,"evidence_grade":"A","fake_data":false,"local_spatial_join_required":true}},{"type":"Feature","id":"42118829","geometry":{"type":"MultiPolygon","coordinates":[[[[1.215377,51.273968],[1.215373,51.273985],[1.215358,51.274],[1.215308,51.274015],[1.215257,51.274003],[1.21524,51.273989],[1.215234,51.273972],[1.215252,51.27394],[1.215302,51.273925],[1.215354,51.273937],[1.215377,51.273968]]]]},"properties":{"slot_id":"building_type_ 9","lineage_id":"building_type_ 9-20260930T174300Z-newstart","batch_id":"batch-0001","page_generation":1,"source_entity":42118829,"source_reference":"1070122","source_dataset":"listed-building-outline","source_organisation":"Dover District Council","building_evidence_status":"BUILDING_PRESENT","parcel_status":"UNPROCESSED","canonical_parcel_id":null,"building_type":"listed_building","building_use":null,"poi_accepted":false,"field_evidence":{"footprint":"official listed-building-outline MULTIPOLYGON","type":"official dataset classification: listed-building-outline","reference":"1070122"},"source_url":"https://www.planning.data.gov.uk/entity/42118829","final_url":"https://www.planning.data.gov.uk/entity/42118829","access_utc":"2026-09-30T17:43:00Z","data_date":"2024-06-28","licence":"Open Government Licence v3.0","source_payload_sha256":"294fd71d74c011925db84a260cd09f06e49728eec0053706e2e9ec9ec90294a5","evidence_slice_sha256":"294fd71d74c011925db84a260cd09f06e49728eec0053706e2e9ec9ec90294a5","confidence_score_0_100":90,"evidence_grade":"A","fake_data":false,"local_spatial_join_required":true}},{"type":"Feature","id":"42119222","geometry":{"type":"MultiPolygon","coordinates":[[[[1.40391,51.228185],[1.403906,51.228202],[1.403892,51.228217],[1.403869,51.228228],[1.403842,51.228232],[1.403815,51.228229],[1.403791,51.22822],[1.403774,51.228206],[1.403767,51.228189],[1.403772,51.228172],[1.403786,51.228157],[1.403808,51.228146],[1.403836,51.228142],[1.403863,51.228145],[1.403887,51.228154],[1.403904,51.228168],[1.40391,51.228185]]]]},"properties":{"slot_id":"building_type_ 9","lineage_id":"building_type_ 9-20260930T174300Z-newstart","batch_id":"batch-0001","page_generation":1,"source_entity":42119222,"source_reference":"1363457","source_dataset":"listed-building-outline","source_organisation":"Dover District Council","building_evidence_status":"BUILDING_PRESENT","parcel_status":"UNPROCESSED","canonical_parcel_id":null,"building_type":"listed_building","building_use":null,"poi_accepted":false,"field_evidence":{"footprint":"official listed-building-outline MULTIPOLYGON","type":"official dataset classification: listed-building-outline","reference":"1363457"},"source_url":"https://www.planning.data.gov.uk/entity/42119222","final_url":"https://www.planning.data.gov.uk/entity/42119222","access_utc":"2026-09-30T17:43:00Z","data_date":"2024-06-28","licence":"Open Government Licence v3.0","source_payload_sha256":"2a29b1ee5360d49df6d80e31b0eeabf40d51b8302499d5e7b7df75d42cf4b5c9","evidence_slice_sha256":"2a29b1ee5360d49df6d80e31b0eeabf40d51b8302499d5e7b7df75d42cf4b5c9","confidence_score_0_100":90,"evidence_grade":"A","fake_data":false,"local_spatial_join_required":true}},{"type":"Feature","id":"42118934","geometry":{"type":"MultiPolygon","coordinates":[[[[1.369071,51.216834],[1.369066,51.216851],[1.369052,51.216866],[1.369029,51.216877],[1.369002,51.216881],[1.368975,51.216878],[1.368951,51.216869],[1.368934,51.216855],[1.368928,51.216838],[1.368932,51.216821],[1.368946,51.216806],[1.368969,51.216796],[1.368996,51.216791],[1.369023,51.216794],[1.369047,51.216803],[1.369064,51.216817],[1.369071,51.216834]]]]},"properties":{"slot_id":"building_type_ 9","lineage_id":"building_type_ 9-20260930T174300Z-newstart","batch_id":"batch-0001","page_generation":1,"source_entity":42118934,"source_reference":"1261480","source_dataset":"listed-building-outline","source_organisation":"Dover District Council","building_evidence_status":"BUILDING_PRESENT","parcel_status":"UNPROCESSED","canonical_parcel_id":null,"building_type":"listed_building","building_use":null,"poi_accepted":false,"field_evidence":{"footprint":"official listed-building-outline MULTIPOLYGON","type":"official dataset classification: listed-building-outline","reference":"1261480"},"source_url":"https://www.planning.data.gov.uk/entity/42118934","final_url":"https://www.planning.data.gov.uk/entity/42118934","access_utc":"2026-09-30T17:43:00Z","data_date":"2024-06-28","licence":"Open Government Licence v3.0","source_payload_sha256":"e14917ca95d9a7fb2678275e1f21a9501b2b877bc14e0bdfbd659c270cf1791e","evidence_slice_sha256":"e14917ca95d9a7fb2678275e1f21a9501b2b877bc14e0bdfbd659c270cf1791e","confidence_score_0_100":90,"evidence_grade":"A","fake_data":false,"local_spatial_join_required":true}},{"type":"Feature","id":"42118967","geometry":{"type":"MultiPolygon","coordinates":[[[[1.215245,51.274745],[1.21524,51.274763],[1.215226,51.274778],[1.215203,51.274788],[1.215176,51.274792],[1.215149,51.274789],[1.215125,51.27478],[1.215108,51.274766],[1.215101,51.274749],[1.215106,51.274732],[1.21512,51.274717],[1.215143,51.274706],[1.21517,51.274702],[1.215198,51.274705],[1.215221,51.274714],[1.215238,51.274728],[1.215245,51.274745]]]]},"properties":{"slot_id":"building_type_ 9","lineage_id":"building_type_ 9-20260930T174300Z-newstart","batch_id":"batch-0001","page_generation":1,"source_entity":42118967,"source_reference":"1203538","source_dataset":"listed-building-outline","source_organisation":"Dover District Council","building_evidence_status":"BUILDING_PRESENT","parcel_status":"UNPROCESSED","canonical_parcel_id":null,"building_type":"listed_building","building_use":null,"poi_accepted":false,"field_evidence":{"footprint":"official listed-building-outline MULTIPOLYGON","type":"official dataset classification: listed-building-outline","reference":"1203538"},"source_url":"https://www.planning.data.gov.uk/entity/42118967","final_url":"https://www.planning.data.gov.uk/entity/42118967","access_utc":"2026-09-30T17:43:00Z","data_date":"2024-06-28","licence":"Open Government Licence v3.0","source_payload_sha256":"c7ff84d18b9d83b1bb2a4e2021803f895b06dbbd028302184c3e510ab4b0cf44","evidence_slice_sha256":"c7ff84d18b9d83b1bb2a4e2021803f895b06dbbd028302184c3e510ab4b0cf44","confidence_score_0_100":90,"evidence_grade":"A","fake_data":false,"local_spatial_join_required":true}}]}