{
  "type": "FeatureCollection",
  "features": [
    {
      "type": "Feature",
      "id": "met-neighbourhood:met/hackney/haggerston",
      "geometry": null,
      "properties": {
        "evidence_scope": "coverage_area",
        "coverage_area_id": "met/hackney/haggerston",
        "coverage_area_name": "Haggerston",
        "identifier_scheme": "MET_POLICE_OFFICIAL_NEIGHBOURHOOD_URL_PATH",
        "exact_official_identifier": "met/hackney/haggerston",
        "prior_unmatched_identifier": "E05009375N",
        "source_resolution": "OFFICIAL_MET_NEIGHBOURHOOD_PAGE_EXACT_URL_PATH",
        "time_window": "CURRENT_OFFICIAL_PAGE_SNAPSHOT",
        "measurement_date": "2026-10-01",
        "measurement_method": "official Metropolitan Police Your area page exact URL-path identifier",
        "spatial_binding_method": "DEFERRED_TO_LOCAL_OPENCODE",
        "source_url": "https://www.met.police.uk/area/your-area/met/hackney/haggerston/about-us/top-reported-crimes-in-this-area",
        "final_url": "https://www.met.police.uk/area/your-area/met/hackney/haggerston/about-us/top-reported-crimes-in-this-area",
        "accessed_at_utc": "2026-10-01T13:14:00Z",
        "licence": "Open Government Licence v3.0",
        "field_evidence": {
          "publisher": "Metropolitan Police",
          "page_heading": "Haggerston",
          "section_heading": "Your Safer Neighbourhoods Team",
          "page_context": "About us",
          "official_neighbourhood_path": "met/hackney/haggerston",
          "source_url": "https://www.met.police.uk/area/your-area/met/hackney/haggerston/about-us/top-reported-crimes-in-this-area",
          "accessed_at_utc": "2026-10-01T13:14:00Z"
        },
        "evidence_slice_sha256": "c9a5c12cadb454c3af868771754bbacb2e29237dfb1a07c784136d2fbfc53c45",
        "confidence_score_0_100": 100,
        "evidence_grade": "A",
        "fake_data": false,
        "source_window_id": "met_police_official_neighbourhood_pages_remaining3_sps5_20261001_v1",
        "cursor": "met_police_official_neighbourhood_pages_remaining3_sps5_20261001_v1:record=1"
      }
    },
    {
      "type": "Feature",
      "id": "met-neighbourhood:met/hackney/hoxton-east-and-shoreditch",
      "geometry": null,
      "properties": {
        "evidence_scope": "coverage_area",
        "coverage_area_id": "met/hackney/hoxton-east-and-shoreditch",
        "coverage_area_name": "Hoxton East and Shoreditch",
        "identifier_scheme": "MET_POLICE_OFFICIAL_NEIGHBOURHOOD_URL_PATH",
        "exact_official_identifier": "met/hackney/hoxton-east-and-shoreditch",
        "prior_unmatched_identifier": "E05009377N",
        "source_resolution": "OFFICIAL_MET_NEIGHBOURHOOD_PAGE_EXACT_URL_PATH",
        "time_window": "CURRENT_OFFICIAL_PAGE_SNAPSHOT",
        "measurement_date": "2026-10-01",
        "measurement_method": "official Metropolitan Police Your area page exact URL-path identifier",
        "spatial_binding_method": "DEFERRED_TO_LOCAL_OPENCODE",
        "source_url": "https://www.met.police.uk/area/your-area/met/hackney/hoxton-east-and-shoreditch/about-us/top-reported-crimes-in-this-area",
        "final_url": "https://www.met.police.uk/area/your-area/met/hackney/hoxton-east-and-shoreditch/about-us/top-reported-crimes-in-this-area",
        "accessed_at_utc": "2026-10-01T13:14:00Z",
        "licence": "Open Government Licence v3.0",
        "field_evidence": {
          "publisher": "Metropolitan Police",
          "page_heading": "Hoxton East and Shoreditch",
          "section_heading": "Your Safer Neighbourhoods Team",
          "page_context": "About us",
          "official_neighbourhood_path": "met/hackney/hoxton-east-and-shoreditch",
          "source_url": "https://www.met.police.uk/area/your-area/met/hackney/hoxton-east-and-shoreditch/about-us/top-reported-crimes-in-this-area",
          "accessed_at_utc": "2026-10-01T13:14:00Z"
        },
        "evidence_slice_sha256": "1bff35869984b4b3db3db7ba45bbad97d07601e4a3e0cd5519a48d73285ec797",
        "confidence_score_0_100": 100,
        "evidence_grade": "A",
        "fake_data": false,
        "source_window_id": "met_police_official_neighbourhood_pages_remaining3_sps5_20261001_v1",
        "cursor": "met_police_official_neighbourhood_pages_remaining3_sps5_20261001_v1:record=2"
      }
    },
    {
      "type": "Feature",
      "id": "met-neighbourhood:met/kensington-and-chelsea/campden",
      "geometry": null,
      "properties": {
        "evidence_scope": "coverage_area",
        "coverage_area_id": "met/kensington-and-chelsea/campden",
        "coverage_area_name": "Campden",
        "identifier_scheme": "MET_POLICE_OFFICIAL_NEIGHBOURHOOD_URL_PATH",
        "exact_official_identifier": "met/kensington-and-chelsea/campden",
        "prior_unmatched_identifier": "E05009390N",
        "source_resolution": "OFFICIAL_MET_NEIGHBOURHOOD_PAGE_EXACT_URL_PATH",
        "time_window": "CURRENT_OFFICIAL_PAGE_SNAPSHOT",
        "measurement_date": "2026-10-01",
        "measurement_method": "official Metropolitan Police Your area page exact URL-path identifier",
        "spatial_binding_method": "DEFERRED_TO_LOCAL_OPENCODE",
        "source_url": "https://www.met.police.uk/area/your-area/met/kensington-and-chelsea/campden/about-us/top-reported-crimes-in-this-area",
        "final_url": "https://www.met.police.uk/area/your-area/met/kensington-and-chelsea/campden/about-us/top-reported-crimes-in-this-area",
        "accessed_at_utc": "2026-10-01T13:14:00Z",
        "licence": "Open Government Licence v3.0",
        "field_evidence": {
          "publisher": "Metropolitan Police",
          "page_heading": "Campden",
          "section_heading": "Your Safer Neighbourhoods Team",
          "page_context": "About us",
          "official_neighbourhood_path": "met/kensington-and-chelsea/campden",
          "source_url": "https://www.met.police.uk/area/your-area/met/kensington-and-chelsea/campden/about-us/top-reported-crimes-in-this-area",
          "accessed_at_utc": "2026-10-01T13:14:00Z"
        },
        "evidence_slice_sha256": "2279747603ca9ed329627869625b08a222ea0008d8bba3f77d1b95baba8c895b",
        "confidence_score_0_100": 100,
        "evidence_grade": "A",
        "fake_data": false,
        "source_window_id": "met_police_official_neighbourhood_pages_remaining3_sps5_20261001_v1",
        "cursor": "met_police_official_neighbourhood_pages_remaining3_sps5_20261001_v1:record=3"
      }
    }
  ]
}
