{"type":"FeatureCollection","name":"height_difference_5","metadata":{"slot_id":"height_difference_5","owner":"height_difference_5","lineage_id":"height_difference_5-eb56f92ed3f0514c","page_generation":1,"schema":"AAYS_LAYER24_EVIDENCE_V1","partition":"layer24","semantic_mode_state":"ABSENT_IN_PRIOR_PHYSICAL_STATE_PRESERVED_BY_OMISSION","batch_id":"20261006T135200Z_osni_river_basin_general_note_belfast_exclusion","record_policy":"Official general River Basin guidance evidence only; Irish Grid/MSL Belfast not transferred to Belfast City 2006 because the same document explicitly excludes Belfast.","fake_data":false},"features":[{"type":"Feature","geometry":null,"properties":{"slot_id":"height_difference_5","owner":"height_difference_5","lineage_id":"height_difference_5-eb56f92ed3f0514c","page_generation":1,"schema":"AAYS_LAYER24_EVIDENCE_V1","partition":"layer24","batch_id":"20261006T135200Z_osni_river_basin_general_note_belfast_exclusion","source_record_id":"OSNI_RIVER_BASIN_GENERAL_NOTE:BELFAST_SCOPE_EXCLUSION","source_url":"https://admin.opendatani.gov.uk/dataset/osni-open-data-river-basin-lidar-2009-dtms-and-dsms","resource_id":"016f2b5b-4bd7-4ebf-b5db-7c7f6692ddda","resource_name":"River Basin LIDAR - Note on the Dataset","indexed_pdf_url":"https://83025b28472d6aa2bf5ae59f3724aa78.eu.r2.cloudflarestorage.com/dx-ni-prod/ni-prod/resources/016f2b5b-4bd7-4ebf-b5db-7c7f6692ddda/river-basin-lidar-note.pdf","access_utc":"2026-10-06T13:52:00Z","required_building_state":"BUILDING_PRESENT","binding_status":"LOCAL_OPENCODE_BUILDING_PRESENT_BELFAST_EXACT_TILE_AND_AUTHORITATIVE_CRS_REQUIRED","general_river_basin_crs":"Irish Grid coordinates","general_vertical_reference":"Mean Sea Level Belfast","belfast_scope_excluded":true,"belfast_city_2006_crs":null,"exact_tile_identifier":null,"evidence_slice_sha256":"54f723e1abd9ad3789e2750aabaa9dbdff7b60a008107144e181aa78fd3404b5","accepted_count_contribution":0,"source_area_count_contribution":0,"fake_data":false}}]}
