{"type":"FeatureCollection","features":[{"type":"Feature","geometry":null,"properties":{"slot_id":"future_growth_3","lineage_id":"future_growth_3-newstart-20261001T203100Z","page_generation":null,"accepted_as_parcel":false,"source_area_count_contribution":1,"exact_identifier":"LBBD57","exact_identifier_provided":true,"coverage_polygon_provided":false,"identifier_namespace":"Planning Data brownfield-land reference","secondary_exact_identifier":"entity:1716888","source_entity":"LBBD57 - Woodward Road Garages, Dagenham","access_utc":"2026-10-04T16:11:03Z","data_date":"2017-12-31","source_url":"https://www.planning.data.gov.uk/entity/1716888","final_url":"https://www.planning.data.gov.uk/entity/1716888","license":"Open Government Licence v3.0; attribution © Crown copyright and database right 2026.","authority":"London Borough of Barking and Dagenham","site_address":"Woodward Road Garages, Dagenham","field_evidence":{"reference":"LBBD57","entity":1716888,"dataset":"Brownfield land","organisation":"London Borough of Barking and Dagenham","entry_date":"2017-12-31","start_date":"2017-12-31","site_address":"Woodward Road Garages, Dagenham","point":"POINT (0.125436 51.539234)","hectares":0.12,"quality":"authoritative","ownership_status":"owned-by-a-public-authority","planning_permission_status":"not-permissioned","site_plan_url":"https://maps.london.gov.uk/brownfield-site-register"},"source_payload_sha256":"5e7a711421351ad69bdcfd19a37257a1192ffee0763e0fcccbe758868c7651cd","source_payload_sha256_basis":"canonicalized official Planning Data brownfield-land LBBD57 evidence fields","evidence_slice_sha256":"53489716fc6d003b1075a402a49b7cfe8e9d3d845be9cd771ddf854647c19960","evidence_grade":"A","confidence_score_0_100":99,"evidence_scope":"exact_official_identifier_from_authoritative_planning_data_brownfield_land","fake_data":false,"spatial_binding_method":"official Planning Data brownfield-land reference LBBD57 / entity 1716888 and published GLA Brownfield Site Register site-plan URL; canonical parcel spatial join and materialization delegated to local OpenCode","planned_building_count_contribution":0}}]}