{"features":[{"geometry":{"coordinates":[[[[-1.324405,51.402201],[-1.324406,51.402213],[-1.324417,51.40227],[-1.324576,51.402261],[-1.324576,51.402245],[-1.324686,51.402241],[-1.324681,51.402187],[-1.324405,51.402201]]]],"type":"MultiPolygon"},"id":"42122355","properties":{"access_utc":"2026-09-30T21:13:00Z","batch_id":"batch-0005","building_evidence_status":"BUILDING_PRESENT","building_type":"listed_building","building_use":null,"canonical_parcel_id":null,"confidence_score_0_100":94,"data_date":"2026-09-16","evidence_grade":"A-","evidence_slice_sha256":"9b11f533e0780f61dc6fcb89a64f51ca2d3c255b7e2c7d3f1f29272f22550b98","fake_data":false,"field_evidence":{"footprint_or_listing_extent":"official listed-building-outline MULTIPOLYGON","functional_use":"not evidenced; not asserted","quality":"authoritative","reference":"1211269","type":"official dataset classification: listed-building-outline"},"final_url":"https://www.planning.data.gov.uk/entity/42122355","licence":"Open Government Licence v3.0","lineage_id":"building_type_2-20260930T173100Z-newstart","local_spatial_join_required":true,"page_generation":1,"parcel_status":"UNPROCESSED","poi_accepted":false,"slot_id":"building_type_2","source_dataset":"listed-building-outline","source_entity":42122355,"source_file_sha256":"8d4e991bdc44cc214628383b57e3c327e443dee75771941cc2055c82692008ab","source_organisation":"West Berkshire Council","source_reference":"1211269","source_url":"https://www.planning.data.gov.uk/entity/42122355"},"type":"Feature"}],"name":"building_type_2_batch_0005","type":"FeatureCollection"}
