{"type":"FeatureCollection","features":[{"type":"Feature","geometry":null,"properties":{"slot_id":"future_growth_1","lineage_id":"future_growth_1-newstart-20260927T153100+0300","page_generation":null,"accepted_as_parcel":false,"source_area_count_contribution":1,"exact_identifier":"BEX10","exact_identifier_provided":true,"coverage_polygon_provided":false,"identifier_namespace":"Rother Development and Site Allocations Local Plan Policy BEX10","site_name":"Land at Northeye, Bexhill","access_utc":"2026-10-04T20:07:00Z","data_date":"2026-02-16","source_url":"https://www.gov.uk/government/news/former-northeye-prison-site-in-bexhill-handed-to-homes-england-for-new-homes","final_url":"https://www.gov.uk/government/news/former-northeye-prison-site-in-bexhill-handed-to-homes-england-for-new-homes","policy_url":"https://www.rother.gov.uk/wp-content/uploads/2020/01/DaSA_Adopted_December_2019_Web.pdf","license":"Open Government Licence v3.0 for GOV.UK content; Rother planning document publicly accessible","authority":"Homes England","programme":"Single Land Programme","transfer_status":"formally transferred to Homes England","allocated_dwellings":140,"future_use":"housing development and regeneration","evidence_grade":"A","confidence_score_0_100":99,"evidence_scope":"Homes England formal public-land transfer record plus Rother District Council adopted BEX10 housing allocation","evidence_slice_sha256":"b11360bf33cc206157b9dbd1dca77767e95e749d9bf4d585dea6c49c70536bc0","fake_data":false,"spatial_binding_method":"official Rother adopted allocation identifier BEX10 plus Homes England Single Land Programme transfer record; exact boundary resolution, canonical parcel spatial join and materialization delegated to local OpenCode","planned_building_count_contribution":0}}]}
