{"type":"FeatureCollection","name":"height_difference_2","features":[],"metadata":{"slot_id":"height_difference_2","lineage_id":"height_difference_2_20260930T001051Z","page_generation":1,"partition":"source_area","schema":"AAYS_LAYER24_EVIDENCE_V1","fake_data":false,"owner":"cagdas aydin","batch_id":"batch_0050_northumberland_26_bridge_street_canonical_blocker_20261004T190500+0300","cursor":"BLOCKED_NORTHUMBERLAND_26_BRIDGE_STREET_WITHOUT_HD2_CANONICAL_PARCEL_BINDING","source_area_count":0,"accepted_count":0,"unmatched_count":1,"source_window_path":"incoming/layer24/building_type_2/building_type_2-20260930T173100Z-newstart/batch-0061/","source_record_id":"42153367","reason":"EXACT_BLOCKER: after three zero-acceptance rounds the method was materially changed from current-tree start-criterion revalidation to direct field audit of a newly changed official BUILDING_PRESENT producer window. A previously unused verified official public no-login Northumberland County Council / Planning Data listed-building-outline singleton window was processed (1 source record). Entity 42153367 / reference 1041659 (26, Bridge Street) is BUILDING_PRESENT with authoritative MultiPolygon geometry, Open Government Licence v3.0 and data_date 1971-05-26, but canonical_parcel_id is null, parcel_status is UNPROCESSED and local_spatial_join_required is true. Therefore it does not establish a height_difference_2 slot-bound canonical parcel selector or exact DEM/LIDAR tile binding. Local OpenCode must materialize the canonical parcel spatial join/binding before Height Difference source acceptance."}}
