{
  "type": "FeatureCollection",
  "name": "building_type_2_felton_st_michael",
  "features": [
    {
      "type": "Feature",
      "geometry": {
        "type": "MultiPolygon",
        "coordinates": [
          [
            [
              [
                -1.714694,
                55.295648
              ],
              [
                -1.714709,
                55.295667
              ],
              [
                -1.714802,
                55.295643
              ],
              [
                -1.714792,
                55.295631
              ],
              [
                -1.71503,
                55.29557
              ],
              [
                -1.714999,
                55.29553
              ],
              [
                -1.715024,
                55.295524
              ],
              [
                -1.714996,
                55.295492
              ],
              [
                -1.714972,
                55.295498
              ],
              [
                -1.714935,
                55.295452
              ],
              [
                -1.714881,
                55.295466
              ],
              [
                -1.714855,
                55.295434
              ],
              [
                -1.714785,
                55.295452
              ],
              [
                -1.714804,
                55.295476
              ],
              [
                -1.714696,
                55.295504
              ],
              [
                -1.714688,
                55.295492
              ],
              [
                -1.71467,
                55.295496
              ],
              [
                -1.714678,
                55.295509
              ],
              [
                -1.714628,
                55.295522
              ],
              [
                -1.714616,
                55.29551
              ],
              [
                -1.714597,
                55.295515
              ],
              [
                -1.714624,
                55.29555
              ],
              [
                -1.714474,
                55.295589
              ],
              [
                -1.714466,
                55.295578
              ],
              [
                -1.714443,
                55.295583
              ],
              [
                -1.714457,
                55.295601
              ],
              [
                -1.714481,
                55.295594
              ],
              [
                -1.714518,
                55.295641
              ],
              [
                -1.714554,
                55.295631
              ],
              [
                -1.714576,
                55.295659
              ],
              [
                -1.714617,
                55.295648
              ],
              [
                -1.71463,
                55.295665
              ],
              [
                -1.714694,
                55.295648
              ]
            ]
          ]
        ]
      },
      "properties": {
        "slot_id": "building_type_2",
        "lineage_id": "building_type_2-20260930T173100Z-newstart",
        "page_generation": 1,
        "batch_id": "20261008T090211Z_FELTON_ST_MICHAEL_42153589",
        "source_entity": 42153589,
        "source_reference": "1041881",
        "semantic_identity": "listed-building-outline:1041881",
        "source_dataset": "listed-building-outline",
        "source_organisation": "Northumberland County Council",
        "building_evidence_status": "BUILDING_PRESENT",
        "parcel_status": "UNPROCESSED",
        "canonical_parcel_id": null,
        "building_type": "church",
        "building_use": null,
        "poi_accepted": false,
        "field_evidence": {
          "footprint": "Northumberland County Council authoritative single church-building outline MultiPolygon with nave, aisles and structural projections",
          "type": "Official Planning Data notes: GV I parish church, Church of St Michael and All Angels, Felton",
          "structure": "Official notes: aisled nave, south porch, chancel, north vestry and west belfry",
          "reference": "1041881",
          "quality": "authoritative",
          "listed_building_reference": "1041881"
        },
        "source_url": "https://www.planning.data.gov.uk/entity/42153589",
        "final_url": "https://www.planning.data.gov.uk/entity/42153589",
        "http_status": null,
        "http_status_note": "HTTP status not supplied by readable official source view",
        "access_utc": "2026-10-08T09:02:11.841Z",
        "data_date": "2013-01-29",
        "source_version": "Planning Data entry-date 2013-01-29; start date 1988-09-15",
        "licence": "Open Government Licence v3.0",
        "source_sha256": "15612a6bd5f4d8ea918f4ebeb5afd2c6c2e6cc4bd9d37fc8ff214e7a2aeba63b",
        "source_sha256_scope": "preserved official field evidence slice; original HTTP response bytes unavailable",
        "evidence_slice_sha256": "15612a6bd5f4d8ea918f4ebeb5afd2c6c2e6cc4bd9d37fc8ff214e7a2aeba63b",
        "confidence_score_0_100": 96,
        "evidence_grade": "A",
        "fake_data": false,
        "local_spatial_join_required": true
      }
    }
  ]
}
