{"type":"FeatureCollection","name":"height_difference_5","metadata":{"slot_id":"height_difference_5","owner":"height_difference_5","lineage_id":"height_difference_5-eb56f92ed3f0514c","page_generation":1,"schema":"AAYS_LAYER24_EVIDENCE_V1","partition":"layer24","semantic_mode_state":"ABSENT_IN_PRIOR_PHYSICAL_STATE_PRESERVED_BY_OMISSION","batch_id":"20261006T005600Z_data_europa_belfast_2006_dcat_blocked","record_policy":"Official EU Data Portal Belfast 2006 dataset/DCAT blocker evidence only; no distribution URL, tile/file, parcel binding, geometry or CRS synthesized.","fake_data":false},"features":[{"type":"Feature","geometry":null,"properties":{"slot_id":"height_difference_5","owner":"height_difference_5","lineage_id":"height_difference_5-eb56f92ed3f0514c","page_generation":1,"schema":"AAYS_LAYER24_EVIDENCE_V1","partition":"layer24","batch_id":"20261006T005600Z_data_europa_belfast_2006_dcat_blocked","source_record_id":"EU_DATA_PORTAL:BELFAST_LIDAR_2006","source_url":"https://data.europa.eu/data/datasets/lidar-belfast-city-2006?locale=de","access_utc":"2026-10-06T00:56:00Z","required_building_state":"BUILDING_PRESENT","binding_status":"LOCAL_OPENCODE_BUILDING_PRESENT_EXACT_TILE_BIND_REQUIRED","metadata_transport_status":"CACHE_MISS_NON_RETRYABLE","payload_url":null,"exact_tile_identifier":null,"crs":null,"evidence_slice_sha256":"d39b344861688ef29d68635bfdc560c211b78bf6d84f1cf798032cd3697c0497","accepted_count_contribution":0,"source_area_count_contribution":0,"fake_data":false}}]}
