{"type":"FeatureCollection","features":[{"type":"Feature","geometry":null,"properties":{"slot_id":"planned_buildings_1","lineage_id":"planned_buildings_1-0ffc4ebd6c6e4e41","semantic_mode":"DISTINCT_BUILDINGS","planned_building_id":"planning-application:RB2026/1065::DWELLING_01","building_status":"PLANNED","building_name":"New dwelling, Croft Farm Worksop Road Aston","planning_reference":"RB2026/1065","authority":"Rotherham Metropolitan Borough Council","source_url":"https://planning.rotherham.gov.uk/fastweblive/results.asp?DateReceivedStart=17%2F07%2F2026&DateReceivedEnd=06%2F08%2F2026&Sort2=DateReceived+DESC","final_url":"https://planning.rotherham.gov.uk/fastweblive/results.asp?DateReceivedStart=17%2F07%2F2026&DateReceivedEnd=06%2F08%2F2026&Sort2=DateReceived+DESC","access_utc":"2026-10-06T05:17:00Z","source_data_date":"2026-07-28","license":"Open Government Licence v3.0","geometry_role":"official planning search results expose no machine-readable point or building footprint; geometry null; no geometry inferred","field_evidence":"Official planning search result explicitly records erection of 1 No. dwelling; decision fields blank.","identity_limitation":"One new dwelling is explicitly stated; demolished existing dwelling is excluded.","confidence_score_0_100":92,"evidence_grade":"A","fake_data":false}},{"type":"Feature","geometry":null,"properties":{"slot_id":"planned_buildings_1","lineage_id":"planned_buildings_1-0ffc4ebd6c6e4e41","semantic_mode":"DISTINCT_BUILDINGS","planned_building_id":"planning-application:RB2026/1065::DOUBLE_GARAGE","building_status":"PLANNED","building_name":"Double garage, Croft Farm Worksop Road Aston","planning_reference":"RB2026/1065","authority":"Rotherham Metropolitan Borough Council","source_url":"https://planning.rotherham.gov.uk/fastweblive/results.asp?DateReceivedStart=17%2F07%2F2026&DateReceivedEnd=06%2F08%2F2026&Sort2=DateReceived+DESC","final_url":"https://planning.rotherham.gov.uk/fastweblive/results.asp?DateReceivedStart=17%2F07%2F2026&DateReceivedEnd=06%2F08%2F2026&Sort2=DateReceived+DESC","access_utc":"2026-10-06T05:17:00Z","source_data_date":"2026-07-28","license":"Open Government Licence v3.0","geometry_role":"official planning search results expose no machine-readable point or building footprint; geometry null; no geometry inferred","field_evidence":"Official planning search result explicitly records erection of a double garage; decision fields blank.","identity_limitation":"The double garage is treated as one distinct ancillary building; demolished existing garage store is excluded.","confidence_score_0_100":92,"evidence_grade":"A","fake_data":false}}]}
