{"type":"FeatureCollection","features":[{"type":"Feature","geometry":null,"properties":{"slot_id":"future_growth_1","lineage_id":"future_growth_1-newstart-20260927T153100+0300","page_generation":null,"accepted_as_parcel":false,"source_area_count_contribution":1,"exact_identifier":"TR010032","exact_identifier_provided":true,"coverage_polygon_provided":false,"identifier_namespace":"Planning Inspectorate scheme reference","site_name":"Lower Thames Crossing","access_utc":"2026-10-05T10:12:00Z","data_date":"2025-04-15","source_url":"https://infrastructure.planninginspectorate.gov.uk/projects/South%20East/Lower-Thames-Crossing/","final_url":"https://infrastructure.planninginspectorate.gov.uk/projects/South%20East/Lower-Thames-Crossing/","decision_url":"https://www.gov.uk/government/news/lower-thames-crossing-development-consent-decision-announced","legal_url":"https://www.legislation.gov.uk/uksi/2025/462/contents","application_intro_url":"https://infrastructure.planninginspectorate.gov.uk/wp-content/ipc/uploads/projects/TR010032/TR010032-003757-National%20Highways%20-%20Other-%201.3%20Introduction%20to%20the%20Application_v2.0_clean.pdf","license":"Crown copyright / Open Government Licence v3.0 for Planning Inspectorate and GOV.UK public-sector pages where stated; National Highways application-document copyright retained.","authority":"Secretary of State for Transport / Planning Inspectorate","decision_status":"development consent granted","decision_date":"2025-03-25","statutory_instrument":"UKSI 2025/462","dco_in_force_date":"2025-04-15","route_length_miles":14.5,"route_length_km":23,"evidence_grade":"A","confidence_score_0_100":99,"evidence_scope":"exact Planning Inspectorate NSIP scheme TR010032 plus Secretary of State decision and UKSI 2025/462","evidence_slice_sha256":"615403c33b1149d3cae06d5590a4288be2ef9b85a04e3334956a84f537c8459a","fake_data":false,"spatial_binding_method":"official Planning Inspectorate project identifier plus DCO Order limits / application land plans; exact geometry extraction, canonical parcel spatial join and materialization delegated to local OpenCode","planned_building_count_contribution":0}}]}
