{"type":"FeatureCollection","category":"AAYS_SOURCE_AREA_V1","slot_family":"AAYS_LAYER24_EVIDENCE_V1","semantic_mode":"DIRECT_BUILDING_PRESENT","slot_id":"height_difference_1","lineage_id":"AAYS_21_SLOT_SAFE_PARALLEL_V1","accepted_count":0,"source_area_count":1,"materialized_parcel_count":0,"features":[{"type":"Feature","id":"planning-data-building-outline-spatial-query-title-boundary-33071999","geometry":{"coordinates":[[[[-0.507899,51.523091],[-0.507757,51.523105],[-0.507729,51.523023],[-0.507635,51.522773],[-0.507566,51.522579],[-0.507544,51.522506],[-0.507512,51.522428],[-0.507465,51.522335],[-0.507422,51.522256],[-0.507376,51.522187],[-0.507331,51.522132],[-0.507731,51.522236],[-0.507757,51.521943],[-0.507751,51.521907],[-0.507754,51.521839],[-0.507199,51.521825],[-0.507267,51.521611],[-0.507058,51.521611],[-0.507041,51.521613],[-0.507002,51.521621],[-0.506884,51.521648],[-0.506851,51.521645],[-0.506643,51.521634],[-0.506593,51.52161],[-0.506258,51.521621],[-0.506234,51.521613],[-0.506153,51.521542],[-0.506089,51.521543],[-0.505873,51.521531],[-0.505586,51.521554],[-0.505462,51.52158],[-0.504885,51.52169],[-0.505041,51.52193],[-0.505319,51.522471],[-0.505385,51.52262],[-0.505412,51.522697],[-0.505441,51.522754],[-0.50554,51.522964],[-0.505589,51.523098],[-0.505614,51.523259],[-0.505605,51.52353],[-0.505633,51.523901],[-0.505912,51.523966],[-0.50609,51.524001],[-0.506198,51.524028],[-0.506371,51.524048],[-0.506466,51.524054],[-0.506523,51.524048],[-0.506774,51.524089],[-0.507298,51.524212],[-0.507301,51.524201],[-0.507298,51.524215],[-0.507476,51.52422],[-0.507607,51.524226],[-0.507681,51.524231],[-0.507682,51.524223],[-0.507713,51.524105],[-0.507767,51.523858],[-0.507899,51.523836],[-0.508144,51.523818],[-0.508125,51.523743],[-0.5081,51.523746],[-0.508101,51.523748],[-0.508015,51.523755],[-0.507985,51.523594],[-0.508013,51.523591],[-0.507899,51.523091]]]],"type":"MultiPolygon"},"properties":{"evidence_scope":"coverage_area","coverage_area_id":"title-boundary:33071999","source_resolution":"exact_title_boundary_entity_12033071999_query_mask_wgs84; building-outline result payload unavailable","time_window":"2007-07-23/2026-09-29","source_url":"https://www.planning.data.gov.uk/entity.geojson?dataset=building-outline&geometry_entity=12033071999&geometry_relation=intersects&limit=50","final_url":"https://www.planning.data.gov.uk/entity.geojson?dataset=building-outline&geometry_entity=12033071999&geometry_relation=intersects&limit=50","measurement_date":"2026-09-29","measurement_method":"PLANNING_DATA_API_GEOMETRY_ENTITY_INTERSECTS_BUILDING_OUTLINE","spatial_binding_method":"EXACT_HMLR_TITLE_BOUNDARY_QUERY_MASK; FIXED_PARTITION_REPO_BINDING_SEARCH_NO_MATCH; BUILDING_OUTLINE_API_PAYLOAD_NOT_CAPTURED","confidence_score_0_100":96,"evidence_grade":"B_OFFICIAL_SPATIAL_QUERY_METHOD_EXACT_MASK_NO_RESULT_PAYLOAD","field_evidence":["docs: geometry_entity filters using another entity geometry","docs: geometry_relation supports spatial relationship filtering including intersects","query: dataset=building-outline","query: geometry_entity=12033071999","query: geometry_relation=intersects","query: limit=50","prior verified mask: title-boundary:33071999 MultiPolygon"],"evidence_slice_path":"source_evidence/planning_data_building_outline_geometry_entity_query.txt","evidence_slice_sha256":"6814b29d2c898e843750bd3b0cbbb96cf3ec46317e499e379ecb14c8c8aad618","publisher":"Planning Data / HM Land Registry query mask","license":"Open Government Licence v3.0","data_date":"2026-08-03","data_version":"title-boundary entity entry-date 2026-08-03; API docs retrieved 2026-09-29","accessed_at_utc":"2026-09-28T21:50:00Z","http_status":null,"http_status_evidence":"WEB_RETRIEVAL_INTERNAL_ERROR_URL_NOT_ACCESSIBLE","fake_data":false,"duplicate_control":{"matches":0,"queries":["geometry_entity=12033071999","PLANNING_DATA_BUILDING_OUTLINE_INTERSECTS_TITLE_BOUNDARY_33071999","building-outline intersects title-boundary 33071999"]},"accepted_as_parcel":false,"canonical_parcel_id":null,"building_present_verified":false}}]}
