{"type":"FeatureCollection","features":[{"type":"Feature","properties":{"slot_id":"building_type_3","lineage_id":"building_type_3-new-20260927T1328+0300","batch_id":"BT3-P79G61-20261006-PLANNINGDATA-LBO42162683","cursor":"BT3-P79G61-20261006-PLANNINGDATA-LBO42162683-p79","building_state":"BUILDING_PRESENT","source_record_id":"reference=DLC289_v1;outline_entity=42162683","entity":42162683,"reference":"DLC289_v1","name":"CHURCH OF ST PETER","building_type_use":"church","type_use_evidence":"official_name_exact=CHURCH OF ST PETER","dataset":"listed-building-outline","quality":"authoritative","start_date":"1975-03-14","entry_date":"1975-03-14","organisation":"Leicester City Council","listed_building":"1361047","source_url":"https://www.planning.data.gov.uk/entity/42162683","final_url":"https://www.planning.data.gov.uk/entity/42162683","source_version":"Planning Data listed-building-outline entity 42162683 reference DLC289_v1; authoritative Leicester City Council record","access_utc":"2026-10-06T01:28:00Z","data_date":"1975-03-14","license":"Open Government Licence v3.0; © Crown copyright and database right 2026","source_file_sha256":"d15d87117a8826e51a8b288f326fb9996f76d8d7e8e3ee08efabe5b25239c117","evidence_slice_sha256":"b14cf53531f9d99366594297549bbc125156301565e3d4f769b6bc7f25825508","field_evidence":["entity","reference","name","quality","dataset","organisation","start-date","entry-date","geometry","point","notes","listed-building"],"confidence_score_0_100":99,"evidence_grade":"A_OFFICIAL_GOVERNMENT_BUILDING_OUTLINE_AND_NAMED_TYPE_USE","fake_data":false},"geometry":{"type":"MultiPolygon","coordinates":[[[[-1.116744,52.630207],[-1.116979,52.630039],[-1.116981,52.630002],[-1.116964,52.629974],[-1.116942,52.629962],[-1.116761,52.629895],[-1.11664,52.629867],[-1.11656,52.629856],[-1.116173,52.629828],[-1.116158,52.629841],[-1.116117,52.629852],[-1.116076,52.629859],[-1.116038,52.629876],[-1.116015,52.629889],[-1.115998,52.629895],[-1.115996,52.629906],[-1.116007,52.629913],[-1.116012,52.62992],[-1.116014,52.629929],[-1.116008,52.629974],[-1.116,52.62999],[-1.115983,52.630006],[-1.115964,52.630031],[-1.11596,52.630042],[-1.115947,52.630114],[-1.115983,52.630116],[-1.115979,52.630149],[-1.115984,52.63015],[-1.115976,52.630204],[-1.116291,52.630228],[-1.116302,52.630173],[-1.116744,52.630207]]]]}}]}
