{"type":"FeatureCollection","features":[{"type":"Feature","id":"planned_buildings_1-planning-data-brownfield-1719373","geometry":{"type":"Point","coordinates":[-0.118159,51.488953]},"properties":{"slot_id":"planned_buildings_1","source_entity":1719373,"official_site_key":"BLR058","canonical_record_key":"planning-data:brownfield-land:1719373","planned_project_name":"Graphite Square","planned_project_status":"permissioned","planned_project_owner_type":"not-owned-by-a-public-authority","planned_building_capacity_net_dwellings":178,"source_record_end_date":"2022-12-15","source_record_temporal_status":"historical_register_record","planned_building_value":null,"planned_building_probability":null,"planned_building_complete_month":null,"matching_method":"direct_official_site_record_no_parcel_match","source_quality":"authoritative","source_license":"Open Government Licence v3.0","fake_data":false,"demo_only":true,"final_ready":false,"production_merge":false}}],"metadata":{"slot_id":"planned_buildings_1","batch_index":9,"source_window":{"geometry_entity":626195,"geometry_relation":"within","limit":1,"offset":56},"feature_count_before":97,"feature_count_after":98,"unique_real_site_project_before":48,"unique_real_site_project_after":49,"duplicate_count_new":0,"nearest_match_used":false,"fake_data":false,"mirror_only":true}}