{"type":"FeatureCollection","features":[],"metadata":{"slot_id":"planned_buildings_1","batch_index":1,"source_family":"planning_data_brownfield_land","source_window":{"geometry_entity":626195,"geometry_relation":"within","limit":1,"offset":48},"source_reference_hint":"BLR050","source_evidence_status":"LAMBETH_EXACT_ENTITY_GEOMETRY_NOT_RESOLVED_GENERIC_REFERENCE_COLLISION_REJECTED","feature_count_before":95,"feature_count_after":95,"unique_real_site_project_before":46,"unique_real_site_project_after":46,"new_feature_count":0,"duplicate_count_new":0,"nearest_match_used":false,"fake_data":false,"mirror_only":true}}