{
  "type": "FeatureCollection",
  "features": [
    {
      "type": "Feature",
      "id": "brownfield-site:1802774:107",
      "geometry": {
        "type": "MultiPolygon",
        "coordinates": [
          [
            [
              [
                -1.021225,
                53.430835
              ],
              [
                -1.021387,
                53.430876
              ],
              [
                -1.02138,
                53.430885
              ],
              [
                -1.021709,
                53.430952
              ],
              [
                -1.021816,
                53.43097
              ],
              [
                -1.021869,
                53.430823
              ],
              [
                -1.021713,
                53.430796
              ],
              [
                -1.021759,
                53.43072
              ],
              [
                -1.021716,
                53.43071
              ],
              [
                -1.021691,
                53.430758
              ],
              [
                -1.021468,
                53.430718
              ],
              [
                -1.021318,
                53.430685
              ],
              [
                -1.021225,
                53.430835
              ]
            ]
          ]
        ]
      },
      "properties": {
        "slot_id": "future_growth_7",
        "lineage_id": "future_growth_7_open_source_v2_20260813",
        "page_generation": null,
        "batch_id": "batch_20261008T051917Z_bfs1802774",
        "semantic_mode": "AREA_JOIN",
        "semantic_identity": "brownfield-site:1802774:107",
        "official_entity_id": 1802774,
        "official_reference": "107",
        "organisation": "Doncaster Metropolitan Borough Council",
        "source_url": "https://www.planning.data.gov.uk/entity/1802774",
        "final_url": "https://www.planning.data.gov.uk/entity/1802774",
        "http_status": null,
        "http_status_evidence": "official HTML publicly retrievable in web search; HTTP status header not available",
        "accessed_utc": "2026-10-08T05:19:17Z",
        "data_date": "2025-12-03",
        "data_version": "2025-12-03 entity entry; dataset collector 2026-08-10",
        "licence": "Open Government Licence v3.0",
        "licence_url": "https://www.nationalarchives.gov.uk/doc/open-government-licence/version/3/",
        "source_window": "brownfield-site:entity:1802774:entry-2025-12-03",
        "dataset": "brownfield-site",
        "entity": 1802774,
        "reference": "107",
        "source_sha256": "c37c18b165894189e953232c6fbbacf60f7ab0f01669b73d00dbf3c21c68cd7a",
        "source_sha256_basis": "canonical official field_evidence JSON, not source HTML bytes",
        "field_evidence": {
          "entry-date": "2025-12-03",
          "start-date": "",
          "end-date": "",
          "entity": 1802774,
          "name": "7 - 9 Scot Lane, Bawtry, Doncaster",
          "dataset": "brownfield-site",
          "typology": "geography",
          "reference": "107",
          "prefix": "brownfield-site",
          "organisation-entity": "109",
          "geometry": "MULTIPOLYGON (((-1.021225 53.430835, -1.021387 53.430876, -1.02138 53.430885, -1.021709 53.430952, -1.021816 53.43097, -1.021869 53.430823, -1.021713 53.430796, -1.021759 53.43072, -1.021716 53.43071, -1.021691 53.430758, -1.021468 53.430718, -1.021318 53.430685, -1.021225 53.430835)))",
          "point": "POINT (-1.021556 53.430827)",
          "quality": "authoritative",
          "brownfield-site": "107",
          "organisation-curie": "local-authority:DNC"
        },
        "evidence_slice_sha256": "acec6e55bb1a76a564da6b5b3582027713d54bca6ec6b2df1ed521626869423d",
        "evidence_grade": "A_EXACT_OFFICIAL_IDENTIFIER",
        "confidence_score_0_100": 95,
        "official_geometry_available": true,
        "official_geometry_type": "MULTIPOLYGON",
        "source_geometry_materialized_here": true,
        "point_not_used_as_coverage": true,
        "source_area_only": true,
        "fake_data": false
      }
    }
  ]
}
