{"type":"FeatureCollection","features":[{"type":"Feature","geometry":null,"properties":{"slot_id":"future_growth_1","lineage_id":"future_growth_1-newstart-20260927T153100+0300","page_generation":null,"accepted_as_parcel":false,"source_area_count_contribution":1,"exact_identifier":"E2.1","exact_identifier_provided":true,"coverage_polygon_provided":false,"identifier_namespace":"King's Lynn and West Norfolk Local Plan 2021-2040 policy","site_name":"West Winch Growth Area","access_utc":"2026-10-03T04:49:00Z","data_date":"2025-03-27","source_url":"https://www.west-norfolk.gov.uk/info/20079/planning_policy_and_local_plan/1207/local_plan_2021-2040","final_url":"https://www.west-norfolk.gov.uk/info/20079/planning_policy_and_local_plan/1207/local_plan_2021-2040","adoption_news_url":"https://www.west-norfolk.gov.uk/news/article/1837/local_plan_for_west_norfolk_formally_adopted","policy_document_url":"https://www.west-norfolk.gov.uk/site/custom_scripts/static_content/_large_files/KingsLynn_WestNorfolk_LocalPlan/Local_Plan_final_April_2025.pdf","license":"Borough Council public planning-policy pages and adopted plan; document-specific reuse licence not stated on the source page","authority":"Borough Council of King's Lynn & West Norfolk","site_area_hectares":192,"housing_capacity_total_up_to":4000,"housing_delivery_by_2040_at_least":2030,"employment_land_hectares_approx":1,"plan_status":"adopted","adoption_date":"2025-03-27","evidence_grade":"A","confidence_score_0_100":99,"evidence_scope":"exact adopted Local Plan Policy E2.1 growth-area allocation plus council adoption page and adoption announcement","evidence_slice_sha256":"bc35db74a1c42e280598a0a5928db41f4c5d4c351a452ea61d7d194cd914c3ed","fake_data":false,"spatial_binding_method":"official adopted Policy E2.1 exact identifier and policy-map allocation; exact boundary extraction, canonical parcel spatial join and materialization delegated to local OpenCode","planned_building_count_contribution":0}}]}
