{
  "type": "FeatureCollection",
  "features": [
    {
      "type": "Feature",
      "id": "ons-ogp-wd-may-2026-bfc:E05009390",
      "geometry": null,
      "properties": {
        "evidence_scope": "coverage_area",
        "coverage_area_id": "E05009390",
        "coverage_area_name": "Campden",
        "identifier_scheme": "ONS_OGP_WD26CD_BINDING",
        "exact_official_identifier": "E05009390",
        "source_resolution": "ONS_OGP_MAY_2026_BFC_FULL_RESOLUTION_COASTLINE",
        "time_window": "2026-05",
        "measurement_date": "2026-05",
        "measurement_method": "official ONS ward-boundary dataset binding",
        "spatial_binding_method": "FEATURE_EXTRACTION_AND_PARCEL_JOIN_DEFERRED_TO_LOCAL_OPENCODE",
        "source_url": "https://www.data.gov.uk/dataset/a90d948c-c2c3-460a-9b7b-6eb877960258/wards-may-2026-boundaries-uk-bfc",
        "final_url": "https://www.data.gov.uk/dataset/a90d948c-c2c3-460a-9b7b-6eb877960258/wards-may-2026-boundaries-uk-bfc",
        "accessed_at_utc": "2026-10-05T20:05:00Z",
        "data_date": "2026-05",
        "licence": "Contains both Ordnance Survey and ONS Intellectual Property Rights",
        "sha256": "105e31baf8da11ec50e59f6e4202f4a70e615c908ea876da1d9d8aa6dcf2a6e4",
        "field_evidence": {
          "dataset_title": "Wards (May 2026) Boundaries UK BFC",
          "publisher": "Office for National Statistics",
          "dataset_updated": "2026-08-06",
          "data_date": "2026-05",
          "boundary_resolution": "BFC Full resolution - clipped to the coastline (Mean High Water mark)",
          "feature_access_service": "https://services1.arcgis.com/ESMARspQHYMw9BZ9/arcgis/rest/services/WD_MAY_2026_UK_BFC/FeatureServer",
          "map_service": "https://services1.arcgis.com/ESMARspQHYMw9BZ9/arcgis/rest/services/Wards_(May_2026)_Boundaries_UK_BFC/MapServer",
          "csv_schema_fields": [
            "FID",
            "WD26CD",
            "WD26NM",
            "WD26NMW",
            "LAD26CD",
            "LAD26NM",
            "BNG_E",
            "BNG_N",
            "LONG",
            "LAT",
            "Shape__Area",
            "Shape__Length",
            "GlobalID"
          ],
          "available_formats": [
            "GPKG",
            "GDB",
            "XLSX",
            "ZIP",
            "TXT",
            "KML",
            "GeoJSON",
            "CSV",
            "ArcGIS GeoServices REST API",
            "HTML"
          ],
          "target_ward_code": "E05009390",
          "target_ward_name": "Campden",
          "geometry_materialized": false,
          "spatial_binding_method": "FEATURE_EXTRACTION_AND_PARCEL_JOIN_DEFERRED_TO_LOCAL_OPENCODE",
          "source_url": "https://www.data.gov.uk/dataset/a90d948c-c2c3-460a-9b7b-6eb877960258/wards-may-2026-boundaries-uk-bfc",
          "accessed_at_utc": "2026-10-05T20:05:00Z"
        },
        "evidence_slice_sha256": "115fe67898b984c5b9979fe553df43f0857fab4b5925b2ad33019e92e44fc805",
        "confidence_score_0_100": 98,
        "evidence_grade": "A",
        "fake_data": false,
        "source_window_id": "ons_ogp_WD_MAY_2026_UK_BFC_E05009390_sps5_20261005_v1",
        "cursor": "ons_ogp_WD_MAY_2026_UK_BFC_E05009390_sps5_20261005_v1:record=1"
      }
    }
  ]
}
