{"type":"FeatureCollection","name":"security_public_safety_3","properties":{"accepted_count":0,"batch_id":"20261006T161800Z-staffordshire-tamworth-lpt-slugs-000-007","fake_data":false,"lineage_id":"L24-SPS3-57442c9c2a0f429be2d2","page_generation":1,"partition":{"start":61523,"end":92283,"count":30761},"schema":"AAYS_LAYER24_EVIDENCE_V1","slot_id":"security_public_safety_3","source_area_count":8},"features":[{"type":"Feature","id":"staffordshire:tamworth:amington","geometry":null,"properties":{"accepted_as_parcel":false,"access_utc":"2026-10-06T16:18:00Z","canonical_binding":"LOCAL_OPENCODE_PENDING_NOT_CLAIMED","canonical_url":"https://www.staffordshire.police.uk/area/your-area/staffordshire/tamworth/amington/","confidence_score_0_100":100,"data_date":"2026-10-06 access snapshot","direct_parcel":false,"duplicate":false,"evidence_grade":"A_OFFICIAL_FORCE_WEBSITE_EXACT_AREA_SLUG","fake_data":false,"force_id":"staffordshire","identifier":"amington","identifier_field":"canonical_team_slug","identifier_version":"Staffordshire Police Tamworth team URL slug","name":"Amington","parent_area":"Tamworth","record_type":"SOURCE_AREA_EXACT_IDENTIFIER","source_area_counted":true,"source_url":"https://www.staffordshire.police.uk/area/your-area/staffordshire/tamworth/"}},{"type":"Feature","id":"staffordshire:tamworth:belgrave","geometry":null,"properties":{"accepted_as_parcel":false,"access_utc":"2026-10-06T16:18:00Z","canonical_binding":"LOCAL_OPENCODE_PENDING_NOT_CLAIMED","canonical_url":"https://www.staffordshire.police.uk/area/your-area/staffordshire/tamworth/belgrave/","confidence_score_0_100":100,"data_date":"2026-10-06 access snapshot","direct_parcel":false,"duplicate":false,"evidence_grade":"A_OFFICIAL_FORCE_WEBSITE_EXACT_AREA_SLUG","fake_data":false,"force_id":"staffordshire","identifier":"belgrave","identifier_field":"canonical_team_slug","identifier_version":"Staffordshire Police Tamworth team URL slug","name":"Belgrave","parent_area":"Tamworth","record_type":"SOURCE_AREA_EXACT_IDENTIFIER","source_area_counted":true,"source_url":"https://www.staffordshire.police.uk/area/your-area/staffordshire/tamworth/"}},{"type":"Feature","id":"staffordshire:tamworth:bolehall","geometry":null,"properties":{"accepted_as_parcel":false,"access_utc":"2026-10-06T16:18:00Z","canonical_binding":"LOCAL_OPENCODE_PENDING_NOT_CLAIMED","canonical_url":"https://www.staffordshire.police.uk/area/your-area/staffordshire/tamworth/bolehall/","confidence_score_0_100":100,"data_date":"2026-10-06 access snapshot","direct_parcel":false,"duplicate":false,"evidence_grade":"A_OFFICIAL_FORCE_WEBSITE_EXACT_AREA_SLUG","fake_data":false,"force_id":"staffordshire","identifier":"bolehall","identifier_field":"canonical_team_slug","identifier_version":"Staffordshire Police Tamworth team URL slug","name":"Bolehall","parent_area":"Tamworth","record_type":"SOURCE_AREA_EXACT_IDENTIFIER","source_area_counted":true,"source_url":"https://www.staffordshire.police.uk/area/your-area/staffordshire/tamworth/"}},{"type":"Feature","id":"staffordshire:tamworth:glascote","geometry":null,"properties":{"accepted_as_parcel":false,"access_utc":"2026-10-06T16:18:00Z","canonical_binding":"LOCAL_OPENCODE_PENDING_NOT_CLAIMED","canonical_url":"https://www.staffordshire.police.uk/area/your-area/staffordshire/tamworth/glascote/","confidence_score_0_100":100,"data_date":"2026-10-06 access snapshot","direct_parcel":false,"duplicate":false,"evidence_grade":"A_OFFICIAL_FORCE_WEBSITE_EXACT_AREA_SLUG","fake_data":false,"force_id":"staffordshire","identifier":"glascote","identifier_field":"canonical_team_slug","identifier_version":"Staffordshire Police Tamworth team URL slug","name":"Glascote","parent_area":"Tamworth","record_type":"SOURCE_AREA_EXACT_IDENTIFIER","source_area_counted":true,"source_url":"https://www.staffordshire.police.uk/area/your-area/staffordshire/tamworth/"}},{"type":"Feature","id":"staffordshire:tamworth:mercian-and-spital","geometry":null,"properties":{"accepted_as_parcel":false,"access_utc":"2026-10-06T16:18:00Z","canonical_binding":"LOCAL_OPENCODE_PENDING_NOT_CLAIMED","canonical_url":"https://www.staffordshire.police.uk/area/your-area/staffordshire/tamworth/mercian-and-spital/","confidence_score_0_100":100,"data_date":"2026-10-06 access snapshot","direct_parcel":false,"duplicate":false,"evidence_grade":"A_OFFICIAL_FORCE_WEBSITE_EXACT_AREA_SLUG","fake_data":false,"force_id":"staffordshire","identifier":"mercian-and-spital","identifier_field":"canonical_team_slug","identifier_version":"Staffordshire Police Tamworth team URL slug","name":"Mercian and Spital","parent_area":"Tamworth","record_type":"SOURCE_AREA_EXACT_IDENTIFIER","source_area_counted":true,"source_url":"https://www.staffordshire.police.uk/area/your-area/staffordshire/tamworth/"}},{"type":"Feature","id":"staffordshire:tamworth:stoneydelph","geometry":null,"properties":{"accepted_as_parcel":false,"access_utc":"2026-10-06T16:18:00Z","canonical_binding":"LOCAL_OPENCODE_PENDING_NOT_CLAIMED","canonical_url":"https://www.staffordshire.police.uk/area/your-area/staffordshire/tamworth/stoneydelph/","confidence_score_0_100":100,"data_date":"2026-10-06 access snapshot","direct_parcel":false,"duplicate":false,"evidence_grade":"A_OFFICIAL_FORCE_WEBSITE_EXACT_AREA_SLUG","fake_data":false,"force_id":"staffordshire","identifier":"stoneydelph","identifier_field":"canonical_team_slug","identifier_version":"Staffordshire Police Tamworth team URL slug","name":"Stoneydelph","parent_area":"Tamworth","record_type":"SOURCE_AREA_EXACT_IDENTIFIER","source_area_counted":true,"source_url":"https://www.staffordshire.police.uk/area/your-area/staffordshire/tamworth/"}},{"type":"Feature","id":"staffordshire:tamworth:tamworth-town","geometry":null,"properties":{"accepted_as_parcel":false,"access_utc":"2026-10-06T16:18:00Z","canonical_binding":"LOCAL_OPENCODE_PENDING_NOT_CLAIMED","canonical_url":"https://www.staffordshire.police.uk/area/your-area/staffordshire/tamworth/tamworth-town/","confidence_score_0_100":100,"data_date":"2026-10-06 access snapshot","direct_parcel":false,"duplicate":false,"evidence_grade":"A_OFFICIAL_FORCE_WEBSITE_EXACT_AREA_SLUG","fake_data":false,"force_id":"staffordshire","identifier":"tamworth-town","identifier_field":"canonical_team_slug","identifier_version":"Staffordshire Police Tamworth team URL slug","name":"Tamworth Town","parent_area":"Tamworth","record_type":"SOURCE_AREA_EXACT_IDENTIFIER","source_area_counted":true,"source_url":"https://www.staffordshire.police.uk/area/your-area/staffordshire/tamworth/"}},{"type":"Feature","id":"staffordshire:tamworth:wilnecote-and-trinity","geometry":null,"properties":{"accepted_as_parcel":false,"access_utc":"2026-10-06T16:18:00Z","canonical_binding":"LOCAL_OPENCODE_PENDING_NOT_CLAIMED","canonical_url":"https://www.staffordshire.police.uk/area/your-area/staffordshire/tamworth/wilnecote-and-trinity/","confidence_score_0_100":100,"data_date":"2026-10-06 access snapshot","direct_parcel":false,"duplicate":false,"evidence_grade":"A_OFFICIAL_FORCE_WEBSITE_EXACT_AREA_SLUG","fake_data":false,"force_id":"staffordshire","identifier":"wilnecote-and-trinity","identifier_field":"canonical_team_slug","identifier_version":"Staffordshire Police Tamworth team URL slug","name":"Wilnecote and Trinity","parent_area":"Tamworth","record_type":"SOURCE_AREA_EXACT_IDENTIFIER","source_area_counted":true,"source_url":"https://www.staffordshire.police.uk/area/your-area/staffordshire/tamworth/"}}]}