{"type":"FeatureCollection","features":[{"type":"Feature","id":"lfb-soa-2020-21:Campden","geometry":null,"properties":{"evidence_scope":"coverage_area","coverage_area_id":"Campden","coverage_area_name":"Campden","identifier_scheme":"LFB_OFFICIAL_WARD_NAME_2020_21","exact_official_identifier":"CAMPDEN","source_resolution":"LFB_OFFICIAL_WARD_PERFORMANCE_ANNEX","time_window":"2016/17-2020/21","measurement_date":"2020/21","measurement_method":"official London Fire Brigade ward-level fire and casualty annex","spatial_binding_method":"DEFERRED_TO_LOCAL_OPENCODE","source_url":"https://data.london.gov.uk/download/24yl6/7e393854-a780-42ca-bc55-acf6e4b38450/Statement%20of%20Assurance%202020-21%20-%20Data%20appendix%20FINAL.pdf","final_url":"https://data.london.gov.uk/download/24yl6/7e393854-a780-42ca-bc55-acf6e4b38450/Statement%20of%20Assurance%202020-21%20-%20Data%20appendix%20FINAL.pdf","accessed_at_utc":"2026-10-06T04:01:00Z","data_date":"2020/21","licence":"NOT_STATED_ON_CAPTURED_DOCUMENT","sha256":"977653570eae84920f40fcbce107af27746ff045eccf83e97accb9601f4356bb","field_evidence":{"document_title":"Statement of Assurance 2020-21 - Data appendix FINAL","annex":"Annex 2B | Incidents, fires and fire casualties - ward data","borough":"KENSINGTON AND CHELSEA","ward":"CAMPDEN","years":["2016/17","2017/18","2018/19","2019/20","2020/21"],"metrics":{"primary_fires":[8,5,12,8,13],"arson":[0,0,2,0,2],"accidental_dwelling_fires":[5,1,4,6,7],"fires_in_care_homes_and_sheltered_housing":[0,0,0,0,0],"fire_deaths":[0,0,0,0,1],"fire_serious_injuries":[0,0,0,0,0]},"source_page_index":49,"source_lines":"1943-1949 headers; 1996 Campden row","screenshot_status":"ATTEMPTED_CACHE_MISS_NO_SCREENSHOT_EVIDENCE_CLAIM","source_url":"https://data.london.gov.uk/download/24yl6/7e393854-a780-42ca-bc55-acf6e4b38450/Statement%20of%20Assurance%202020-21%20-%20Data%20appendix%20FINAL.pdf","accessed_at_utc":"2026-10-06T04:01:00Z"},"evidence_slice_sha256":"c870dfcdc840eedcd45cc326a5844f0e1289e53fa1db366d88939e70cc3c9383","confidence_score_0_100":99,"evidence_grade":"A","fake_data":false,"source_window_id":"lfb_statement_assurance_2020_21_annex2b_campden_sps5_20261006_v1","cursor":"lfb_statement_assurance_2020_21_annex2b_campden_sps5_20261006_v1:record=1"}}]}
