{"type":"FeatureCollection","features":[{"type":"Feature","geometry":{"type":"MultiPolygon","coordinates":[[[[-4.898179,50.372151],[-4.898096,50.372211],[-4.89792,50.37237],[-4.898164,50.372517],[-4.898243,50.372446],[-4.898362,50.372365],[-4.898484,50.372268],[-4.89821,50.37212],[-4.898179,50.372151]]]]},"properties":{"slot_id":"future_growth_7","lineage_id":"future_growth_7_open_source_v2_20260813","page_generation":null,"batch_id":"batch_20261004T053700Z_bfs1802841","official_entity_id":1802841,"official_reference":"BR304","dataset":"brownfield-site","organisation":"Cornwall Council","source_url":"https://www.planning.data.gov.uk/entity/1802841","final_url":"https://www.planning.data.gov.uk/entity/1802841","geojson_download_url":"https://www.planning.data.gov.uk/entity/1802841.geojson","accessed_utc":"2026-10-04T05:37:00Z","data_date":"2023-12-12","licence":"Open Government Licence v3.0","source_sha256":"56e714b9c809c3eeb44cb252b2884bff67219ef5d04272feccb500056a2fd992","source_sha256_basis":"canonical_official_field_evidence_json","field_evidence":{"entry-date":"2023-12-12","start-date":"2023-12-12","end-date":"","entity":1802841,"name":"Treviscoe Methodist Church, 56 Central Treviscoe, St Austell, PL26 7QP","dataset":"brownfield-site","typology":"geography","reference":"BR304","prefix":"brownfield-site","organisation-entity":"92","geometry":"MULTIPOLYGON (((-4.898179 50.372151, -4.898096 50.372211, -4.89792 50.37237, -4.898164 50.372517, -4.898243 50.372446, -4.898362 50.372365, -4.898484 50.372268, -4.89821 50.37212, -4.898179 50.372151)))","point":"POINT (-4.898196 50.372316)","quality":"authoritative","brownfield-site":"BR304"},"evidence_slice_sha256":"38fa1d1dcfeddc4bff475b2a0e138fee118d3e08b7dec102daead87a6d1a16e5","evidence_grade":"A_OFFICIAL_MULTIPOLYGON","confidence_score_0_100":99,"official_geometry_available":true,"official_geometry_type":"MULTIPOLYGON","source_geometry_materialized_here":true,"point_not_used_as_coverage":true,"source_area_basis":"official published MULTIPOLYGON","source_area_only":true,"fake_data":false}}]}
