{
  "features": [
    {
      "geometry": null,
      "id": "E23000001",
      "properties": {
        "accepted_as_parcel": false,
        "access_utc": "2026-10-02T19:43:00Z",
        "canonical_binding": "LOCAL_OPENCODE_PENDING_NOT_CLAIMED",
        "confidence_score_0_100": 100,
        "data_date": "2023-08",
        "direct_parcel": false,
        "duplicate": true,
        "evidence_grade": "A_OFFICIAL_ONS_PDF_EXACT_IDENTIFIER_DOMAIN",
        "fake_data": false,
        "identifier": "E23000001",
        "identifier_field": "PFA",
        "identifier_version": "ONSPD August 2023 PFA code domain",
        "jurisdiction": "England",
        "record_type": "SOURCE_AREA_EXACT_IDENTIFIER",
        "source_area_counted": false,
        "source_url": "https://www.ons.gov.uk/file?uri=%2Faboutus%2Ftransparencyandgovernance%2Ffreedomofinformationfoi%2Flistofpostcodesandcorrespondinglocalauthorities%2Fonspduserguideaug2023.pdf"
      },
      "type": "Feature"
    },
    {
      "geometry": null,
      "id": "E23000002",
      "properties": {
        "accepted_as_parcel": false,
        "access_utc": "2026-10-02T19:43:00Z",
        "canonical_binding": "LOCAL_OPENCODE_PENDING_NOT_CLAIMED",
        "confidence_score_0_100": 100,
        "data_date": "2023-08",
        "direct_parcel": false,
        "duplicate": true,
        "evidence_grade": "A_OFFICIAL_ONS_PDF_EXACT_IDENTIFIER_DOMAIN",
        "fake_data": false,
        "identifier": "E23000002",
        "identifier_field": "PFA",
        "identifier_version": "ONSPD August 2023 PFA code domain",
        "jurisdiction": "England",
        "record_type": "SOURCE_AREA_EXACT_IDENTIFIER",
        "source_area_counted": false,
        "source_url": "https://www.ons.gov.uk/file?uri=%2Faboutus%2Ftransparencyandgovernance%2Ffreedomofinformationfoi%2Flistofpostcodesandcorrespondinglocalauthorities%2Fonspduserguideaug2023.pdf"
      },
      "type": "Feature"
    },
    {
      "geometry": null,
      "id": "E23000003",
      "properties": {
        "accepted_as_parcel": false,
        "access_utc": "2026-10-02T19:43:00Z",
        "canonical_binding": "LOCAL_OPENCODE_PENDING_NOT_CLAIMED",
        "confidence_score_0_100": 100,
        "data_date": "2023-08",
        "direct_parcel": false,
        "duplicate": true,
        "evidence_grade": "A_OFFICIAL_ONS_PDF_EXACT_IDENTIFIER_DOMAIN",
        "fake_data": false,
        "identifier": "E23000003",
        "identifier_field": "PFA",
        "identifier_version": "ONSPD August 2023 PFA code domain",
        "jurisdiction": "England",
        "record_type": "SOURCE_AREA_EXACT_IDENTIFIER",
        "source_area_counted": false,
        "source_url": "https://www.ons.gov.uk/file?uri=%2Faboutus%2Ftransparencyandgovernance%2Ffreedomofinformationfoi%2Flistofpostcodesandcorrespondinglocalauthorities%2Fonspduserguideaug2023.pdf"
      },
      "type": "Feature"
    },
    {
      "geometry": null,
      "id": "E23000004",
      "properties": {
        "accepted_as_parcel": false,
        "access_utc": "2026-10-02T19:43:00Z",
        "canonical_binding": "LOCAL_OPENCODE_PENDING_NOT_CLAIMED",
        "confidence_score_0_100": 100,
        "data_date": "2023-08",
        "direct_parcel": false,
        "duplicate": true,
        "evidence_grade": "A_OFFICIAL_ONS_PDF_EXACT_IDENTIFIER_DOMAIN",
        "fake_data": false,
        "identifier": "E23000004",
        "identifier_field": "PFA",
        "identifier_version": "ONSPD August 2023 PFA code domain",
        "jurisdiction": "England",
        "record_type": "SOURCE_AREA_EXACT_IDENTIFIER",
        "source_area_counted": false,
        "source_url": "https://www.ons.gov.uk/file?uri=%2Faboutus%2Ftransparencyandgovernance%2Ffreedomofinformationfoi%2Flistofpostcodesandcorrespondinglocalauthorities%2Fonspduserguideaug2023.pdf"
      },
      "type": "Feature"
    },
    {
      "geometry": null,
      "id": "E23000005",
      "properties": {
        "accepted_as_parcel": false,
        "access_utc": "2026-10-02T19:43:00Z",
        "canonical_binding": "LOCAL_OPENCODE_PENDING_NOT_CLAIMED",
        "confidence_score_0_100": 100,
        "data_date": "2023-08",
        "direct_parcel": false,
        "duplicate": true,
        "evidence_grade": "A_OFFICIAL_ONS_PDF_EXACT_IDENTIFIER_DOMAIN",
        "fake_data": false,
        "identifier": "E23000005",
        "identifier_field": "PFA",
        "identifier_version": "ONSPD August 2023 PFA code domain",
        "jurisdiction": "England",
        "record_type": "SOURCE_AREA_EXACT_IDENTIFIER",
        "source_area_counted": false,
        "source_url": "https://www.ons.gov.uk/file?uri=%2Faboutus%2Ftransparencyandgovernance%2Ffreedomofinformationfoi%2Flistofpostcodesandcorrespondinglocalauthorities%2Fonspduserguideaug2023.pdf"
      },
      "type": "Feature"
    },
    {
      "geometry": null,
      "id": "E23000006",
      "properties": {
        "accepted_as_parcel": false,
        "access_utc": "2026-10-02T19:43:00Z",
        "canonical_binding": "LOCAL_OPENCODE_PENDING_NOT_CLAIMED",
        "confidence_score_0_100": 100,
        "data_date": "2023-08",
        "direct_parcel": false,
        "duplicate": true,
        "evidence_grade": "A_OFFICIAL_ONS_PDF_EXACT_IDENTIFIER_DOMAIN",
        "fake_data": false,
        "identifier": "E23000006",
        "identifier_field": "PFA",
        "identifier_version": "ONSPD August 2023 PFA code domain",
        "jurisdiction": "England",
        "record_type": "SOURCE_AREA_EXACT_IDENTIFIER",
        "source_area_counted": false,
        "source_url": "https://www.ons.gov.uk/file?uri=%2Faboutus%2Ftransparencyandgovernance%2Ffreedomofinformationfoi%2Flistofpostcodesandcorrespondinglocalauthorities%2Fonspduserguideaug2023.pdf"
      },
      "type": "Feature"
    },
    {
      "geometry": null,
      "id": "E23000007",
      "properties": {
        "accepted_as_parcel": false,
        "access_utc": "2026-10-02T19:43:00Z",
        "canonical_binding": "LOCAL_OPENCODE_PENDING_NOT_CLAIMED",
        "confidence_score_0_100": 100,
        "data_date": "2023-08",
        "direct_parcel": false,
        "duplicate": true,
        "evidence_grade": "A_OFFICIAL_ONS_PDF_EXACT_IDENTIFIER_DOMAIN",
        "fake_data": false,
        "identifier": "E23000007",
        "identifier_field": "PFA",
        "identifier_version": "ONSPD August 2023 PFA code domain",
        "jurisdiction": "England",
        "record_type": "SOURCE_AREA_EXACT_IDENTIFIER",
        "source_area_counted": false,
        "source_url": "https://www.ons.gov.uk/file?uri=%2Faboutus%2Ftransparencyandgovernance%2Ffreedomofinformationfoi%2Flistofpostcodesandcorrespondinglocalauthorities%2Fonspduserguideaug2023.pdf"
      },
      "type": "Feature"
    },
    {
      "geometry": null,
      "id": "E23000008",
      "properties": {
        "accepted_as_parcel": false,
        "access_utc": "2026-10-02T19:43:00Z",
        "canonical_binding": "LOCAL_OPENCODE_PENDING_NOT_CLAIMED",
        "confidence_score_0_100": 100,
        "data_date": "2023-08",
        "direct_parcel": false,
        "duplicate": true,
        "evidence_grade": "A_OFFICIAL_ONS_PDF_EXACT_IDENTIFIER_DOMAIN",
        "fake_data": false,
        "identifier": "E23000008",
        "identifier_field": "PFA",
        "identifier_version": "ONSPD August 2023 PFA code domain",
        "jurisdiction": "England",
        "record_type": "SOURCE_AREA_EXACT_IDENTIFIER",
        "source_area_counted": false,
        "source_url": "https://www.ons.gov.uk/file?uri=%2Faboutus%2Ftransparencyandgovernance%2Ffreedomofinformationfoi%2Flistofpostcodesandcorrespondinglocalauthorities%2Fonspduserguideaug2023.pdf"
      },
      "type": "Feature"
    },
    {
      "geometry": null,
      "id": "E23000009",
      "properties": {
        "accepted_as_parcel": false,
        "access_utc": "2026-10-02T19:43:00Z",
        "canonical_binding": "LOCAL_OPENCODE_PENDING_NOT_CLAIMED",
        "confidence_score_0_100": 100,
        "data_date": "2023-08",
        "direct_parcel": false,
        "duplicate": true,
        "evidence_grade": "A_OFFICIAL_ONS_PDF_EXACT_IDENTIFIER_DOMAIN",
        "fake_data": false,
        "identifier": "E23000009",
        "identifier_field": "PFA",
        "identifier_version": "ONSPD August 2023 PFA code domain",
        "jurisdiction": "England",
        "record_type": "SOURCE_AREA_EXACT_IDENTIFIER",
        "source_area_counted": false,
        "source_url": "https://www.ons.gov.uk/file?uri=%2Faboutus%2Ftransparencyandgovernance%2Ffreedomofinformationfoi%2Flistofpostcodesandcorrespondinglocalauthorities%2Fonspduserguideaug2023.pdf"
      },
      "type": "Feature"
    },
    {
      "geometry": null,
      "id": "E23000010",
      "properties": {
        "accepted_as_parcel": false,
        "access_utc": "2026-10-02T19:43:00Z",
        "canonical_binding": "LOCAL_OPENCODE_PENDING_NOT_CLAIMED",
        "confidence_score_0_100": 100,
        "data_date": "2023-08",
        "direct_parcel": false,
        "duplicate": true,
        "evidence_grade": "A_OFFICIAL_ONS_PDF_EXACT_IDENTIFIER_DOMAIN",
        "fake_data": false,
        "identifier": "E23000010",
        "identifier_field": "PFA",
        "identifier_version": "ONSPD August 2023 PFA code domain",
        "jurisdiction": "England",
        "record_type": "SOURCE_AREA_EXACT_IDENTIFIER",
        "source_area_counted": false,
        "source_url": "https://www.ons.gov.uk/file?uri=%2Faboutus%2Ftransparencyandgovernance%2Ffreedomofinformationfoi%2Flistofpostcodesandcorrespondinglocalauthorities%2Fonspduserguideaug2023.pdf"
      },
      "type": "Feature"
    },
    {
      "geometry": null,
      "id": "E23000011",
      "properties": {
        "accepted_as_parcel": false,
        "access_utc": "2026-10-02T19:43:00Z",
        "canonical_binding": "LOCAL_OPENCODE_PENDING_NOT_CLAIMED",
        "confidence_score_0_100": 100,
        "data_date": "2023-08",
        "direct_parcel": false,
        "duplicate": true,
        "evidence_grade": "A_OFFICIAL_ONS_PDF_EXACT_IDENTIFIER_DOMAIN",
        "fake_data": false,
        "identifier": "E23000011",
        "identifier_field": "PFA",
        "identifier_version": "ONSPD August 2023 PFA code domain",
        "jurisdiction": "England",
        "record_type": "SOURCE_AREA_EXACT_IDENTIFIER",
        "source_area_counted": false,
        "source_url": "https://www.ons.gov.uk/file?uri=%2Faboutus%2Ftransparencyandgovernance%2Ffreedomofinformationfoi%2Flistofpostcodesandcorrespondinglocalauthorities%2Fonspduserguideaug2023.pdf"
      },
      "type": "Feature"
    },
    {
      "geometry": null,
      "id": "E23000012",
      "properties": {
        "accepted_as_parcel": false,
        "access_utc": "2026-10-02T19:43:00Z",
        "canonical_binding": "LOCAL_OPENCODE_PENDING_NOT_CLAIMED",
        "confidence_score_0_100": 100,
        "data_date": "2023-08",
        "direct_parcel": false,
        "duplicate": true,
        "evidence_grade": "A_OFFICIAL_ONS_PDF_EXACT_IDENTIFIER_DOMAIN",
        "fake_data": false,
        "identifier": "E23000012",
        "identifier_field": "PFA",
        "identifier_version": "ONSPD August 2023 PFA code domain",
        "jurisdiction": "England",
        "record_type": "SOURCE_AREA_EXACT_IDENTIFIER",
        "source_area_counted": false,
        "source_url": "https://www.ons.gov.uk/file?uri=%2Faboutus%2Ftransparencyandgovernance%2Ffreedomofinformationfoi%2Flistofpostcodesandcorrespondinglocalauthorities%2Fonspduserguideaug2023.pdf"
      },
      "type": "Feature"
    },
    {
      "geometry": null,
      "id": "E23000013",
      "properties": {
        "accepted_as_parcel": false,
        "access_utc": "2026-10-02T19:43:00Z",
        "canonical_binding": "LOCAL_OPENCODE_PENDING_NOT_CLAIMED",
        "confidence_score_0_100": 100,
        "data_date": "2023-08",
        "direct_parcel": false,
        "duplicate": true,
        "evidence_grade": "A_OFFICIAL_ONS_PDF_EXACT_IDENTIFIER_DOMAIN",
        "fake_data": false,
        "identifier": "E23000013",
        "identifier_field": "PFA",
        "identifier_version": "ONSPD August 2023 PFA code domain",
        "jurisdiction": "England",
        "record_type": "SOURCE_AREA_EXACT_IDENTIFIER",
        "source_area_counted": false,
        "source_url": "https://www.ons.gov.uk/file?uri=%2Faboutus%2Ftransparencyandgovernance%2Ffreedomofinformationfoi%2Flistofpostcodesandcorrespondinglocalauthorities%2Fonspduserguideaug2023.pdf"
      },
      "type": "Feature"
    },
    {
      "geometry": null,
      "id": "E23000014",
      "properties": {
        "accepted_as_parcel": false,
        "access_utc": "2026-10-02T19:43:00Z",
        "canonical_binding": "LOCAL_OPENCODE_PENDING_NOT_CLAIMED",
        "confidence_score_0_100": 100,
        "data_date": "2023-08",
        "direct_parcel": false,
        "duplicate": true,
        "evidence_grade": "A_OFFICIAL_ONS_PDF_EXACT_IDENTIFIER_DOMAIN",
        "fake_data": false,
        "identifier": "E23000014",
        "identifier_field": "PFA",
        "identifier_version": "ONSPD August 2023 PFA code domain",
        "jurisdiction": "England",
        "record_type": "SOURCE_AREA_EXACT_IDENTIFIER",
        "source_area_counted": false,
        "source_url": "https://www.ons.gov.uk/file?uri=%2Faboutus%2Ftransparencyandgovernance%2Ffreedomofinformationfoi%2Flistofpostcodesandcorrespondinglocalauthorities%2Fonspduserguideaug2023.pdf"
      },
      "type": "Feature"
    },
    {
      "geometry": null,
      "id": "E23000015",
      "properties": {
        "accepted_as_parcel": false,
        "access_utc": "2026-10-02T19:43:00Z",
        "canonical_binding": "LOCAL_OPENCODE_PENDING_NOT_CLAIMED",
        "confidence_score_0_100": 100,
        "data_date": "2023-08",
        "direct_parcel": false,
        "duplicate": true,
        "evidence_grade": "A_OFFICIAL_ONS_PDF_EXACT_IDENTIFIER_DOMAIN",
        "fake_data": false,
        "identifier": "E23000015",
        "identifier_field": "PFA",
        "identifier_version": "ONSPD August 2023 PFA code domain",
        "jurisdiction": "England",
        "record_type": "SOURCE_AREA_EXACT_IDENTIFIER",
        "source_area_counted": false,
        "source_url": "https://www.ons.gov.uk/file?uri=%2Faboutus%2Ftransparencyandgovernance%2Ffreedomofinformationfoi%2Flistofpostcodesandcorrespondinglocalauthorities%2Fonspduserguideaug2023.pdf"
      },
      "type": "Feature"
    },
    {
      "geometry": null,
      "id": "E23000016",
      "properties": {
        "accepted_as_parcel": false,
        "access_utc": "2026-10-02T19:43:00Z",
        "canonical_binding": "LOCAL_OPENCODE_PENDING_NOT_CLAIMED",
        "confidence_score_0_100": 100,
        "data_date": "2023-08",
        "direct_parcel": false,
        "duplicate": true,
        "evidence_grade": "A_OFFICIAL_ONS_PDF_EXACT_IDENTIFIER_DOMAIN",
        "fake_data": false,
        "identifier": "E23000016",
        "identifier_field": "PFA",
        "identifier_version": "ONSPD August 2023 PFA code domain",
        "jurisdiction": "England",
        "record_type": "SOURCE_AREA_EXACT_IDENTIFIER",
        "source_area_counted": false,
        "source_url": "https://www.ons.gov.uk/file?uri=%2Faboutus%2Ftransparencyandgovernance%2Ffreedomofinformationfoi%2Flistofpostcodesandcorrespondinglocalauthorities%2Fonspduserguideaug2023.pdf"
      },
      "type": "Feature"
    },
    {
      "geometry": null,
      "id": "E23000017",
      "properties": {
        "accepted_as_parcel": false,
        "access_utc": "2026-10-02T19:43:00Z",
        "canonical_binding": "LOCAL_OPENCODE_PENDING_NOT_CLAIMED",
        "confidence_score_0_100": 100,
        "data_date": "2023-08",
        "direct_parcel": false,
        "duplicate": true,
        "evidence_grade": "A_OFFICIAL_ONS_PDF_EXACT_IDENTIFIER_DOMAIN",
        "fake_data": false,
        "identifier": "E23000017",
        "identifier_field": "PFA",
        "identifier_version": "ONSPD August 2023 PFA code domain",
        "jurisdiction": "England",
        "record_type": "SOURCE_AREA_EXACT_IDENTIFIER",
        "source_area_counted": false,
        "source_url": "https://www.ons.gov.uk/file?uri=%2Faboutus%2Ftransparencyandgovernance%2Ffreedomofinformationfoi%2Flistofpostcodesandcorrespondinglocalauthorities%2Fonspduserguideaug2023.pdf"
      },
      "type": "Feature"
    },
    {
      "geometry": null,
      "id": "E23000018",
      "properties": {
        "accepted_as_parcel": false,
        "access_utc": "2026-10-02T19:43:00Z",
        "canonical_binding": "LOCAL_OPENCODE_PENDING_NOT_CLAIMED",
        "confidence_score_0_100": 100,
        "data_date": "2023-08",
        "direct_parcel": false,
        "duplicate": true,
        "evidence_grade": "A_OFFICIAL_ONS_PDF_EXACT_IDENTIFIER_DOMAIN",
        "fake_data": false,
        "identifier": "E23000018",
        "identifier_field": "PFA",
        "identifier_version": "ONSPD August 2023 PFA code domain",
        "jurisdiction": "England",
        "record_type": "SOURCE_AREA_EXACT_IDENTIFIER",
        "source_area_counted": false,
        "source_url": "https://www.ons.gov.uk/file?uri=%2Faboutus%2Ftransparencyandgovernance%2Ffreedomofinformationfoi%2Flistofpostcodesandcorrespondinglocalauthorities%2Fonspduserguideaug2023.pdf"
      },
      "type": "Feature"
    },
    {
      "geometry": null,
      "id": "E23000019",
      "properties": {
        "accepted_as_parcel": false,
        "access_utc": "2026-10-02T19:43:00Z",
        "canonical_binding": "LOCAL_OPENCODE_PENDING_NOT_CLAIMED",
        "confidence_score_0_100": 100,
        "data_date": "2023-08",
        "direct_parcel": false,
        "duplicate": true,
        "evidence_grade": "A_OFFICIAL_ONS_PDF_EXACT_IDENTIFIER_DOMAIN",
        "fake_data": false,
        "identifier": "E23000019",
        "identifier_field": "PFA",
        "identifier_version": "ONSPD August 2023 PFA code domain",
        "jurisdiction": "England",
        "record_type": "SOURCE_AREA_EXACT_IDENTIFIER",
        "source_area_counted": false,
        "source_url": "https://www.ons.gov.uk/file?uri=%2Faboutus%2Ftransparencyandgovernance%2Ffreedomofinformationfoi%2Flistofpostcodesandcorrespondinglocalauthorities%2Fonspduserguideaug2023.pdf"
      },
      "type": "Feature"
    },
    {
      "geometry": null,
      "id": "E23000020",
      "properties": {
        "accepted_as_parcel": false,
        "access_utc": "2026-10-02T19:43:00Z",
        "canonical_binding": "LOCAL_OPENCODE_PENDING_NOT_CLAIMED",
        "confidence_score_0_100": 100,
        "data_date": "2023-08",
        "direct_parcel": false,
        "duplicate": true,
        "evidence_grade": "A_OFFICIAL_ONS_PDF_EXACT_IDENTIFIER_DOMAIN",
        "fake_data": false,
        "identifier": "E23000020",
        "identifier_field": "PFA",
        "identifier_version": "ONSPD August 2023 PFA code domain",
        "jurisdiction": "England",
        "record_type": "SOURCE_AREA_EXACT_IDENTIFIER",
        "source_area_counted": false,
        "source_url": "https://www.ons.gov.uk/file?uri=%2Faboutus%2Ftransparencyandgovernance%2Ffreedomofinformationfoi%2Flistofpostcodesandcorrespondinglocalauthorities%2Fonspduserguideaug2023.pdf"
      },
      "type": "Feature"
    },
    {
      "geometry": null,
      "id": "E23000021",
      "properties": {
        "accepted_as_parcel": false,
        "access_utc": "2026-10-02T19:43:00Z",
        "canonical_binding": "LOCAL_OPENCODE_PENDING_NOT_CLAIMED",
        "confidence_score_0_100": 100,
        "data_date": "2023-08",
        "direct_parcel": false,
        "duplicate": true,
        "evidence_grade": "A_OFFICIAL_ONS_PDF_EXACT_IDENTIFIER_DOMAIN",
        "fake_data": false,
        "identifier": "E23000021",
        "identifier_field": "PFA",
        "identifier_version": "ONSPD August 2023 PFA code domain",
        "jurisdiction": "England",
        "record_type": "SOURCE_AREA_EXACT_IDENTIFIER",
        "source_area_counted": false,
        "source_url": "https://www.ons.gov.uk/file?uri=%2Faboutus%2Ftransparencyandgovernance%2Ffreedomofinformationfoi%2Flistofpostcodesandcorrespondinglocalauthorities%2Fonspduserguideaug2023.pdf"
      },
      "type": "Feature"
    },
    {
      "geometry": null,
      "id": "E23000022",
      "properties": {
        "accepted_as_parcel": false,
        "access_utc": "2026-10-02T19:43:00Z",
        "canonical_binding": "LOCAL_OPENCODE_PENDING_NOT_CLAIMED",
        "confidence_score_0_100": 100,
        "data_date": "2023-08",
        "direct_parcel": false,
        "duplicate": true,
        "evidence_grade": "A_OFFICIAL_ONS_PDF_EXACT_IDENTIFIER_DOMAIN",
        "fake_data": false,
        "identifier": "E23000022",
        "identifier_field": "PFA",
        "identifier_version": "ONSPD August 2023 PFA code domain",
        "jurisdiction": "England",
        "record_type": "SOURCE_AREA_EXACT_IDENTIFIER",
        "source_area_counted": false,
        "source_url": "https://www.ons.gov.uk/file?uri=%2Faboutus%2Ftransparencyandgovernance%2Ffreedomofinformationfoi%2Flistofpostcodesandcorrespondinglocalauthorities%2Fonspduserguideaug2023.pdf"
      },
      "type": "Feature"
    },
    {
      "geometry": null,
      "id": "E23000023",
      "properties": {
        "accepted_as_parcel": false,
        "access_utc": "2026-10-02T19:43:00Z",
        "canonical_binding": "LOCAL_OPENCODE_PENDING_NOT_CLAIMED",
        "confidence_score_0_100": 100,
        "data_date": "2023-08",
        "direct_parcel": false,
        "duplicate": true,
        "evidence_grade": "A_OFFICIAL_ONS_PDF_EXACT_IDENTIFIER_DOMAIN",
        "fake_data": false,
        "identifier": "E23000023",
        "identifier_field": "PFA",
        "identifier_version": "ONSPD August 2023 PFA code domain",
        "jurisdiction": "England",
        "record_type": "SOURCE_AREA_EXACT_IDENTIFIER",
        "source_area_counted": false,
        "source_url": "https://www.ons.gov.uk/file?uri=%2Faboutus%2Ftransparencyandgovernance%2Ffreedomofinformationfoi%2Flistofpostcodesandcorrespondinglocalauthorities%2Fonspduserguideaug2023.pdf"
      },
      "type": "Feature"
    },
    {
      "geometry": null,
      "id": "E23000024",
      "properties": {
        "accepted_as_parcel": false,
        "access_utc": "2026-10-02T19:43:00Z",
        "canonical_binding": "LOCAL_OPENCODE_PENDING_NOT_CLAIMED",
        "confidence_score_0_100": 100,
        "data_date": "2023-08",
        "direct_parcel": false,
        "duplicate": true,
        "evidence_grade": "A_OFFICIAL_ONS_PDF_EXACT_IDENTIFIER_DOMAIN",
        "fake_data": false,
        "identifier": "E23000024",
        "identifier_field": "PFA",
        "identifier_version": "ONSPD August 2023 PFA code domain",
        "jurisdiction": "England",
        "record_type": "SOURCE_AREA_EXACT_IDENTIFIER",
        "source_area_counted": false,
        "source_url": "https://www.ons.gov.uk/file?uri=%2Faboutus%2Ftransparencyandgovernance%2Ffreedomofinformationfoi%2Flistofpostcodesandcorrespondinglocalauthorities%2Fonspduserguideaug2023.pdf"
      },
      "type": "Feature"
    },
    {
      "geometry": null,
      "id": "E23000025",
      "properties": {
        "accepted_as_parcel": false,
        "access_utc": "2026-10-02T19:43:00Z",
        "canonical_binding": "LOCAL_OPENCODE_PENDING_NOT_CLAIMED",
        "confidence_score_0_100": 100,
        "data_date": "2023-08",
        "direct_parcel": false,
        "duplicate": true,
        "evidence_grade": "A_OFFICIAL_ONS_PDF_EXACT_IDENTIFIER_DOMAIN",
        "fake_data": false,
        "identifier": "E23000025",
        "identifier_field": "PFA",
        "identifier_version": "ONSPD August 2023 PFA code domain",
        "jurisdiction": "England",
        "record_type": "SOURCE_AREA_EXACT_IDENTIFIER",
        "source_area_counted": false,
        "source_url": "https://www.ons.gov.uk/file?uri=%2Faboutus%2Ftransparencyandgovernance%2Ffreedomofinformationfoi%2Flistofpostcodesandcorrespondinglocalauthorities%2Fonspduserguideaug2023.pdf"
      },
      "type": "Feature"
    },
    {
      "geometry": null,
      "id": "E23000026",
      "properties": {
        "accepted_as_parcel": false,
        "access_utc": "2026-10-02T19:43:00Z",
        "canonical_binding": "LOCAL_OPENCODE_PENDING_NOT_CLAIMED",
        "confidence_score_0_100": 100,
        "data_date": "2023-08",
        "direct_parcel": false,
        "duplicate": true,
        "evidence_grade": "A_OFFICIAL_ONS_PDF_EXACT_IDENTIFIER_DOMAIN",
        "fake_data": false,
        "identifier": "E23000026",
        "identifier_field": "PFA",
        "identifier_version": "ONSPD August 2023 PFA code domain",
        "jurisdiction": "England",
        "record_type": "SOURCE_AREA_EXACT_IDENTIFIER",
        "source_area_counted": false,
        "source_url": "https://www.ons.gov.uk/file?uri=%2Faboutus%2Ftransparencyandgovernance%2Ffreedomofinformationfoi%2Flistofpostcodesandcorrespondinglocalauthorities%2Fonspduserguideaug2023.pdf"
      },
      "type": "Feature"
    },
    {
      "geometry": null,
      "id": "E23000027",
      "properties": {
        "accepted_as_parcel": false,
        "access_utc": "2026-10-02T19:43:00Z",
        "canonical_binding": "LOCAL_OPENCODE_PENDING_NOT_CLAIMED",
        "confidence_score_0_100": 100,
        "data_date": "2023-08",
        "direct_parcel": false,
        "duplicate": true,
        "evidence_grade": "A_OFFICIAL_ONS_PDF_EXACT_IDENTIFIER_DOMAIN",
        "fake_data": false,
        "identifier": "E23000027",
        "identifier_field": "PFA",
        "identifier_version": "ONSPD August 2023 PFA code domain",
        "jurisdiction": "England",
        "record_type": "SOURCE_AREA_EXACT_IDENTIFIER",
        "source_area_counted": false,
        "source_url": "https://www.ons.gov.uk/file?uri=%2Faboutus%2Ftransparencyandgovernance%2Ffreedomofinformationfoi%2Flistofpostcodesandcorrespondinglocalauthorities%2Fonspduserguideaug2023.pdf"
      },
      "type": "Feature"
    },
    {
      "geometry": null,
      "id": "E23000028",
      "properties": {
        "accepted_as_parcel": false,
        "access_utc": "2026-10-02T19:43:00Z",
        "canonical_binding": "LOCAL_OPENCODE_PENDING_NOT_CLAIMED",
        "confidence_score_0_100": 100,
        "data_date": "2023-08",
        "direct_parcel": false,
        "duplicate": true,
        "evidence_grade": "A_OFFICIAL_ONS_PDF_EXACT_IDENTIFIER_DOMAIN",
        "fake_data": false,
        "identifier": "E23000028",
        "identifier_field": "PFA",
        "identifier_version": "ONSPD August 2023 PFA code domain",
        "jurisdiction": "England",
        "record_type": "SOURCE_AREA_EXACT_IDENTIFIER",
        "source_area_counted": false,
        "source_url": "https://www.ons.gov.uk/file?uri=%2Faboutus%2Ftransparencyandgovernance%2Ffreedomofinformationfoi%2Flistofpostcodesandcorrespondinglocalauthorities%2Fonspduserguideaug2023.pdf"
      },
      "type": "Feature"
    },
    {
      "geometry": null,
      "id": "E23000029",
      "properties": {
        "accepted_as_parcel": false,
        "access_utc": "2026-10-02T19:43:00Z",
        "canonical_binding": "LOCAL_OPENCODE_PENDING_NOT_CLAIMED",
        "confidence_score_0_100": 100,
        "data_date": "2023-08",
        "direct_parcel": false,
        "duplicate": true,
        "evidence_grade": "A_OFFICIAL_ONS_PDF_EXACT_IDENTIFIER_DOMAIN",
        "fake_data": false,
        "identifier": "E23000029",
        "identifier_field": "PFA",
        "identifier_version": "ONSPD August 2023 PFA code domain",
        "jurisdiction": "England",
        "record_type": "SOURCE_AREA_EXACT_IDENTIFIER",
        "source_area_counted": false,
        "source_url": "https://www.ons.gov.uk/file?uri=%2Faboutus%2Ftransparencyandgovernance%2Ffreedomofinformationfoi%2Flistofpostcodesandcorrespondinglocalauthorities%2Fonspduserguideaug2023.pdf"
      },
      "type": "Feature"
    },
    {
      "geometry": null,
      "id": "E23000030",
      "properties": {
        "accepted_as_parcel": false,
        "access_utc": "2026-10-02T19:43:00Z",
        "canonical_binding": "LOCAL_OPENCODE_PENDING_NOT_CLAIMED",
        "confidence_score_0_100": 100,
        "data_date": "2023-08",
        "direct_parcel": false,
        "duplicate": true,
        "evidence_grade": "A_OFFICIAL_ONS_PDF_EXACT_IDENTIFIER_DOMAIN",
        "fake_data": false,
        "identifier": "E23000030",
        "identifier_field": "PFA",
        "identifier_version": "ONSPD August 2023 PFA code domain",
        "jurisdiction": "England",
        "record_type": "SOURCE_AREA_EXACT_IDENTIFIER",
        "source_area_counted": false,
        "source_url": "https://www.ons.gov.uk/file?uri=%2Faboutus%2Ftransparencyandgovernance%2Ffreedomofinformationfoi%2Flistofpostcodesandcorrespondinglocalauthorities%2Fonspduserguideaug2023.pdf"
      },
      "type": "Feature"
    },
    {
      "geometry": null,
      "id": "E23000031",
      "properties": {
        "accepted_as_parcel": false,
        "access_utc": "2026-10-02T19:43:00Z",
        "canonical_binding": "LOCAL_OPENCODE_PENDING_NOT_CLAIMED",
        "confidence_score_0_100": 100,
        "data_date": "2023-08",
        "direct_parcel": false,
        "duplicate": true,
        "evidence_grade": "A_OFFICIAL_ONS_PDF_EXACT_IDENTIFIER_DOMAIN",
        "fake_data": false,
        "identifier": "E23000031",
        "identifier_field": "PFA",
        "identifier_version": "ONSPD August 2023 PFA code domain",
        "jurisdiction": "England",
        "record_type": "SOURCE_AREA_EXACT_IDENTIFIER",
        "source_area_counted": false,
        "source_url": "https://www.ons.gov.uk/file?uri=%2Faboutus%2Ftransparencyandgovernance%2Ffreedomofinformationfoi%2Flistofpostcodesandcorrespondinglocalauthorities%2Fonspduserguideaug2023.pdf"
      },
      "type": "Feature"
    },
    {
      "geometry": null,
      "id": "E23000032",
      "properties": {
        "accepted_as_parcel": false,
        "access_utc": "2026-10-02T19:43:00Z",
        "canonical_binding": "LOCAL_OPENCODE_PENDING_NOT_CLAIMED",
        "confidence_score_0_100": 100,
        "data_date": "2023-08",
        "direct_parcel": false,
        "duplicate": true,
        "evidence_grade": "A_OFFICIAL_ONS_PDF_EXACT_IDENTIFIER_DOMAIN",
        "fake_data": false,
        "identifier": "E23000032",
        "identifier_field": "PFA",
        "identifier_version": "ONSPD August 2023 PFA code domain",
        "jurisdiction": "England",
        "record_type": "SOURCE_AREA_EXACT_IDENTIFIER",
        "source_area_counted": false,
        "source_url": "https://www.ons.gov.uk/file?uri=%2Faboutus%2Ftransparencyandgovernance%2Ffreedomofinformationfoi%2Flistofpostcodesandcorrespondinglocalauthorities%2Fonspduserguideaug2023.pdf"
      },
      "type": "Feature"
    },
    {
      "geometry": null,
      "id": "E23000033",
      "properties": {
        "accepted_as_parcel": false,
        "access_utc": "2026-10-02T19:43:00Z",
        "canonical_binding": "LOCAL_OPENCODE_PENDING_NOT_CLAIMED",
        "confidence_score_0_100": 100,
        "data_date": "2023-08",
        "direct_parcel": false,
        "duplicate": true,
        "evidence_grade": "A_OFFICIAL_ONS_PDF_EXACT_IDENTIFIER_DOMAIN",
        "fake_data": false,
        "identifier": "E23000033",
        "identifier_field": "PFA",
        "identifier_version": "ONSPD August 2023 PFA code domain",
        "jurisdiction": "England",
        "record_type": "SOURCE_AREA_EXACT_IDENTIFIER",
        "source_area_counted": false,
        "source_url": "https://www.ons.gov.uk/file?uri=%2Faboutus%2Ftransparencyandgovernance%2Ffreedomofinformationfoi%2Flistofpostcodesandcorrespondinglocalauthorities%2Fonspduserguideaug2023.pdf"
      },
      "type": "Feature"
    },
    {
      "geometry": null,
      "id": "E23000034",
      "properties": {
        "accepted_as_parcel": false,
        "access_utc": "2026-10-02T19:43:00Z",
        "canonical_binding": "LOCAL_OPENCODE_PENDING_NOT_CLAIMED",
        "confidence_score_0_100": 100,
        "data_date": "2023-08",
        "direct_parcel": false,
        "duplicate": true,
        "evidence_grade": "A_OFFICIAL_ONS_PDF_EXACT_IDENTIFIER_DOMAIN",
        "fake_data": false,
        "identifier": "E23000034",
        "identifier_field": "PFA",
        "identifier_version": "ONSPD August 2023 PFA code domain",
        "jurisdiction": "England",
        "record_type": "SOURCE_AREA_EXACT_IDENTIFIER",
        "source_area_counted": false,
        "source_url": "https://www.ons.gov.uk/file?uri=%2Faboutus%2Ftransparencyandgovernance%2Ffreedomofinformationfoi%2Flistofpostcodesandcorrespondinglocalauthorities%2Fonspduserguideaug2023.pdf"
      },
      "type": "Feature"
    },
    {
      "geometry": null,
      "id": "E23000035",
      "properties": {
        "accepted_as_parcel": false,
        "access_utc": "2026-10-02T19:43:00Z",
        "canonical_binding": "LOCAL_OPENCODE_PENDING_NOT_CLAIMED",
        "confidence_score_0_100": 100,
        "data_date": "2023-08",
        "direct_parcel": false,
        "duplicate": true,
        "evidence_grade": "A_OFFICIAL_ONS_PDF_EXACT_IDENTIFIER_DOMAIN",
        "fake_data": false,
        "identifier": "E23000035",
        "identifier_field": "PFA",
        "identifier_version": "ONSPD August 2023 PFA code domain",
        "jurisdiction": "England",
        "record_type": "SOURCE_AREA_EXACT_IDENTIFIER",
        "source_area_counted": false,
        "source_url": "https://www.ons.gov.uk/file?uri=%2Faboutus%2Ftransparencyandgovernance%2Ffreedomofinformationfoi%2Flistofpostcodesandcorrespondinglocalauthorities%2Fonspduserguideaug2023.pdf"
      },
      "type": "Feature"
    },
    {
      "geometry": null,
      "id": "E23000036",
      "properties": {
        "accepted_as_parcel": false,
        "access_utc": "2026-10-02T19:43:00Z",
        "canonical_binding": "LOCAL_OPENCODE_PENDING_NOT_CLAIMED",
        "confidence_score_0_100": 100,
        "data_date": "2023-08",
        "direct_parcel": false,
        "duplicate": true,
        "evidence_grade": "A_OFFICIAL_ONS_PDF_EXACT_IDENTIFIER_DOMAIN",
        "fake_data": false,
        "identifier": "E23000036",
        "identifier_field": "PFA",
        "identifier_version": "ONSPD August 2023 PFA code domain",
        "jurisdiction": "England",
        "record_type": "SOURCE_AREA_EXACT_IDENTIFIER",
        "source_area_counted": false,
        "source_url": "https://www.ons.gov.uk/file?uri=%2Faboutus%2Ftransparencyandgovernance%2Ffreedomofinformationfoi%2Flistofpostcodesandcorrespondinglocalauthorities%2Fonspduserguideaug2023.pdf"
      },
      "type": "Feature"
    },
    {
      "geometry": null,
      "id": "E23000037",
      "properties": {
        "accepted_as_parcel": false,
        "access_utc": "2026-10-02T19:43:00Z",
        "canonical_binding": "LOCAL_OPENCODE_PENDING_NOT_CLAIMED",
        "confidence_score_0_100": 100,
        "data_date": "2023-08",
        "direct_parcel": false,
        "duplicate": true,
        "evidence_grade": "A_OFFICIAL_ONS_PDF_EXACT_IDENTIFIER_DOMAIN",
        "fake_data": false,
        "identifier": "E23000037",
        "identifier_field": "PFA",
        "identifier_version": "ONSPD August 2023 PFA code domain",
        "jurisdiction": "England",
        "record_type": "SOURCE_AREA_EXACT_IDENTIFIER",
        "source_area_counted": false,
        "source_url": "https://www.ons.gov.uk/file?uri=%2Faboutus%2Ftransparencyandgovernance%2Ffreedomofinformationfoi%2Flistofpostcodesandcorrespondinglocalauthorities%2Fonspduserguideaug2023.pdf"
      },
      "type": "Feature"
    },
    {
      "geometry": null,
      "id": "E23000038",
      "properties": {
        "accepted_as_parcel": false,
        "access_utc": "2026-10-02T19:43:00Z",
        "canonical_binding": "LOCAL_OPENCODE_PENDING_NOT_CLAIMED",
        "confidence_score_0_100": 100,
        "data_date": "2023-08",
        "direct_parcel": false,
        "duplicate": true,
        "evidence_grade": "A_OFFICIAL_ONS_PDF_EXACT_IDENTIFIER_DOMAIN",
        "fake_data": false,
        "identifier": "E23000038",
        "identifier_field": "PFA",
        "identifier_version": "ONSPD August 2023 PFA code domain",
        "jurisdiction": "England",
        "record_type": "SOURCE_AREA_EXACT_IDENTIFIER",
        "source_area_counted": false,
        "source_url": "https://www.ons.gov.uk/file?uri=%2Faboutus%2Ftransparencyandgovernance%2Ffreedomofinformationfoi%2Flistofpostcodesandcorrespondinglocalauthorities%2Fonspduserguideaug2023.pdf"
      },
      "type": "Feature"
    },
    {
      "geometry": null,
      "id": "E23000039",
      "properties": {
        "accepted_as_parcel": false,
        "access_utc": "2026-10-02T19:43:00Z",
        "canonical_binding": "LOCAL_OPENCODE_PENDING_NOT_CLAIMED",
        "confidence_score_0_100": 100,
        "data_date": "2023-08",
        "direct_parcel": false,
        "duplicate": true,
        "evidence_grade": "A_OFFICIAL_ONS_PDF_EXACT_IDENTIFIER_DOMAIN",
        "fake_data": false,
        "identifier": "E23000039",
        "identifier_field": "PFA",
        "identifier_version": "ONSPD August 2023 PFA code domain",
        "jurisdiction": "England",
        "record_type": "SOURCE_AREA_EXACT_IDENTIFIER",
        "source_area_counted": false,
        "source_url": "https://www.ons.gov.uk/file?uri=%2Faboutus%2Ftransparencyandgovernance%2Ffreedomofinformationfoi%2Flistofpostcodesandcorrespondinglocalauthorities%2Fonspduserguideaug2023.pdf"
      },
      "type": "Feature"
    },
    {
      "geometry": null,
      "id": "W15000001",
      "properties": {
        "accepted_as_parcel": false,
        "access_utc": "2026-10-02T19:43:00Z",
        "canonical_binding": "LOCAL_OPENCODE_PENDING_NOT_CLAIMED",
        "confidence_score_0_100": 100,
        "data_date": "2023-08",
        "direct_parcel": false,
        "duplicate": true,
        "evidence_grade": "A_OFFICIAL_ONS_PDF_EXACT_IDENTIFIER_DOMAIN",
        "fake_data": false,
        "identifier": "W15000001",
        "identifier_field": "PFA",
        "identifier_version": "ONSPD August 2023 PFA code domain",
        "jurisdiction": "Wales",
        "record_type": "SOURCE_AREA_EXACT_IDENTIFIER",
        "source_area_counted": false,
        "source_url": "https://www.ons.gov.uk/file?uri=%2Faboutus%2Ftransparencyandgovernance%2Ffreedomofinformationfoi%2Flistofpostcodesandcorrespondinglocalauthorities%2Fonspduserguideaug2023.pdf"
      },
      "type": "Feature"
    },
    {
      "geometry": null,
      "id": "W15000002",
      "properties": {
        "accepted_as_parcel": false,
        "access_utc": "2026-10-02T19:43:00Z",
        "canonical_binding": "LOCAL_OPENCODE_PENDING_NOT_CLAIMED",
        "confidence_score_0_100": 100,
        "data_date": "2023-08",
        "direct_parcel": false,
        "duplicate": true,
        "evidence_grade": "A_OFFICIAL_ONS_PDF_EXACT_IDENTIFIER_DOMAIN",
        "fake_data": false,
        "identifier": "W15000002",
        "identifier_field": "PFA",
        "identifier_version": "ONSPD August 2023 PFA code domain",
        "jurisdiction": "Wales",
        "record_type": "SOURCE_AREA_EXACT_IDENTIFIER",
        "source_area_counted": false,
        "source_url": "https://www.ons.gov.uk/file?uri=%2Faboutus%2Ftransparencyandgovernance%2Ffreedomofinformationfoi%2Flistofpostcodesandcorrespondinglocalauthorities%2Fonspduserguideaug2023.pdf"
      },
      "type": "Feature"
    },
    {
      "geometry": null,
      "id": "W15000003",
      "properties": {
        "accepted_as_parcel": false,
        "access_utc": "2026-10-02T19:43:00Z",
        "canonical_binding": "LOCAL_OPENCODE_PENDING_NOT_CLAIMED",
        "confidence_score_0_100": 100,
        "data_date": "2023-08",
        "direct_parcel": false,
        "duplicate": true,
        "evidence_grade": "A_OFFICIAL_ONS_PDF_EXACT_IDENTIFIER_DOMAIN",
        "fake_data": false,
        "identifier": "W15000003",
        "identifier_field": "PFA",
        "identifier_version": "ONSPD August 2023 PFA code domain",
        "jurisdiction": "Wales",
        "record_type": "SOURCE_AREA_EXACT_IDENTIFIER",
        "source_area_counted": false,
        "source_url": "https://www.ons.gov.uk/file?uri=%2Faboutus%2Ftransparencyandgovernance%2Ffreedomofinformationfoi%2Flistofpostcodesandcorrespondinglocalauthorities%2Fonspduserguideaug2023.pdf"
      },
      "type": "Feature"
    },
    {
      "geometry": null,
      "id": "W15000004",
      "properties": {
        "accepted_as_parcel": false,
        "access_utc": "2026-10-02T19:43:00Z",
        "canonical_binding": "LOCAL_OPENCODE_PENDING_NOT_CLAIMED",
        "confidence_score_0_100": 100,
        "data_date": "2023-08",
        "direct_parcel": false,
        "duplicate": true,
        "evidence_grade": "A_OFFICIAL_ONS_PDF_EXACT_IDENTIFIER_DOMAIN",
        "fake_data": false,
        "identifier": "W15000004",
        "identifier_field": "PFA",
        "identifier_version": "ONSPD August 2023 PFA code domain",
        "jurisdiction": "Wales",
        "record_type": "SOURCE_AREA_EXACT_IDENTIFIER",
        "source_area_counted": false,
        "source_url": "https://www.ons.gov.uk/file?uri=%2Faboutus%2Ftransparencyandgovernance%2Ffreedomofinformationfoi%2Flistofpostcodesandcorrespondinglocalauthorities%2Fonspduserguideaug2023.pdf"
      },
      "type": "Feature"
    },
    {
      "geometry": null,
      "id": "S23000009",
      "properties": {
        "accepted_as_parcel": false,
        "access_utc": "2026-10-02T19:43:00Z",
        "canonical_binding": "LOCAL_OPENCODE_PENDING_NOT_CLAIMED",
        "confidence_score_0_100": 100,
        "data_date": "2023-08",
        "direct_parcel": false,
        "duplicate": true,
        "evidence_grade": "A_OFFICIAL_ONS_PDF_EXACT_IDENTIFIER_DOMAIN",
        "fake_data": false,
        "identifier": "S23000009",
        "identifier_field": "PFA",
        "identifier_version": "ONSPD August 2023 PFA code domain",
        "jurisdiction": "Scotland",
        "record_type": "SOURCE_AREA_EXACT_IDENTIFIER",
        "source_area_counted": false,
        "source_url": "https://www.ons.gov.uk/file?uri=%2Faboutus%2Ftransparencyandgovernance%2Ffreedomofinformationfoi%2Flistofpostcodesandcorrespondinglocalauthorities%2Fonspduserguideaug2023.pdf"
      },
      "type": "Feature"
    }
  ],
  "name": "security_public_safety_3",
  "properties": {
    "accepted_count": 0,
    "batch_id": "20261002T194300Z-onspd-aug2023-pfa-code-domain-000-043",
    "fake_data": false,
    "lineage_id": "L24-SPS3-57442c9c2a0f429be2d2",
    "page_generation": 1,
    "partition": {
      "count": 30761,
      "end": 92283,
      "start": 61523
    },
    "schema": "AAYS_LAYER24_EVIDENCE_V1",
    "slot_id": "security_public_safety_3",
    "source_area_count": 0
  },
  "type": "FeatureCollection"
}
