{"type":"FeatureCollection","features":[{"type":"Feature","properties":{"slot_id":"building_type_3","lineage_id":"building_type_3-new-20260927T1328+0300","batch_id":"BT3-P89G61-20261006-PLANNINGDATA-LBO42235491","cursor":"BT3-P89G61-20261006-PLANNINGDATA-LBO42235491-p89","building_state":"BUILDING_PRESENT","source_record_id":"reference=11/166;outline_entity=42235491","entity":42235491,"reference":"11/166","name":"","building_type_use":"chapel","type_use_evidence":"official_description_exact=Former Chapel","dataset":"listed-building-outline","quality":"authoritative","start_date":"1973-06-20","entry_date":"2012-08-20","organisation":"Newcastle-under-Lyme Borough Council","listed_building":"362648","source_url":"https://www.planning.data.gov.uk/entity/42235491","final_url":"https://www.planning.data.gov.uk/entity/42235491","source_version":"Planning Data listed-building-outline entity 42235491 reference 11/166; authoritative Newcastle-under-Lyme Borough Council; entry-date 2012-08-20","access_utc":"2026-10-06T11:53:00Z","data_date":"2012-08-20","license":"Open Government Licence v3.0; © Crown copyright and database right 2026","source_file_sha256":"5ff8ea81a3a8799ac053c1bd0f536d10c436f0c1538a104d4f1a60dd704ca22e","evidence_slice_sha256":"c2974e0696a4586cacea2824da9a390e5fe3d6e2251800313625578f5f7a4bdd","field_evidence":["entity","reference","description","quality","dataset","organisation","start-date","entry-date","geometry","listed-building"],"confidence_score_0_100":99,"evidence_grade":"A_OFFICIAL_GOVERNMENT_BUILDING_OUTLINE_AND_NAMED_TYPE_USE","fake_data":false},"geometry":{"type":"MultiPolygon","coordinates":[[[[-2.461454,52.888966],[-2.461305,52.888878],[-2.461118,52.888777],[-2.461062,52.888744],[-2.461027,52.888765],[-2.461091,52.888802],[-2.460888,52.888931],[-2.460952,52.888975],[-2.461172,52.889116],[-2.461223,52.889078],[-2.461275,52.889052],[-2.461343,52.889015],[-2.461454,52.888966]]]]}}]}
