{"type":"FeatureCollection","features":[{"type":"Feature","geometry":null,"properties":{"slot_id":"future_growth_3","lineage_id":"future_growth_3-newstart-20261001T203100Z","page_generation":null,"accepted_as_parcel":false,"source_area_count_contribution":1,"exact_identifier":"ST8","exact_identifier_provided":true,"coverage_polygon_provided":false,"identifier_namespace":"City of York Local Plan strategic housing allocation reference","secondary_exact_identifier":"Policy SS10","source_entity":"ST8 - Land North of Monks Cross","access_utc":"2026-10-03T23:08:25Z","data_date":"2026-06","source_url":"https://www.york.gov.uk/downloads/file/10103/city-of-york-adopted-local-plan-2025","final_url":"https://www.york.gov.uk/downloads/file/10103/city-of-york-adopted-local-plan-2025","license":"No explicit open-data reuse licence identified on the cited Council Local Plan page; City of York Council and applicable third-party mapping rights apply.","authority":"City of York Council","site_address":"Land North of Monks Cross, York","field_evidence":{"reference":"ST8","policy_reference":"SS10","dataset":"City of York Local Plan 2017-2033, adopted 27 February 2025, errata June 2026","organisation":"City of York Council","site_name":"Land North of Monks Cross","allocation_type":"Strategic housing urban extension","site_area_ha":39.5,"allocated_homes":968,"adoption_date":"2025-02-27","current_document_version":"Errata June 2026","policies_map_layer":"Strategic Housing Sites (14)"},"source_payload_sha256":"f87a1bccd0ecb98a0c30134caf862c5826118a696f821c4f04f9984b61b24119","source_payload_sha256_basis":"canonicalized official City of York Council Policy SS10/ST8 evidence fields","evidence_slice_sha256":"bb95dcf753d3d31d5888c80cbde8376a9499ee88fbe38ee484cae0250cffa0c2","evidence_grade":"A","confidence_score_0_100":99,"evidence_scope":"exact_official_identifier_from_adopted_city_of_york_local_plan_policy_SS10_ST8","fake_data":false,"spatial_binding_method":"official City of York adopted Policy SS10/ST8 and Council Policies Map Strategic Housing Sites layer 14; polygon extraction, canonical parcel spatial join, and materialization delegated to local OpenCode","planned_building_count_contribution":0}}]}