{"type":"FeatureCollection","name":"future_growth_6","features":[{"type":"Feature","id":"local-plan-boundary:E60000144","geometry":null,"properties":{"source_area_id":"local-plan-boundary:E60000144","source_area_name":"Central Bedfordshire Council","source_entity":4211029,"source_reference":"E60000144","organisation":"Central Bedfordshire Council","organisation_curie":"local-authority:CBF","dataset":"local-plan-boundary","typology":"geography","quality":"authoritative","local_planning_authorities":"E60000144","point":"POINT (-0.43598 52.006707)","entry_date":"2026-03-18","evidence_type":"exact_coverage_identifier","confidence_score_0_100":100,"evidence_grade":"A_OFFICIAL_AUTHORITATIVE","fake_data":false,"canonical_parcel_id":null,"parcel_match_status":"DEFERRED_TO_LOCAL_OPENCODE"}}]}
