{"type":"FeatureCollection","features":[{"type":"Feature","id":"CHERWELL_26_00370_F_FOUR_BEDROOM_DWELLING_01","geometry":null,"properties":{"slot_id":"planned_buildings_4","owner":"planned_buildings_4","lineage_id":"pb4-8debc7c8ddf348a2","page_generation":1,"partition":"layer24","schema":"AAYS_LAYER24_EVIDENCE_V1","semantic_mode":"PLANNED_BUILDINGS_OFFICIAL_REFERENCE_DISTINCT_STRUCTURE","batch_id":"20261002T021422Z-cherwell-26-00370-f-window-001","publisher":"Cherwell District Council","source_family":"CHERWELL_PLANNING_REGISTER","source_url":"https://planningregister.cherwell.gov.uk/Planning/Display/26/00370/F","final_url":"https://planningregister.cherwell.gov.uk/Planning/Display/26/00370/F","access_utc":"2026-10-02T02:14:22Z","data_date":"2026-02-23","license":"Public planning register; document copyright/usage remains governed by council register terms","planning_reference":"26/00370/F","location":"Land Adjacent to 17 Wykham Lane Bodicote OX15 4BW","proposal":"Erection of four bedroom dwelling","status":"Under Consultation","geometry_status":"NOT_MATERIALIZED_LOCAL_OPENCODE","field_evidence":"Official Cherwell District Council Planning Register application 26/00370/F. Application Type: Full Development. Status: Under Consultation. Valid date: 23/02/2026. Location: Land Adjacent to 17 Wykham Lane Bodicote OX15 4BW. Proposal: Erection of four bedroom dwelling. Decision and Decision Issued Date are blank. Official documents list 25_046_101B Proposed Block Plan.pdf as Proposed Block Plan (drawing/revision 25_046_101 - B), 25_046_102A Proposed Plans.pdf as Proposed Plans (25_046_102 - A), and 25_046_103A Proposed Elevations.pdf as Proposed Elevations (25_046_103 - A). One distinct planned structure is counted: the four-bedroom dwelling. Geometry/materialization is deferred to local OpenCode.","evidence_slice_sha256":"ff0e09e6be88daf05228d6e1965462591380f1865010a76a937a671803c661d4","confidence":0.99,"evidence_grade":"A_OFFICIAL_LOCAL_AUTHORITY_PLANNING_REGISTER_DISTINCT_FOUR_BEDROOM_DWELLING","fake_data":false,"source_record_id":"CHERWELL_26_00370_F_FOUR_BEDROOM_DWELLING_01","planned_building":"four-bedroom dwelling","official_plan_reference":"25_046_102 - A","official_plan_description":"Proposed Plans"}}]}
