{"type":"FeatureCollection","name":"security_public_safety_6","features":[],"metadata":{"slot_id":"security_public_safety_6","lineage_id":"SECPS6_20260930T003421Z_01","page_generation":1,"batch_id":"BATCH_20261005T181443Z_ONS_LRF23_PREVIEW4_DUPLICATES","source_window_id":"ons_lrf23_names_codes_preview_rows_1_4_2026-10-05","source_url":"https://www.data.gov.uk/dataset/284632db-3943-4e3e-87cd-b8eaa965a944/local-resilience-forums-december-2023-names-and-codes-in-ew/datafile/edc57099-cb64-44ed-b03a-48ff547a6440/preview","final_url":"https://www.data.gov.uk/dataset/284632db-3943-4e3e-87cd-b8eaa965a944/local-resilience-forums-december-2023-names-and-codes-in-ew/datafile/edc57099-cb64-44ed-b03a-48ff547a6440/preview","dataset_url":"https://www.data.gov.uk/dataset/284632db-3943-4e3e-87cd-b8eaa965a944/local-resilience-forums-december-2023-names-and-codes-in-ew","accessed_utc":"2026-10-05T18:14:43Z","data_date":"2023-12-31","license":"Dataset licence field: Not set; National Data Library site content is OGL v3.0 except where otherwise stated.","evidence_slice_sha256":"424b698c47b339a8a59499a22f07dd26eb70a40b48ff87ae6aa877b732ccca21","new_source_records":0,"source_area_count_delta":0,"cumulative_source_area_count":58,"accepted_count":0,"duplicate_count":4,"rejected_count":0,"unmatched_count":0,"materialized_parcel_count":0,"direct_parcel_count":0,"planned_building_count":0,"cursor":null,"window_complete":true,"dataset_complete":false,"local_spatial_join_required":true,"fake_data":false}}
