{"type":"FeatureCollection","features":[{"type":"Feature","geometry":{"type":"MultiPolygon","coordinates":[[[[-0.279467,51.558662],[-0.278764,51.558652],[-0.278724,51.558676],[-0.27873,51.559962],[-0.279472,51.559963],[-0.279467,51.558662]]]]},"properties":{"slot_id":"future_growth_3","lineage_id":"future_growth_3-newstart-20261001T203100Z","page_generation":null,"accepted_as_parcel":false,"source_area_count_contribution":1,"exact_identifier":"BR00008","exact_identifier_provided":true,"coverage_polygon_provided":true,"identifier_namespace":"Planning Data brownfield-land reference","secondary_exact_identifier":"brownfield-site:BR00008 / entity:1802161","source_entity":"BR00008 - Olympic Office Centre, 8 Fulton Road","access_utc":"2026-10-03T12:00:07Z","data_date":"2026-04-10","source_url":"https://www.planning.data.gov.uk/entity/1717150","final_url":"https://www.planning.data.gov.uk/entity/1717150","geometry_source_url":"https://www.planning.data.gov.uk/entity/1802161","license":"Open Government Licence v3.0; attribution © Crown copyright and database right 2026.","authority":"London Borough of Brent","site_address":"Olympic Office Centre, 8 Fulton Road","field_evidence":{"reference":"BR00008","land_entity":1717150,"boundary_entity":1802161,"land_dataset":"Brownfield land","boundary_dataset":"Brownfield site","organisation":"London Borough of Brent","land_entry_date":"2026-04-10","boundary_entry_date":"2020-12-22","site_name":"Olympic Office Centre, 8 Fulton Road, Wembley, HA9 0NU","site_address":"Olympic Office Centre, 8 Fulton Road","local_plan_site_allocation":"BCSA5","hectares":0.49,"deliverable":"yes","minimum_net_dwellings":253,"maximum_net_dwellings":253,"planning_permission_date":"2021-04-15","planning_permission_type":"full-planning-permission","planning_permission_status":"permissioned","land_point":"POINT (-0.279051 51.560366)","boundary_point":"POINT (-0.279098 51.55931)","boundary_geometry_wkt":"MULTIPOLYGON (((-0.279467 51.558662, -0.278764 51.558652, -0.278724 51.558676, -0.27873 51.559962, -0.279472 51.559963, -0.279467 51.558662)))","boundary_quality":"some","geometry_source_url":"https://www.planning.data.gov.uk/entity/1802161","geometry_license_evidence_url":"https://www.planning.data.gov.uk/dataset/brownfield-site"},"source_payload_sha256":"4c602706f54a52de86966197450b09021ee89d072d57241bea02ec3db1e936ee","source_payload_sha256_basis":"canonicalized combined official Planning Data BR00008 brownfield-land and linked brownfield-site boundary evidence fields","evidence_slice_sha256":"32163949d6ada83bb4e84d06539bc298420a11facd648f778b070ea530b27c21","evidence_grade":"A","confidence_score_0_100":98,"evidence_scope":"official_exact_identifier_plus_linked_planning_data_multipolygon_boundary","fake_data":false,"spatial_binding_method":"official Planning Data brownfield-land BR00008 / entity 1717150 linked by exact reference to brownfield-site entity 1802161 MultiPolygon boundary; canonical parcel spatial join and materialization delegated to local OpenCode","planned_building_count_contribution":0}}]}