{"type":"FeatureCollection","name":"security_public_safety_1_batch_exact_identifiers","features":[{"type":"Feature","geometry":null,"properties":{"exact_identifier":"Alperton","coverage_area_name":"Alperton","exact_identifier_type":"met.police.uk.safer_neighbourhood_team.official_name"}},{"type":"Feature","geometry":null,"properties":{"exact_identifier":"Barnhill","coverage_area_name":"Barnhill","exact_identifier_type":"met.police.uk.safer_neighbourhood_team.official_name"}},{"type":"Feature","geometry":null,"properties":{"exact_identifier":"Brondesbury Park","coverage_area_name":"Brondesbury Park","exact_identifier_type":"met.police.uk.safer_neighbourhood_team.official_name"}},{"type":"Feature","geometry":null,"properties":{"exact_identifier":"Cricklewood and Mapesbury","coverage_area_name":"Cricklewood and Mapesbury","exact_identifier_type":"met.police.uk.safer_neighbourhood_team.official_name"}},{"type":"Feature","geometry":null,"properties":{"exact_identifier":"Dollis Hill","coverage_area_name":"Dollis Hill","exact_identifier_type":"met.police.uk.safer_neighbourhood_team.official_name"}},{"type":"Feature","geometry":null,"properties":{"exact_identifier":"Harlesden and Kensal Green","coverage_area_name":"Harlesden and Kensal Green","exact_identifier_type":"met.police.uk.safer_neighbourhood_team.official_name"}},{"type":"Feature","geometry":null,"properties":{"exact_identifier":"Kenton","coverage_area_name":"Kenton","exact_identifier_type":"met.police.uk.safer_neighbourhood_team.official_name"}},{"type":"Feature","geometry":null,"properties":{"exact_identifier":"Kilburn","coverage_area_name":"Kilburn","exact_identifier_type":"met.police.uk.safer_neighbourhood_team.official_name"}},{"type":"Feature","geometry":null,"properties":{"exact_identifier":"Kingsbury","coverage_area_name":"Kingsbury","exact_identifier_type":"met.police.uk.safer_neighbourhood_team.official_name"}},{"type":"Feature","geometry":null,"properties":{"exact_identifier":"Northwick Park","coverage_area_name":"Northwick Park","exact_identifier_type":"met.police.uk.safer_neighbourhood_team.official_name"}},{"type":"Feature","geometry":null,"properties":{"exact_identifier":"Preston","coverage_area_name":"Preston","exact_identifier_type":"met.police.uk.safer_neighbourhood_team.official_name"}},{"type":"Feature","geometry":null,"properties":{"exact_identifier":"Queens Park","coverage_area_name":"Queens Park","exact_identifier_type":"met.police.uk.safer_neighbourhood_team.official_name"}},{"type":"Feature","geometry":null,"properties":{"exact_identifier":"Queensbury","coverage_area_name":"Queensbury","exact_identifier_type":"met.police.uk.safer_neighbourhood_team.official_name"}},{"type":"Feature","geometry":null,"properties":{"exact_identifier":"Roundwood","coverage_area_name":"Roundwood","exact_identifier_type":"met.police.uk.safer_neighbourhood_team.official_name"}},{"type":"Feature","geometry":null,"properties":{"exact_identifier":"Stonebridge","coverage_area_name":"Stonebridge","exact_identifier_type":"met.police.uk.safer_neighbourhood_team.official_name"}},{"type":"Feature","geometry":null,"properties":{"exact_identifier":"Sudbury","coverage_area_name":"Sudbury","exact_identifier_type":"met.police.uk.safer_neighbourhood_team.official_name"}},{"type":"Feature","geometry":null,"properties":{"exact_identifier":"Tokyngton","coverage_area_name":"Tokyngton","exact_identifier_type":"met.police.uk.safer_neighbourhood_team.official_name"}},{"type":"Feature","geometry":null,"properties":{"exact_identifier":"Welsh Harp","coverage_area_name":"Welsh Harp","exact_identifier_type":"met.police.uk.safer_neighbourhood_team.official_name"}},{"type":"Feature","geometry":null,"properties":{"exact_identifier":"Wembley Central","coverage_area_name":"Wembley Central","exact_identifier_type":"met.police.uk.safer_neighbourhood_team.official_name"}},{"type":"Feature","geometry":null,"properties":{"exact_identifier":"Wembley Hill","coverage_area_name":"Wembley Hill","exact_identifier_type":"met.police.uk.safer_neighbourhood_team.official_name"}},{"type":"Feature","geometry":null,"properties":{"exact_identifier":"Wembley Park","coverage_area_name":"Wembley Park","exact_identifier_type":"met.police.uk.safer_neighbourhood_team.official_name"}},{"type":"Feature","geometry":null,"properties":{"exact_identifier":"Willesden Green","coverage_area_name":"Willesden Green","exact_identifier_type":"met.police.uk.safer_neighbourhood_team.official_name"}}],"metadata":{"source_area_count":349,"source_area_delta_this_turn":22,"latest_evidence_window":"MET_POLICE_BRENT_SNT_CURRENT_20261006T080900Z","exact_blocker":"LOCAL_OPENCODE_EXACT_IDENTIFIER_TO_CANONICAL_SPATIAL_BINDING_REQUIRED","first_missing_criterion":"LOCAL_OPENCODE_EXACT_IDENTIFIER_TO_CANONICAL_SPATIAL_BINDING","prior_cumulative_records_sha":"918ee7b20a77a56d9c65f3f6883be9398bfffa93","record_scope":"CURRENT_BATCH_DELTA"}}
