{"type":"FeatureCollection","name":"height_difference_5","metadata":{"slot_id":"height_difference_5","owner":"height_difference_5","lineage_id":"height_difference_5-eb56f92ed3f0514c","page_generation":1,"schema":"AAYS_LAYER24_EVIDENCE_V1","partition":"layer24","semantic_mode_state":"ABSENT_IN_PRIOR_PHYSICAL_STATE_PRESERVED_BY_OMISSION","batch_id":"20261005T123500Z_belfast_2006_data_gov_uk_sw_zone_zip_blocked","record_policy":"Official sibling-quadrant distribution blocker evidence only; no archive member, tile/file, parcel binding, geometry or CRS synthesized.","fake_data":false},"features":[{"type":"Feature","geometry":null,"properties":{"slot_id":"height_difference_5","owner":"height_difference_5","lineage_id":"height_difference_5-eb56f92ed3f0514c","page_generation":1,"schema":"AAYS_LAYER24_EVIDENCE_V1","partition":"layer24","batch_id":"20261005T123500Z_belfast_2006_data_gov_uk_sw_zone_zip_blocked","source_record_id":"DFI_BELFAST_LIDAR_2006:DATA_GOV_UK_SW_ZONE_DISTRIBUTION","source_url":"https://www.data.gov.uk/dataset/1af1f042-2934-4912-8548-9186303ddb5f/lidar-belfast-city-2006","payload_url":"https://opendatani.blob.core.windows.net/dfiriverslidar/BelfastCityLidar_SouthWest_18032006.zip","distribution_name":"Belfast City Lidar South West Zone","access_utc":"2026-10-05T12:35:00Z","required_building_state":"BUILDING_PRESENT","binding_status":"LOCAL_OPENCODE_BUILDING_PRESENT_EXACT_TILE_BIND_REQUIRED","payload_transport_status":"WEB_UNSUPPORTED_APPLICATION_ZIP_NON_RETRYABLE","exact_tile_identifier":null,"crs":null,"evidence_slice_sha256":"ae168accf4ed883106da40d6ef4998d8c7b56eb4d8d04ca261d5ab3411d15c46","accepted_count_contribution":0,"source_area_count_contribution":0,"fake_data":false}}]}
