{"type":"FeatureCollection","features":[{"type":"Feature","geometry":null,"properties":{"slot_id":"planned_buildings_1","lineage_id":"planned_buildings_1-0ffc4ebd6c6e4e41","semantic_mode":"DISTINCT_BUILDINGS","planned_building_id":"planning-application:2026/1413/FPA::DWELLING","building_status":"PLANNED","building_name":"New build dwelling, Ivy Cottage","planning_reference":"2026/1413/FPA","authority":"Westmorland & Furness Council","source_url":"https://planningregister.westmorlandandfurness.gov.uk/Planning/Display/2026/1413/FPA","final_url":"https://planningregister.westmorlandandfurness.gov.uk/Planning/Display/2026/1413/FPA","access_utc":"2026-10-04T03:04:00Z","source_data_date":"2026-07-17","license":"Open Government Licence v3.0","geometry_role":"official planning register exposes no machine-readable application point or building footprint in the retrieved record; geometry null; no geometry inferred","field_evidence":"Official Valid Full Application states demolition of derelict barn to be replaced with new build dwelling; status Consultation Started and decision Pending.","identity_limitation":"The source explicitly states one new build dwelling; the derelict barn described for demolition is not counted as new; deterministic DWELLING suffix identifies the source-described new building role only.","confidence_score_0_100":98,"evidence_grade":"A","fake_data":false}}]}