{"type":"FeatureCollection","name":"height_difference_5","metadata":{"slot_id":"height_difference_5","owner":"height_difference_5","lineage_id":"height_difference_5-eb56f92ed3f0514c","page_generation":1,"schema":"AAYS_LAYER24_EVIDENCE_V1","partition":"layer24","semantic_mode_state":"ABSENT_IN_PRIOR_PHYSICAL_STATE_PRESERVED_BY_OMISSION","batch_id":"20261003T041401Z_belfast_2006_ckan_publishing_ne_resource_page_blocked","record_policy":"Official data.gov.uk CKAN publishing resource-page blocker evidence only; no payload retry, tile/file, parcel binding, geometry or CRS synthesized.","fake_data":false},"features":[{"type":"Feature","geometry":null,"properties":{"slot_id":"height_difference_5","owner":"height_difference_5","lineage_id":"height_difference_5-eb56f92ed3f0514c","page_generation":1,"schema":"AAYS_LAYER24_EVIDENCE_V1","partition":"layer24","batch_id":"20261003T041401Z_belfast_2006_ckan_publishing_ne_resource_page_blocked","source_record_id":"DFI_BELFAST_LIDAR_2006:CKAN_PUBLISHING_NE_RESOURCE_PAGE","source_url":"https://ckan.publishing.service.gov.uk/dataset/lidar-belfast-city-2006","resource_page":"https://ckan.publishing.service.gov.uk/dataset/lidar-belfast-city-2006/resource/f626f95b-557e-49ac-b731-03cde2c8da61","target_resource_id":"f626f95b-557e-49ac-b731-03cde2c8da61","target_resource_name":"Belfast City Lidar North East Zone","access_utc":"2026-10-03T04:14:01Z","required_building_state":"BUILDING_PRESENT","binding_status":"LOCAL_OPENCODE_BUILDING_PRESENT_EXACT_TILE_BIND_REQUIRED","resource_page_status":"CACHE_MISS_NON_RETRYABLE","payload_url":null,"exact_tile_identifier":null,"crs":null,"evidence_slice_sha256":"76b2d37c78a1a3f31a5e120600a3c4f1eaf95b7209499f457503d4410912ab05","accepted_count_contribution":0,"source_area_count_contribution":0,"fake_data":false}}]}
