{"type":"FeatureCollection","name":"building_type_2_batch_0061","features":[{"type":"Feature","id":"42153367","geometry":{"type":"MultiPolygon","coordinates":[[[[-2.003869,55.76824],[-2.003841,55.768279],[-2.003874,55.768288],[-2.003842,55.768326],[-2.003924,55.768348],[-2.00403,55.768225],[-2.00391,55.768191],[-2.003869,55.76824]]]]},"properties":{"slot_id":"building_type_2","lineage_id":"building_type_2-20260930T173100Z-newstart","batch_id":"batch-0061","page_generation":1,"source_entity":42153367,"source_reference":"1041659","source_dataset":"listed-building-outline","source_organisation":"Northumberland County Council","building_evidence_status":"BUILDING_PRESENT","parcel_status":"UNPROCESSED","canonical_parcel_id":null,"building_type":"listed_building","building_use":null,"poi_accepted":false,"field_evidence":{"footprint":"official listed-building-outline MULTIPOLYGON","type":"official dataset classification: listed-building-outline","reference":"1041659","quality":"authoritative","name":"26, Bridge Street"},"source_url":"https://www.planning.data.gov.uk/entity/42153367","final_url":"https://www.planning.data.gov.uk/entity/42153367","access_utc":"2026-10-04T15:49:20Z","data_date":"1971-05-26","licence":"Open Government Licence v3.0","evidence_slice_sha256":"d5abde64103c8b9c20721c588ece10e8f93b0018434b3b53d13df2fc2c00e772","confidence_score_0_100":96,"evidence_grade":"A","fake_data":false,"local_spatial_join_required":true}}]}