{"type":"FeatureCollection","name":"height_difference_1","features":[{"type":"Feature","geometry":null,"properties":{"source_row_index":4,"polygon_id":"P_10651","tilename":"ST7540","dsm_fn":"DSM_ST7540_P_10651_20180225_20180225.tif","dtm_fn":"DTM_ST7540_P_10651_20180225_20180225.tif","fz_dsm_fn":"FZ_DSM_ST7540_P_10651_20180225_20180225.tif","int_lz_fn":"Intensity_LZ_ST7540_P_10651_20180225_20180225.tif","survey_date":"2018-02-25","survey_date_evidence":"parsed from official tile filename under EA documented P_XXXXX_OSGRID_SDFLOWN_EDFLOWN naming convention","crs":"EPSG:27700","resolution_m":1,"record_role":"official_lidar_tile_index_evidence_unbound","evidence_scope":"tile_index","official_source_url":"https://environment.data.gov.uk/spatialdata/survey-index-files/wfs?service=WFS&version=2.0.0&request=GetFeature&typeNames=dataset-9f0fa3fc-a860-4729-adc9-47fe53f658d0%3ANational_LIDAR_Programme_Index_Catalogue&outputFormat=application%2Fjson&count=50","official_dataset_url":"https://environment.data.gov.uk/dataset/2e8d0733-4f43-48b4-9e51-631c25d1b0a9","access_utc":"2026-09-30T18:31:00Z","upstream_retrieved_at":"2026-09-29T14:25:45.425Z","licence":"Open Government Licence","evidence_slice_sha256":"207ec4285caa3a3bf0e221fb089e42a6f720bd3140d94f1e294cf44ac85f3699","source_file_sha256":"207ec4285caa3a3bf0e221fb089e42a6f720bd3140d94f1e294cf44ac85f3699","source_file_sha256_scope":"captured evidence slice rows 4-50; not a claim about raw upstream WFS bytes","field_evidence":{"polygon_id":"upstream verbatim WFS field","tilename":"upstream verbatim WFS field","dtm_fn":"upstream verbatim WFS field","survey_date":"derived only from official filename naming convention","crs":"official dataset metadata","resolution_m":"official dataset metadata"},"confidence_score_0_100":94,"evidence_grade":"A_OFFICIAL_WFS_TILE_INDEX_UNBOUND","fake_data":false,"required_building_state":"BUILDING_PRESENT","canonical_parcel_id":null,"binding_status":"LOCAL_OPENCODE_SPATIAL_JOIN_REQUIRED","height_min_m":null,"height_max_m":null,"height_mean_m":null,"height_range_m":null,"accepted_count_contribution":0,"source_area_count_contribution":0}},{"type":"Feature","geometry":null,"properties":{"source_row_index":5,"polygon_id":"P_10651","tilename":"ST7545","dsm_fn":"DSM_ST7545_P_10651_20180225_20180225.tif","dtm_fn":"DTM_ST7545_P_10651_20180225_20180225.tif","fz_dsm_fn":"FZ_DSM_ST7545_P_10651_20180225_20180225.tif","int_lz_fn":"Intensity_LZ_ST7545_P_10651_20180225_20180225.tif","survey_date":"2018-02-25","survey_date_evidence":"parsed from official tile filename under EA documented P_XXXXX_OSGRID_SDFLOWN_EDFLOWN naming convention","crs":"EPSG:27700","resolution_m":1,"record_role":"official_lidar_tile_index_evidence_unbound","evidence_scope":"tile_index","official_source_url":"https://environment.data.gov.uk/spatialdata/survey-index-files/wfs?service=WFS&version=2.0.0&request=GetFeature&typeNames=dataset-9f0fa3fc-a860-4729-adc9-47fe53f658d0%3ANational_LIDAR_Programme_Index_Catalogue&outputFormat=application%2Fjson&count=50","official_dataset_url":"https://environment.data.gov.uk/dataset/2e8d0733-4f43-48b4-9e51-631c25d1b0a9","access_utc":"2026-09-30T18:31:00Z","upstream_retrieved_at":"2026-09-29T14:25:45.425Z","licence":"Open Government Licence","evidence_slice_sha256":"207ec4285caa3a3bf0e221fb089e42a6f720bd3140d94f1e294cf44ac85f3699","source_file_sha256":"207ec4285caa3a3bf0e221fb089e42a6f720bd3140d94f1e294cf44ac85f3699","source_file_sha256_scope":"captured evidence slice rows 4-50; not a claim about raw upstream WFS bytes","field_evidence":{"polygon_id":"upstream verbatim WFS field","tilename":"upstream verbatim WFS field","dtm_fn":"upstream verbatim WFS field","survey_date":"derived only from official filename naming convention","crs":"official dataset metadata","resolution_m":"official dataset metadata"},"confidence_score_0_100":94,"evidence_grade":"A_OFFICIAL_WFS_TILE_INDEX_UNBOUND","fake_data":false,"required_building_state":"BUILDING_PRESENT","canonical_parcel_id":null,"binding_status":"LOCAL_OPENCODE_SPATIAL_JOIN_REQUIRED","height_min_m":null,"height_max_m":null,"height_mean_m":null,"height_range_m":null,"accepted_count_contribution":0,"source_area_count_contribution":0}},{"type":"Feature","geometry":null,"properties":{"source_row_index":6,"polygon_id":"P_10651","tilename":"ST8025","dsm_fn":"DSM_ST8025_P_10651_20180225_20180225.tif","dtm_fn":"DTM_ST8025_P_10651_20180225_20180225.tif","fz_dsm_fn":"FZ_DSM_ST8025_P_10651_20180225_20180225.tif","int_lz_fn":"Intensity_LZ_ST8025_P_10651_20180225_20180225.tif","survey_date":"2018-02-25","survey_date_evidence":"parsed from official tile filename under EA documented P_XXXXX_OSGRID_SDFLOWN_EDFLOWN naming convention","crs":"EPSG:27700","resolution_m":1,"record_role":"official_lidar_tile_index_evidence_unbound","evidence_scope":"tile_index","official_source_url":"https://environment.data.gov.uk/spatialdata/survey-index-files/wfs?service=WFS&version=2.0.0&request=GetFeature&typeNames=dataset-9f0fa3fc-a860-4729-adc9-47fe53f658d0%3ANational_LIDAR_Programme_Index_Catalogue&outputFormat=application%2Fjson&count=50","official_dataset_url":"https://environment.data.gov.uk/dataset/2e8d0733-4f43-48b4-9e51-631c25d1b0a9","access_utc":"2026-09-30T18:31:00Z","upstream_retrieved_at":"2026-09-29T14:25:45.425Z","licence":"Open Government Licence","evidence_slice_sha256":"207ec4285caa3a3bf0e221fb089e42a6f720bd3140d94f1e294cf44ac85f3699","source_file_sha256":"207ec4285caa3a3bf0e221fb089e42a6f720bd3140d94f1e294cf44ac85f3699","source_file_sha256_scope":"captured evidence slice rows 4-50; not a claim about raw upstream WFS bytes","field_evidence":{"polygon_id":"upstream verbatim WFS field","tilename":"upstream verbatim WFS field","dtm_fn":"upstream verbatim WFS field","survey_date":"derived only from official filename naming convention","crs":"official dataset metadata","resolution_m":"official dataset metadata"},"confidence_score_0_100":94,"evidence_grade":"A_OFFICIAL_WFS_TILE_INDEX_UNBOUND","fake_data":false,"required_building_state":"BUILDING_PRESENT","canonical_parcel_id":null,"binding_status":"LOCAL_OPENCODE_SPATIAL_JOIN_REQUIRED","height_min_m":null,"height_max_m":null,"height_mean_m":null,"height_range_m":null,"accepted_count_contribution":0,"source_area_count_contribution":0}},{"type":"Feature","geometry":null,"properties":{"source_row_index":7,"polygon_id":"P_10651","tilename":"ST8030","dsm_fn":"DSM_ST8030_P_10651_20180225_20180225.tif","dtm_fn":"DTM_ST8030_P_10651_20180225_20180225.tif","fz_dsm_fn":"FZ_DSM_ST8030_P_10651_20180225_20180225.tif","int_lz_fn":"Intensity_LZ_ST8030_P_10651_20180225_20180225.tif","survey_date":"2018-02-25","survey_date_evidence":"parsed from official tile filename under EA documented P_XXXXX_OSGRID_SDFLOWN_EDFLOWN naming convention","crs":"EPSG:27700","resolution_m":1,"record_role":"official_lidar_tile_index_evidence_unbound","evidence_scope":"tile_index","official_source_url":"https://environment.data.gov.uk/spatialdata/survey-index-files/wfs?service=WFS&version=2.0.0&request=GetFeature&typeNames=dataset-9f0fa3fc-a860-4729-adc9-47fe53f658d0%3ANational_LIDAR_Programme_Index_Catalogue&outputFormat=application%2Fjson&count=50","official_dataset_url":"https://environment.data.gov.uk/dataset/2e8d0733-4f43-48b4-9e51-631c25d1b0a9","access_utc":"2026-09-30T18:31:00Z","upstream_retrieved_at":"2026-09-29T14:25:45.425Z","licence":"Open Government Licence","evidence_slice_sha256":"207ec4285caa3a3bf0e221fb089e42a6f720bd3140d94f1e294cf44ac85f3699","source_file_sha256":"207ec4285caa3a3bf0e221fb089e42a6f720bd3140d94f1e294cf44ac85f3699","source_file_sha256_scope":"captured evidence slice rows 4-50; not a claim about raw upstream WFS bytes","field_evidence":{"polygon_id":"upstream verbatim WFS field","tilename":"upstream verbatim WFS field","dtm_fn":"upstream verbatim WFS field","survey_date":"derived only from official filename naming convention","crs":"official dataset metadata","resolution_m":"official dataset metadata"},"confidence_score_0_100":94,"evidence_grade":"A_OFFICIAL_WFS_TILE_INDEX_UNBOUND","fake_data":false,"required_building_state":"BUILDING_PRESENT","canonical_parcel_id":null,"binding_status":"LOCAL_OPENCODE_SPATIAL_JOIN_REQUIRED","height_min_m":null,"height_max_m":null,"height_mean_m":null,"height_range_m":null,"accepted_count_contribution":0,"source_area_count_contribution":0}},{"type":"Feature","geometry":null,"properties":{"source_row_index":8,"polygon_id":"P_10651","tilename":"ST8035","dsm_fn":"DSM_ST8035_P_10651_20180225_20180225.tif","dtm_fn":"DTM_ST8035_P_10651_20180225_20180225.tif","fz_dsm_fn":"FZ_DSM_ST8035_P_10651_20180225_20180225.tif","int_lz_fn":"Intensity_LZ_ST8035_P_10651_20180225_20180225.tif","survey_date":"2018-02-25","survey_date_evidence":"parsed from official tile filename under EA documented P_XXXXX_OSGRID_SDFLOWN_EDFLOWN naming convention","crs":"EPSG:27700","resolution_m":1,"record_role":"official_lidar_tile_index_evidence_unbound","evidence_scope":"tile_index","official_source_url":"https://environment.data.gov.uk/spatialdata/survey-index-files/wfs?service=WFS&version=2.0.0&request=GetFeature&typeNames=dataset-9f0fa3fc-a860-4729-adc9-47fe53f658d0%3ANational_LIDAR_Programme_Index_Catalogue&outputFormat=application%2Fjson&count=50","official_dataset_url":"https://environment.data.gov.uk/dataset/2e8d0733-4f43-48b4-9e51-631c25d1b0a9","access_utc":"2026-09-30T18:31:00Z","upstream_retrieved_at":"2026-09-29T14:25:45.425Z","licence":"Open Government Licence","evidence_slice_sha256":"207ec4285caa3a3bf0e221fb089e42a6f720bd3140d94f1e294cf44ac85f3699","source_file_sha256":"207ec4285caa3a3bf0e221fb089e42a6f720bd3140d94f1e294cf44ac85f3699","source_file_sha256_scope":"captured evidence slice rows 4-50; not a claim about raw upstream WFS bytes","field_evidence":{"polygon_id":"upstream verbatim WFS field","tilename":"upstream verbatim WFS field","dtm_fn":"upstream verbatim WFS field","survey_date":"derived only from official filename naming convention","crs":"official dataset metadata","resolution_m":"official dataset metadata"},"confidence_score_0_100":94,"evidence_grade":"A_OFFICIAL_WFS_TILE_INDEX_UNBOUND","fake_data":false,"required_building_state":"BUILDING_PRESENT","canonical_parcel_id":null,"binding_status":"LOCAL_OPENCODE_SPATIAL_JOIN_REQUIRED","height_min_m":null,"height_max_m":null,"height_mean_m":null,"height_range_m":null,"accepted_count_contribution":0,"source_area_count_contribution":0}},{"type":"Feature","geometry":null,"properties":{"source_row_index":9,"polygon_id":"P_10651","tilename":"ST8040","dsm_fn":"DSM_ST8040_P_10651_20180225_20180225.tif","dtm_fn":"DTM_ST8040_P_10651_20180225_20180225.tif","fz_dsm_fn":"FZ_DSM_ST8040_P_10651_20180225_20180225.tif","int_lz_fn":"Intensity_LZ_ST8040_P_10651_20180225_20180225.tif","survey_date":"2018-02-25","survey_date_evidence":"parsed from official tile filename under EA documented P_XXXXX_OSGRID_SDFLOWN_EDFLOWN naming convention","crs":"EPSG:27700","resolution_m":1,"record_role":"official_lidar_tile_index_evidence_unbound","evidence_scope":"tile_index","official_source_url":"https://environment.data.gov.uk/spatialdata/survey-index-files/wfs?service=WFS&version=2.0.0&request=GetFeature&typeNames=dataset-9f0fa3fc-a860-4729-adc9-47fe53f658d0%3ANational_LIDAR_Programme_Index_Catalogue&outputFormat=application%2Fjson&count=50","official_dataset_url":"https://environment.data.gov.uk/dataset/2e8d0733-4f43-48b4-9e51-631c25d1b0a9","access_utc":"2026-09-30T18:31:00Z","upstream_retrieved_at":"2026-09-29T14:25:45.425Z","licence":"Open Government Licence","evidence_slice_sha256":"207ec4285caa3a3bf0e221fb089e42a6f720bd3140d94f1e294cf44ac85f3699","source_file_sha256":"207ec4285caa3a3bf0e221fb089e42a6f720bd3140d94f1e294cf44ac85f3699","source_file_sha256_scope":"captured evidence slice rows 4-50; not a claim about raw upstream WFS bytes","field_evidence":{"polygon_id":"upstream verbatim WFS field","tilename":"upstream verbatim WFS field","dtm_fn":"upstream verbatim WFS field","survey_date":"derived only from official filename naming convention","crs":"official dataset metadata","resolution_m":"official dataset metadata"},"confidence_score_0_100":94,"evidence_grade":"A_OFFICIAL_WFS_TILE_INDEX_UNBOUND","fake_data":false,"required_building_state":"BUILDING_PRESENT","canonical_parcel_id":null,"binding_status":"LOCAL_OPENCODE_SPATIAL_JOIN_REQUIRED","height_min_m":null,"height_max_m":null,"height_mean_m":null,"height_range_m":null,"accepted_count_contribution":0,"source_area_count_contribution":0}},{"type":"Feature","geometry":null,"properties":{"source_row_index":10,"polygon_id":"P_10651","tilename":"ST8045","dsm_fn":"DSM_ST8045_P_10651_20180225_20180225.tif","dtm_fn":"DTM_ST8045_P_10651_20180225_20180225.tif","fz_dsm_fn":"FZ_DSM_ST8045_P_10651_20180225_20180225.tif","int_lz_fn":"Intensity_LZ_ST8045_P_10651_20180225_20180225.tif","survey_date":"2018-02-25","survey_date_evidence":"parsed from official tile filename under EA documented P_XXXXX_OSGRID_SDFLOWN_EDFLOWN naming convention","crs":"EPSG:27700","resolution_m":1,"record_role":"official_lidar_tile_index_evidence_unbound","evidence_scope":"tile_index","official_source_url":"https://environment.data.gov.uk/spatialdata/survey-index-files/wfs?service=WFS&version=2.0.0&request=GetFeature&typeNames=dataset-9f0fa3fc-a860-4729-adc9-47fe53f658d0%3ANational_LIDAR_Programme_Index_Catalogue&outputFormat=application%2Fjson&count=50","official_dataset_url":"https://environment.data.gov.uk/dataset/2e8d0733-4f43-48b4-9e51-631c25d1b0a9","access_utc":"2026-09-30T18:31:00Z","upstream_retrieved_at":"2026-09-29T14:25:45.425Z","licence":"Open Government Licence","evidence_slice_sha256":"207ec4285caa3a3bf0e221fb089e42a6f720bd3140d94f1e294cf44ac85f3699","source_file_sha256":"207ec4285caa3a3bf0e221fb089e42a6f720bd3140d94f1e294cf44ac85f3699","source_file_sha256_scope":"captured evidence slice rows 4-50; not a claim about raw upstream WFS bytes","field_evidence":{"polygon_id":"upstream verbatim WFS field","tilename":"upstream verbatim WFS field","dtm_fn":"upstream verbatim WFS field","survey_date":"derived only from official filename naming convention","crs":"official dataset metadata","resolution_m":"official dataset metadata"},"confidence_score_0_100":94,"evidence_grade":"A_OFFICIAL_WFS_TILE_INDEX_UNBOUND","fake_data":false,"required_building_state":"BUILDING_PRESENT","canonical_parcel_id":null,"binding_status":"LOCAL_OPENCODE_SPATIAL_JOIN_REQUIRED","height_min_m":null,"height_max_m":null,"height_mean_m":null,"height_range_m":null,"accepted_count_contribution":0,"source_area_count_contribution":0}},{"type":"Feature","geometry":null,"properties":{"source_row_index":11,"polygon_id":"P_10651","tilename":"ST8525","dsm_fn":"DSM_ST8525_P_10651_20180225_20180225.tif","dtm_fn":"DTM_ST8525_P_10651_20180225_20180225.tif","fz_dsm_fn":"FZ_DSM_ST8525_P_10651_20180225_20180225.tif","int_lz_fn":"Intensity_LZ_ST8525_P_10651_20180225_20180225.tif","survey_date":"2018-02-25","survey_date_evidence":"parsed from official tile filename under EA documented P_XXXXX_OSGRID_SDFLOWN_EDFLOWN naming convention","crs":"EPSG:27700","resolution_m":1,"record_role":"official_lidar_tile_index_evidence_unbound","evidence_scope":"tile_index","official_source_url":"https://environment.data.gov.uk/spatialdata/survey-index-files/wfs?service=WFS&version=2.0.0&request=GetFeature&typeNames=dataset-9f0fa3fc-a860-4729-adc9-47fe53f658d0%3ANational_LIDAR_Programme_Index_Catalogue&outputFormat=application%2Fjson&count=50","official_dataset_url":"https://environment.data.gov.uk/dataset/2e8d0733-4f43-48b4-9e51-631c25d1b0a9","access_utc":"2026-09-30T18:31:00Z","upstream_retrieved_at":"2026-09-29T14:25:45.425Z","licence":"Open Government Licence","evidence_slice_sha256":"207ec4285caa3a3bf0e221fb089e42a6f720bd3140d94f1e294cf44ac85f3699","source_file_sha256":"207ec4285caa3a3bf0e221fb089e42a6f720bd3140d94f1e294cf44ac85f3699","source_file_sha256_scope":"captured evidence slice rows 4-50; not a claim about raw upstream WFS bytes","field_evidence":{"polygon_id":"upstream verbatim WFS field","tilename":"upstream verbatim WFS field","dtm_fn":"upstream verbatim WFS field","survey_date":"derived only from official filename naming convention","crs":"official dataset metadata","resolution_m":"official dataset metadata"},"confidence_score_0_100":94,"evidence_grade":"A_OFFICIAL_WFS_TILE_INDEX_UNBOUND","fake_data":false,"required_building_state":"BUILDING_PRESENT","canonical_parcel_id":null,"binding_status":"LOCAL_OPENCODE_SPATIAL_JOIN_REQUIRED","height_min_m":null,"height_max_m":null,"height_mean_m":null,"height_range_m":null,"accepted_count_contribution":0,"source_area_count_contribution":0}},{"type":"Feature","geometry":null,"properties":{"source_row_index":12,"polygon_id":"P_10651","tilename":"ST8530","dsm_fn":"DSM_ST8530_P_10651_20180225_20180225.tif","dtm_fn":"DTM_ST8530_P_10651_20180225_20180225.tif","fz_dsm_fn":"FZ_DSM_ST8530_P_10651_20180225_20180225.tif","int_lz_fn":"Intensity_LZ_ST8530_P_10651_20180225_20180225.tif","survey_date":"2018-02-25","survey_date_evidence":"parsed from official tile filename under EA documented P_XXXXX_OSGRID_SDFLOWN_EDFLOWN naming convention","crs":"EPSG:27700","resolution_m":1,"record_role":"official_lidar_tile_index_evidence_unbound","evidence_scope":"tile_index","official_source_url":"https://environment.data.gov.uk/spatialdata/survey-index-files/wfs?service=WFS&version=2.0.0&request=GetFeature&typeNames=dataset-9f0fa3fc-a860-4729-adc9-47fe53f658d0%3ANational_LIDAR_Programme_Index_Catalogue&outputFormat=application%2Fjson&count=50","official_dataset_url":"https://environment.data.gov.uk/dataset/2e8d0733-4f43-48b4-9e51-631c25d1b0a9","access_utc":"2026-09-30T18:31:00Z","upstream_retrieved_at":"2026-09-29T14:25:45.425Z","licence":"Open Government Licence","evidence_slice_sha256":"207ec4285caa3a3bf0e221fb089e42a6f720bd3140d94f1e294cf44ac85f3699","source_file_sha256":"207ec4285caa3a3bf0e221fb089e42a6f720bd3140d94f1e294cf44ac85f3699","source_file_sha256_scope":"captured evidence slice rows 4-50; not a claim about raw upstream WFS bytes","field_evidence":{"polygon_id":"upstream verbatim WFS field","tilename":"upstream verbatim WFS field","dtm_fn":"upstream verbatim WFS field","survey_date":"derived only from official filename naming convention","crs":"official dataset metadata","resolution_m":"official dataset metadata"},"confidence_score_0_100":94,"evidence_grade":"A_OFFICIAL_WFS_TILE_INDEX_UNBOUND","fake_data":false,"required_building_state":"BUILDING_PRESENT","canonical_parcel_id":null,"binding_status":"LOCAL_OPENCODE_SPATIAL_JOIN_REQUIRED","height_min_m":null,"height_max_m":null,"height_mean_m":null,"height_range_m":null,"accepted_count_contribution":0,"source_area_count_contribution":0}},{"type":"Feature","geometry":null,"properties":{"source_row_index":13,"polygon_id":"P_10651","tilename":"ST8535","dsm_fn":"DSM_ST8535_P_10651_20180225_20180225.tif","dtm_fn":"DTM_ST8535_P_10651_20180225_20180225.tif","fz_dsm_fn":"FZ_DSM_ST8535_P_10651_20180225_20180225.tif","int_lz_fn":"Intensity_LZ_ST8535_P_10651_20180225_20180225.tif","survey_date":"2018-02-25","survey_date_evidence":"parsed from official tile filename under EA documented P_XXXXX_OSGRID_SDFLOWN_EDFLOWN naming convention","crs":"EPSG:27700","resolution_m":1,"record_role":"official_lidar_tile_index_evidence_unbound","evidence_scope":"tile_index","official_source_url":"https://environment.data.gov.uk/spatialdata/survey-index-files/wfs?service=WFS&version=2.0.0&request=GetFeature&typeNames=dataset-9f0fa3fc-a860-4729-adc9-47fe53f658d0%3ANational_LIDAR_Programme_Index_Catalogue&outputFormat=application%2Fjson&count=50","official_dataset_url":"https://environment.data.gov.uk/dataset/2e8d0733-4f43-48b4-9e51-631c25d1b0a9","access_utc":"2026-09-30T18:31:00Z","upstream_retrieved_at":"2026-09-29T14:25:45.425Z","licence":"Open Government Licence","evidence_slice_sha256":"207ec4285caa3a3bf0e221fb089e42a6f720bd3140d94f1e294cf44ac85f3699","source_file_sha256":"207ec4285caa3a3bf0e221fb089e42a6f720bd3140d94f1e294cf44ac85f3699","source_file_sha256_scope":"captured evidence slice rows 4-50; not a claim about raw upstream WFS bytes","field_evidence":{"polygon_id":"upstream verbatim WFS field","tilename":"upstream verbatim WFS field","dtm_fn":"upstream verbatim WFS field","survey_date":"derived only from official filename naming convention","crs":"official dataset metadata","resolution_m":"official dataset metadata"},"confidence_score_0_100":94,"evidence_grade":"A_OFFICIAL_WFS_TILE_INDEX_UNBOUND","fake_data":false,"required_building_state":"BUILDING_PRESENT","canonical_parcel_id":null,"binding_status":"LOCAL_OPENCODE_SPATIAL_JOIN_REQUIRED","height_min_m":null,"height_max_m":null,"height_mean_m":null,"height_range_m":null,"accepted_count_contribution":0,"source_area_count_contribution":0}},{"type":"Feature","geometry":null,"properties":{"source_row_index":14,"polygon_id":"P_10651","tilename":"ST8540","dsm_fn":"DSM_ST8540_P_10651_20180225_20180225.tif","dtm_fn":"DTM_ST8540_P_10651_20180225_20180225.tif","fz_dsm_fn":"FZ_DSM_ST8540_P_10651_20180225_20180225.tif","int_lz_fn":"Intensity_LZ_ST8540_P_10651_20180225_20180225.tif","survey_date":"2018-02-25","survey_date_evidence":"parsed from official tile filename under EA documented P_XXXXX_OSGRID_SDFLOWN_EDFLOWN naming convention","crs":"EPSG:27700","resolution_m":1,"record_role":"official_lidar_tile_index_evidence_unbound","evidence_scope":"tile_index","official_source_url":"https://environment.data.gov.uk/spatialdata/survey-index-files/wfs?service=WFS&version=2.0.0&request=GetFeature&typeNames=dataset-9f0fa3fc-a860-4729-adc9-47fe53f658d0%3ANational_LIDAR_Programme_Index_Catalogue&outputFormat=application%2Fjson&count=50","official_dataset_url":"https://environment.data.gov.uk/dataset/2e8d0733-4f43-48b4-9e51-631c25d1b0a9","access_utc":"2026-09-30T18:31:00Z","upstream_retrieved_at":"2026-09-29T14:25:45.425Z","licence":"Open Government Licence","evidence_slice_sha256":"207ec4285caa3a3bf0e221fb089e42a6f720bd3140d94f1e294cf44ac85f3699","source_file_sha256":"207ec4285caa3a3bf0e221fb089e42a6f720bd3140d94f1e294cf44ac85f3699","source_file_sha256_scope":"captured evidence slice rows 4-50; not a claim about raw upstream WFS bytes","field_evidence":{"polygon_id":"upstream verbatim WFS field","tilename":"upstream verbatim WFS field","dtm_fn":"upstream verbatim WFS field","survey_date":"derived only from official filename naming convention","crs":"official dataset metadata","resolution_m":"official dataset metadata"},"confidence_score_0_100":94,"evidence_grade":"A_OFFICIAL_WFS_TILE_INDEX_UNBOUND","fake_data":false,"required_building_state":"BUILDING_PRESENT","canonical_parcel_id":null,"binding_status":"LOCAL_OPENCODE_SPATIAL_JOIN_REQUIRED","height_min_m":null,"height_max_m":null,"height_mean_m":null,"height_range_m":null,"accepted_count_contribution":0,"source_area_count_contribution":0}},{"type":"Feature","geometry":null,"properties":{"source_row_index":15,"polygon_id":"P_10651","tilename":"ST8545","dsm_fn":"DSM_ST8545_P_10651_20180225_20180225.tif","dtm_fn":"DTM_ST8545_P_10651_20180225_20180225.tif","fz_dsm_fn":"FZ_DSM_ST8545_P_10651_20180225_20180225.tif","int_lz_fn":"Intensity_LZ_ST8545_P_10651_20180225_20180225.tif","survey_date":"2018-02-25","survey_date_evidence":"parsed from official tile filename under EA documented P_XXXXX_OSGRID_SDFLOWN_EDFLOWN naming convention","crs":"EPSG:27700","resolution_m":1,"record_role":"official_lidar_tile_index_evidence_unbound","evidence_scope":"tile_index","official_source_url":"https://environment.data.gov.uk/spatialdata/survey-index-files/wfs?service=WFS&version=2.0.0&request=GetFeature&typeNames=dataset-9f0fa3fc-a860-4729-adc9-47fe53f658d0%3ANational_LIDAR_Programme_Index_Catalogue&outputFormat=application%2Fjson&count=50","official_dataset_url":"https://environment.data.gov.uk/dataset/2e8d0733-4f43-48b4-9e51-631c25d1b0a9","access_utc":"2026-09-30T18:31:00Z","upstream_retrieved_at":"2026-09-29T14:25:45.425Z","licence":"Open Government Licence","evidence_slice_sha256":"207ec4285caa3a3bf0e221fb089e42a6f720bd3140d94f1e294cf44ac85f3699","source_file_sha256":"207ec4285caa3a3bf0e221fb089e42a6f720bd3140d94f1e294cf44ac85f3699","source_file_sha256_scope":"captured evidence slice rows 4-50; not a claim about raw upstream WFS bytes","field_evidence":{"polygon_id":"upstream verbatim WFS field","tilename":"upstream verbatim WFS field","dtm_fn":"upstream verbatim WFS field","survey_date":"derived only from official filename naming convention","crs":"official dataset metadata","resolution_m":"official dataset metadata"},"confidence_score_0_100":94,"evidence_grade":"A_OFFICIAL_WFS_TILE_INDEX_UNBOUND","fake_data":false,"required_building_state":"BUILDING_PRESENT","canonical_parcel_id":null,"binding_status":"LOCAL_OPENCODE_SPATIAL_JOIN_REQUIRED","height_min_m":null,"height_max_m":null,"height_mean_m":null,"height_range_m":null,"accepted_count_contribution":0,"source_area_count_contribution":0}},{"type":"Feature","geometry":null,"properties":{"source_row_index":16,"polygon_id":"P_10651","tilename":"ST9025","dsm_fn":"DSM_ST9025_P_10651_20180225_20180225.tif","dtm_fn":"DTM_ST9025_P_10651_20180225_20180225.tif","fz_dsm_fn":"FZ_DSM_ST9025_P_10651_20180225_20180225.tif","int_lz_fn":"Intensity_LZ_ST9025_P_10651_20180225_20180225.tif","survey_date":"2018-02-25","survey_date_evidence":"parsed from official tile filename under EA documented P_XXXXX_OSGRID_SDFLOWN_EDFLOWN naming convention","crs":"EPSG:27700","resolution_m":1,"record_role":"official_lidar_tile_index_evidence_unbound","evidence_scope":"tile_index","official_source_url":"https://environment.data.gov.uk/spatialdata/survey-index-files/wfs?service=WFS&version=2.0.0&request=GetFeature&typeNames=dataset-9f0fa3fc-a860-4729-adc9-47fe53f658d0%3ANational_LIDAR_Programme_Index_Catalogue&outputFormat=application%2Fjson&count=50","official_dataset_url":"https://environment.data.gov.uk/dataset/2e8d0733-4f43-48b4-9e51-631c25d1b0a9","access_utc":"2026-09-30T18:31:00Z","upstream_retrieved_at":"2026-09-29T14:25:45.425Z","licence":"Open Government Licence","evidence_slice_sha256":"207ec4285caa3a3bf0e221fb089e42a6f720bd3140d94f1e294cf44ac85f3699","source_file_sha256":"207ec4285caa3a3bf0e221fb089e42a6f720bd3140d94f1e294cf44ac85f3699","source_file_sha256_scope":"captured evidence slice rows 4-50; not a claim about raw upstream WFS bytes","field_evidence":{"polygon_id":"upstream verbatim WFS field","tilename":"upstream verbatim WFS field","dtm_fn":"upstream verbatim WFS field","survey_date":"derived only from official filename naming convention","crs":"official dataset metadata","resolution_m":"official dataset metadata"},"confidence_score_0_100":94,"evidence_grade":"A_OFFICIAL_WFS_TILE_INDEX_UNBOUND","fake_data":false,"required_building_state":"BUILDING_PRESENT","canonical_parcel_id":null,"binding_status":"LOCAL_OPENCODE_SPATIAL_JOIN_REQUIRED","height_min_m":null,"height_max_m":null,"height_mean_m":null,"height_range_m":null,"accepted_count_contribution":0,"source_area_count_contribution":0}},{"type":"Feature","geometry":null,"properties":{"source_row_index":17,"polygon_id":"P_10651","tilename":"ST9030","dsm_fn":"DSM_ST9030_P_10651_20180225_20180225.tif","dtm_fn":"DTM_ST9030_P_10651_20180225_20180225.tif","fz_dsm_fn":"FZ_DSM_ST9030_P_10651_20180225_20180225.tif","int_lz_fn":"Intensity_LZ_ST9030_P_10651_20180225_20180225.tif","survey_date":"2018-02-25","survey_date_evidence":"parsed from official tile filename under EA documented P_XXXXX_OSGRID_SDFLOWN_EDFLOWN naming convention","crs":"EPSG:27700","resolution_m":1,"record_role":"official_lidar_tile_index_evidence_unbound","evidence_scope":"tile_index","official_source_url":"https://environment.data.gov.uk/spatialdata/survey-index-files/wfs?service=WFS&version=2.0.0&request=GetFeature&typeNames=dataset-9f0fa3fc-a860-4729-adc9-47fe53f658d0%3ANational_LIDAR_Programme_Index_Catalogue&outputFormat=application%2Fjson&count=50","official_dataset_url":"https://environment.data.gov.uk/dataset/2e8d0733-4f43-48b4-9e51-631c25d1b0a9","access_utc":"2026-09-30T18:31:00Z","upstream_retrieved_at":"2026-09-29T14:25:45.425Z","licence":"Open Government Licence","evidence_slice_sha256":"207ec4285caa3a3bf0e221fb089e42a6f720bd3140d94f1e294cf44ac85f3699","source_file_sha256":"207ec4285caa3a3bf0e221fb089e42a6f720bd3140d94f1e294cf44ac85f3699","source_file_sha256_scope":"captured evidence slice rows 4-50; not a claim about raw upstream WFS bytes","field_evidence":{"polygon_id":"upstream verbatim WFS field","tilename":"upstream verbatim WFS field","dtm_fn":"upstream verbatim WFS field","survey_date":"derived only from official filename naming convention","crs":"official dataset metadata","resolution_m":"official dataset metadata"},"confidence_score_0_100":94,"evidence_grade":"A_OFFICIAL_WFS_TILE_INDEX_UNBOUND","fake_data":false,"required_building_state":"BUILDING_PRESENT","canonical_parcel_id":null,"binding_status":"LOCAL_OPENCODE_SPATIAL_JOIN_REQUIRED","height_min_m":null,"height_max_m":null,"height_mean_m":null,"height_range_m":null,"accepted_count_contribution":0,"source_area_count_contribution":0}},{"type":"Feature","geometry":null,"properties":{"source_row_index":18,"polygon_id":"P_10651","tilename":"ST9035","dsm_fn":"DSM_ST9035_P_10651_20180225_20180225.tif","dtm_fn":"DTM_ST9035_P_10651_20180225_20180225.tif","fz_dsm_fn":"FZ_DSM_ST9035_P_10651_20180225_20180225.tif","int_lz_fn":"Intensity_LZ_ST9035_P_10651_20180225_20180225.tif","survey_date":"2018-02-25","survey_date_evidence":"parsed from official tile filename under EA documented P_XXXXX_OSGRID_SDFLOWN_EDFLOWN naming convention","crs":"EPSG:27700","resolution_m":1,"record_role":"official_lidar_tile_index_evidence_unbound","evidence_scope":"tile_index","official_source_url":"https://environment.data.gov.uk/spatialdata/survey-index-files/wfs?service=WFS&version=2.0.0&request=GetFeature&typeNames=dataset-9f0fa3fc-a860-4729-adc9-47fe53f658d0%3ANational_LIDAR_Programme_Index_Catalogue&outputFormat=application%2Fjson&count=50","official_dataset_url":"https://environment.data.gov.uk/dataset/2e8d0733-4f43-48b4-9e51-631c25d1b0a9","access_utc":"2026-09-30T18:31:00Z","upstream_retrieved_at":"2026-09-29T14:25:45.425Z","licence":"Open Government Licence","evidence_slice_sha256":"207ec4285caa3a3bf0e221fb089e42a6f720bd3140d94f1e294cf44ac85f3699","source_file_sha256":"207ec4285caa3a3bf0e221fb089e42a6f720bd3140d94f1e294cf44ac85f3699","source_file_sha256_scope":"captured evidence slice rows 4-50; not a claim about raw upstream WFS bytes","field_evidence":{"polygon_id":"upstream verbatim WFS field","tilename":"upstream verbatim WFS field","dtm_fn":"upstream verbatim WFS field","survey_date":"derived only from official filename naming convention","crs":"official dataset metadata","resolution_m":"official dataset metadata"},"confidence_score_0_100":94,"evidence_grade":"A_OFFICIAL_WFS_TILE_INDEX_UNBOUND","fake_data":false,"required_building_state":"BUILDING_PRESENT","canonical_parcel_id":null,"binding_status":"LOCAL_OPENCODE_SPATIAL_JOIN_REQUIRED","height_min_m":null,"height_max_m":null,"height_mean_m":null,"height_range_m":null,"accepted_count_contribution":0,"source_area_count_contribution":0}},{"type":"Feature","geometry":null,"properties":{"source_row_index":19,"polygon_id":"P_10651","tilename":"ST9040","dsm_fn":"DSM_ST9040_P_10651_20180225_20180225.tif","dtm_fn":"DTM_ST9040_P_10651_20180225_20180225.tif","fz_dsm_fn":"FZ_DSM_ST9040_P_10651_20180225_20180225.tif","int_lz_fn":"Intensity_LZ_ST9040_P_10651_20180225_20180225.tif","survey_date":"2018-02-25","survey_date_evidence":"parsed from official tile filename under EA documented P_XXXXX_OSGRID_SDFLOWN_EDFLOWN naming convention","crs":"EPSG:27700","resolution_m":1,"record_role":"official_lidar_tile_index_evidence_unbound","evidence_scope":"tile_index","official_source_url":"https://environment.data.gov.uk/spatialdata/survey-index-files/wfs?service=WFS&version=2.0.0&request=GetFeature&typeNames=dataset-9f0fa3fc-a860-4729-adc9-47fe53f658d0%3ANational_LIDAR_Programme_Index_Catalogue&outputFormat=application%2Fjson&count=50","official_dataset_url":"https://environment.data.gov.uk/dataset/2e8d0733-4f43-48b4-9e51-631c25d1b0a9","access_utc":"2026-09-30T18:31:00Z","upstream_retrieved_at":"2026-09-29T14:25:45.425Z","licence":"Open Government Licence","evidence_slice_sha256":"207ec4285caa3a3bf0e221fb089e42a6f720bd3140d94f1e294cf44ac85f3699","source_file_sha256":"207ec4285caa3a3bf0e221fb089e42a6f720bd3140d94f1e294cf44ac85f3699","source_file_sha256_scope":"captured evidence slice rows 4-50; not a claim about raw upstream WFS bytes","field_evidence":{"polygon_id":"upstream verbatim WFS field","tilename":"upstream verbatim WFS field","dtm_fn":"upstream verbatim WFS field","survey_date":"derived only from official filename naming convention","crs":"official dataset metadata","resolution_m":"official dataset metadata"},"confidence_score_0_100":94,"evidence_grade":"A_OFFICIAL_WFS_TILE_INDEX_UNBOUND","fake_data":false,"required_building_state":"BUILDING_PRESENT","canonical_parcel_id":null,"binding_status":"LOCAL_OPENCODE_SPATIAL_JOIN_REQUIRED","height_min_m":null,"height_max_m":null,"height_mean_m":null,"height_range_m":null,"accepted_count_contribution":0,"source_area_count_contribution":0}},{"type":"Feature","geometry":null,"properties":{"source_row_index":20,"polygon_id":"P_10651","tilename":"ST9045","dsm_fn":"DSM_ST9045_P_10651_20180225_20180225.tif","dtm_fn":"DTM_ST9045_P_10651_20180225_20180225.tif","fz_dsm_fn":"FZ_DSM_ST9045_P_10651_20180225_20180225.tif","int_lz_fn":"Intensity_LZ_ST9045_P_10651_20180225_20180225.tif","survey_date":"2018-02-25","survey_date_evidence":"parsed from official tile filename under EA documented P_XXXXX_OSGRID_SDFLOWN_EDFLOWN naming convention","crs":"EPSG:27700","resolution_m":1,"record_role":"official_lidar_tile_index_evidence_unbound","evidence_scope":"tile_index","official_source_url":"https://environment.data.gov.uk/spatialdata/survey-index-files/wfs?service=WFS&version=2.0.0&request=GetFeature&typeNames=dataset-9f0fa3fc-a860-4729-adc9-47fe53f658d0%3ANational_LIDAR_Programme_Index_Catalogue&outputFormat=application%2Fjson&count=50","official_dataset_url":"https://environment.data.gov.uk/dataset/2e8d0733-4f43-48b4-9e51-631c25d1b0a9","access_utc":"2026-09-30T18:31:00Z","upstream_retrieved_at":"2026-09-29T14:25:45.425Z","licence":"Open Government Licence","evidence_slice_sha256":"207ec4285caa3a3bf0e221fb089e42a6f720bd3140d94f1e294cf44ac85f3699","source_file_sha256":"207ec4285caa3a3bf0e221fb089e42a6f720bd3140d94f1e294cf44ac85f3699","source_file_sha256_scope":"captured evidence slice rows 4-50; not a claim about raw upstream WFS bytes","field_evidence":{"polygon_id":"upstream verbatim WFS field","tilename":"upstream verbatim WFS field","dtm_fn":"upstream verbatim WFS field","survey_date":"derived only from official filename naming convention","crs":"official dataset metadata","resolution_m":"official dataset metadata"},"confidence_score_0_100":94,"evidence_grade":"A_OFFICIAL_WFS_TILE_INDEX_UNBOUND","fake_data":false,"required_building_state":"BUILDING_PRESENT","canonical_parcel_id":null,"binding_status":"LOCAL_OPENCODE_SPATIAL_JOIN_REQUIRED","height_min_m":null,"height_max_m":null,"height_mean_m":null,"height_range_m":null,"accepted_count_contribution":0,"source_area_count_contribution":0}},{"type":"Feature","geometry":null,"properties":{"source_row_index":21,"polygon_id":"P_10651","tilename":"ST9525","dsm_fn":"DSM_ST9525_P_10651_20180225_20180225.tif","dtm_fn":"DTM_ST9525_P_10651_20180225_20180225.tif","fz_dsm_fn":"FZ_DSM_ST9525_P_10651_20180225_20180225.tif","int_lz_fn":"Intensity_LZ_ST9525_P_10651_20180225_20180225.tif","survey_date":"2018-02-25","survey_date_evidence":"parsed from official tile filename under EA documented P_XXXXX_OSGRID_SDFLOWN_EDFLOWN naming convention","crs":"EPSG:27700","resolution_m":1,"record_role":"official_lidar_tile_index_evidence_unbound","evidence_scope":"tile_index","official_source_url":"https://environment.data.gov.uk/spatialdata/survey-index-files/wfs?service=WFS&version=2.0.0&request=GetFeature&typeNames=dataset-9f0fa3fc-a860-4729-adc9-47fe53f658d0%3ANational_LIDAR_Programme_Index_Catalogue&outputFormat=application%2Fjson&count=50","official_dataset_url":"https://environment.data.gov.uk/dataset/2e8d0733-4f43-48b4-9e51-631c25d1b0a9","access_utc":"2026-09-30T18:31:00Z","upstream_retrieved_at":"2026-09-29T14:25:45.425Z","licence":"Open Government Licence","evidence_slice_sha256":"207ec4285caa3a3bf0e221fb089e42a6f720bd3140d94f1e294cf44ac85f3699","source_file_sha256":"207ec4285caa3a3bf0e221fb089e42a6f720bd3140d94f1e294cf44ac85f3699","source_file_sha256_scope":"captured evidence slice rows 4-50; not a claim about raw upstream WFS bytes","field_evidence":{"polygon_id":"upstream verbatim WFS field","tilename":"upstream verbatim WFS field","dtm_fn":"upstream verbatim WFS field","survey_date":"derived only from official filename naming convention","crs":"official dataset metadata","resolution_m":"official dataset metadata"},"confidence_score_0_100":94,"evidence_grade":"A_OFFICIAL_WFS_TILE_INDEX_UNBOUND","fake_data":false,"required_building_state":"BUILDING_PRESENT","canonical_parcel_id":null,"binding_status":"LOCAL_OPENCODE_SPATIAL_JOIN_REQUIRED","height_min_m":null,"height_max_m":null,"height_mean_m":null,"height_range_m":null,"accepted_count_contribution":0,"source_area_count_contribution":0}},{"type":"Feature","geometry":null,"properties":{"source_row_index":22,"polygon_id":"P_10651","tilename":"ST9530","dsm_fn":"DSM_ST9530_P_10651_20180225_20180225.tif","dtm_fn":"DTM_ST9530_P_10651_20180225_20180225.tif","fz_dsm_fn":"FZ_DSM_ST9530_P_10651_20180225_20180225.tif","int_lz_fn":"Intensity_LZ_ST9530_P_10651_20180225_20180225.tif","survey_date":"2018-02-25","survey_date_evidence":"parsed from official tile filename under EA documented P_XXXXX_OSGRID_SDFLOWN_EDFLOWN naming convention","crs":"EPSG:27700","resolution_m":1,"record_role":"official_lidar_tile_index_evidence_unbound","evidence_scope":"tile_index","official_source_url":"https://environment.data.gov.uk/spatialdata/survey-index-files/wfs?service=WFS&version=2.0.0&request=GetFeature&typeNames=dataset-9f0fa3fc-a860-4729-adc9-47fe53f658d0%3ANational_LIDAR_Programme_Index_Catalogue&outputFormat=application%2Fjson&count=50","official_dataset_url":"https://environment.data.gov.uk/dataset/2e8d0733-4f43-48b4-9e51-631c25d1b0a9","access_utc":"2026-09-30T18:31:00Z","upstream_retrieved_at":"2026-09-29T14:25:45.425Z","licence":"Open Government Licence","evidence_slice_sha256":"207ec4285caa3a3bf0e221fb089e42a6f720bd3140d94f1e294cf44ac85f3699","source_file_sha256":"207ec4285caa3a3bf0e221fb089e42a6f720bd3140d94f1e294cf44ac85f3699","source_file_sha256_scope":"captured evidence slice rows 4-50; not a claim about raw upstream WFS bytes","field_evidence":{"polygon_id":"upstream verbatim WFS field","tilename":"upstream verbatim WFS field","dtm_fn":"upstream verbatim WFS field","survey_date":"derived only from official filename naming convention","crs":"official dataset metadata","resolution_m":"official dataset metadata"},"confidence_score_0_100":94,"evidence_grade":"A_OFFICIAL_WFS_TILE_INDEX_UNBOUND","fake_data":false,"required_building_state":"BUILDING_PRESENT","canonical_parcel_id":null,"binding_status":"LOCAL_OPENCODE_SPATIAL_JOIN_REQUIRED","height_min_m":null,"height_max_m":null,"height_mean_m":null,"height_range_m":null,"accepted_count_contribution":0,"source_area_count_contribution":0}},{"type":"Feature","geometry":null,"properties":{"source_row_index":23,"polygon_id":"P_10651","tilename":"ST9535","dsm_fn":"DSM_ST9535_P_10651_20180225_20180225.tif","dtm_fn":"DTM_ST9535_P_10651_20180225_20180225.tif","fz_dsm_fn":"FZ_DSM_ST9535_P_10651_20180225_20180225.tif","int_lz_fn":"Intensity_LZ_ST9535_P_10651_20180225_20180225.tif","survey_date":"2018-02-25","survey_date_evidence":"parsed from official tile filename under EA documented P_XXXXX_OSGRID_SDFLOWN_EDFLOWN naming convention","crs":"EPSG:27700","resolution_m":1,"record_role":"official_lidar_tile_index_evidence_unbound","evidence_scope":"tile_index","official_source_url":"https://environment.data.gov.uk/spatialdata/survey-index-files/wfs?service=WFS&version=2.0.0&request=GetFeature&typeNames=dataset-9f0fa3fc-a860-4729-adc9-47fe53f658d0%3ANational_LIDAR_Programme_Index_Catalogue&outputFormat=application%2Fjson&count=50","official_dataset_url":"https://environment.data.gov.uk/dataset/2e8d0733-4f43-48b4-9e51-631c25d1b0a9","access_utc":"2026-09-30T18:31:00Z","upstream_retrieved_at":"2026-09-29T14:25:45.425Z","licence":"Open Government Licence","evidence_slice_sha256":"207ec4285caa3a3bf0e221fb089e42a6f720bd3140d94f1e294cf44ac85f3699","source_file_sha256":"207ec4285caa3a3bf0e221fb089e42a6f720bd3140d94f1e294cf44ac85f3699","source_file_sha256_scope":"captured evidence slice rows 4-50; not a claim about raw upstream WFS bytes","field_evidence":{"polygon_id":"upstream verbatim WFS field","tilename":"upstream verbatim WFS field","dtm_fn":"upstream verbatim WFS field","survey_date":"derived only from official filename naming convention","crs":"official dataset metadata","resolution_m":"official dataset metadata"},"confidence_score_0_100":94,"evidence_grade":"A_OFFICIAL_WFS_TILE_INDEX_UNBOUND","fake_data":false,"required_building_state":"BUILDING_PRESENT","canonical_parcel_id":null,"binding_status":"LOCAL_OPENCODE_SPATIAL_JOIN_REQUIRED","height_min_m":null,"height_max_m":null,"height_mean_m":null,"height_range_m":null,"accepted_count_contribution":0,"source_area_count_contribution":0}},{"type":"Feature","geometry":null,"properties":{"source_row_index":24,"polygon_id":"P_10651","tilename":"ST9540","dsm_fn":"DSM_ST9540_P_10651_20180225_20180225.tif","dtm_fn":"DTM_ST9540_P_10651_20180225_20180225.tif","fz_dsm_fn":"FZ_DSM_ST9540_P_10651_20180225_20180225.tif","int_lz_fn":"Intensity_LZ_ST9540_P_10651_20180225_20180225.tif","survey_date":"2018-02-25","survey_date_evidence":"parsed from official tile filename under EA documented P_XXXXX_OSGRID_SDFLOWN_EDFLOWN naming convention","crs":"EPSG:27700","resolution_m":1,"record_role":"official_lidar_tile_index_evidence_unbound","evidence_scope":"tile_index","official_source_url":"https://environment.data.gov.uk/spatialdata/survey-index-files/wfs?service=WFS&version=2.0.0&request=GetFeature&typeNames=dataset-9f0fa3fc-a860-4729-adc9-47fe53f658d0%3ANational_LIDAR_Programme_Index_Catalogue&outputFormat=application%2Fjson&count=50","official_dataset_url":"https://environment.data.gov.uk/dataset/2e8d0733-4f43-48b4-9e51-631c25d1b0a9","access_utc":"2026-09-30T18:31:00Z","upstream_retrieved_at":"2026-09-29T14:25:45.425Z","licence":"Open Government Licence","evidence_slice_sha256":"207ec4285caa3a3bf0e221fb089e42a6f720bd3140d94f1e294cf44ac85f3699","source_file_sha256":"207ec4285caa3a3bf0e221fb089e42a6f720bd3140d94f1e294cf44ac85f3699","source_file_sha256_scope":"captured evidence slice rows 4-50; not a claim about raw upstream WFS bytes","field_evidence":{"polygon_id":"upstream verbatim WFS field","tilename":"upstream verbatim WFS field","dtm_fn":"upstream verbatim WFS field","survey_date":"derived only from official filename naming convention","crs":"official dataset metadata","resolution_m":"official dataset metadata"},"confidence_score_0_100":94,"evidence_grade":"A_OFFICIAL_WFS_TILE_INDEX_UNBOUND","fake_data":false,"required_building_state":"BUILDING_PRESENT","canonical_parcel_id":null,"binding_status":"LOCAL_OPENCODE_SPATIAL_JOIN_REQUIRED","height_min_m":null,"height_max_m":null,"height_mean_m":null,"height_range_m":null,"accepted_count_contribution":0,"source_area_count_contribution":0}},{"type":"Feature","geometry":null,"properties":{"source_row_index":25,"polygon_id":"P_10651","tilename":"ST9545","dsm_fn":"DSM_ST9545_P_10651_20180225_20180225.tif","dtm_fn":"DTM_ST9545_P_10651_20180225_20180225.tif","fz_dsm_fn":"FZ_DSM_ST9545_P_10651_20180225_20180225.tif","int_lz_fn":"Intensity_LZ_ST9545_P_10651_20180225_20180225.tif","survey_date":"2018-02-25","survey_date_evidence":"parsed from official tile filename under EA documented P_XXXXX_OSGRID_SDFLOWN_EDFLOWN naming convention","crs":"EPSG:27700","resolution_m":1,"record_role":"official_lidar_tile_index_evidence_unbound","evidence_scope":"tile_index","official_source_url":"https://environment.data.gov.uk/spatialdata/survey-index-files/wfs?service=WFS&version=2.0.0&request=GetFeature&typeNames=dataset-9f0fa3fc-a860-4729-adc9-47fe53f658d0%3ANational_LIDAR_Programme_Index_Catalogue&outputFormat=application%2Fjson&count=50","official_dataset_url":"https://environment.data.gov.uk/dataset/2e8d0733-4f43-48b4-9e51-631c25d1b0a9","access_utc":"2026-09-30T18:31:00Z","upstream_retrieved_at":"2026-09-29T14:25:45.425Z","licence":"Open Government Licence","evidence_slice_sha256":"207ec4285caa3a3bf0e221fb089e42a6f720bd3140d94f1e294cf44ac85f3699","source_file_sha256":"207ec4285caa3a3bf0e221fb089e42a6f720bd3140d94f1e294cf44ac85f3699","source_file_sha256_scope":"captured evidence slice rows 4-50; not a claim about raw upstream WFS bytes","field_evidence":{"polygon_id":"upstream verbatim WFS field","tilename":"upstream verbatim WFS field","dtm_fn":"upstream verbatim WFS field","survey_date":"derived only from official filename naming convention","crs":"official dataset metadata","resolution_m":"official dataset metadata"},"confidence_score_0_100":94,"evidence_grade":"A_OFFICIAL_WFS_TILE_INDEX_UNBOUND","fake_data":false,"required_building_state":"BUILDING_PRESENT","canonical_parcel_id":null,"binding_status":"LOCAL_OPENCODE_SPATIAL_JOIN_REQUIRED","height_min_m":null,"height_max_m":null,"height_mean_m":null,"height_range_m":null,"accepted_count_contribution":0,"source_area_count_contribution":0}},{"type":"Feature","geometry":null,"properties":{"source_row_index":26,"polygon_id":"P_10632","tilename":"ST5075","dsm_fn":"DSM_ST5075_P_10632_20180419_20180419.tif","dtm_fn":"DTM_ST5075_P_10632_20180419_20180419.tif","fz_dsm_fn":"FZ_DSM_ST5075_P_10632_20180419_20180419.tif","int_lz_fn":"Intensity_LZ_ST5075_P_10632_20180419_20180419.tif","survey_date":"2018-04-19","survey_date_evidence":"parsed from official tile filename under EA documented P_XXXXX_OSGRID_SDFLOWN_EDFLOWN naming convention","crs":"EPSG:27700","resolution_m":1,"record_role":"official_lidar_tile_index_evidence_unbound","evidence_scope":"tile_index","official_source_url":"https://environment.data.gov.uk/spatialdata/survey-index-files/wfs?service=WFS&version=2.0.0&request=GetFeature&typeNames=dataset-9f0fa3fc-a860-4729-adc9-47fe53f658d0%3ANational_LIDAR_Programme_Index_Catalogue&outputFormat=application%2Fjson&count=50","official_dataset_url":"https://environment.data.gov.uk/dataset/2e8d0733-4f43-48b4-9e51-631c25d1b0a9","access_utc":"2026-09-30T18:31:00Z","upstream_retrieved_at":"2026-09-29T14:25:45.425Z","licence":"Open Government Licence","evidence_slice_sha256":"207ec4285caa3a3bf0e221fb089e42a6f720bd3140d94f1e294cf44ac85f3699","source_file_sha256":"207ec4285caa3a3bf0e221fb089e42a6f720bd3140d94f1e294cf44ac85f3699","source_file_sha256_scope":"captured evidence slice rows 4-50; not a claim about raw upstream WFS bytes","field_evidence":{"polygon_id":"upstream verbatim WFS field","tilename":"upstream verbatim WFS field","dtm_fn":"upstream verbatim WFS field","survey_date":"derived only from official filename naming convention","crs":"official dataset metadata","resolution_m":"official dataset metadata"},"confidence_score_0_100":94,"evidence_grade":"A_OFFICIAL_WFS_TILE_INDEX_UNBOUND","fake_data":false,"required_building_state":"BUILDING_PRESENT","canonical_parcel_id":null,"binding_status":"LOCAL_OPENCODE_SPATIAL_JOIN_REQUIRED","height_min_m":null,"height_max_m":null,"height_mean_m":null,"height_range_m":null,"accepted_count_contribution":0,"source_area_count_contribution":0}},{"type":"Feature","geometry":null,"properties":{"source_row_index":27,"polygon_id":"P_10632","tilename":"ST5080","dsm_fn":"DSM_ST5080_P_10632_20180419_20180419.tif","dtm_fn":"DTM_ST5080_P_10632_20180419_20180419.tif","fz_dsm_fn":"FZ_DSM_ST5080_P_10632_20180419_20180419.tif","int_lz_fn":"Intensity_LZ_ST5080_P_10632_20180419_20180419.tif","survey_date":"2018-04-19","survey_date_evidence":"parsed from official tile filename under EA documented P_XXXXX_OSGRID_SDFLOWN_EDFLOWN naming convention","crs":"EPSG:27700","resolution_m":1,"record_role":"official_lidar_tile_index_evidence_unbound","evidence_scope":"tile_index","official_source_url":"https://environment.data.gov.uk/spatialdata/survey-index-files/wfs?service=WFS&version=2.0.0&request=GetFeature&typeNames=dataset-9f0fa3fc-a860-4729-adc9-47fe53f658d0%3ANational_LIDAR_Programme_Index_Catalogue&outputFormat=application%2Fjson&count=50","official_dataset_url":"https://environment.data.gov.uk/dataset/2e8d0733-4f43-48b4-9e51-631c25d1b0a9","access_utc":"2026-09-30T18:31:00Z","upstream_retrieved_at":"2026-09-29T14:25:45.425Z","licence":"Open Government Licence","evidence_slice_sha256":"207ec4285caa3a3bf0e221fb089e42a6f720bd3140d94f1e294cf44ac85f3699","source_file_sha256":"207ec4285caa3a3bf0e221fb089e42a6f720bd3140d94f1e294cf44ac85f3699","source_file_sha256_scope":"captured evidence slice rows 4-50; not a claim about raw upstream WFS bytes","field_evidence":{"polygon_id":"upstream verbatim WFS field","tilename":"upstream verbatim WFS field","dtm_fn":"upstream verbatim WFS field","survey_date":"derived only from official filename naming convention","crs":"official dataset metadata","resolution_m":"official dataset metadata"},"confidence_score_0_100":94,"evidence_grade":"A_OFFICIAL_WFS_TILE_INDEX_UNBOUND","fake_data":false,"required_building_state":"BUILDING_PRESENT","canonical_parcel_id":null,"binding_status":"LOCAL_OPENCODE_SPATIAL_JOIN_REQUIRED","height_min_m":null,"height_max_m":null,"height_mean_m":null,"height_range_m":null,"accepted_count_contribution":0,"source_area_count_contribution":0}},{"type":"Feature","geometry":null,"properties":{"source_row_index":28,"polygon_id":"P_10632","tilename":"ST5085","dsm_fn":"DSM_ST5085_P_10632_20180419_20180419.tif","dtm_fn":"DTM_ST5085_P_10632_20180419_20180419.tif","fz_dsm_fn":"FZ_DSM_ST5085_P_10632_20180419_20180419.tif","int_lz_fn":"Intensity_LZ_ST5085_P_10632_20180419_20180419.tif","survey_date":"2018-04-19","survey_date_evidence":"parsed from official tile filename under EA documented P_XXXXX_OSGRID_SDFLOWN_EDFLOWN naming convention","crs":"EPSG:27700","resolution_m":1,"record_role":"official_lidar_tile_index_evidence_unbound","evidence_scope":"tile_index","official_source_url":"https://environment.data.gov.uk/spatialdata/survey-index-files/wfs?service=WFS&version=2.0.0&request=GetFeature&typeNames=dataset-9f0fa3fc-a860-4729-adc9-47fe53f658d0%3ANational_LIDAR_Programme_Index_Catalogue&outputFormat=application%2Fjson&count=50","official_dataset_url":"https://environment.data.gov.uk/dataset/2e8d0733-4f43-48b4-9e51-631c25d1b0a9","access_utc":"2026-09-30T18:31:00Z","upstream_retrieved_at":"2026-09-29T14:25:45.425Z","licence":"Open Government Licence","evidence_slice_sha256":"207ec4285caa3a3bf0e221fb089e42a6f720bd3140d94f1e294cf44ac85f3699","source_file_sha256":"207ec4285caa3a3bf0e221fb089e42a6f720bd3140d94f1e294cf44ac85f3699","source_file_sha256_scope":"captured evidence slice rows 4-50; not a claim about raw upstream WFS bytes","field_evidence":{"polygon_id":"upstream verbatim WFS field","tilename":"upstream verbatim WFS field","dtm_fn":"upstream verbatim WFS field","survey_date":"derived only from official filename naming convention","crs":"official dataset metadata","resolution_m":"official dataset metadata"},"confidence_score_0_100":94,"evidence_grade":"A_OFFICIAL_WFS_TILE_INDEX_UNBOUND","fake_data":false,"required_building_state":"BUILDING_PRESENT","canonical_parcel_id":null,"binding_status":"LOCAL_OPENCODE_SPATIAL_JOIN_REQUIRED","height_min_m":null,"height_max_m":null,"height_mean_m":null,"height_range_m":null,"accepted_count_contribution":0,"source_area_count_contribution":0}},{"type":"Feature","geometry":null,"properties":{"source_row_index":29,"polygon_id":"P_10632","tilename":"ST5090","dsm_fn":"DSM_ST5090_P_10632_20180419_20180419.tif","dtm_fn":"DTM_ST5090_P_10632_20180419_20180419.tif","fz_dsm_fn":"FZ_DSM_ST5090_P_10632_20180419_20180419.tif","int_lz_fn":"Intensity_LZ_ST5090_P_10632_20180419_20180419.tif","survey_date":"2018-04-19","survey_date_evidence":"parsed from official tile filename under EA documented P_XXXXX_OSGRID_SDFLOWN_EDFLOWN naming convention","crs":"EPSG:27700","resolution_m":1,"record_role":"official_lidar_tile_index_evidence_unbound","evidence_scope":"tile_index","official_source_url":"https://environment.data.gov.uk/spatialdata/survey-index-files/wfs?service=WFS&version=2.0.0&request=GetFeature&typeNames=dataset-9f0fa3fc-a860-4729-adc9-47fe53f658d0%3ANational_LIDAR_Programme_Index_Catalogue&outputFormat=application%2Fjson&count=50","official_dataset_url":"https://environment.data.gov.uk/dataset/2e8d0733-4f43-48b4-9e51-631c25d1b0a9","access_utc":"2026-09-30T18:31:00Z","upstream_retrieved_at":"2026-09-29T14:25:45.425Z","licence":"Open Government Licence","evidence_slice_sha256":"207ec4285caa3a3bf0e221fb089e42a6f720bd3140d94f1e294cf44ac85f3699","source_file_sha256":"207ec4285caa3a3bf0e221fb089e42a6f720bd3140d94f1e294cf44ac85f3699","source_file_sha256_scope":"captured evidence slice rows 4-50; not a claim about raw upstream WFS bytes","field_evidence":{"polygon_id":"upstream verbatim WFS field","tilename":"upstream verbatim WFS field","dtm_fn":"upstream verbatim WFS field","survey_date":"derived only from official filename naming convention","crs":"official dataset metadata","resolution_m":"official dataset metadata"},"confidence_score_0_100":94,"evidence_grade":"A_OFFICIAL_WFS_TILE_INDEX_UNBOUND","fake_data":false,"required_building_state":"BUILDING_PRESENT","canonical_parcel_id":null,"binding_status":"LOCAL_OPENCODE_SPATIAL_JOIN_REQUIRED","height_min_m":null,"height_max_m":null,"height_mean_m":null,"height_range_m":null,"accepted_count_contribution":0,"source_area_count_contribution":0}},{"type":"Feature","geometry":null,"properties":{"source_row_index":30,"polygon_id":"P_10632","tilename":"ST5095","dsm_fn":"DSM_ST5095_P_10632_20180419_20180419.tif","dtm_fn":"DTM_ST5095_P_10632_20180419_20180419.tif","fz_dsm_fn":"FZ_DSM_ST5095_P_10632_20180419_20180419.tif","int_lz_fn":"Intensity_LZ_ST5095_P_10632_20180419_20180419.tif","survey_date":"2018-04-19","survey_date_evidence":"parsed from official tile filename under EA documented P_XXXXX_OSGRID_SDFLOWN_EDFLOWN naming convention","crs":"EPSG:27700","resolution_m":1,"record_role":"official_lidar_tile_index_evidence_unbound","evidence_scope":"tile_index","official_source_url":"https://environment.data.gov.uk/spatialdata/survey-index-files/wfs?service=WFS&version=2.0.0&request=GetFeature&typeNames=dataset-9f0fa3fc-a860-4729-adc9-47fe53f658d0%3ANational_LIDAR_Programme_Index_Catalogue&outputFormat=application%2Fjson&count=50","official_dataset_url":"https://environment.data.gov.uk/dataset/2e8d0733-4f43-48b4-9e51-631c25d1b0a9","access_utc":"2026-09-30T18:31:00Z","upstream_retrieved_at":"2026-09-29T14:25:45.425Z","licence":"Open Government Licence","evidence_slice_sha256":"207ec4285caa3a3bf0e221fb089e42a6f720bd3140d94f1e294cf44ac85f3699","source_file_sha256":"207ec4285caa3a3bf0e221fb089e42a6f720bd3140d94f1e294cf44ac85f3699","source_file_sha256_scope":"captured evidence slice rows 4-50; not a claim about raw upstream WFS bytes","field_evidence":{"polygon_id":"upstream verbatim WFS field","tilename":"upstream verbatim WFS field","dtm_fn":"upstream verbatim WFS field","survey_date":"derived only from official filename naming convention","crs":"official dataset metadata","resolution_m":"official dataset metadata"},"confidence_score_0_100":94,"evidence_grade":"A_OFFICIAL_WFS_TILE_INDEX_UNBOUND","fake_data":false,"required_building_state":"BUILDING_PRESENT","canonical_parcel_id":null,"binding_status":"LOCAL_OPENCODE_SPATIAL_JOIN_REQUIRED","height_min_m":null,"height_max_m":null,"height_mean_m":null,"height_range_m":null,"accepted_count_contribution":0,"source_area_count_contribution":0}},{"type":"Feature","geometry":null,"properties":{"source_row_index":31,"polygon_id":"P_10632","tilename":"ST5575","dsm_fn":"DSM_ST5575_P_10632_20180419_20180419.tif","dtm_fn":"DTM_ST5575_P_10632_20180419_20180419.tif","fz_dsm_fn":"FZ_DSM_ST5575_P_10632_20180419_20180419.tif","int_lz_fn":"Intensity_LZ_ST5575_P_10632_20180419_20180419.tif","survey_date":"2018-04-19","survey_date_evidence":"parsed from official tile filename under EA documented P_XXXXX_OSGRID_SDFLOWN_EDFLOWN naming convention","crs":"EPSG:27700","resolution_m":1,"record_role":"official_lidar_tile_index_evidence_unbound","evidence_scope":"tile_index","official_source_url":"https://environment.data.gov.uk/spatialdata/survey-index-files/wfs?service=WFS&version=2.0.0&request=GetFeature&typeNames=dataset-9f0fa3fc-a860-4729-adc9-47fe53f658d0%3ANational_LIDAR_Programme_Index_Catalogue&outputFormat=application%2Fjson&count=50","official_dataset_url":"https://environment.data.gov.uk/dataset/2e8d0733-4f43-48b4-9e51-631c25d1b0a9","access_utc":"2026-09-30T18:31:00Z","upstream_retrieved_at":"2026-09-29T14:25:45.425Z","licence":"Open Government Licence","evidence_slice_sha256":"207ec4285caa3a3bf0e221fb089e42a6f720bd3140d94f1e294cf44ac85f3699","source_file_sha256":"207ec4285caa3a3bf0e221fb089e42a6f720bd3140d94f1e294cf44ac85f3699","source_file_sha256_scope":"captured evidence slice rows 4-50; not a claim about raw upstream WFS bytes","field_evidence":{"polygon_id":"upstream verbatim WFS field","tilename":"upstream verbatim WFS field","dtm_fn":"upstream verbatim WFS field","survey_date":"derived only from official filename naming convention","crs":"official dataset metadata","resolution_m":"official dataset metadata"},"confidence_score_0_100":94,"evidence_grade":"A_OFFICIAL_WFS_TILE_INDEX_UNBOUND","fake_data":false,"required_building_state":"BUILDING_PRESENT","canonical_parcel_id":null,"binding_status":"LOCAL_OPENCODE_SPATIAL_JOIN_REQUIRED","height_min_m":null,"height_max_m":null,"height_mean_m":null,"height_range_m":null,"accepted_count_contribution":0,"source_area_count_contribution":0}},{"type":"Feature","geometry":null,"properties":{"source_row_index":32,"polygon_id":"P_10632","tilename":"ST5580","dsm_fn":"DSM_ST5580_P_10632_20180419_20180419.tif","dtm_fn":"DTM_ST5580_P_10632_20180419_20180419.tif","fz_dsm_fn":"FZ_DSM_ST5580_P_10632_20180419_20180419.tif","int_lz_fn":"Intensity_LZ_ST5580_P_10632_20180419_20180419.tif","survey_date":"2018-04-19","survey_date_evidence":"parsed from official tile filename under EA documented P_XXXXX_OSGRID_SDFLOWN_EDFLOWN naming convention","crs":"EPSG:27700","resolution_m":1,"record_role":"official_lidar_tile_index_evidence_unbound","evidence_scope":"tile_index","official_source_url":"https://environment.data.gov.uk/spatialdata/survey-index-files/wfs?service=WFS&version=2.0.0&request=GetFeature&typeNames=dataset-9f0fa3fc-a860-4729-adc9-47fe53f658d0%3ANational_LIDAR_Programme_Index_Catalogue&outputFormat=application%2Fjson&count=50","official_dataset_url":"https://environment.data.gov.uk/dataset/2e8d0733-4f43-48b4-9e51-631c25d1b0a9","access_utc":"2026-09-30T18:31:00Z","upstream_retrieved_at":"2026-09-29T14:25:45.425Z","licence":"Open Government Licence","evidence_slice_sha256":"207ec4285caa3a3bf0e221fb089e42a6f720bd3140d94f1e294cf44ac85f3699","source_file_sha256":"207ec4285caa3a3bf0e221fb089e42a6f720bd3140d94f1e294cf44ac85f3699","source_file_sha256_scope":"captured evidence slice rows 4-50; not a claim about raw upstream WFS bytes","field_evidence":{"polygon_id":"upstream verbatim WFS field","tilename":"upstream verbatim WFS field","dtm_fn":"upstream verbatim WFS field","survey_date":"derived only from official filename naming convention","crs":"official dataset metadata","resolution_m":"official dataset metadata"},"confidence_score_0_100":94,"evidence_grade":"A_OFFICIAL_WFS_TILE_INDEX_UNBOUND","fake_data":false,"required_building_state":"BUILDING_PRESENT","canonical_parcel_id":null,"binding_status":"LOCAL_OPENCODE_SPATIAL_JOIN_REQUIRED","height_min_m":null,"height_max_m":null,"height_mean_m":null,"height_range_m":null,"accepted_count_contribution":0,"source_area_count_contribution":0}},{"type":"Feature","geometry":null,"properties":{"source_row_index":33,"polygon_id":"P_10632","tilename":"ST5585","dsm_fn":"DSM_ST5585_P_10632_20180419_20180419.tif","dtm_fn":"DTM_ST5585_P_10632_20180419_20180419.tif","fz_dsm_fn":"FZ_DSM_ST5585_P_10632_20180419_20180419.tif","int_lz_fn":"Intensity_LZ_ST5585_P_10632_20180419_20180419.tif","survey_date":"2018-04-19","survey_date_evidence":"parsed from official tile filename under EA documented P_XXXXX_OSGRID_SDFLOWN_EDFLOWN naming convention","crs":"EPSG:27700","resolution_m":1,"record_role":"official_lidar_tile_index_evidence_unbound","evidence_scope":"tile_index","official_source_url":"https://environment.data.gov.uk/spatialdata/survey-index-files/wfs?service=WFS&version=2.0.0&request=GetFeature&typeNames=dataset-9f0fa3fc-a860-4729-adc9-47fe53f658d0%3ANational_LIDAR_Programme_Index_Catalogue&outputFormat=application%2Fjson&count=50","official_dataset_url":"https://environment.data.gov.uk/dataset/2e8d0733-4f43-48b4-9e51-631c25d1b0a9","access_utc":"2026-09-30T18:31:00Z","upstream_retrieved_at":"2026-09-29T14:25:45.425Z","licence":"Open Government Licence","evidence_slice_sha256":"207ec4285caa3a3bf0e221fb089e42a6f720bd3140d94f1e294cf44ac85f3699","source_file_sha256":"207ec4285caa3a3bf0e221fb089e42a6f720bd3140d94f1e294cf44ac85f3699","source_file_sha256_scope":"captured evidence slice rows 4-50; not a claim about raw upstream WFS bytes","field_evidence":{"polygon_id":"upstream verbatim WFS field","tilename":"upstream verbatim WFS field","dtm_fn":"upstream verbatim WFS field","survey_date":"derived only from official filename naming convention","crs":"official dataset metadata","resolution_m":"official dataset metadata"},"confidence_score_0_100":94,"evidence_grade":"A_OFFICIAL_WFS_TILE_INDEX_UNBOUND","fake_data":false,"required_building_state":"BUILDING_PRESENT","canonical_parcel_id":null,"binding_status":"LOCAL_OPENCODE_SPATIAL_JOIN_REQUIRED","height_min_m":null,"height_max_m":null,"height_mean_m":null,"height_range_m":null,"accepted_count_contribution":0,"source_area_count_contribution":0}},{"type":"Feature","geometry":null,"properties":{"source_row_index":34,"polygon_id":"P_10632","tilename":"ST5590","dsm_fn":"DSM_ST5590_P_10632_20180419_20180419.tif","dtm_fn":"DTM_ST5590_P_10632_20180419_20180419.tif","fz_dsm_fn":"FZ_DSM_ST5590_P_10632_20180419_20180419.tif","int_lz_fn":"Intensity_LZ_ST5590_P_10632_20180419_20180419.tif","survey_date":"2018-04-19","survey_date_evidence":"parsed from official tile filename under EA documented P_XXXXX_OSGRID_SDFLOWN_EDFLOWN naming convention","crs":"EPSG:27700","resolution_m":1,"record_role":"official_lidar_tile_index_evidence_unbound","evidence_scope":"tile_index","official_source_url":"https://environment.data.gov.uk/spatialdata/survey-index-files/wfs?service=WFS&version=2.0.0&request=GetFeature&typeNames=dataset-9f0fa3fc-a860-4729-adc9-47fe53f658d0%3ANational_LIDAR_Programme_Index_Catalogue&outputFormat=application%2Fjson&count=50","official_dataset_url":"https://environment.data.gov.uk/dataset/2e8d0733-4f43-48b4-9e51-631c25d1b0a9","access_utc":"2026-09-30T18:31:00Z","upstream_retrieved_at":"2026-09-29T14:25:45.425Z","licence":"Open Government Licence","evidence_slice_sha256":"207ec4285caa3a3bf0e221fb089e42a6f720bd3140d94f1e294cf44ac85f3699","source_file_sha256":"207ec4285caa3a3bf0e221fb089e42a6f720bd3140d94f1e294cf44ac85f3699","source_file_sha256_scope":"captured evidence slice rows 4-50; not a claim about raw upstream WFS bytes","field_evidence":{"polygon_id":"upstream verbatim WFS field","tilename":"upstream verbatim WFS field","dtm_fn":"upstream verbatim WFS field","survey_date":"derived only from official filename naming convention","crs":"official dataset metadata","resolution_m":"official dataset metadata"},"confidence_score_0_100":94,"evidence_grade":"A_OFFICIAL_WFS_TILE_INDEX_UNBOUND","fake_data":false,"required_building_state":"BUILDING_PRESENT","canonical_parcel_id":null,"binding_status":"LOCAL_OPENCODE_SPATIAL_JOIN_REQUIRED","height_min_m":null,"height_max_m":null,"height_mean_m":null,"height_range_m":null,"accepted_count_contribution":0,"source_area_count_contribution":0}},{"type":"Feature","geometry":null,"properties":{"source_row_index":35,"polygon_id":"P_10632","tilename":"ST5595","dsm_fn":"DSM_ST5595_P_10632_20180419_20180419.tif","dtm_fn":"DTM_ST5595_P_10632_20180419_20180419.tif","fz_dsm_fn":"FZ_DSM_ST5595_P_10632_20180419_20180419.tif","int_lz_fn":"Intensity_LZ_ST5595_P_10632_20180419_20180419.tif","survey_date":"2018-04-19","survey_date_evidence":"parsed from official tile filename under EA documented P_XXXXX_OSGRID_SDFLOWN_EDFLOWN naming convention","crs":"EPSG:27700","resolution_m":1,"record_role":"official_lidar_tile_index_evidence_unbound","evidence_scope":"tile_index","official_source_url":"https://environment.data.gov.uk/spatialdata/survey-index-files/wfs?service=WFS&version=2.0.0&request=GetFeature&typeNames=dataset-9f0fa3fc-a860-4729-adc9-47fe53f658d0%3ANational_LIDAR_Programme_Index_Catalogue&outputFormat=application%2Fjson&count=50","official_dataset_url":"https://environment.data.gov.uk/dataset/2e8d0733-4f43-48b4-9e51-631c25d1b0a9","access_utc":"2026-09-30T18:31:00Z","upstream_retrieved_at":"2026-09-29T14:25:45.425Z","licence":"Open Government Licence","evidence_slice_sha256":"207ec4285caa3a3bf0e221fb089e42a6f720bd3140d94f1e294cf44ac85f3699","source_file_sha256":"207ec4285caa3a3bf0e221fb089e42a6f720bd3140d94f1e294cf44ac85f3699","source_file_sha256_scope":"captured evidence slice rows 4-50; not a claim about raw upstream WFS bytes","field_evidence":{"polygon_id":"upstream verbatim WFS field","tilename":"upstream verbatim WFS field","dtm_fn":"upstream verbatim WFS field","survey_date":"derived only from official filename naming convention","crs":"official dataset metadata","resolution_m":"official dataset metadata"},"confidence_score_0_100":94,"evidence_grade":"A_OFFICIAL_WFS_TILE_INDEX_UNBOUND","fake_data":false,"required_building_state":"BUILDING_PRESENT","canonical_parcel_id":null,"binding_status":"LOCAL_OPENCODE_SPATIAL_JOIN_REQUIRED","height_min_m":null,"height_max_m":null,"height_mean_m":null,"height_range_m":null,"accepted_count_contribution":0,"source_area_count_contribution":0}},{"type":"Feature","geometry":null,"properties":{"source_row_index":36,"polygon_id":"P_10632","tilename":"ST6075","dsm_fn":"DSM_ST6075_P_10632_20180419_20180419.tif","dtm_fn":"DTM_ST6075_P_10632_20180419_20180419.tif","fz_dsm_fn":"FZ_DSM_ST6075_P_10632_20180419_20180419.tif","int_lz_fn":"Intensity_LZ_ST6075_P_10632_20180419_20180419.tif","survey_date":"2018-04-19","survey_date_evidence":"parsed from official tile filename under EA documented P_XXXXX_OSGRID_SDFLOWN_EDFLOWN naming convention","crs":"EPSG:27700","resolution_m":1,"record_role":"official_lidar_tile_index_evidence_unbound","evidence_scope":"tile_index","official_source_url":"https://environment.data.gov.uk/spatialdata/survey-index-files/wfs?service=WFS&version=2.0.0&request=GetFeature&typeNames=dataset-9f0fa3fc-a860-4729-adc9-47fe53f658d0%3ANational_LIDAR_Programme_Index_Catalogue&outputFormat=application%2Fjson&count=50","official_dataset_url":"https://environment.data.gov.uk/dataset/2e8d0733-4f43-48b4-9e51-631c25d1b0a9","access_utc":"2026-09-30T18:31:00Z","upstream_retrieved_at":"2026-09-29T14:25:45.425Z","licence":"Open Government Licence","evidence_slice_sha256":"207ec4285caa3a3bf0e221fb089e42a6f720bd3140d94f1e294cf44ac85f3699","source_file_sha256":"207ec4285caa3a3bf0e221fb089e42a6f720bd3140d94f1e294cf44ac85f3699","source_file_sha256_scope":"captured evidence slice rows 4-50; not a claim about raw upstream WFS bytes","field_evidence":{"polygon_id":"upstream verbatim WFS field","tilename":"upstream verbatim WFS field","dtm_fn":"upstream verbatim WFS field","survey_date":"derived only from official filename naming convention","crs":"official dataset metadata","resolution_m":"official dataset metadata"},"confidence_score_0_100":94,"evidence_grade":"A_OFFICIAL_WFS_TILE_INDEX_UNBOUND","fake_data":false,"required_building_state":"BUILDING_PRESENT","canonical_parcel_id":null,"binding_status":"LOCAL_OPENCODE_SPATIAL_JOIN_REQUIRED","height_min_m":null,"height_max_m":null,"height_mean_m":null,"height_range_m":null,"accepted_count_contribution":0,"source_area_count_contribution":0}},{"type":"Feature","geometry":null,"properties":{"source_row_index":37,"polygon_id":"P_10632","tilename":"ST6080","dsm_fn":"DSM_ST6080_P_10632_20180419_20180419.tif","dtm_fn":"DTM_ST6080_P_10632_20180419_20180419.tif","fz_dsm_fn":"FZ_DSM_ST6080_P_10632_20180419_20180419.tif","int_lz_fn":"Intensity_LZ_ST6080_P_10632_20180419_20180419.tif","survey_date":"2018-04-19","survey_date_evidence":"parsed from official tile filename under EA documented P_XXXXX_OSGRID_SDFLOWN_EDFLOWN naming convention","crs":"EPSG:27700","resolution_m":1,"record_role":"official_lidar_tile_index_evidence_unbound","evidence_scope":"tile_index","official_source_url":"https://environment.data.gov.uk/spatialdata/survey-index-files/wfs?service=WFS&version=2.0.0&request=GetFeature&typeNames=dataset-9f0fa3fc-a860-4729-adc9-47fe53f658d0%3ANational_LIDAR_Programme_Index_Catalogue&outputFormat=application%2Fjson&count=50","official_dataset_url":"https://environment.data.gov.uk/dataset/2e8d0733-4f43-48b4-9e51-631c25d1b0a9","access_utc":"2026-09-30T18:31:00Z","upstream_retrieved_at":"2026-09-29T14:25:45.425Z","licence":"Open Government Licence","evidence_slice_sha256":"207ec4285caa3a3bf0e221fb089e42a6f720bd3140d94f1e294cf44ac85f3699","source_file_sha256":"207ec4285caa3a3bf0e221fb089e42a6f720bd3140d94f1e294cf44ac85f3699","source_file_sha256_scope":"captured evidence slice rows 4-50; not a claim about raw upstream WFS bytes","field_evidence":{"polygon_id":"upstream verbatim WFS field","tilename":"upstream verbatim WFS field","dtm_fn":"upstream verbatim WFS field","survey_date":"derived only from official filename naming convention","crs":"official dataset metadata","resolution_m":"official dataset metadata"},"confidence_score_0_100":94,"evidence_grade":"A_OFFICIAL_WFS_TILE_INDEX_UNBOUND","fake_data":false,"required_building_state":"BUILDING_PRESENT","canonical_parcel_id":null,"binding_status":"LOCAL_OPENCODE_SPATIAL_JOIN_REQUIRED","height_min_m":null,"height_max_m":null,"height_mean_m":null,"height_range_m":null,"accepted_count_contribution":0,"source_area_count_contribution":0}},{"type":"Feature","geometry":null,"properties":{"source_row_index":38,"polygon_id":"P_10632","tilename":"ST6085","dsm_fn":"DSM_ST6085_P_10632_20180419_20180419.tif","dtm_fn":"DTM_ST6085_P_10632_20180419_20180419.tif","fz_dsm_fn":"FZ_DSM_ST6085_P_10632_20180419_20180419.tif","int_lz_fn":"Intensity_LZ_ST6085_P_10632_20180419_20180419.tif","survey_date":"2018-04-19","survey_date_evidence":"parsed from official tile filename under EA documented P_XXXXX_OSGRID_SDFLOWN_EDFLOWN naming convention","crs":"EPSG:27700","resolution_m":1,"record_role":"official_lidar_tile_index_evidence_unbound","evidence_scope":"tile_index","official_source_url":"https://environment.data.gov.uk/spatialdata/survey-index-files/wfs?service=WFS&version=2.0.0&request=GetFeature&typeNames=dataset-9f0fa3fc-a860-4729-adc9-47fe53f658d0%3ANational_LIDAR_Programme_Index_Catalogue&outputFormat=application%2Fjson&count=50","official_dataset_url":"https://environment.data.gov.uk/dataset/2e8d0733-4f43-48b4-9e51-631c25d1b0a9","access_utc":"2026-09-30T18:31:00Z","upstream_retrieved_at":"2026-09-29T14:25:45.425Z","licence":"Open Government Licence","evidence_slice_sha256":"207ec4285caa3a3bf0e221fb089e42a6f720bd3140d94f1e294cf44ac85f3699","source_file_sha256":"207ec4285caa3a3bf0e221fb089e42a6f720bd3140d94f1e294cf44ac85f3699","source_file_sha256_scope":"captured evidence slice rows 4-50; not a claim about raw upstream WFS bytes","field_evidence":{"polygon_id":"upstream verbatim WFS field","tilename":"upstream verbatim WFS field","dtm_fn":"upstream verbatim WFS field","survey_date":"derived only from official filename naming convention","crs":"official dataset metadata","resolution_m":"official dataset metadata"},"confidence_score_0_100":94,"evidence_grade":"A_OFFICIAL_WFS_TILE_INDEX_UNBOUND","fake_data":false,"required_building_state":"BUILDING_PRESENT","canonical_parcel_id":null,"binding_status":"LOCAL_OPENCODE_SPATIAL_JOIN_REQUIRED","height_min_m":null,"height_max_m":null,"height_mean_m":null,"height_range_m":null,"accepted_count_contribution":0,"source_area_count_contribution":0}},{"type":"Feature","geometry":null,"properties":{"source_row_index":39,"polygon_id":"P_10632","tilename":"ST6090","dsm_fn":"DSM_ST6090_P_10632_20180419_20180419.tif","dtm_fn":"DTM_ST6090_P_10632_20180419_20180419.tif","fz_dsm_fn":"FZ_DSM_ST6090_P_10632_20180419_20180419.tif","int_lz_fn":"Intensity_LZ_ST6090_P_10632_20180419_20180419.tif","survey_date":"2018-04-19","survey_date_evidence":"parsed from official tile filename under EA documented P_XXXXX_OSGRID_SDFLOWN_EDFLOWN naming convention","crs":"EPSG:27700","resolution_m":1,"record_role":"official_lidar_tile_index_evidence_unbound","evidence_scope":"tile_index","official_source_url":"https://environment.data.gov.uk/spatialdata/survey-index-files/wfs?service=WFS&version=2.0.0&request=GetFeature&typeNames=dataset-9f0fa3fc-a860-4729-adc9-47fe53f658d0%3ANational_LIDAR_Programme_Index_Catalogue&outputFormat=application%2Fjson&count=50","official_dataset_url":"https://environment.data.gov.uk/dataset/2e8d0733-4f43-48b4-9e51-631c25d1b0a9","access_utc":"2026-09-30T18:31:00Z","upstream_retrieved_at":"2026-09-29T14:25:45.425Z","licence":"Open Government Licence","evidence_slice_sha256":"207ec4285caa3a3bf0e221fb089e42a6f720bd3140d94f1e294cf44ac85f3699","source_file_sha256":"207ec4285caa3a3bf0e221fb089e42a6f720bd3140d94f1e294cf44ac85f3699","source_file_sha256_scope":"captured evidence slice rows 4-50; not a claim about raw upstream WFS bytes","field_evidence":{"polygon_id":"upstream verbatim WFS field","tilename":"upstream verbatim WFS field","dtm_fn":"upstream verbatim WFS field","survey_date":"derived only from official filename naming convention","crs":"official dataset metadata","resolution_m":"official dataset metadata"},"confidence_score_0_100":94,"evidence_grade":"A_OFFICIAL_WFS_TILE_INDEX_UNBOUND","fake_data":false,"required_building_state":"BUILDING_PRESENT","canonical_parcel_id":null,"binding_status":"LOCAL_OPENCODE_SPATIAL_JOIN_REQUIRED","height_min_m":null,"height_max_m":null,"height_mean_m":null,"height_range_m":null,"accepted_count_contribution":0,"source_area_count_contribution":0}},{"type":"Feature","geometry":null,"properties":{"source_row_index":40,"polygon_id":"P_10632","tilename":"ST6095","dsm_fn":"DSM_ST6095_P_10632_20180419_20180419.tif","dtm_fn":"DTM_ST6095_P_10632_20180419_20180419.tif","fz_dsm_fn":"FZ_DSM_ST6095_P_10632_20180419_20180419.tif","int_lz_fn":"Intensity_LZ_ST6095_P_10632_20180419_20180419.tif","survey_date":"2018-04-19","survey_date_evidence":"parsed from official tile filename under EA documented P_XXXXX_OSGRID_SDFLOWN_EDFLOWN naming convention","crs":"EPSG:27700","resolution_m":1,"record_role":"official_lidar_tile_index_evidence_unbound","evidence_scope":"tile_index","official_source_url":"https://environment.data.gov.uk/spatialdata/survey-index-files/wfs?service=WFS&version=2.0.0&request=GetFeature&typeNames=dataset-9f0fa3fc-a860-4729-adc9-47fe53f658d0%3ANational_LIDAR_Programme_Index_Catalogue&outputFormat=application%2Fjson&count=50","official_dataset_url":"https://environment.data.gov.uk/dataset/2e8d0733-4f43-48b4-9e51-631c25d1b0a9","access_utc":"2026-09-30T18:31:00Z","upstream_retrieved_at":"2026-09-29T14:25:45.425Z","licence":"Open Government Licence","evidence_slice_sha256":"207ec4285caa3a3bf0e221fb089e42a6f720bd3140d94f1e294cf44ac85f3699","source_file_sha256":"207ec4285caa3a3bf0e221fb089e42a6f720bd3140d94f1e294cf44ac85f3699","source_file_sha256_scope":"captured evidence slice rows 4-50; not a claim about raw upstream WFS bytes","field_evidence":{"polygon_id":"upstream verbatim WFS field","tilename":"upstream verbatim WFS field","dtm_fn":"upstream verbatim WFS field","survey_date":"derived only from official filename naming convention","crs":"official dataset metadata","resolution_m":"official dataset metadata"},"confidence_score_0_100":94,"evidence_grade":"A_OFFICIAL_WFS_TILE_INDEX_UNBOUND","fake_data":false,"required_building_state":"BUILDING_PRESENT","canonical_parcel_id":null,"binding_status":"LOCAL_OPENCODE_SPATIAL_JOIN_REQUIRED","height_min_m":null,"height_max_m":null,"height_mean_m":null,"height_range_m":null,"accepted_count_contribution":0,"source_area_count_contribution":0}},{"type":"Feature","geometry":null,"properties":{"source_row_index":41,"polygon_id":"P_10632","tilename":"ST6575","dsm_fn":"DSM_ST6575_P_10632_20180419_20180419.tif","dtm_fn":"DTM_ST6575_P_10632_20180419_20180419.tif","fz_dsm_fn":"FZ_DSM_ST6575_P_10632_20180419_20180419.tif","int_lz_fn":"Intensity_LZ_ST6575_P_10632_20180419_20180419.tif","survey_date":"2018-04-19","survey_date_evidence":"parsed from official tile filename under EA documented P_XXXXX_OSGRID_SDFLOWN_EDFLOWN naming convention","crs":"EPSG:27700","resolution_m":1,"record_role":"official_lidar_tile_index_evidence_unbound","evidence_scope":"tile_index","official_source_url":"https://environment.data.gov.uk/spatialdata/survey-index-files/wfs?service=WFS&version=2.0.0&request=GetFeature&typeNames=dataset-9f0fa3fc-a860-4729-adc9-47fe53f658d0%3ANational_LIDAR_Programme_Index_Catalogue&outputFormat=application%2Fjson&count=50","official_dataset_url":"https://environment.data.gov.uk/dataset/2e8d0733-4f43-48b4-9e51-631c25d1b0a9","access_utc":"2026-09-30T18:31:00Z","upstream_retrieved_at":"2026-09-29T14:25:45.425Z","licence":"Open Government Licence","evidence_slice_sha256":"207ec4285caa3a3bf0e221fb089e42a6f720bd3140d94f1e294cf44ac85f3699","source_file_sha256":"207ec4285caa3a3bf0e221fb089e42a6f720bd3140d94f1e294cf44ac85f3699","source_file_sha256_scope":"captured evidence slice rows 4-50; not a claim about raw upstream WFS bytes","field_evidence":{"polygon_id":"upstream verbatim WFS field","tilename":"upstream verbatim WFS field","dtm_fn":"upstream verbatim WFS field","survey_date":"derived only from official filename naming convention","crs":"official dataset metadata","resolution_m":"official dataset metadata"},"confidence_score_0_100":94,"evidence_grade":"A_OFFICIAL_WFS_TILE_INDEX_UNBOUND","fake_data":false,"required_building_state":"BUILDING_PRESENT","canonical_parcel_id":null,"binding_status":"LOCAL_OPENCODE_SPATIAL_JOIN_REQUIRED","height_min_m":null,"height_max_m":null,"height_mean_m":null,"height_range_m":null,"accepted_count_contribution":0,"source_area_count_contribution":0}},{"type":"Feature","geometry":null,"properties":{"source_row_index":42,"polygon_id":"P_10632","tilename":"ST6580","dsm_fn":"DSM_ST6580_P_10632_20180419_20180419.tif","dtm_fn":"DTM_ST6580_P_10632_20180419_20180419.tif","fz_dsm_fn":"FZ_DSM_ST6580_P_10632_20180419_20180419.tif","int_lz_fn":"Intensity_LZ_ST6580_P_10632_20180419_20180419.tif","survey_date":"2018-04-19","survey_date_evidence":"parsed from official tile filename under EA documented P_XXXXX_OSGRID_SDFLOWN_EDFLOWN naming convention","crs":"EPSG:27700","resolution_m":1,"record_role":"official_lidar_tile_index_evidence_unbound","evidence_scope":"tile_index","official_source_url":"https://environment.data.gov.uk/spatialdata/survey-index-files/wfs?service=WFS&version=2.0.0&request=GetFeature&typeNames=dataset-9f0fa3fc-a860-4729-adc9-47fe53f658d0%3ANational_LIDAR_Programme_Index_Catalogue&outputFormat=application%2Fjson&count=50","official_dataset_url":"https://environment.data.gov.uk/dataset/2e8d0733-4f43-48b4-9e51-631c25d1b0a9","access_utc":"2026-09-30T18:31:00Z","upstream_retrieved_at":"2026-09-29T14:25:45.425Z","licence":"Open Government Licence","evidence_slice_sha256":"207ec4285caa3a3bf0e221fb089e42a6f720bd3140d94f1e294cf44ac85f3699","source_file_sha256":"207ec4285caa3a3bf0e221fb089e42a6f720bd3140d94f1e294cf44ac85f3699","source_file_sha256_scope":"captured evidence slice rows 4-50; not a claim about raw upstream WFS bytes","field_evidence":{"polygon_id":"upstream verbatim WFS field","tilename":"upstream verbatim WFS field","dtm_fn":"upstream verbatim WFS field","survey_date":"derived only from official filename naming convention","crs":"official dataset metadata","resolution_m":"official dataset metadata"},"confidence_score_0_100":94,"evidence_grade":"A_OFFICIAL_WFS_TILE_INDEX_UNBOUND","fake_data":false,"required_building_state":"BUILDING_PRESENT","canonical_parcel_id":null,"binding_status":"LOCAL_OPENCODE_SPATIAL_JOIN_REQUIRED","height_min_m":null,"height_max_m":null,"height_mean_m":null,"height_range_m":null,"accepted_count_contribution":0,"source_area_count_contribution":0}},{"type":"Feature","geometry":null,"properties":{"source_row_index":43,"polygon_id":"P_10632","tilename":"ST6585","dsm_fn":"DSM_ST6585_P_10632_20180419_20180419.tif","dtm_fn":"DTM_ST6585_P_10632_20180419_20180419.tif","fz_dsm_fn":"FZ_DSM_ST6585_P_10632_20180419_20180419.tif","int_lz_fn":"Intensity_LZ_ST6585_P_10632_20180419_20180419.tif","survey_date":"2018-04-19","survey_date_evidence":"parsed from official tile filename under EA documented P_XXXXX_OSGRID_SDFLOWN_EDFLOWN naming convention","crs":"EPSG:27700","resolution_m":1,"record_role":"official_lidar_tile_index_evidence_unbound","evidence_scope":"tile_index","official_source_url":"https://environment.data.gov.uk/spatialdata/survey-index-files/wfs?service=WFS&version=2.0.0&request=GetFeature&typeNames=dataset-9f0fa3fc-a860-4729-adc9-47fe53f658d0%3ANational_LIDAR_Programme_Index_Catalogue&outputFormat=application%2Fjson&count=50","official_dataset_url":"https://environment.data.gov.uk/dataset/2e8d0733-4f43-48b4-9e51-631c25d1b0a9","access_utc":"2026-09-30T18:31:00Z","upstream_retrieved_at":"2026-09-29T14:25:45.425Z","licence":"Open Government Licence","evidence_slice_sha256":"207ec4285caa3a3bf0e221fb089e42a6f720bd3140d94f1e294cf44ac85f3699","source_file_sha256":"207ec4285caa3a3bf0e221fb089e42a6f720bd3140d94f1e294cf44ac85f3699","source_file_sha256_scope":"captured evidence slice rows 4-50; not a claim about raw upstream WFS bytes","field_evidence":{"polygon_id":"upstream verbatim WFS field","tilename":"upstream verbatim WFS field","dtm_fn":"upstream verbatim WFS field","survey_date":"derived only from official filename naming convention","crs":"official dataset metadata","resolution_m":"official dataset metadata"},"confidence_score_0_100":94,"evidence_grade":"A_OFFICIAL_WFS_TILE_INDEX_UNBOUND","fake_data":false,"required_building_state":"BUILDING_PRESENT","canonical_parcel_id":null,"binding_status":"LOCAL_OPENCODE_SPATIAL_JOIN_REQUIRED","height_min_m":null,"height_max_m":null,"height_mean_m":null,"height_range_m":null,"accepted_count_contribution":0,"source_area_count_contribution":0}},{"type":"Feature","geometry":null,"properties":{"source_row_index":44,"polygon_id":"P_10632","tilename":"ST6590","dsm_fn":"DSM_ST6590_P_10632_20180419_20180419.tif","dtm_fn":"DTM_ST6590_P_10632_20180419_20180419.tif","fz_dsm_fn":"FZ_DSM_ST6590_P_10632_20180419_20180419.tif","int_lz_fn":"Intensity_LZ_ST6590_P_10632_20180419_20180419.tif","survey_date":"2018-04-19","survey_date_evidence":"parsed from official tile filename under EA documented P_XXXXX_OSGRID_SDFLOWN_EDFLOWN naming convention","crs":"EPSG:27700","resolution_m":1,"record_role":"official_lidar_tile_index_evidence_unbound","evidence_scope":"tile_index","official_source_url":"https://environment.data.gov.uk/spatialdata/survey-index-files/wfs?service=WFS&version=2.0.0&request=GetFeature&typeNames=dataset-9f0fa3fc-a860-4729-adc9-47fe53f658d0%3ANational_LIDAR_Programme_Index_Catalogue&outputFormat=application%2Fjson&count=50","official_dataset_url":"https://environment.data.gov.uk/dataset/2e8d0733-4f43-48b4-9e51-631c25d1b0a9","access_utc":"2026-09-30T18:31:00Z","upstream_retrieved_at":"2026-09-29T14:25:45.425Z","licence":"Open Government Licence","evidence_slice_sha256":"207ec4285caa3a3bf0e221fb089e42a6f720bd3140d94f1e294cf44ac85f3699","source_file_sha256":"207ec4285caa3a3bf0e221fb089e42a6f720bd3140d94f1e294cf44ac85f3699","source_file_sha256_scope":"captured evidence slice rows 4-50; not a claim about raw upstream WFS bytes","field_evidence":{"polygon_id":"upstream verbatim WFS field","tilename":"upstream verbatim WFS field","dtm_fn":"upstream verbatim WFS field","survey_date":"derived only from official filename naming convention","crs":"official dataset metadata","resolution_m":"official dataset metadata"},"confidence_score_0_100":94,"evidence_grade":"A_OFFICIAL_WFS_TILE_INDEX_UNBOUND","fake_data":false,"required_building_state":"BUILDING_PRESENT","canonical_parcel_id":null,"binding_status":"LOCAL_OPENCODE_SPATIAL_JOIN_REQUIRED","height_min_m":null,"height_max_m":null,"height_mean_m":null,"height_range_m":null,"accepted_count_contribution":0,"source_area_count_contribution":0}},{"type":"Feature","geometry":null,"properties":{"source_row_index":45,"polygon_id":"P_10632","tilename":"ST6595","dsm_fn":"DSM_ST6595_P_10632_20180419_20180419.tif","dtm_fn":"DTM_ST6595_P_10632_20180419_20180419.tif","fz_dsm_fn":"FZ_DSM_ST6595_P_10632_20180419_20180419.tif","int_lz_fn":"Intensity_LZ_ST6595_P_10632_20180419_20180419.tif","survey_date":"2018-04-19","survey_date_evidence":"parsed from official tile filename under EA documented P_XXXXX_OSGRID_SDFLOWN_EDFLOWN naming convention","crs":"EPSG:27700","resolution_m":1,"record_role":"official_lidar_tile_index_evidence_unbound","evidence_scope":"tile_index","official_source_url":"https://environment.data.gov.uk/spatialdata/survey-index-files/wfs?service=WFS&version=2.0.0&request=GetFeature&typeNames=dataset-9f0fa3fc-a860-4729-adc9-47fe53f658d0%3ANational_LIDAR_Programme_Index_Catalogue&outputFormat=application%2Fjson&count=50","official_dataset_url":"https://environment.data.gov.uk/dataset/2e8d0733-4f43-48b4-9e51-631c25d1b0a9","access_utc":"2026-09-30T18:31:00Z","upstream_retrieved_at":"2026-09-29T14:25:45.425Z","licence":"Open Government Licence","evidence_slice_sha256":"207ec4285caa3a3bf0e221fb089e42a6f720bd3140d94f1e294cf44ac85f3699","source_file_sha256":"207ec4285caa3a3bf0e221fb089e42a6f720bd3140d94f1e294cf44ac85f3699","source_file_sha256_scope":"captured evidence slice rows 4-50; not a claim about raw upstream WFS bytes","field_evidence":{"polygon_id":"upstream verbatim WFS field","tilename":"upstream verbatim WFS field","dtm_fn":"upstream verbatim WFS field","survey_date":"derived only from official filename naming convention","crs":"official dataset metadata","resolution_m":"official dataset metadata"},"confidence_score_0_100":94,"evidence_grade":"A_OFFICIAL_WFS_TILE_INDEX_UNBOUND","fake_data":false,"required_building_state":"BUILDING_PRESENT","canonical_parcel_id":null,"binding_status":"LOCAL_OPENCODE_SPATIAL_JOIN_REQUIRED","height_min_m":null,"height_max_m":null,"height_mean_m":null,"height_range_m":null,"accepted_count_contribution":0,"source_area_count_contribution":0}},{"type":"Feature","geometry":null,"properties":{"source_row_index":46,"polygon_id":"P_10632","tilename":"ST7075","dsm_fn":"DSM_ST7075_P_10632_20180419_20180419.tif","dtm_fn":"DTM_ST7075_P_10632_20180419_20180419.tif","fz_dsm_fn":"FZ_DSM_ST7075_P_10632_20180419_20180419.tif","int_lz_fn":"Intensity_LZ_ST7075_P_10632_20180419_20180419.tif","survey_date":"2018-04-19","survey_date_evidence":"parsed from official tile filename under EA documented P_XXXXX_OSGRID_SDFLOWN_EDFLOWN naming convention","crs":"EPSG:27700","resolution_m":1,"record_role":"official_lidar_tile_index_evidence_unbound","evidence_scope":"tile_index","official_source_url":"https://environment.data.gov.uk/spatialdata/survey-index-files/wfs?service=WFS&version=2.0.0&request=GetFeature&typeNames=dataset-9f0fa3fc-a860-4729-adc9-47fe53f658d0%3ANational_LIDAR_Programme_Index_Catalogue&outputFormat=application%2Fjson&count=50","official_dataset_url":"https://environment.data.gov.uk/dataset/2e8d0733-4f43-48b4-9e51-631c25d1b0a9","access_utc":"2026-09-30T18:31:00Z","upstream_retrieved_at":"2026-09-29T14:25:45.425Z","licence":"Open Government Licence","evidence_slice_sha256":"207ec4285caa3a3bf0e221fb089e42a6f720bd3140d94f1e294cf44ac85f3699","source_file_sha256":"207ec4285caa3a3bf0e221fb089e42a6f720bd3140d94f1e294cf44ac85f3699","source_file_sha256_scope":"captured evidence slice rows 4-50; not a claim about raw upstream WFS bytes","field_evidence":{"polygon_id":"upstream verbatim WFS field","tilename":"upstream verbatim WFS field","dtm_fn":"upstream verbatim WFS field","survey_date":"derived only from official filename naming convention","crs":"official dataset metadata","resolution_m":"official dataset metadata"},"confidence_score_0_100":94,"evidence_grade":"A_OFFICIAL_WFS_TILE_INDEX_UNBOUND","fake_data":false,"required_building_state":"BUILDING_PRESENT","canonical_parcel_id":null,"binding_status":"LOCAL_OPENCODE_SPATIAL_JOIN_REQUIRED","height_min_m":null,"height_max_m":null,"height_mean_m":null,"height_range_m":null,"accepted_count_contribution":0,"source_area_count_contribution":0}},{"type":"Feature","geometry":null,"properties":{"source_row_index":47,"polygon_id":"P_10632","tilename":"ST7080","dsm_fn":"DSM_ST7080_P_10632_20180419_20180419.tif","dtm_fn":"DTM_ST7080_P_10632_20180419_20180419.tif","fz_dsm_fn":"FZ_DSM_ST7080_P_10632_20180419_20180419.tif","int_lz_fn":"Intensity_LZ_ST7080_P_10632_20180419_20180419.tif","survey_date":"2018-04-19","survey_date_evidence":"parsed from official tile filename under EA documented P_XXXXX_OSGRID_SDFLOWN_EDFLOWN naming convention","crs":"EPSG:27700","resolution_m":1,"record_role":"official_lidar_tile_index_evidence_unbound","evidence_scope":"tile_index","official_source_url":"https://environment.data.gov.uk/spatialdata/survey-index-files/wfs?service=WFS&version=2.0.0&request=GetFeature&typeNames=dataset-9f0fa3fc-a860-4729-adc9-47fe53f658d0%3ANational_LIDAR_Programme_Index_Catalogue&outputFormat=application%2Fjson&count=50","official_dataset_url":"https://environment.data.gov.uk/dataset/2e8d0733-4f43-48b4-9e51-631c25d1b0a9","access_utc":"2026-09-30T18:31:00Z","upstream_retrieved_at":"2026-09-29T14:25:45.425Z","licence":"Open Government Licence","evidence_slice_sha256":"207ec4285caa3a3bf0e221fb089e42a6f720bd3140d94f1e294cf44ac85f3699","source_file_sha256":"207ec4285caa3a3bf0e221fb089e42a6f720bd3140d94f1e294cf44ac85f3699","source_file_sha256_scope":"captured evidence slice rows 4-50; not a claim about raw upstream WFS bytes","field_evidence":{"polygon_id":"upstream verbatim WFS field","tilename":"upstream verbatim WFS field","dtm_fn":"upstream verbatim WFS field","survey_date":"derived only from official filename naming convention","crs":"official dataset metadata","resolution_m":"official dataset metadata"},"confidence_score_0_100":94,"evidence_grade":"A_OFFICIAL_WFS_TILE_INDEX_UNBOUND","fake_data":false,"required_building_state":"BUILDING_PRESENT","canonical_parcel_id":null,"binding_status":"LOCAL_OPENCODE_SPATIAL_JOIN_REQUIRED","height_min_m":null,"height_max_m":null,"height_mean_m":null,"height_range_m":null,"accepted_count_contribution":0,"source_area_count_contribution":0}},{"type":"Feature","geometry":null,"properties":{"source_row_index":48,"polygon_id":"P_10632","tilename":"ST7085","dsm_fn":"DSM_ST7085_P_10632_20180419_20180419.tif","dtm_fn":"DTM_ST7085_P_10632_20180419_20180419.tif","fz_dsm_fn":"FZ_DSM_ST7085_P_10632_20180419_20180419.tif","int_lz_fn":"Intensity_LZ_ST7085_P_10632_20180419_20180419.tif","survey_date":"2018-04-19","survey_date_evidence":"parsed from official tile filename under EA documented P_XXXXX_OSGRID_SDFLOWN_EDFLOWN naming convention","crs":"EPSG:27700","resolution_m":1,"record_role":"official_lidar_tile_index_evidence_unbound","evidence_scope":"tile_index","official_source_url":"https://environment.data.gov.uk/spatialdata/survey-index-files/wfs?service=WFS&version=2.0.0&request=GetFeature&typeNames=dataset-9f0fa3fc-a860-4729-adc9-47fe53f658d0%3ANational_LIDAR_Programme_Index_Catalogue&outputFormat=application%2Fjson&count=50","official_dataset_url":"https://environment.data.gov.uk/dataset/2e8d0733-4f43-48b4-9e51-631c25d1b0a9","access_utc":"2026-09-30T18:31:00Z","upstream_retrieved_at":"2026-09-29T14:25:45.425Z","licence":"Open Government Licence","evidence_slice_sha256":"207ec4285caa3a3bf0e221fb089e42a6f720bd3140d94f1e294cf44ac85f3699","source_file_sha256":"207ec4285caa3a3bf0e221fb089e42a6f720bd3140d94f1e294cf44ac85f3699","source_file_sha256_scope":"captured evidence slice rows 4-50; not a claim about raw upstream WFS bytes","field_evidence":{"polygon_id":"upstream verbatim WFS field","tilename":"upstream verbatim WFS field","dtm_fn":"upstream verbatim WFS field","survey_date":"derived only from official filename naming convention","crs":"official dataset metadata","resolution_m":"official dataset metadata"},"confidence_score_0_100":94,"evidence_grade":"A_OFFICIAL_WFS_TILE_INDEX_UNBOUND","fake_data":false,"required_building_state":"BUILDING_PRESENT","canonical_parcel_id":null,"binding_status":"LOCAL_OPENCODE_SPATIAL_JOIN_REQUIRED","height_min_m":null,"height_max_m":null,"height_mean_m":null,"height_range_m":null,"accepted_count_contribution":0,"source_area_count_contribution":0}},{"type":"Feature","geometry":null,"properties":{"source_row_index":49,"polygon_id":"P_10632","tilename":"ST7090","dsm_fn":"DSM_ST7090_P_10632_20180419_20180419.tif","dtm_fn":"DTM_ST7090_P_10632_20180419_20180419.tif","fz_dsm_fn":"FZ_DSM_ST7090_P_10632_20180419_20180419.tif","int_lz_fn":"Intensity_LZ_ST7090_P_10632_20180419_20180419.tif","survey_date":"2018-04-19","survey_date_evidence":"parsed from official tile filename under EA documented P_XXXXX_OSGRID_SDFLOWN_EDFLOWN naming convention","crs":"EPSG:27700","resolution_m":1,"record_role":"official_lidar_tile_index_evidence_unbound","evidence_scope":"tile_index","official_source_url":"https://environment.data.gov.uk/spatialdata/survey-index-files/wfs?service=WFS&version=2.0.0&request=GetFeature&typeNames=dataset-9f0fa3fc-a860-4729-adc9-47fe53f658d0%3ANational_LIDAR_Programme_Index_Catalogue&outputFormat=application%2Fjson&count=50","official_dataset_url":"https://environment.data.gov.uk/dataset/2e8d0733-4f43-48b4-9e51-631c25d1b0a9","access_utc":"2026-09-30T18:31:00Z","upstream_retrieved_at":"2026-09-29T14:25:45.425Z","licence":"Open Government Licence","evidence_slice_sha256":"207ec4285caa3a3bf0e221fb089e42a6f720bd3140d94f1e294cf44ac85f3699","source_file_sha256":"207ec4285caa3a3bf0e221fb089e42a6f720bd3140d94f1e294cf44ac85f3699","source_file_sha256_scope":"captured evidence slice rows 4-50; not a claim about raw upstream WFS bytes","field_evidence":{"polygon_id":"upstream verbatim WFS field","tilename":"upstream verbatim WFS field","dtm_fn":"upstream verbatim WFS field","survey_date":"derived only from official filename naming convention","crs":"official dataset metadata","resolution_m":"official dataset metadata"},"confidence_score_0_100":94,"evidence_grade":"A_OFFICIAL_WFS_TILE_INDEX_UNBOUND","fake_data":false,"required_building_state":"BUILDING_PRESENT","canonical_parcel_id":null,"binding_status":"LOCAL_OPENCODE_SPATIAL_JOIN_REQUIRED","height_min_m":null,"height_max_m":null,"height_mean_m":null,"height_range_m":null,"accepted_count_contribution":0,"source_area_count_contribution":0}},{"type":"Feature","geometry":null,"properties":{"source_row_index":50,"polygon_id":"P_10632","tilename":"ST7095","dsm_fn":"DSM_ST7095_P_10632_20180419_20180419.tif","dtm_fn":"DTM_ST7095_P_10632_20180419_20180419.tif","fz_dsm_fn":"FZ_DSM_ST7095_P_10632_20180419_20180419.tif","int_lz_fn":"Intensity_LZ_ST7095_P_10632_20180419_20180419.tif","survey_date":"2018-04-19","survey_date_evidence":"parsed from official tile filename under EA documented P_XXXXX_OSGRID_SDFLOWN_EDFLOWN naming convention","crs":"EPSG:27700","resolution_m":1,"record_role":"official_lidar_tile_index_evidence_unbound","evidence_scope":"tile_index","official_source_url":"https://environment.data.gov.uk/spatialdata/survey-index-files/wfs?service=WFS&version=2.0.0&request=GetFeature&typeNames=dataset-9f0fa3fc-a860-4729-adc9-47fe53f658d0%3ANational_LIDAR_Programme_Index_Catalogue&outputFormat=application%2Fjson&count=50","official_dataset_url":"https://environment.data.gov.uk/dataset/2e8d0733-4f43-48b4-9e51-631c25d1b0a9","access_utc":"2026-09-30T18:31:00Z","upstream_retrieved_at":"2026-09-29T14:25:45.425Z","licence":"Open Government Licence","evidence_slice_sha256":"207ec4285caa3a3bf0e221fb089e42a6f720bd3140d94f1e294cf44ac85f3699","source_file_sha256":"207ec4285caa3a3bf0e221fb089e42a6f720bd3140d94f1e294cf44ac85f3699","source_file_sha256_scope":"captured evidence slice rows 4-50; not a claim about raw upstream WFS bytes","field_evidence":{"polygon_id":"upstream verbatim WFS field","tilename":"upstream verbatim WFS field","dtm_fn":"upstream verbatim WFS field","survey_date":"derived only from official filename naming convention","crs":"official dataset metadata","resolution_m":"official dataset metadata"},"confidence_score_0_100":94,"evidence_grade":"A_OFFICIAL_WFS_TILE_INDEX_UNBOUND","fake_data":false,"required_building_state":"BUILDING_PRESENT","canonical_parcel_id":null,"binding_status":"LOCAL_OPENCODE_SPATIAL_JOIN_REQUIRED","height_min_m":null,"height_max_m":null,"height_mean_m":null,"height_range_m":null,"accepted_count_contribution":0,"source_area_count_contribution":0}}]}
