{"type":"FeatureCollection","name":"security_public_safety_1_batch_exact_identifiers","features":[{"type":"Feature","geometry":null,"properties":{"slot_id":"security_public_safety_1","evidence_scope":"coverage_exact_identifier","coverage_area_id":"London","exact_identifier":"London","exact_identifier_type":"btp.police.uk.london_local_team.official_name","coverage_area_name":"London","source_url":"https://www.btp.police.uk/lt/local-teams/london/","final_url":"https://www.btp.police.uk/lt/local-teams/london/","access_utc":"2026-10-06T21:34:00Z","data_date":"2026-10-07","license":"British Transport Police website","evidence_grade":"A_OFFICIAL_EXACT_IDENTIFIER","fake_data":false,"spatial_binding_method":"DEFERRED_TO_LOCAL_OPENCODE","canonical_parcel_id":null,"materialized_parcel_count":0,"direct_parcel_count":0}},{"type":"Feature","geometry":null,"properties":{"slot_id":"security_public_safety_1","evidence_scope":"coverage_exact_identifier","coverage_area_id":"London Bridge","exact_identifier":"London Bridge","exact_identifier_type":"btp.police.uk.london_local_team.official_name","coverage_area_name":"London Bridge","source_url":"https://www.btp.police.uk/lt/local-teams/london/","final_url":"https://www.btp.police.uk/lt/local-teams/london/","access_utc":"2026-10-06T21:34:00Z","data_date":"2026-10-07","license":"British Transport Police website","evidence_grade":"A_OFFICIAL_EXACT_IDENTIFIER","fake_data":false,"spatial_binding_method":"DEFERRED_TO_LOCAL_OPENCODE","canonical_parcel_id":null,"materialized_parcel_count":0,"direct_parcel_count":0}},{"type":"Feature","geometry":null,"properties":{"slot_id":"security_public_safety_1","evidence_scope":"coverage_exact_identifier","coverage_area_id":"London Euston","exact_identifier":"London Euston","exact_identifier_type":"btp.police.uk.london_local_team.official_name","coverage_area_name":"London Euston","source_url":"https://www.btp.police.uk/lt/local-teams/london/","final_url":"https://www.btp.police.uk/lt/local-teams/london/","access_utc":"2026-10-06T21:34:00Z","data_date":"2026-10-07","license":"British Transport Police website","evidence_grade":"A_OFFICIAL_EXACT_IDENTIFIER","fake_data":false,"spatial_binding_method":"DEFERRED_TO_LOCAL_OPENCODE","canonical_parcel_id":null,"materialized_parcel_count":0,"direct_parcel_count":0}},{"type":"Feature","geometry":null,"properties":{"slot_id":"security_public_safety_1","evidence_scope":"coverage_exact_identifier","coverage_area_id":"London Kings Cross","exact_identifier":"London Kings Cross","exact_identifier_type":"btp.police.uk.london_local_team.official_name","coverage_area_name":"London Kings Cross","source_url":"https://www.btp.police.uk/lt/local-teams/london/","final_url":"https://www.btp.police.uk/lt/local-teams/london/","access_utc":"2026-10-06T21:34:00Z","data_date":"2026-10-07","license":"British Transport Police website","evidence_grade":"A_OFFICIAL_EXACT_IDENTIFIER","fake_data":false,"spatial_binding_method":"DEFERRED_TO_LOCAL_OPENCODE","canonical_parcel_id":null,"materialized_parcel_count":0,"direct_parcel_count":0}},{"type":"Feature","geometry":null,"properties":{"slot_id":"security_public_safety_1","evidence_scope":"coverage_exact_identifier","coverage_area_id":"London Liverpool Street","exact_identifier":"London Liverpool Street","exact_identifier_type":"btp.police.uk.london_local_team.official_name","coverage_area_name":"London Liverpool Street","source_url":"https://www.btp.police.uk/lt/local-teams/london/","final_url":"https://www.btp.police.uk/lt/local-teams/london/","access_utc":"2026-10-06T21:34:00Z","data_date":"2026-10-07","license":"British Transport Police website","evidence_grade":"A_OFFICIAL_EXACT_IDENTIFIER","fake_data":false,"spatial_binding_method":"DEFERRED_TO_LOCAL_OPENCODE","canonical_parcel_id":null,"materialized_parcel_count":0,"direct_parcel_count":0}},{"type":"Feature","geometry":null,"properties":{"slot_id":"security_public_safety_1","evidence_scope":"coverage_exact_identifier","coverage_area_id":"London Paddington","exact_identifier":"London Paddington","exact_identifier_type":"btp.police.uk.london_local_team.official_name","coverage_area_name":"London Paddington","source_url":"https://www.btp.police.uk/lt/local-teams/london/","final_url":"https://www.btp.police.uk/lt/local-teams/london/","access_utc":"2026-10-06T21:34:00Z","data_date":"2026-10-07","license":"British Transport Police website","evidence_grade":"A_OFFICIAL_EXACT_IDENTIFIER","fake_data":false,"spatial_binding_method":"DEFERRED_TO_LOCAL_OPENCODE","canonical_parcel_id":null,"materialized_parcel_count":0,"direct_parcel_count":0}},{"type":"Feature","geometry":null,"properties":{"slot_id":"security_public_safety_1","evidence_scope":"coverage_exact_identifier","coverage_area_id":"London Stratford","exact_identifier":"London Stratford","exact_identifier_type":"btp.police.uk.london_local_team.official_name","coverage_area_name":"London Stratford","source_url":"https://www.btp.police.uk/lt/local-teams/london/","final_url":"https://www.btp.police.uk/lt/local-teams/london/","access_utc":"2026-10-06T21:34:00Z","data_date":"2026-10-07","license":"British Transport Police website","evidence_grade":"A_OFFICIAL_EXACT_IDENTIFIER","fake_data":false,"spatial_binding_method":"DEFERRED_TO_LOCAL_OPENCODE","canonical_parcel_id":null,"materialized_parcel_count":0,"direct_parcel_count":0}},{"type":"Feature","geometry":null,"properties":{"slot_id":"security_public_safety_1","evidence_scope":"coverage_exact_identifier","coverage_area_id":"London Underground","exact_identifier":"London Underground","exact_identifier_type":"btp.police.uk.london_local_team.official_name","coverage_area_name":"London Underground","source_url":"https://www.btp.police.uk/lt/local-teams/london/","final_url":"https://www.btp.police.uk/lt/local-teams/london/","access_utc":"2026-10-06T21:34:00Z","data_date":"2026-10-07","license":"British Transport Police website","evidence_grade":"A_OFFICIAL_EXACT_IDENTIFIER","fake_data":false,"spatial_binding_method":"DEFERRED_TO_LOCAL_OPENCODE","canonical_parcel_id":null,"materialized_parcel_count":0,"direct_parcel_count":0}},{"type":"Feature","geometry":null,"properties":{"slot_id":"security_public_safety_1","evidence_scope":"coverage_exact_identifier","coverage_area_id":"London Victoria","exact_identifier":"London Victoria","exact_identifier_type":"btp.police.uk.london_local_team.official_name","coverage_area_name":"London Victoria","source_url":"https://www.btp.police.uk/lt/local-teams/london/","final_url":"https://www.btp.police.uk/lt/local-teams/london/","access_utc":"2026-10-06T21:34:00Z","data_date":"2026-10-07","license":"British Transport Police website","evidence_grade":"A_OFFICIAL_EXACT_IDENTIFIER","fake_data":false,"spatial_binding_method":"DEFERRED_TO_LOCAL_OPENCODE","canonical_parcel_id":null,"materialized_parcel_count":0,"direct_parcel_count":0}},{"type":"Feature","geometry":null,"properties":{"slot_id":"security_public_safety_1","evidence_scope":"coverage_exact_identifier","coverage_area_id":"London Waterloo","exact_identifier":"London Waterloo","exact_identifier_type":"btp.police.uk.london_local_team.official_name","coverage_area_name":"London Waterloo","source_url":"https://www.btp.police.uk/lt/local-teams/london/","final_url":"https://www.btp.police.uk/lt/local-teams/london/","access_utc":"2026-10-06T21:34:00Z","data_date":"2026-10-07","license":"British Transport Police website","evidence_grade":"A_OFFICIAL_EXACT_IDENTIFIER","fake_data":false,"spatial_binding_method":"DEFERRED_TO_LOCAL_OPENCODE","canonical_parcel_id":null,"materialized_parcel_count":0,"direct_parcel_count":0}}],"metadata":{"slot_id":"security_public_safety_1","source_area_count":209,"source_area_delta_this_turn":10,"latest_evidence_window":"BTP_LONDON_LOCAL_TEAMS_CURRENT_20261006T213400Z","first_missing_criterion":"LOCAL_OPENCODE_EXACT_IDENTIFIER_TO_CANONICAL_SPATIAL_BINDING","batch_scope":"current_window_only","previous_cumulative_records_path":"incoming/source_area/security_public_safety_1/null/20261002T154100Z-nhs-england-london-icbs/records.geojson"}}
