{
  "type": "FeatureCollection",
  "name": "building_type_2_newcastle_water_tower",
  "features": [
    {
      "type": "Feature",
      "geometry": {
        "type": "MultiPolygon",
        "coordinates": [
          [
            [
              [
                -1.617604,
                54.96742
              ],
              [
                -1.617364,
                54.967524
              ],
              [
                -1.617385,
                54.967541
              ],
              [
                -1.617338,
                54.967561
              ],
              [
                -1.617363,
                54.967581
              ],
              [
                -1.617412,
                54.967559
              ],
              [
                -1.61743,
                54.967573
              ],
              [
                -1.617697,
                54.967456
              ],
              [
                -1.617653,
                54.967422
              ],
              [
                -1.617639,
                54.967428
              ],
              [
                -1.61762,
                54.967412
              ],
              [
                -1.617604,
                54.96742
              ]
            ]
          ]
        ]
      },
      "properties": {
        "slot_id": "building_type_2",
        "lineage_id": "building_type_2-20260930T173100Z-newstart",
        "page_generation": 1,
        "batch_id": "20261008T063417Z_NEWCASTLE_WATER_TOWER_42112851",
        "source_entity": 42112851,
        "source_reference": "1355257",
        "semantic_identity": "listed-building-outline:1355257",
        "source_dataset": "listed-building-outline",
        "source_organisation": "Newcastle City Council",
        "building_evidence_status": "BUILDING_PRESENT",
        "parcel_status": "UNPROCESSED",
        "canonical_parcel_id": null,
        "building_type": "water_tower",
        "building_use": null,
        "poi_accepted": false,
        "field_evidence": {
          "footprint": "Newcastle City Council authoritative listed-building-outline polygon for single Water Tower Forth Street",
          "type": "Historic England 1355257 water tower, 1891, sandstone 3 storeys and iron tank",
          "reference": "1355257",
          "source_geometry": "official WKT MultiPolygon",
          "quality": "authoritative",
          "independent_official_url": "https://historicengland.org.uk/listing/the-list/list-entry/1355257"
        },
        "source_url": "https://www.planning.data.gov.uk/entity/42112851",
        "final_url": "https://www.planning.data.gov.uk/entity/42112851",
        "http_status": null,
        "access_utc": "2026-10-08T06:34:17.143Z",
        "data_date": "1987-03-30",
        "source_version": "Planning Data entry-date 1987-03-30",
        "licence": "Open Government Licence v3.0",
        "source_sha256": "a2d7b51b2a725d9905a539da6c58e63d37eb3f6710aaed2245e2f21948d7266f",
        "source_sha256_scope": "official field evidence slice, not remote raw response",
        "evidence_slice_sha256": "a2d7b51b2a725d9905a539da6c58e63d37eb3f6710aaed2245e2f21948d7266f",
        "confidence_score_0_100": 95,
        "evidence_grade": "A",
        "fake_data": false,
        "local_spatial_join_required": true
      }
    }
  ]
}
