{"type":"FeatureCollection","name":"future_growth_6","features":[{"type":"Feature","id":"development-policy-area:local-authority-eng:BUC:LPMR6:2021-01-08","geometry":{"type":"MultiPolygon","coordinates":[[[[-0.783469,51.580036],[-0.782735,51.580212],[-0.78243,51.579729],[-0.783145,51.579527],[-0.783469,51.580036]]]]},"properties":{"semantic_identity":"development-policy-area:local-authority-eng:BUC:LPMR6:2021-01-08","source_area_id":"LPMR6","source_area_type":"adopted_local_plan_housing_site_allocation","name":"Seymour Court Road","allocated_use":"Housing or housing-led mixed use allocation","policy":"MR6","organisation":"local-authority-eng:BUC","source_url":"https://github.com/digital-land/development-policy-area/blob/111f7b992aa0c7efe39611b4003607141631a4f2/docs/local-authority-eng/BUC/LPMR6/geometry.geojson","source_final_url":"https://raw.githubusercontent.com/digital-land/development-policy-area/111f7b992aa0c7efe39611b4003607141631a4f2/docs/local-authority-eng/BUC/LPMR6/geometry.geojson","http_status":200,"source_data_date":"2021-01-08","plan_adopted_date":"2019-08","source_version":"111f7b992aa0c7efe39611b4003607141631a4f2:git-blob:0c1f761b7939046869ea1f46261f2a86b78b96fa","licence":"Open Government Licence v3.0 (Digital Land, subject to any source-specific rights)","source_sha256":"dfcf8c37dc994121ca4637b514f9eaf8539bd303a650d883bd5010e4fcd198ff","evidence_slice_sha256":"484c762ddb670682ad1b7e9fca98678ce2b917c05e6c22dca28e638be966915f","field_evidence":{"geometry":"docs/local-authority-eng/BUC/LPMR6/geometry.geojson:geometry","official_identifier":"docs/local-authority-eng/BUC/LPMR6/geometry.geojson:properties.geography","name":"docs/local-authority-eng/BUC/LPMR6/geometry.geojson:properties.name","data_date":"docs/local-authority-eng/BUC/LPMR6/geometry.geojson:properties.entry-date","housing_allocation":"https://media.buckinghamshire.gov.uk/documents/Wycombe-District-Local-Plan-Adopted-August-2019-accessible.pdf#policy-MR6"},"confidence":0.98,"evidence_grade":"A_OFFICIAL_GIS_AND_ADOPTED_LOCAL_PLAN","fake_data":false}},{"type":"Feature","id":"development-policy-area:local-authority-eng:BUC:LPPR11:2021-01-08","geometry":{"type":"MultiPolygon","coordinates":[[[[-0.83712,51.715736],[-0.836582,51.715191],[-0.836239,51.715212],[-0.836265,51.715237],[-0.835572,51.715456],[-0.835507,51.715388],[-0.836765,51.715015],[-0.836581,51.714867],[-0.836789,51.714747],[-0.836939,51.714702],[-0.83713,51.714703],[-0.837503,51.714792],[-0.838111,51.714852],[-0.838243,51.714947],[-0.838722,51.715154],[-0.839319,51.715551],[-0.840098,51.716229],[-0.83999,51.716347],[-0.838508,51.717184],[-0.838154,51.716955],[-0.837447,51.7164],[-0.836869,51.715833],[-0.83712,51.715736]]]]},"properties":{"semantic_identity":"development-policy-area:local-authority-eng:BUC:LPPR11:2021-01-08","source_area_id":"LPPR11","source_area_type":"adopted_local_plan_housing_site_allocation","name":"Land rear of Poppy Road","allocated_use":"Housing or housing-led mixed use allocation","policy":"PR11","organisation":"local-authority-eng:BUC","source_url":"https://github.com/digital-land/development-policy-area/blob/111f7b992aa0c7efe39611b4003607141631a4f2/docs/local-authority-eng/BUC/LPPR11/geometry.geojson","source_final_url":"https://raw.githubusercontent.com/digital-land/development-policy-area/111f7b992aa0c7efe39611b4003607141631a4f2/docs/local-authority-eng/BUC/LPPR11/geometry.geojson","http_status":200,"source_data_date":"2021-01-08","plan_adopted_date":"2019-08","source_version":"111f7b992aa0c7efe39611b4003607141631a4f2:git-blob:d80deb3a5d738dce1cca6b6156bc4db149f3d48e","licence":"Open Government Licence v3.0 (Digital Land, subject to any source-specific rights)","source_sha256":"3f35e4d5e5e94fc4fe4a360cf9e6f0def81bd6fbbca9b1e09da0711e7c9f2c2f","evidence_slice_sha256":"484c762ddb670682ad1b7e9fca98678ce2b917c05e6c22dca28e638be966915f","field_evidence":{"geometry":"docs/local-authority-eng/BUC/LPPR11/geometry.geojson:geometry","official_identifier":"docs/local-authority-eng/BUC/LPPR11/geometry.geojson:properties.geography","name":"docs/local-authority-eng/BUC/LPPR11/geometry.geojson:properties.name","data_date":"docs/local-authority-eng/BUC/LPPR11/geometry.geojson:properties.entry-date","housing_allocation":"https://media.buckinghamshire.gov.uk/documents/Wycombe-District-Local-Plan-Adopted-August-2019-accessible.pdf#policy-PR11"},"confidence":0.98,"evidence_grade":"A_OFFICIAL_GIS_AND_ADOPTED_LOCAL_PLAN","fake_data":false}},{"type":"Feature","id":"development-policy-area:local-authority-eng:BUC:LPPR16:2021-01-08","geometry":{"type":"MultiPolygon","coordinates":[[[[-0.841959,51.718211],[-0.841733,51.718128],[-0.841846,51.717201],[-0.841823,51.717164],[-0.842159,51.717115],[-0.842934,51.717083],[-0.842939,51.717149],[-0.843118,51.717147],[-0.843406,51.717074],[-0.843581,51.717557],[-0.843904,51.717556],[-0.843893,51.717747],[-0.843828,51.717755],[-0.843813,51.717815],[-0.843813,51.718479],[-0.842162,51.718558],[-0.842023,51.718531],[-0.842038,51.718511],[-0.841954,51.718483],[-0.84199,51.718278],[-0.841959,51.718211]]]]},"properties":{"semantic_identity":"development-policy-area:local-authority-eng:BUC:LPPR16:2021-01-08","source_area_id":"LPPR16","source_area_type":"adopted_local_plan_housing_site_allocation","name":"Land at Princes Risborough Station","allocated_use":"Housing or housing-led mixed use allocation","policy":"PR16","organisation":"local-authority-eng:BUC","source_url":"https://github.com/digital-land/development-policy-area/blob/111f7b992aa0c7efe39611b4003607141631a4f2/docs/local-authority-eng/BUC/LPPR16/geometry.geojson","source_final_url":"https://raw.githubusercontent.com/digital-land/development-policy-area/111f7b992aa0c7efe39611b4003607141631a4f2/docs/local-authority-eng/BUC/LPPR16/geometry.geojson","http_status":200,"source_data_date":"2021-01-08","plan_adopted_date":"2019-08","source_version":"111f7b992aa0c7efe39611b4003607141631a4f2:git-blob:9081acf89486163dc3787ae087be97bf2c57c0cb","licence":"Open Government Licence v3.0 (Digital Land, subject to any source-specific rights)","source_sha256":"97ab831a2ce3a914f792a7996a670d9606422cf0caf271cec9cb9d5089ae87ec","evidence_slice_sha256":"484c762ddb670682ad1b7e9fca98678ce2b917c05e6c22dca28e638be966915f","field_evidence":{"geometry":"docs/local-authority-eng/BUC/LPPR16/geometry.geojson:geometry","official_identifier":"docs/local-authority-eng/BUC/LPPR16/geometry.geojson:properties.geography","name":"docs/local-authority-eng/BUC/LPPR16/geometry.geojson:properties.name","data_date":"docs/local-authority-eng/BUC/LPPR16/geometry.geojson:properties.entry-date","housing_allocation":"https://media.buckinghamshire.gov.uk/documents/Wycombe-District-Local-Plan-Adopted-August-2019-accessible.pdf#policy-PR16"},"confidence":0.98,"evidence_grade":"A_OFFICIAL_GIS_AND_ADOPTED_LOCAL_PLAN","fake_data":false}},{"type":"Feature","id":"development-policy-area:local-authority-eng:BUC:LPRUR1:2021-01-08","geometry":{"type":"MultiPolygon","coordinates":[[[[-0.839577,51.618965],[-0.839484,51.619024],[-0.839332,51.619393],[-0.838835,51.619211],[-0.838592,51.619194],[-0.838628,51.61884],[-0.838518,51.618848],[-0.838516,51.618819],[-0.838616,51.618103],[-0.839615,51.618171],[-0.839577,51.618965]]]]},"properties":{"semantic_identity":"development-policy-area:local-authority-eng:BUC:LPRUR1:2021-01-08","source_area_id":"LPRUR1","source_area_type":"adopted_local_plan_housing_site_allocation","name":"Land south of Finings Road","allocated_use":"Housing or housing-led mixed use allocation","policy":"RUR1","organisation":"local-authority-eng:BUC","source_url":"https://github.com/digital-land/development-policy-area/blob/111f7b992aa0c7efe39611b4003607141631a4f2/docs/local-authority-eng/BUC/LPRUR1/geometry.geojson","source_final_url":"https://raw.githubusercontent.com/digital-land/development-policy-area/111f7b992aa0c7efe39611b4003607141631a4f2/docs/local-authority-eng/BUC/LPRUR1/geometry.geojson","http_status":200,"source_data_date":"2021-01-08","plan_adopted_date":"2019-08","source_version":"111f7b992aa0c7efe39611b4003607141631a4f2:git-blob:fde6df35aff992795fb8b89a11bd7d07fd36d7eb","licence":"Open Government Licence v3.0 (Digital Land, subject to any source-specific rights)","source_sha256":"0aa029e8baf4232efbef992ca96ceff365e8e0510bcb0cb84dc3ce7ce874f8c3","evidence_slice_sha256":"484c762ddb670682ad1b7e9fca98678ce2b917c05e6c22dca28e638be966915f","field_evidence":{"geometry":"docs/local-authority-eng/BUC/LPRUR1/geometry.geojson:geometry","official_identifier":"docs/local-authority-eng/BUC/LPRUR1/geometry.geojson:properties.geography","name":"docs/local-authority-eng/BUC/LPRUR1/geometry.geojson:properties.name","data_date":"docs/local-authority-eng/BUC/LPRUR1/geometry.geojson:properties.entry-date","housing_allocation":"https://media.buckinghamshire.gov.uk/documents/Wycombe-District-Local-Plan-Adopted-August-2019-accessible.pdf#policy-RUR1"},"confidence":0.98,"evidence_grade":"A_OFFICIAL_GIS_AND_ADOPTED_LOCAL_PLAN","fake_data":false}},{"type":"Feature","id":"development-policy-area:local-authority-eng:BUC:LPRUR2:2021-01-08","geometry":{"type":"MultiPolygon","coordinates":[[[[-0.828965,51.616324],[-0.828586,51.616094],[-0.828512,51.616],[-0.828325,51.615919],[-0.827411,51.615222],[-0.828824,51.615019],[-0.829127,51.615531],[-0.829634,51.615464],[-0.830193,51.615841],[-0.829552,51.615988],[-0.829582,51.616066],[-0.829348,51.616135],[-0.828965,51.616324]]]]},"properties":{"semantic_identity":"development-policy-area:local-authority-eng:BUC:LPRUR2:2021-01-08","source_area_id":"LPRUR2","source_area_type":"adopted_local_plan_housing_site_allocation","name":"Land between Chalky Field and Marlow Road","allocated_use":"Housing or housing-led mixed use allocation","policy":"RUR2","organisation":"local-authority-eng:BUC","source_url":"https://github.com/digital-land/development-policy-area/blob/111f7b992aa0c7efe39611b4003607141631a4f2/docs/local-authority-eng/BUC/LPRUR2/geometry.geojson","source_final_url":"https://raw.githubusercontent.com/digital-land/development-policy-area/111f7b992aa0c7efe39611b4003607141631a4f2/docs/local-authority-eng/BUC/LPRUR2/geometry.geojson","http_status":200,"source_data_date":"2021-01-08","plan_adopted_date":"2019-08","source_version":"111f7b992aa0c7efe39611b4003607141631a4f2:git-blob:a4d8589265c0f27889848539c5a952b008d7461e","licence":"Open Government Licence v3.0 (Digital Land, subject to any source-specific rights)","source_sha256":"341f821b0b877fba98e40fffac94627af32cf51860434a47414ea76f88a2ad4d","evidence_slice_sha256":"484c762ddb670682ad1b7e9fca98678ce2b917c05e6c22dca28e638be966915f","field_evidence":{"geometry":"docs/local-authority-eng/BUC/LPRUR2/geometry.geojson:geometry","official_identifier":"docs/local-authority-eng/BUC/LPRUR2/geometry.geojson:properties.geography","name":"docs/local-authority-eng/BUC/LPRUR2/geometry.geojson:properties.name","data_date":"docs/local-authority-eng/BUC/LPRUR2/geometry.geojson:properties.entry-date","housing_allocation":"https://media.buckinghamshire.gov.uk/documents/Wycombe-District-Local-Plan-Adopted-August-2019-accessible.pdf#policy-RUR2"},"confidence":0.98,"evidence_grade":"A_OFFICIAL_GIS_AND_ADOPTED_LOCAL_PLAN","fake_data":false}},{"type":"Feature","id":"development-policy-area:local-authority-eng:BUC:LPRUR3:2021-01-08","geometry":{"type":"MultiPolygon","coordinates":[[[[-0.829597,51.624984],[-0.828566,51.624906],[-0.827685,51.624673],[-0.827911,51.624518],[-0.828815,51.624428],[-0.829018,51.624344],[-0.8289,51.624239],[-0.829579,51.624218],[-0.829585,51.624055],[-0.830103,51.623998],[-0.830126,51.624292],[-0.830177,51.624283],[-0.830185,51.62431],[-0.830222,51.624991],[-0.829597,51.624984]]]]},"properties":{"semantic_identity":"development-policy-area:local-authority-eng:BUC:LPRUR3:2021-01-08","source_area_id":"LPRUR3","source_area_type":"adopted_local_plan_housing_site_allocation","name":"Land at Sidney House","allocated_use":"Housing or housing-led mixed use allocation","policy":"RUR3","organisation":"local-authority-eng:BUC","source_url":"https://github.com/digital-land/development-policy-area/blob/111f7b992aa0c7efe39611b4003607141631a4f2/docs/local-authority-eng/BUC/LPRUR3/geometry.geojson","source_final_url":"https://raw.githubusercontent.com/digital-land/development-policy-area/111f7b992aa0c7efe39611b4003607141631a4f2/docs/local-authority-eng/BUC/LPRUR3/geometry.geojson","http_status":200,"source_data_date":"2021-01-08","plan_adopted_date":"2019-08","source_version":"111f7b992aa0c7efe39611b4003607141631a4f2:git-blob:ba912b03787a8bd03f1357214ed7d46270038643","licence":"Open Government Licence v3.0 (Digital Land, subject to any source-specific rights)","source_sha256":"ea758e1fb3b68fcf966e4d39b7814dc0e42d0ec6492df6118d93683dd560c0b7","evidence_slice_sha256":"484c762ddb670682ad1b7e9fca98678ce2b917c05e6c22dca28e638be966915f","field_evidence":{"geometry":"docs/local-authority-eng/BUC/LPRUR3/geometry.geojson:geometry","official_identifier":"docs/local-authority-eng/BUC/LPRUR3/geometry.geojson:properties.geography","name":"docs/local-authority-eng/BUC/LPRUR3/geometry.geojson:properties.name","data_date":"docs/local-authority-eng/BUC/LPRUR3/geometry.geojson:properties.entry-date","housing_allocation":"https://media.buckinghamshire.gov.uk/documents/Wycombe-District-Local-Plan-Adopted-August-2019-accessible.pdf#policy-RUR3"},"confidence":0.98,"evidence_grade":"A_OFFICIAL_GIS_AND_ADOPTED_LOCAL_PLAN","fake_data":false}},{"type":"Feature","id":"development-policy-area:local-authority-eng:BUC:LPRUR7:2021-01-08","geometry":{"type":"MultiPolygon","coordinates":[[[[-0.783874,51.674348],[-0.78347,51.673898],[-0.782782,51.673574],[-0.782858,51.673536],[-0.782707,51.673447],[-0.783236,51.673202],[-0.784485,51.672513],[-0.784736,51.672683],[-0.785831,51.673754],[-0.783874,51.674348]]]]},"properties":{"semantic_identity":"development-policy-area:local-authority-eng:BUC:LPRUR7:2021-01-08","source_area_id":"LPRUR7","source_area_type":"adopted_local_plan_housing_site_allocation","name":"Land off Clappins Lane","allocated_use":"Housing or housing-led mixed use allocation","policy":"RUR7","organisation":"local-authority-eng:BUC","source_url":"https://github.com/digital-land/development-policy-area/blob/111f7b992aa0c7efe39611b4003607141631a4f2/docs/local-authority-eng/BUC/LPRUR7/geometry.geojson","source_final_url":"https://raw.githubusercontent.com/digital-land/development-policy-area/111f7b992aa0c7efe39611b4003607141631a4f2/docs/local-authority-eng/BUC/LPRUR7/geometry.geojson","http_status":200,"source_data_date":"2021-01-08","plan_adopted_date":"2019-08","source_version":"111f7b992aa0c7efe39611b4003607141631a4f2:git-blob:9a207cf57a5389278ee362051b3b61a570a6d43b","licence":"Open Government Licence v3.0 (Digital Land, subject to any source-specific rights)","source_sha256":"f1ff317bc5c1779dfb5837bdea2a7bd263c9e448b8c3f444076d6f3584b93116","evidence_slice_sha256":"484c762ddb670682ad1b7e9fca98678ce2b917c05e6c22dca28e638be966915f","field_evidence":{"geometry":"docs/local-authority-eng/BUC/LPRUR7/geometry.geojson:geometry","official_identifier":"docs/local-authority-eng/BUC/LPRUR7/geometry.geojson:properties.geography","name":"docs/local-authority-eng/BUC/LPRUR7/geometry.geojson:properties.name","data_date":"docs/local-authority-eng/BUC/LPRUR7/geometry.geojson:properties.entry-date","housing_allocation":"https://media.buckinghamshire.gov.uk/documents/Wycombe-District-Local-Plan-Adopted-August-2019-accessible.pdf#policy-RUR7"},"confidence":0.98,"evidence_grade":"A_OFFICIAL_GIS_AND_ADOPTED_LOCAL_PLAN","fake_data":false}},{"type":"Feature","id":"development-policy-area:local-authority-eng:BUC:LPRUR8:2021-01-08","geometry":{"type":"MultiPolygon","coordinates":[[[[-0.913825,51.657506],[-0.913584,51.657807],[-0.91268,51.657388],[-0.912133,51.65782],[-0.91308,51.658252],[-0.912918,51.658414],[-0.912815,51.658315],[-0.912786,51.658187],[-0.9125,51.658056],[-0.911938,51.658618],[-0.912484,51.658827],[-0.912406,51.658901],[-0.911866,51.658699],[-0.911572,51.659011],[-0.909934,51.658173],[-0.90969,51.658352],[-0.910432,51.658719],[-0.909914,51.659222],[-0.909175,51.658998],[-0.908319,51.658845],[-0.908385,51.658479],[-0.908367,51.658437],[-0.910679,51.657116],[-0.911368,51.656546],[-0.912948,51.657159],[-0.91297,51.657136],[-0.913825,51.657506]]]]},"properties":{"semantic_identity":"development-policy-area:local-authority-eng:BUC:LPRUR8:2021-01-08","source_area_id":"LPRUR8","source_area_type":"adopted_local_plan_housing_site_allocation","name":"Land south of Mill Road","allocated_use":"Housing or housing-led mixed use allocation","policy":"RUR8","organisation":"local-authority-eng:BUC","source_url":"https://github.com/digital-land/development-policy-area/blob/111f7b992aa0c7efe39611b4003607141631a4f2/docs/local-authority-eng/BUC/LPRUR8/geometry.geojson","source_final_url":"https://raw.githubusercontent.com/digital-land/development-policy-area/111f7b992aa0c7efe39611b4003607141631a4f2/docs/local-authority-eng/BUC/LPRUR8/geometry.geojson","http_status":200,"source_data_date":"2021-01-08","plan_adopted_date":"2019-08","source_version":"111f7b992aa0c7efe39611b4003607141631a4f2:git-blob:ab543540bb193a9db5fe32ae2b880a174123b727","licence":"Open Government Licence v3.0 (Digital Land, subject to any source-specific rights)","source_sha256":"0a37af63f2f5d72f1da8f68b8db161217020b4d449e97084f3f63b16766869ea","evidence_slice_sha256":"484c762ddb670682ad1b7e9fca98678ce2b917c05e6c22dca28e638be966915f","field_evidence":{"geometry":"docs/local-authority-eng/BUC/LPRUR8/geometry.geojson:geometry","official_identifier":"docs/local-authority-eng/BUC/LPRUR8/geometry.geojson:properties.geography","name":"docs/local-authority-eng/BUC/LPRUR8/geometry.geojson:properties.name","data_date":"docs/local-authority-eng/BUC/LPRUR8/geometry.geojson:properties.entry-date","housing_allocation":"https://media.buckinghamshire.gov.uk/documents/Wycombe-District-Local-Plan-Adopted-August-2019-accessible.pdf#policy-RUR8"},"confidence":0.98,"evidence_grade":"A_OFFICIAL_GIS_AND_ADOPTED_LOCAL_PLAN","fake_data":false}},{"type":"Feature","id":"development-policy-area:local-authority-eng:BUC:LPRUR9:2021-01-08","geometry":{"type":"MultiPolygon","coordinates":[[[[-0.910147,51.662074],[-0.909979,51.662464],[-0.909165,51.662341],[-0.908463,51.662189],[-0.908353,51.662124],[-0.908386,51.662005],[-0.908825,51.662072],[-0.909059,51.661459],[-0.910314,51.661604],[-0.910147,51.662074]]]]},"properties":{"semantic_identity":"development-policy-area:local-authority-eng:BUC:LPRUR9:2021-01-08","source_area_id":"LPRUR9","source_area_type":"adopted_local_plan_housing_site_allocation","name":"Land at Wood Farm","allocated_use":"Housing or housing-led mixed use allocation","policy":"RUR9","organisation":"local-authority-eng:BUC","source_url":"https://github.com/digital-land/development-policy-area/blob/111f7b992aa0c7efe39611b4003607141631a4f2/docs/local-authority-eng/BUC/LPRUR9/geometry.geojson","source_final_url":"https://raw.githubusercontent.com/digital-land/development-policy-area/111f7b992aa0c7efe39611b4003607141631a4f2/docs/local-authority-eng/BUC/LPRUR9/geometry.geojson","http_status":200,"source_data_date":"2021-01-08","plan_adopted_date":"2019-08","source_version":"111f7b992aa0c7efe39611b4003607141631a4f2:git-blob:2f78e4e904dcd69cbb6c2f97e6f68cd5e3336dce","licence":"Open Government Licence v3.0 (Digital Land, subject to any source-specific rights)","source_sha256":"2a782de893693a82d5ef83bb4aa54f05b907f7b67c7bab17aafafedd4a155f7c","evidence_slice_sha256":"484c762ddb670682ad1b7e9fca98678ce2b917c05e6c22dca28e638be966915f","field_evidence":{"geometry":"docs/local-authority-eng/BUC/LPRUR9/geometry.geojson:geometry","official_identifier":"docs/local-authority-eng/BUC/LPRUR9/geometry.geojson:properties.geography","name":"docs/local-authority-eng/BUC/LPRUR9/geometry.geojson:properties.name","data_date":"docs/local-authority-eng/BUC/LPRUR9/geometry.geojson:properties.entry-date","housing_allocation":"https://media.buckinghamshire.gov.uk/documents/Wycombe-District-Local-Plan-Adopted-August-2019-accessible.pdf#policy-RUR9"},"confidence":0.98,"evidence_grade":"A_OFFICIAL_GIS_AND_ADOPTED_LOCAL_PLAN","fake_data":false}},{"type":"Feature","id":"development-policy-area:local-authority-eng:BUC:LPRUR11:2021-01-08","geometry":{"type":"MultiPolygon","coordinates":[[[[-0.787108,51.5984],[-0.787127,51.598713],[-0.787194,51.599034],[-0.787147,51.59919],[-0.786719,51.59929],[-0.785524,51.599332],[-0.785386,51.598456],[-0.787108,51.5984]]]]},"properties":{"semantic_identity":"development-policy-area:local-authority-eng:BUC:LPRUR11:2021-01-08","source_area_id":"LPRUR11","source_area_type":"adopted_local_plan_housing_site_allocation","name":"Land at Heavens Above","allocated_use":"Housing or housing-led mixed use allocation","policy":"RUR11","organisation":"local-authority-eng:BUC","source_url":"https://github.com/digital-land/development-policy-area/blob/111f7b992aa0c7efe39611b4003607141631a4f2/docs/local-authority-eng/BUC/LPRUR11/geometry.geojson","source_final_url":"https://raw.githubusercontent.com/digital-land/development-policy-area/111f7b992aa0c7efe39611b4003607141631a4f2/docs/local-authority-eng/BUC/LPRUR11/geometry.geojson","http_status":200,"source_data_date":"2021-01-08","plan_adopted_date":"2019-08","source_version":"111f7b992aa0c7efe39611b4003607141631a4f2:git-blob:be086f7f48174685e6c1215fc0c3e4df3f86e850","licence":"Open Government Licence v3.0 (Digital Land, subject to any source-specific rights)","source_sha256":"a9b16a1875858328be6f064c8f92c715835b20b049ee3e7b5d9fab0f4bcdc5f8","evidence_slice_sha256":"484c762ddb670682ad1b7e9fca98678ce2b917c05e6c22dca28e638be966915f","field_evidence":{"geometry":"docs/local-authority-eng/BUC/LPRUR11/geometry.geojson:geometry","official_identifier":"docs/local-authority-eng/BUC/LPRUR11/geometry.geojson:properties.geography","name":"docs/local-authority-eng/BUC/LPRUR11/geometry.geojson:properties.name","data_date":"docs/local-authority-eng/BUC/LPRUR11/geometry.geojson:properties.entry-date","housing_allocation":"https://media.buckinghamshire.gov.uk/documents/Wycombe-District-Local-Plan-Adopted-August-2019-accessible.pdf#policy-RUR11"},"confidence":0.98,"evidence_grade":"A_OFFICIAL_GIS_AND_ADOPTED_LOCAL_PLAN","fake_data":false}},{"type":"Feature","id":"development-policy-area:local-authority-eng:BUC:LPRUR12:2021-01-08","geometry":{"type":"MultiPolygon","coordinates":[[[[-0.735989,51.658512],[-0.736281,51.658477],[-0.736392,51.658413],[-0.736493,51.658294],[-0.736552,51.658068],[-0.736467,51.657615],[-0.737557,51.657021],[-0.737479,51.656286],[-0.737518,51.656077],[-0.737281,51.655691],[-0.73688,51.655137],[-0.737021,51.65509],[-0.737476,51.655775],[-0.738241,51.656706],[-0.738585,51.656882],[-0.739327,51.657123],[-0.739575,51.657268],[-0.739719,51.65741],[-0.739973,51.657917],[-0.74016,51.65854],[-0.740204,51.65888],[-0.740182,51.659137],[-0.740098,51.659295],[-0.739959,51.659776],[-0.739808,51.660117],[-0.739635,51.659948],[-0.739266,51.659768],[-0.739064,51.659733],[-0.738471,51.659751],[-0.738239,51.659729],[-0.737391,51.659434],[-0.737073,51.659359],[-0.736796,51.659353],[-0.736432,51.659414],[-0.736259,51.659495],[-0.736082,51.659654],[-0.736233,51.659275],[-0.736263,51.65908],[-0.736105,51.658664],[-0.735989,51.658512]]]]},"properties":{"semantic_identity":"development-policy-area:local-authority-eng:BUC:LPRUR12:2021-01-08","source_area_id":"LPRUR12","source_area_type":"adopted_local_plan_housing_site_allocation","name":"Uplands Conference Centre","allocated_use":"Housing or housing-led mixed use allocation","policy":"RUR12","organisation":"local-authority-eng:BUC","source_url":"https://github.com/digital-land/development-policy-area/blob/111f7b992aa0c7efe39611b4003607141631a4f2/docs/local-authority-eng/BUC/LPRUR12/geometry.geojson","source_final_url":"https://raw.githubusercontent.com/digital-land/development-policy-area/111f7b992aa0c7efe39611b4003607141631a4f2/docs/local-authority-eng/BUC/LPRUR12/geometry.geojson","http_status":200,"source_data_date":"2021-01-08","plan_adopted_date":"2019-08","source_version":"111f7b992aa0c7efe39611b4003607141631a4f2:git-blob:1352729be20f71abdeef0f74e974c12c91efdcbb","licence":"Open Government Licence v3.0 (Digital Land, subject to any source-specific rights)","source_sha256":"1d9354c5a3dd16de55754d9e0d2723bc00288782335b512617c49800ad91092b","evidence_slice_sha256":"484c762ddb670682ad1b7e9fca98678ce2b917c05e6c22dca28e638be966915f","field_evidence":{"geometry":"docs/local-authority-eng/BUC/LPRUR12/geometry.geojson:geometry","official_identifier":"docs/local-authority-eng/BUC/LPRUR12/geometry.geojson:properties.geography","name":"docs/local-authority-eng/BUC/LPRUR12/geometry.geojson:properties.name","data_date":"docs/local-authority-eng/BUC/LPRUR12/geometry.geojson:properties.entry-date","housing_allocation":"https://media.buckinghamshire.gov.uk/documents/Wycombe-District-Local-Plan-Adopted-August-2019-accessible.pdf#policy-RUR12"},"confidence":0.98,"evidence_grade":"A_OFFICIAL_GIS_AND_ADOPTED_LOCAL_PLAN","fake_data":false}}],"properties":{"state":"SOURCE_AREAS_PRODUCED_LOCAL_BINDING_PENDING","source_area_count":98,"source_area_count_delta":11,"accepted_count":0,"duplicate_count":0,"rejected_count":0,"unmatched_count":13,"materialized_parcel_count":0,"direct_parcel_count":0,"verified_no_building_count":0,"unprocessed_count":13,"planned_building_count":0,"producer_before_count":87,"producer_delta":11,"producer_after_count":98,"cursor":"OFFICIAL_WYCOMBE_RESIDENTIAL:MR6_PR11_PR16_RUR1_3_RUR7_9_RUR11_12:ff76068930069d4a","first_missing_criterion":"LOCAL_CANONICAL_PARCEL_IDENTIFIER_BINDING_MATERIALIZATION","fake_data":false}}
