{"type":"FeatureCollection","features":[{"type":"Feature","properties":{"slot_id":"building_type_3","lineage_id":"building_type_3-new-20260927T1328+0300","batch_id":"BT3-P92G61-20261006-PLANNINGDATA-LBO42176123","cursor":"BT3-P92G61-20261006-PLANNINGDATA-LBO42176123-p92","building_state":"BUILDING_PRESENT","source_record_id":"reference=375;outline_entity=42176123","entity":42176123,"reference":"375","name":"Church of All Saints and Martyrs, Wood Street, Langley, Middleton, M24 5GL","building_type_use":"church / chapel / church hall","type_use_evidence":"official_name_and_description=Church of All Saints and Martyrs; Church, chapel and church hall","dataset":"listed-building-outline","quality":"authoritative","start_date":"","entry_date":"2025-08-28","organisation":"Rochdale Metropolitan Borough Council","listed_building":"1474819","source_url":"https://www.planning.data.gov.uk/entity/42176123","final_url":"https://www.planning.data.gov.uk/entity/42176123","source_version":"Planning Data listed-building-outline entity 42176123 reference 375; authoritative Rochdale Metropolitan Borough Council; entry-date 2025-08-28","access_utc":"2026-10-06T15:39:00Z","data_date":"2025-08-28","license":"Open Government Licence v3.0; © Crown copyright and database right 2026","source_file_sha256":"3c0b81610268b1cc99a75dcd15e6f67028f3f8920e7df45e4edc918c5ec2190a","evidence_slice_sha256":"97406512f0d60d928496b421e7e5d74a5ced24682a975def3bd5c1abb600dad9","field_evidence":["entity","reference","name","quality","dataset","organisation","entry-date","geometry","description","listed-building"],"confidence_score_0_100":99,"evidence_grade":"A_OFFICIAL_GOVERNMENT_BUILDING_OUTLINE_AND_NAMED_TYPE_USE","fake_data":false},"geometry":{"type":"MultiPolygon","coordinates":[[[[-2.210575,53.555767],[-2.210535,53.555786],[-2.210541,53.555796],[-2.210508,53.555811],[-2.210495,53.55579],[-2.210331,53.555708],[-2.210501,53.555621],[-2.210507,53.555602],[-2.210554,53.555606],[-2.210567,53.555574],[-2.21052,53.555566],[-2.210525,53.555549],[-2.210504,53.555545],[-2.210495,53.555509],[-2.210435,53.555511],[-2.210423,53.555498],[-2.210394,53.555502],[-2.210354,53.555453],[-2.21037,53.55545],[-2.210352,53.555375],[-2.210272,53.555377],[-2.210219,53.555406],[-2.210286,53.555469],[-2.210303,53.555465],[-2.210342,53.555518],[-2.210309,53.555525],[-2.210187,53.555636],[-2.210137,53.555619],[-2.210145,53.555616],[-2.210056,53.555579],[-2.209988,53.555645],[-2.210066,53.555675],[-2.210075,53.555671],[-2.210121,53.555692],[-2.210121,53.555694],[-2.210172,53.555726],[-2.210235,53.555753],[-2.210241,53.555751],[-2.210336,53.555837],[-2.210303,53.555854],[-2.210387,53.555912],[-2.210414,53.555896],[-2.210471,53.555937],[-2.210676,53.555833],[-2.210575,53.555767]]]]}}]}
