{"type":"FeatureCollection","features":[{"type":"Feature","id":30050,"geometry":{"type":"MultiPolygon","coordinates":[[[[-73.910088335176,40.662852365508],[-73.910239157186,40.662829774057],[-73.910262919923,40.662921771386],[-73.910112097714,40.662944361967],[-73.910088335176,40.662852365508]]]]},"properties":{"source_id":"30050","building_type":"Building","building_present":true,"DOITT_ID":"30050","BIN":"3345332","FEATURE_CODE":"2100","BASE_BBL":"3035740001","OBJECTID":271369,"construction_year":1976,"geom_source":"Photogrammetric","ground_elevation":30.0,"height_roof":32.33,"last_edited_date":"2017 Aug 22 11:36:25 AM","last_status_type":"Constructed","mappluto_bbl":"3035740001","length":61.74207891960004,"evidence_grade":"A_OFFICIAL_CITY_BUILDING_FOOTPRINT_AND_TYPE"}}]}
