{"type":"FeatureCollection","features":[{"type":"Feature","id":"CHERWELL_25_01479_F_GARAGE_01","geometry":null,"properties":{"slot_id":"planned_buildings_4","owner":"planned_buildings_4","lineage_id":"pb4-8debc7c8ddf348a2","page_generation":1,"partition":"layer24","schema":"AAYS_LAYER24_EVIDENCE_V1","semantic_mode":"PLANNED_BUILDINGS_OFFICIAL_REFERENCE_DISTINCT_STRUCTURE","batch_id":"20261004T034331Z-cherwell-25-01479-f-window-001","publisher":"Cherwell District Council","source_family":"CHERWELL_PLANNING_REGISTER","source_url":"https://planningregister.cherwell.gov.uk/Planning/Display/25/01479/F","final_url":"https://planningregister.cherwell.gov.uk/Planning/Display/25/01479/F","access_utc":"2026-10-04T03:43:31Z","data_date":"2025-07-17","license":"Public planning register; document copyright/usage remains governed by council register terms","planning_reference":"25/01479/F","location":"Ridgeway Lodge Manor Road Adderbury OX17 3EL","proposal":"Erection of garage and bicycle shed","status":"Application Permitted","decision":"Permitted","decision_issued_date":"09/09/2025","geometry_status":"NOT_MATERIALIZED_LOCAL_OPENCODE","field_evidence":"Official Cherwell District Council Planning Register application 25/01479/F. Application Type: Full Development. Status: Application Permitted. Valid date: 17/07/2025. Location: Ridgeway Lodge Manor Road Adderbury OX17 3EL. Proposal: Erection of garage and bicycle shed. Decision: Permitted. Decision Issued Date: 09/09/2025. Official documents include Block Plan/prop elevations drawing 25 3791. The official proposal explicitly identifies two distinct new structures: a garage and a bicycle shed. The official block plan/proposed elevations independently supports the identity of both structures. Geometry/materialization is deferred to local OpenCode.","evidence_slice_sha256":"e85f60ce42830dfbceeb7a09ed38cd570dcb588e47b64afdf5e86735efff21fa","confidence":0.99,"evidence_grade":"A_OFFICIAL_LOCAL_AUTHORITY_PLANNING_REGISTER_DISTINCT_GARAGE_AND_BICYCLE_SHED_PERMITTED","fake_data":false,"official_plan_reference":"25 3791","official_plan_description":"Block Plan/prop elevations","source_record_id":"CHERWELL_25_01479_F_GARAGE_01","planned_building":"garage"}},{"type":"Feature","id":"CHERWELL_25_01479_F_BICYCLE_SHED_02","geometry":null,"properties":{"slot_id":"planned_buildings_4","owner":"planned_buildings_4","lineage_id":"pb4-8debc7c8ddf348a2","page_generation":1,"partition":"layer24","schema":"AAYS_LAYER24_EVIDENCE_V1","semantic_mode":"PLANNED_BUILDINGS_OFFICIAL_REFERENCE_DISTINCT_STRUCTURE","batch_id":"20261004T034331Z-cherwell-25-01479-f-window-001","publisher":"Cherwell District Council","source_family":"CHERWELL_PLANNING_REGISTER","source_url":"https://planningregister.cherwell.gov.uk/Planning/Display/25/01479/F","final_url":"https://planningregister.cherwell.gov.uk/Planning/Display/25/01479/F","access_utc":"2026-10-04T03:43:31Z","data_date":"2025-07-17","license":"Public planning register; document copyright/usage remains governed by council register terms","planning_reference":"25/01479/F","location":"Ridgeway Lodge Manor Road Adderbury OX17 3EL","proposal":"Erection of garage and bicycle shed","status":"Application Permitted","decision":"Permitted","decision_issued_date":"09/09/2025","geometry_status":"NOT_MATERIALIZED_LOCAL_OPENCODE","field_evidence":"Official Cherwell District Council Planning Register application 25/01479/F. Application Type: Full Development. Status: Application Permitted. Valid date: 17/07/2025. Location: Ridgeway Lodge Manor Road Adderbury OX17 3EL. Proposal: Erection of garage and bicycle shed. Decision: Permitted. Decision Issued Date: 09/09/2025. Official documents include Block Plan/prop elevations drawing 25 3791. The official proposal explicitly identifies two distinct new structures: a garage and a bicycle shed. The official block plan/proposed elevations independently supports the identity of both structures. Geometry/materialization is deferred to local OpenCode.","evidence_slice_sha256":"e85f60ce42830dfbceeb7a09ed38cd570dcb588e47b64afdf5e86735efff21fa","confidence":0.99,"evidence_grade":"A_OFFICIAL_LOCAL_AUTHORITY_PLANNING_REGISTER_DISTINCT_GARAGE_AND_BICYCLE_SHED_PERMITTED","fake_data":false,"official_plan_reference":"25 3791","official_plan_description":"Block Plan/prop elevations","source_record_id":"CHERWELL_25_01479_F_BICYCLE_SHED_02","planned_building":"bicycle shed"}}]}
