{"features":[{"geometry":{"coordinates":[[[[-1.587099,55.183583],[-1.587119,55.183582],[-1.587115,55.183559],[-1.587151,55.183557],[-1.587157,55.183597],[-1.58722,55.183594],[-1.587214,55.183555],[-1.587241,55.183554],[-1.587244,55.183577],[-1.587278,55.183575],[-1.587265,55.183476],[-1.586977,55.183489],[-1.586996,55.183632],[-1.587266,55.18362],[-1.586998,55.183629],[-1.586994,55.183588],[-1.58702,55.183586],[-1.587017,55.183563],[-1.58704,55.183562],[-1.587044,55.183585],[-1.587099,55.183583]]]],"type":"MultiPolygon"},"id":"42153212","properties":{"access_utc":"2026-10-04T18:14:00Z","batch_id":"batch-0048","building_evidence_status":"BUILDING_PRESENT","building_type":"listed_building","building_use":null,"canonical_parcel_id":null,"confidence_score_0_100":94,"data_date":"1986-12-18","evidence_grade":"A","evidence_slice_sha256":"e28cc9863b78937a4ab053326368a621e231d6a1a6d455205570307727e18101","fake_data":false,"field_evidence":{"footprint":"official listed-building-outline MULTIPOLYGON","name":"Nos 2 3 And 4 With Backyard Walls And Outhouse","reference":"1041383","type":"official dataset classification: listed-building-outline","use":"no current use inferred"},"final_url":"https://www.planning.data.gov.uk/entity/42153212","licence":"Open Government Licence v3.0","lineage_id":"building_type_9-20261001T200900Z-newstart","local_spatial_join_required":true,"page_generation":1,"parcel_status":"UNPROCESSED","poi_accepted":false,"slot_id":"building_type_9","source_dataset":"listed-building-outline","source_entity":42153212,"source_organisation":"Northumberland County Council","source_reference":"1041383","source_url":"https://www.planning.data.gov.uk/entity/42153212"},"type":"Feature"}],"name":"building_type_9_batch_0048","type":"FeatureCollection"}