{"type":"FeatureCollection","features":[{"type":"Feature","geometry":{"type":"MultiPolygon","coordinates":[[[[-0.070203,51.462059],[-0.070041,51.461876],[-0.069966,51.461904],[-0.070131,51.462085],[-0.070203,51.462059]]]]},"properties":{"slot_id":"future_growth_3","lineage_id":"future_growth_3-newstart-20261001T203100Z","page_generation":null,"accepted_as_parcel":false,"source_area_count_contribution":1,"exact_identifier":"17-AP-0178","exact_identifier_provided":true,"coverage_polygon_provided":true,"identifier_namespace":"Planning Data brownfield-site reference","secondary_exact_identifier":"entity:1800343","source_entity":"17-AP-0178 - 48 East Dulwich Road, SE22 9A","access_utc":"2026-10-06T17:55:01Z","data_date":"2017-12-20","source_url":"https://www.planning.data.gov.uk/entity/1800343","final_url":"https://www.planning.data.gov.uk/entity/1800343","license":"Open Government Licence v3.0; attribution © Crown copyright and database right 2026.","authority":"London Borough of Southwark","site_address":"48 East Dulwich Road, SE22 9A","field_evidence":{"reference":"17-AP-0178","entity":1800343,"dataset":"brownfield-site","organisation":"London Borough of Southwark","name":"48 East Dulwich Road, SE22 9A","start_date":"2017-12-20","entry_date":"2017-12-20","quality":"authoritative","geometry":"MULTIPOLYGON (((-0.070203 51.462059, -0.070041 51.461876, -0.069966 51.461904, -0.070131 51.462085, -0.070203 51.462059)))","point":"POINT (-0.070085 51.46198)"},"source_payload_sha256":"f2991cd1f29175fa6ccfc51a6083380345847ca55010c17a5213ac985fb8626f","source_payload_sha256_basis":"canonicalized official Planning Data brownfield-site entity 1800343 evidence fields","evidence_slice_sha256":"bf7c4869a2d53a7681ce649b315a7c57f4c820c99798c4f3762b2f98d8b693b6","evidence_grade":"A","confidence_score_0_100":99,"evidence_scope":"official_published_brownfield_site_multipolygon_from_authoritative_source","fake_data":false,"spatial_binding_method":"official Planning Data brownfield-site entity 1800343 published MultiPolygon; canonical parcel spatial join and materialization delegated to local OpenCode","planned_building_count_contribution":0}}]}