{"type":"FeatureCollection","features":[{"type":"Feature","geometry":null,"properties":{"slot_id":"future_growth_7","lineage_id":"future_growth_7_open_source_v2_20260813","page_generation":null,"batch_id":"batch_20261003T234600Z_bfl1704594","official_entity_id":1704594,"official_reference":"4","dataset":"brownfield-land","organisation":"Dartford Borough Council","source_url":"https://www.planning.data.gov.uk/entity/1704594","final_url":"https://www.planning.data.gov.uk/entity/1704594","accessed_utc":"2026-10-03T23:46:00Z","data_date":"2025-12-18","licence":"Open Government Licence v3.0","source_sha256":"dd1e0a5d094faeab3959f0cc0d4b6d7a7a256e7c3c67b86a2a10c5fb6397c6e4","source_sha256_basis":"canonical_official_field_evidence_json","field_evidence":{"entry-date":"2025-12-18","start-date":"2017-12-19","end-date":"","entity":1704594,"name":"4","dataset":"brownfield-land","typology":"geography","reference":"4","prefix":"brownfield-land","organisation-entity":"103","geometry":"","point":"POINT (0.216323 51.443171)","quality":"authoritative","notes":"Permissioned 21/00413/FUL","hectares":"0.05","deliverable":"yes","site-address":"Rear of Two Brewers, 33 Lowfield Street, Dartford DA1 1EW","site-plan-url":"https://www.dartford.gov.uk/downloads/file/2473/004-two-brewers-lowfield-street","ownership-status":"not-owned-by-a-public-authority","maximum-net-dwellings":"11","minimum-net-dwellings":"11","planning-permission-date":"2022-09-27","planning-permission-type":"full-planning-permission","planning-permission-status":"not-permissioned","planning-permission-history":"https://publicaccess.dartford.gov.uk/online-applications/applicationDetails.do?activeTab=summary&keyVal=N5BF90BQ9N000","organisation-curie":"local-authority:DAR"},"evidence_slice_sha256":"cf7109c06221b86674829c0cc9e5b883a20acd44319b6f860592cb07324a9442","evidence_grade":"A_EXACT_OFFICIAL_IDENTIFIER","confidence_score_0_100":99,"official_geometry_available":true,"official_geometry_type":null,"source_geometry_materialized_here":false,"point_not_used_as_coverage":true,"source_area_basis":"exact official brownfield-land identifier for a deliverable site; official GeoJSON download link published, geometry payload not materialized in current toolchain","site_plan_url":"https://www.dartford.gov.uk/downloads/file/2473/004-two-brewers-lowfield-street","source_area_only":true,"fake_data":false}}]}
