{
  "type": "FeatureCollection",
  "name": "security_public_safety_1_batch_exact_identifiers",
  "features": [
    {
      "type": "Feature",
      "geometry": null,
      "properties": {
        "slot_id": "security_public_safety_1",
        "evidence_scope": "coverage_exact_identifier",
        "coverage_area_id": "B Division",
        "exact_identifier": "B Division",
        "exact_identifier_type": "btp.police.uk.division.official_name",
        "coverage_area_name": "B Division",
        "source_url": "https://www.btp.police.uk/police-forces/british-transport-police/areas/about-us/about-us/our-structure/",
        "final_url": "https://www.btp.police.uk/SysSiteAssets/media/downloads/btp/media-relations/generic-statement-images/btp-stations-map_27.03.2026_v10.pdf",
        "access_utc": "2026-10-05T15:08:00Z",
        "data_date": "2026-03-27",
        "data_date_basis": "Official BTP station-map filename date plus current structure page",
        "license": "British Transport Police publication; explicit reuse licence not asserted in extracted source window",
        "file_sha256": "602c45aa193076f5def2dfc44a3a923419a036c7b982182cab2925165d18085b",
        "file_sha256_scope": "normalized four official division/subdivision records; not raw PDF bytes",
        "evidence_slice_sha256": "62f42b205513dbc44194265ec3ad23c41cab43bd1596a7b88f0785457a781423",
        "field_evidence": {
          "ordinal": 1,
          "id": "B Division",
          "kind": "division",
          "scope": "London and the South East of England"
        },
        "confidence_score_0_100": 100,
        "evidence_grade": "A_OFFICIAL_EXACT_IDENTIFIER",
        "fake_data": false,
        "spatial_binding_method": "DEFERRED_TO_LOCAL_OPENCODE",
        "canonical_parcel_id": null,
        "materialized_parcel_count": 0,
        "direct_parcel_count": 0
      }
    },
    {
      "type": "Feature",
      "geometry": null,
      "properties": {
        "slot_id": "security_public_safety_1",
        "evidence_scope": "coverage_exact_identifier",
        "coverage_area_id": "Central",
        "exact_identifier": "Central",
        "exact_identifier_type": "btp.police.uk.b_division.subdivision_name",
        "coverage_area_name": "Central",
        "source_url": "https://www.btp.police.uk/police-forces/british-transport-police/areas/about-us/about-us/our-structure/",
        "final_url": "https://www.btp.police.uk/SysSiteAssets/media/downloads/btp/media-relations/generic-statement-images/btp-stations-map_27.03.2026_v10.pdf",
        "access_utc": "2026-10-05T15:08:00Z",
        "data_date": "2026-03-27",
        "data_date_basis": "Official BTP station-map filename date plus current structure page",
        "license": "British Transport Police publication; explicit reuse licence not asserted in extracted source window",
        "file_sha256": "602c45aa193076f5def2dfc44a3a923419a036c7b982182cab2925165d18085b",
        "file_sha256_scope": "normalized four official division/subdivision records; not raw PDF bytes",
        "evidence_slice_sha256": "f407306543f86b136023b4eb9fb333882b7efff1409adb7df6f62533dcbd3ea7",
        "field_evidence": {
          "ordinal": 2,
          "id": "Central",
          "kind": "subdivision",
          "code": "C",
          "parent": "B Division"
        },
        "confidence_score_0_100": 100,
        "evidence_grade": "A_OFFICIAL_EXACT_IDENTIFIER",
        "fake_data": false,
        "spatial_binding_method": "DEFERRED_TO_LOCAL_OPENCODE",
        "canonical_parcel_id": null,
        "materialized_parcel_count": 0,
        "direct_parcel_count": 0
      }
    },
    {
      "type": "Feature",
      "geometry": null,
      "properties": {
        "slot_id": "security_public_safety_1",
        "evidence_scope": "coverage_exact_identifier",
        "coverage_area_id": "North",
        "exact_identifier": "North",
        "exact_identifier_type": "btp.police.uk.b_division.subdivision_name",
        "coverage_area_name": "North",
        "source_url": "https://www.btp.police.uk/police-forces/british-transport-police/areas/about-us/about-us/our-structure/",
        "final_url": "https://www.btp.police.uk/SysSiteAssets/media/downloads/btp/media-relations/generic-statement-images/btp-stations-map_27.03.2026_v10.pdf",
        "access_utc": "2026-10-05T15:08:00Z",
        "data_date": "2026-03-27",
        "data_date_basis": "Official BTP station-map filename date plus current structure page",
        "license": "British Transport Police publication; explicit reuse licence not asserted in extracted source window",
        "file_sha256": "602c45aa193076f5def2dfc44a3a923419a036c7b982182cab2925165d18085b",
        "file_sha256_scope": "normalized four official division/subdivision records; not raw PDF bytes",
        "evidence_slice_sha256": "ff97549c520c63c21cec5ed82e91ffb2819c30ee5b4b2fbf827190ef8f51e429",
        "field_evidence": {
          "ordinal": 3,
          "id": "North",
          "kind": "subdivision",
          "code": "N",
          "parent": "B Division"
        },
        "confidence_score_0_100": 100,
        "evidence_grade": "A_OFFICIAL_EXACT_IDENTIFIER",
        "fake_data": false,
        "spatial_binding_method": "DEFERRED_TO_LOCAL_OPENCODE",
        "canonical_parcel_id": null,
        "materialized_parcel_count": 0,
        "direct_parcel_count": 0
      }
    },
    {
      "type": "Feature",
      "geometry": null,
      "properties": {
        "slot_id": "security_public_safety_1",
        "evidence_scope": "coverage_exact_identifier",
        "coverage_area_id": "South",
        "exact_identifier": "South",
        "exact_identifier_type": "btp.police.uk.b_division.subdivision_name",
        "coverage_area_name": "South",
        "source_url": "https://www.btp.police.uk/police-forces/british-transport-police/areas/about-us/about-us/our-structure/",
        "final_url": "https://www.btp.police.uk/SysSiteAssets/media/downloads/btp/media-relations/generic-statement-images/btp-stations-map_27.03.2026_v10.pdf",
        "access_utc": "2026-10-05T15:08:00Z",
        "data_date": "2026-03-27",
        "data_date_basis": "Official BTP station-map filename date plus current structure page",
        "license": "British Transport Police publication; explicit reuse licence not asserted in extracted source window",
        "file_sha256": "602c45aa193076f5def2dfc44a3a923419a036c7b982182cab2925165d18085b",
        "file_sha256_scope": "normalized four official division/subdivision records; not raw PDF bytes",
        "evidence_slice_sha256": "cad1d759b945b328538c05bf87214333158f6f351f39f30c2493f30d1d8731f6",
        "field_evidence": {
          "ordinal": 4,
          "id": "South",
          "kind": "subdivision",
          "code": "S",
          "parent": "B Division"
        },
        "confidence_score_0_100": 100,
        "evidence_grade": "A_OFFICIAL_EXACT_IDENTIFIER",
        "fake_data": false,
        "spatial_binding_method": "DEFERRED_TO_LOCAL_OPENCODE",
        "canonical_parcel_id": null,
        "materialized_parcel_count": 0,
        "direct_parcel_count": 0
      }
    }
  ],
  "metadata": {
    "source_area_count": 203,
    "source_area_delta_this_turn": 4,
    "records_scope": "THIS_BATCH_DELTA",
    "previous_records_path": "incoming/source_area/security_public_safety_1/null/20261002T154100Z-nhs-england-london-icbs/records.geojson",
    "exact_blocker": "LOCAL_OPENCODE_EXACT_IDENTIFIER_TO_CANONICAL_SPATIAL_BINDING_REQUIRED",
    "first_missing_criterion": "LOCAL_OPENCODE_EXACT_IDENTIFIER_TO_CANONICAL_SPATIAL_BINDING"
  }
}
