{"type":"FeatureCollection","features":[{"type":"Feature","geometry":{"type":"MultiPolygon","coordinates":[[[[-0.081174,51.499372],[-0.081096,51.499182],[-0.080873,51.499202],[-0.080872,51.499207],[-0.080842,51.499211],[-0.080838,51.499209],[-0.080792,51.499214],[-0.080783,51.499247],[-0.080792,51.499248],[-0.080791,51.499277],[-0.080797,51.499277],[-0.080795,51.499325],[-0.080909,51.499336],[-0.080908,51.499365],[-0.081067,51.499389],[-0.081174,51.499372]]]]},"properties":{"slot_id":"future_growth_ 2","lineage_id":"future_growth_ 2-newstart-20261001T203100Z","page_generation":1,"owner":"future_growth_ 2","partition":"future_growth","semantic_mode":"SOURCE_AREA_EXACT_IDENTIFIER","accepted_as_parcel":false,"source_area_count_contribution":1,"exact_identifier":"16-AP-3050","exact_identifier_provided":true,"coverage_polygon_provided":true,"identifier_namespace":"Planning Data brownfield-site reference","access_utc":"2026-10-04T09:00:00Z","data_date":"2017-12-20","source_url":"https://www.planning.data.gov.uk/entity/1800787","final_url":"https://www.planning.data.gov.uk/entity/1800787","dataset_url":"https://www.planning.data.gov.uk/dataset/brownfield-site","license":"Open Government Licence v.3.0","authority":"London Borough of Southwark","site_address":"163-167 Bermondsey Street SE1 3UF","hectares":null,"point":"POINT (-0.080984 51.499284)","maximum_net_dwellings":null,"minimum_net_dwellings":null,"planning_permission_status":null,"confidence_score_0_100":99,"confidence":0.99,"evidence_grade":"A","evidence_scope":"official_polygon_and_exact_identifier","field_evidence":{"dataset":"Brownfield site","reference":"16-AP-3050","name":"163-167 Bermondsey Street SE1 3UF","quality":"authoritative","entry_date":"2017-12-20","start_date":"2017-12-20","organisation":"London Borough of Southwark","geometry_wkt":"MULTIPOLYGON (((-0.081174 51.499372, -0.081096 51.499182, -0.080873 51.499202, -0.080872 51.499207, -0.080842 51.499211, -0.080838 51.499209, -0.080792 51.499214, -0.080783 51.499247, -0.080792 51.499248, -0.080791 51.499277, -0.080797 51.499277, -0.080795 51.499325, -0.080909 51.499336, -0.080908 51.499365, -0.081067 51.499389, -0.081174 51.499372)))","point_wkt":"POINT (-0.080984 51.499284)","entity":1800787},"evidence_slice_sha256":"40b9ff3a28426aa924bef296399a63db0adf423ce9a2f266014b57d49e466fff","fake_data":false,"spatial_binding_method":"official authoritative MultiPolygon source-area geometry and exact brownfield-site identifier; canonical parcel spatial join/materialization delegated to local OpenCode","planned_building_count_contribution":0}}]}