{"type":"FeatureCollection","features":[{"type":"Feature","geometry":{"type":"MultiPolygon","coordinates":[[[[-1.186191,53.572099],[-1.186086,53.572128],[-1.186022,53.572162],[-1.185705,53.572277],[-1.184921,53.572541],[-1.184879,53.57256],[-1.184869,53.57258],[-1.18487,53.572604],[-1.185143,53.572902],[-1.185154,53.572899],[-1.185221,53.572974],[-1.185225,53.572996],[-1.185547,53.573279],[-1.186018,53.573134],[-1.186323,53.573051],[-1.186867,53.572857],[-1.186685,53.572671],[-1.186643,53.572684],[-1.186512,53.572562],[-1.186591,53.572535],[-1.186277,53.572206],[-1.186191,53.572099]]]]},"properties":{"slot_id":"future_growth_1","lineage_id":"future_growth_1-newstart-20260927T153100+0300","page_generation":null,"semantic_mode":"AREA_JOIN","source_window":"mhclg_doncaster_brownfield_site_137_entity1802804_entry2025-12-03_official_wkt","semantic_identity":"brownfield-site:137|local-authority:DNC|1802804|2025-12-03","source_url":"https://www.planning.data.gov.uk/entity/1802804","final_url":"https://www.planning.data.gov.uk/entity/1802804","final_url_status":"Official indexed public entity page, direct open cache missed; no unobserved redirect asserted","http_status":null,"http_status_reason":"Numeric origin HTTP status not exposed","access_utc":"2026-10-09T08:51:01.440Z","data_date":"2025-12-03","data_date_basis":"MHCLG Planning Data official entry-date","license":"Open Government Licence v3.0","license_evidence_url":"https://www.planning.data.gov.uk/dataset/brownfield-site","field_evidence":{"entry-date":"2025-12-03","start-date":"","end-date":"","entity":1802804,"name":"Former Adwick Depot, Land Off Village Street, Adwick Le Street, Doncaster, DN6 7AA","dataset":"brownfield-site","typology":"geography","reference":"137","prefix":"brownfield-site","organisation-entity":"109","geometry":"MULTIPOLYGON (((-1.186191 53.572099, -1.186086 53.572128, -1.186022 53.572162, -1.185705 53.572277, -1.184921 53.572541, -1.184879 53.57256, -1.184869 53.57258, -1.18487 53.572604, -1.185143 53.572902, -1.185154 53.572899, -1.185221 53.572974, -1.185225 53.572996, -1.185547 53.573279, -1.186018 53.573134, -1.186323 53.573051, -1.186867 53.572857, -1.186685 53.572671, -1.186643 53.572684, -1.186512 53.572562, -1.186591 53.572535, -1.186277 53.572206, -1.186191 53.572099)))","point":"POINT (-1.185855 53.572705)","quality":"authoritative","brownfield-site":"137"},"evidence_slice_sha256":"902a563015d17eb8b60e9b99ffbda04f42668e165a0dd8a73ad4aaaa98ff3391","confidence_score_0_100":93,"evidence_grade":"A","fake_data":false,"source_area_count_contribution":1,"accepted_as_parcel":false,"exact_identifier":"137","exact_identifier_provided":true,"identifier_namespace":"brownfield-site:local-authority:DNC","coverage_polygon_provided":true,"geometry_type":"MultiPolygon","geometry_crs":"EPSG:4326","source_file_sha256":null,"source_file_sha256_reason":"Original downloadable GeoJSON bytes not captured; official indexed full WKT used, no raw-source hash fabricated","spatial_binding_method":"Official MHCLG source WKT EPSG:4326, canonical parcel spatial join pending in local OpenCode","planned_building_count_contribution":0}}]}