{"type":"FeatureCollection","name":"building_type_2_batch_0068","features":[{"type":"Feature","id":"42122348","geometry":{"type":"MultiPolygon","coordinates":[[[[-1.323429,51.40002],[-1.323425,51.39997],[-1.323333,51.399974],[-1.323332,51.400019],[-1.323365,51.400017],[-1.32337,51.400051],[-1.323358,51.400052],[-1.323359,51.400067],[-1.323328,51.400064],[-1.323328,51.400056],[-1.323295,51.400054],[-1.323267,51.400057],[-1.323262,51.400052],[-1.323144,51.400076],[-1.323182,51.400146],[-1.323213,51.400138],[-1.323237,51.400134],[-1.323353,51.40012],[-1.323398,51.400117],[-1.323407,51.400117],[-1.323407,51.400122],[-1.323438,51.40012],[-1.323429,51.40002]]]]},"properties":{"slot_id":"building_type_2","lineage_id":"building_type_2-20260930T173100Z-newstart","batch_id":"batch-0068","page_generation":1,"source_entity":42122348,"source_reference":"1220926","source_dataset":"listed-building-outline","source_organisation":"West Berkshire Council","building_evidence_status":"BUILDING_PRESENT","parcel_status":"UNPROCESSED","canonical_parcel_id":null,"building_type":"listed_building","building_use":null,"poi_accepted":false,"field_evidence":{"footprint":"official listed-building-outline MULTIPOLYGON","type":"official dataset classification: listed-building-outline","reference":"1220926","quality":"authoritative","name":"","listed_building":"1220926"},"source_url":"https://www.planning.data.gov.uk/entity/42122348","final_url":"https://www.planning.data.gov.uk/entity/42122348","access_utc":"2026-10-04T21:03:20Z","data_date":"2026-10-02","licence":"Open Government Licence v3.0","evidence_slice_sha256":"a393383c88647a739317e25c57e3ff6e0fb0dc2c8bc66e3d2d7248e3cbafd306","confidence_score_0_100":96,"evidence_grade":"A","fake_data":false,"local_spatial_join_required":true}}]}