{"type":"FeatureCollection","name":"height_difference_5","metadata":{"slot_id":"height_difference_5","owner":"height_difference_5","lineage_id":"height_difference_5-eb56f92ed3f0514c","page_generation":1,"schema":"AAYS_LAYER24_EVIDENCE_V1","partition":"layer24","semantic_mode_state":"ABSENT_IN_PRIOR_PHYSICAL_STATE_PRESERVED_BY_OMISSION","batch_id":"20261005T223500Z_spatialni_data_supply_srs_guidance","record_policy":"Official Spatial NI platform-level SRS guidance only; no Belfast 2006 dataset-specific CRS, archive tile/file, geometry or parcel binding synthesized.","fake_data":false},"features":[{"type":"Feature","geometry":null,"properties":{"slot_id":"height_difference_5","owner":"height_difference_5","lineage_id":"height_difference_5-eb56f92ed3f0514c","page_generation":1,"schema":"AAYS_LAYER24_EVIDENCE_V1","partition":"layer24","batch_id":"20261005T223500Z_spatialni_data_supply_srs_guidance","source_record_id":"SPATIALNI:DATA_SUPPLY_METADATA_SRS_FORM","source_url":"https://support.spatialni.gov.uk/nima/DownloadDocs/Guidance/SpatialNI_Data_Supply_Metadata_Form.pdf","access_utc":"2026-10-05T22:35:00Z","required_building_state":"BUILDING_PRESENT","binding_status":"LOCAL_OPENCODE_BUILDING_PRESENT_EXACT_TILE_BIND_REQUIRED","platform_spatial_reference_system":"Irish Grid (TM65)","platform_epsg":"EPSG:29902","dataset_specific_crs":null,"exact_tile_identifier":null,"evidence_slice_sha256":"5afbb9b871407d88a6aef7cf54addb9bc3d26590ba2b18b053b0b9d0fb074f20","accepted_count_contribution":0,"source_area_count_contribution":0,"fake_data":false}}]}
