{"type":"FeatureCollection","name":"security_public_safety_6","features":[{"type":"Feature","id":"cps_area:cymru-wales","geometry":null,"properties":{"source_area_id":"Cymru-Wales","source_area_name":"Cymru-Wales","source_area_kind":"crown_prosecution_service_geographical_area_exact_name","source_window_id":"cps_current_geographical_areas_official_page_2026-10-07","source_url":"https://www.cps.gov.uk/node/26912","final_url":"https://www.cps.gov.uk/node/26912","accessed_utc":"2026-10-07T02:26:43Z","data_date":null,"license":null,"source_record_ordinal":1,"evidence_type":"exact_official_name","evidence_slice_sha256":"a35901ea1549ebcf5929eb76b1bff18733194b73db4642dda59b8e1220365d97","field_evidence":{"source_area_id":"Exact geographical Area name from the official CPS Performance overview page.","source_area_name":"Exact geographical Area name from the official CPS Performance overview page.","geometry":"No polygon geometry is claimed in this batch."},"confidence_score_0_100":100,"evidence_grade":"A_OFFICIAL_PRIMARY_PAGE","fake_data":false,"canonical_parcel_id":null,"parcel_match_status":"DEFERRED_TO_LOCAL_OPENCODE"}},{"type":"Feature","id":"cps_area:east-of-england","geometry":null,"properties":{"source_area_id":"East of England","source_area_name":"East of England","source_area_kind":"crown_prosecution_service_geographical_area_exact_name","source_window_id":"cps_current_geographical_areas_official_page_2026-10-07","source_url":"https://www.cps.gov.uk/node/26912","final_url":"https://www.cps.gov.uk/node/26912","accessed_utc":"2026-10-07T02:26:43Z","data_date":null,"license":null,"source_record_ordinal":2,"evidence_type":"exact_official_name","evidence_slice_sha256":"a35901ea1549ebcf5929eb76b1bff18733194b73db4642dda59b8e1220365d97","field_evidence":{"source_area_id":"Exact geographical Area name from the official CPS Performance overview page.","source_area_name":"Exact geographical Area name from the official CPS Performance overview page.","geometry":"No polygon geometry is claimed in this batch."},"confidence_score_0_100":100,"evidence_grade":"A_OFFICIAL_PRIMARY_PAGE","fake_data":false,"canonical_parcel_id":null,"parcel_match_status":"DEFERRED_TO_LOCAL_OPENCODE"}},{"type":"Feature","id":"cps_area:east-midlands","geometry":null,"properties":{"source_area_id":"East Midlands","source_area_name":"East Midlands","source_area_kind":"crown_prosecution_service_geographical_area_exact_name","source_window_id":"cps_current_geographical_areas_official_page_2026-10-07","source_url":"https://www.cps.gov.uk/node/26912","final_url":"https://www.cps.gov.uk/node/26912","accessed_utc":"2026-10-07T02:26:43Z","data_date":null,"license":null,"source_record_ordinal":3,"evidence_type":"exact_official_name","evidence_slice_sha256":"a35901ea1549ebcf5929eb76b1bff18733194b73db4642dda59b8e1220365d97","field_evidence":{"source_area_id":"Exact geographical Area name from the official CPS Performance overview page.","source_area_name":"Exact geographical Area name from the official CPS Performance overview page.","geometry":"No polygon geometry is claimed in this batch."},"confidence_score_0_100":100,"evidence_grade":"A_OFFICIAL_PRIMARY_PAGE","fake_data":false,"canonical_parcel_id":null,"parcel_match_status":"DEFERRED_TO_LOCAL_OPENCODE"}},{"type":"Feature","id":"cps_area:london-north","geometry":null,"properties":{"source_area_id":"London North","source_area_name":"London North","source_area_kind":"crown_prosecution_service_geographical_area_exact_name","source_window_id":"cps_current_geographical_areas_official_page_2026-10-07","source_url":"https://www.cps.gov.uk/node/26912","final_url":"https://www.cps.gov.uk/node/26912","accessed_utc":"2026-10-07T02:26:43Z","data_date":null,"license":null,"source_record_ordinal":4,"evidence_type":"exact_official_name","evidence_slice_sha256":"a35901ea1549ebcf5929eb76b1bff18733194b73db4642dda59b8e1220365d97","field_evidence":{"source_area_id":"Exact geographical Area name from the official CPS Performance overview page.","source_area_name":"Exact geographical Area name from the official CPS Performance overview page.","geometry":"No polygon geometry is claimed in this batch."},"confidence_score_0_100":100,"evidence_grade":"A_OFFICIAL_PRIMARY_PAGE","fake_data":false,"canonical_parcel_id":null,"parcel_match_status":"DEFERRED_TO_LOCAL_OPENCODE"}},{"type":"Feature","id":"cps_area:london-south","geometry":null,"properties":{"source_area_id":"London South","source_area_name":"London South","source_area_kind":"crown_prosecution_service_geographical_area_exact_name","source_window_id":"cps_current_geographical_areas_official_page_2026-10-07","source_url":"https://www.cps.gov.uk/node/26912","final_url":"https://www.cps.gov.uk/node/26912","accessed_utc":"2026-10-07T02:26:43Z","data_date":null,"license":null,"source_record_ordinal":5,"evidence_type":"exact_official_name","evidence_slice_sha256":"a35901ea1549ebcf5929eb76b1bff18733194b73db4642dda59b8e1220365d97","field_evidence":{"source_area_id":"Exact geographical Area name from the official CPS Performance overview page.","source_area_name":"Exact geographical Area name from the official CPS Performance overview page.","geometry":"No polygon geometry is claimed in this batch."},"confidence_score_0_100":100,"evidence_grade":"A_OFFICIAL_PRIMARY_PAGE","fake_data":false,"canonical_parcel_id":null,"parcel_match_status":"DEFERRED_TO_LOCAL_OPENCODE"}},{"type":"Feature","id":"cps_area:mersey-cheshire","geometry":null,"properties":{"source_area_id":"Mersey-Cheshire","source_area_name":"Mersey-Cheshire","source_area_kind":"crown_prosecution_service_geographical_area_exact_name","source_window_id":"cps_current_geographical_areas_official_page_2026-10-07","source_url":"https://www.cps.gov.uk/node/26912","final_url":"https://www.cps.gov.uk/node/26912","accessed_utc":"2026-10-07T02:26:43Z","data_date":null,"license":null,"source_record_ordinal":6,"evidence_type":"exact_official_name","evidence_slice_sha256":"a35901ea1549ebcf5929eb76b1bff18733194b73db4642dda59b8e1220365d97","field_evidence":{"source_area_id":"Exact geographical Area name from the official CPS Performance overview page.","source_area_name":"Exact geographical Area name from the official CPS Performance overview page.","geometry":"No polygon geometry is claimed in this batch."},"confidence_score_0_100":100,"evidence_grade":"A_OFFICIAL_PRIMARY_PAGE","fake_data":false,"canonical_parcel_id":null,"parcel_match_status":"DEFERRED_TO_LOCAL_OPENCODE"}},{"type":"Feature","id":"cps_area:north-east","geometry":null,"properties":{"source_area_id":"North East","source_area_name":"North East","source_area_kind":"crown_prosecution_service_geographical_area_exact_name","source_window_id":"cps_current_geographical_areas_official_page_2026-10-07","source_url":"https://www.cps.gov.uk/node/26912","final_url":"https://www.cps.gov.uk/node/26912","accessed_utc":"2026-10-07T02:26:43Z","data_date":null,"license":null,"source_record_ordinal":7,"evidence_type":"exact_official_name","evidence_slice_sha256":"a35901ea1549ebcf5929eb76b1bff18733194b73db4642dda59b8e1220365d97","field_evidence":{"source_area_id":"Exact geographical Area name from the official CPS Performance overview page.","source_area_name":"Exact geographical Area name from the official CPS Performance overview page.","geometry":"No polygon geometry is claimed in this batch."},"confidence_score_0_100":100,"evidence_grade":"A_OFFICIAL_PRIMARY_PAGE","fake_data":false,"canonical_parcel_id":null,"parcel_match_status":"DEFERRED_TO_LOCAL_OPENCODE"}},{"type":"Feature","id":"cps_area:north-west","geometry":null,"properties":{"source_area_id":"North West","source_area_name":"North West","source_area_kind":"crown_prosecution_service_geographical_area_exact_name","source_window_id":"cps_current_geographical_areas_official_page_2026-10-07","source_url":"https://www.cps.gov.uk/node/26912","final_url":"https://www.cps.gov.uk/node/26912","accessed_utc":"2026-10-07T02:26:43Z","data_date":null,"license":null,"source_record_ordinal":8,"evidence_type":"exact_official_name","evidence_slice_sha256":"a35901ea1549ebcf5929eb76b1bff18733194b73db4642dda59b8e1220365d97","field_evidence":{"source_area_id":"Exact geographical Area name from the official CPS Performance overview page.","source_area_name":"Exact geographical Area name from the official CPS Performance overview page.","geometry":"No polygon geometry is claimed in this batch."},"confidence_score_0_100":100,"evidence_grade":"A_OFFICIAL_PRIMARY_PAGE","fake_data":false,"canonical_parcel_id":null,"parcel_match_status":"DEFERRED_TO_LOCAL_OPENCODE"}},{"type":"Feature","id":"cps_area:south-east","geometry":null,"properties":{"source_area_id":"South East","source_area_name":"South East","source_area_kind":"crown_prosecution_service_geographical_area_exact_name","source_window_id":"cps_current_geographical_areas_official_page_2026-10-07","source_url":"https://www.cps.gov.uk/node/26912","final_url":"https://www.cps.gov.uk/node/26912","accessed_utc":"2026-10-07T02:26:43Z","data_date":null,"license":null,"source_record_ordinal":9,"evidence_type":"exact_official_name","evidence_slice_sha256":"a35901ea1549ebcf5929eb76b1bff18733194b73db4642dda59b8e1220365d97","field_evidence":{"source_area_id":"Exact geographical Area name from the official CPS Performance overview page.","source_area_name":"Exact geographical Area name from the official CPS Performance overview page.","geometry":"No polygon geometry is claimed in this batch."},"confidence_score_0_100":100,"evidence_grade":"A_OFFICIAL_PRIMARY_PAGE","fake_data":false,"canonical_parcel_id":null,"parcel_match_status":"DEFERRED_TO_LOCAL_OPENCODE"}},{"type":"Feature","id":"cps_area:south-west","geometry":null,"properties":{"source_area_id":"South West","source_area_name":"South West","source_area_kind":"crown_prosecution_service_geographical_area_exact_name","source_window_id":"cps_current_geographical_areas_official_page_2026-10-07","source_url":"https://www.cps.gov.uk/node/26912","final_url":"https://www.cps.gov.uk/node/26912","accessed_utc":"2026-10-07T02:26:43Z","data_date":null,"license":null,"source_record_ordinal":10,"evidence_type":"exact_official_name","evidence_slice_sha256":"a35901ea1549ebcf5929eb76b1bff18733194b73db4642dda59b8e1220365d97","field_evidence":{"source_area_id":"Exact geographical Area name from the official CPS Performance overview page.","source_area_name":"Exact geographical Area name from the official CPS Performance overview page.","geometry":"No polygon geometry is claimed in this batch."},"confidence_score_0_100":100,"evidence_grade":"A_OFFICIAL_PRIMARY_PAGE","fake_data":false,"canonical_parcel_id":null,"parcel_match_status":"DEFERRED_TO_LOCAL_OPENCODE"}},{"type":"Feature","id":"cps_area:thames-and-chiltern","geometry":null,"properties":{"source_area_id":"Thames and Chiltern","source_area_name":"Thames and Chiltern","source_area_kind":"crown_prosecution_service_geographical_area_exact_name","source_window_id":"cps_current_geographical_areas_official_page_2026-10-07","source_url":"https://www.cps.gov.uk/node/26912","final_url":"https://www.cps.gov.uk/node/26912","accessed_utc":"2026-10-07T02:26:43Z","data_date":null,"license":null,"source_record_ordinal":11,"evidence_type":"exact_official_name","evidence_slice_sha256":"a35901ea1549ebcf5929eb76b1bff18733194b73db4642dda59b8e1220365d97","field_evidence":{"source_area_id":"Exact geographical Area name from the official CPS Performance overview page.","source_area_name":"Exact geographical Area name from the official CPS Performance overview page.","geometry":"No polygon geometry is claimed in this batch."},"confidence_score_0_100":100,"evidence_grade":"A_OFFICIAL_PRIMARY_PAGE","fake_data":false,"canonical_parcel_id":null,"parcel_match_status":"DEFERRED_TO_LOCAL_OPENCODE"}},{"type":"Feature","id":"cps_area:wessex","geometry":null,"properties":{"source_area_id":"Wessex","source_area_name":"Wessex","source_area_kind":"crown_prosecution_service_geographical_area_exact_name","source_window_id":"cps_current_geographical_areas_official_page_2026-10-07","source_url":"https://www.cps.gov.uk/node/26912","final_url":"https://www.cps.gov.uk/node/26912","accessed_utc":"2026-10-07T02:26:43Z","data_date":null,"license":null,"source_record_ordinal":12,"evidence_type":"exact_official_name","evidence_slice_sha256":"a35901ea1549ebcf5929eb76b1bff18733194b73db4642dda59b8e1220365d97","field_evidence":{"source_area_id":"Exact geographical Area name from the official CPS Performance overview page.","source_area_name":"Exact geographical Area name from the official CPS Performance overview page.","geometry":"No polygon geometry is claimed in this batch."},"confidence_score_0_100":100,"evidence_grade":"A_OFFICIAL_PRIMARY_PAGE","fake_data":false,"canonical_parcel_id":null,"parcel_match_status":"DEFERRED_TO_LOCAL_OPENCODE"}},{"type":"Feature","id":"cps_area:west-midlands","geometry":null,"properties":{"source_area_id":"West Midlands","source_area_name":"West Midlands","source_area_kind":"crown_prosecution_service_geographical_area_exact_name","source_window_id":"cps_current_geographical_areas_official_page_2026-10-07","source_url":"https://www.cps.gov.uk/node/26912","final_url":"https://www.cps.gov.uk/node/26912","accessed_utc":"2026-10-07T02:26:43Z","data_date":null,"license":null,"source_record_ordinal":13,"evidence_type":"exact_official_name","evidence_slice_sha256":"a35901ea1549ebcf5929eb76b1bff18733194b73db4642dda59b8e1220365d97","field_evidence":{"source_area_id":"Exact geographical Area name from the official CPS Performance overview page.","source_area_name":"Exact geographical Area name from the official CPS Performance overview page.","geometry":"No polygon geometry is claimed in this batch."},"confidence_score_0_100":100,"evidence_grade":"A_OFFICIAL_PRIMARY_PAGE","fake_data":false,"canonical_parcel_id":null,"parcel_match_status":"DEFERRED_TO_LOCAL_OPENCODE"}},{"type":"Feature","id":"cps_area:yorkshire-and-humberside","geometry":null,"properties":{"source_area_id":"Yorkshire and Humberside","source_area_name":"Yorkshire and Humberside","source_area_kind":"crown_prosecution_service_geographical_area_exact_name","source_window_id":"cps_current_geographical_areas_official_page_2026-10-07","source_url":"https://www.cps.gov.uk/node/26912","final_url":"https://www.cps.gov.uk/node/26912","accessed_utc":"2026-10-07T02:26:43Z","data_date":null,"license":null,"source_record_ordinal":14,"evidence_type":"exact_official_name","evidence_slice_sha256":"a35901ea1549ebcf5929eb76b1bff18733194b73db4642dda59b8e1220365d97","field_evidence":{"source_area_id":"Exact geographical Area name from the official CPS Performance overview page.","source_area_name":"Exact geographical Area name from the official CPS Performance overview page.","geometry":"No polygon geometry is claimed in this batch."},"confidence_score_0_100":100,"evidence_grade":"A_OFFICIAL_PRIMARY_PAGE","fake_data":false,"canonical_parcel_id":null,"parcel_match_status":"DEFERRED_TO_LOCAL_OPENCODE"}}],"metadata":{"slot_id":"security_public_safety_6","lineage_id":"SECPS6_20260930T003421Z_01","page_generation":1,"batch_id":"BATCH_20261007T022643Z_CPS_GEOGRAPHICAL_AREAS_14","source_window_id":"cps_current_geographical_areas_official_page_2026-10-07","source_url":"https://www.cps.gov.uk/node/26912","final_url":"https://www.cps.gov.uk/node/26912","accessed_utc":"2026-10-07T02:26:43Z","data_date":null,"license":null,"evidence_slice_sha256":"a35901ea1549ebcf5929eb76b1bff18733194b73db4642dda59b8e1220365d97","new_source_records":14,"source_area_count_delta":14,"cumulative_source_area_count":72,"accepted_count":0,"duplicate_count":0,"rejected_count":0,"unmatched_count":0,"materialized_parcel_count":0,"direct_parcel_count":0,"planned_building_count":0,"cursor":null,"window_complete":true,"dataset_complete":true,"local_spatial_join_required":true,"fake_data":false}}
