{"type":"FeatureCollection","features":[{"type":"Feature","geometry":null,"properties":{"slot_id":"future_growth_3","lineage_id":"future_growth_3-newstart-20261001T203100Z","page_generation":null,"accepted_as_parcel":false,"source_area_count_contribution":1,"exact_identifier":"BR01","exact_identifier_provided":true,"coverage_polygon_provided":false,"identifier_namespace":"Preston City Council Brownfield Land Register site reference","secondary_exact_identifier":"preston-brownfield:BR01","source_entity":9802,"access_utc":"2026-10-01T23:15:34Z","data_date":"2026-02-11","source_url":"https://www.preston.gov.uk/article/9802/Brownfield-Land-Register","final_url":"https://www.preston.gov.uk/article/9802/Brownfield-Land-Register","license":"Open Government Licence v3.0","authority":"Preston City Council","site_address":"Sharoe Green Hospital, Sharoe Green Lane, Preston.","hectares":4.22,"deliverable":"brownfield land suitable for housing / housing-led mixed-use register entry","field_evidence":{"reference":"BR01","dataset":"Brownfield Land Register","organisation":"Preston City Council","site_name":"Sharoe Green Hospital, Sharoe Green Lane, Preston.","gross_site_area_ha":4.22,"ownership_status":"Not owned by a public authority","planning_status":"permissioned","permission_type":"Reserved matters approval","planning_permission_refs":["06/2006/0651","06/2007/0585"]},"source_payload_sha256":"daf3a4d709d35a6f126e1ae36bd256f235fea7b0c9e16ea5489e690cf43115ab","source_payload_sha256_basis":"canonicalized official Preston City Council Brownfield Land Register BR01 row fields","evidence_slice_sha256":"c3cd6a7474ede3dfcc7c5f6fb06a1c985a331b6fd80b16a7972f776e2978a0a1","evidence_grade":"A","confidence_score_0_100":98,"evidence_scope":"exact_official_identifier","fake_data":false,"spatial_binding_method":"official exact Brownfield Land Register site reference with Council-linked mapping layer; canonical geometry resolution, parcel spatial join and materialization delegated to local OpenCode","planned_building_count_contribution":0}}]}