{"type":"FeatureCollection","features":[{"type":"Feature","geometry":{"type":"MultiPolygon","coordinates":[[[[-1.133195,53.523676],[-1.133303,53.52373],[-1.133386,53.523779],[-1.133437,53.523807],[-1.133474,53.523779],[-1.13344,53.523764],[-1.13353,53.523695],[-1.133307,53.523592],[-1.133195,53.523676]]]]},"properties":{"slot_id":"future_growth_ 2","lineage_id":"future_growth_ 2-newstart-20261001T203100Z","page_generation":1,"owner":"future_growth_ 2","partition":"future_growth","semantic_mode":"SOURCE_AREA_EXACT_IDENTIFIER","accepted_as_parcel":false,"source_area_count_contribution":1,"exact_identifier":"58","exact_identifier_provided":true,"coverage_polygon_provided":true,"identifier_namespace":"Doncaster Metropolitan Borough Council brownfield-site reference","access_utc":"2026-10-04T10:11:40Z","data_date":"2025-12-03","source_url":"https://www.planning.data.gov.uk/entity/1802725","final_url":"https://www.planning.data.gov.uk/entity/1802725","dataset_url":"https://www.planning.data.gov.uk/dataset/brownfield-site","license":"Open Government Licence v3.0","authority":"Doncaster Metropolitan Borough Council","site_address":"13 Scot Lane, Doncaster, DN1 1EW","hectares":null,"point":"POINT (-1.133366 53.523693)","maximum_net_dwellings":null,"minimum_net_dwellings":null,"planning_permission_status":null,"confidence_score_0_100":99,"confidence":0.99,"evidence_grade":"A","evidence_scope":"official_polygon_coverage","field_evidence":{"dataset":"Brownfield site","entry_date":"2025-12-03","geometry_type":"MULTIPOLYGON","organisation":"Doncaster Metropolitan Borough Council","quality":"authoritative","reference":"58","site_name":"13 Scot Lane, Doncaster, DN1 1EW"},"evidence_slice_sha256":"2818b6e84099a0d28fe4897c9a2b89bb80060ae377f4840596876996b9794b10","fake_data":false,"spatial_binding_method":"authoritative official Doncaster brownfield-site MultiPolygon coverage; canonical parcel spatial join/materialization delegated to local OpenCode","planned_building_count_contribution":0}}]}