{"type":"FeatureCollection","features":[{"type":"Feature","id":"data-police-npt-boundaries:2026-08:E05009390N","geometry":null,"properties":{"evidence_scope":"coverage_area","coverage_area_id":"E05009390N","coverage_area_name":"Campden","identifier_scheme":"DATA_POLICE_NPT_ID","exact_official_identifier":"E05009390N","source_resolution":"DATA_POLICE_MONTHLY_NPT_BOUNDARY_ARCHIVE","time_window":"2026-08","measurement_date":"2026-08","measurement_method":"official data.police.uk monthly NPT boundary archive binding","spatial_binding_method":"ARCHIVE_MEMBER_EXTRACTION_AND_PARCEL_JOIN_DEFERRED_TO_LOCAL_OPENCODE","source_url":"https://data.police.uk/data/boundaries/2026-08.zip","final_url":"https://data.police.uk/data/boundaries/2026-08.zip","accessed_at_utc":"2026-10-06T06:23:00Z","data_date":"2026-08","licence":"Open Government Licence v3.0","sha256":"8bfd5e69c51b07d129331bcdb436e062f30c958c0a1410527b934e2cb9620704","field_evidence":{"dataset_title":"Neighbourhood boundaries","publisher":"data.police.uk","boundary_subject":"individual neighbourhood policing team (NPT) boundaries","archive_month":"2026-08","archive_size":"41.8 MB","archive_md5":"4b221621d5baaa2d3be97ca0f77cc081","force":"metropolitan","target_neighbourhood_id":"E05009390N","target_neighbourhood_name":"Campden","archive_member_extraction_status":"DEFERRED_TO_LOCAL_OPENCODE","geometry_materialized":false,"catalog_url":"https://data.police.uk/data/boundaries/","source_url":"https://data.police.uk/data/boundaries/2026-08.zip","accessed_at_utc":"2026-10-06T06:23:00Z"},"evidence_slice_sha256":"b5a6797e81362c805b4c964ff0b56623f54c3b02f06c094ac431dfea34a82fa1","confidence_score_0_100":99,"evidence_grade":"A","fake_data":false,"source_window_id":"data_police_npt_boundaries_aug2026_E05009390N_sps5_20261006_v1","cursor":"data_police_npt_boundaries_aug2026_E05009390N_sps5_20261006_v1:record=1"}}]}
