{"type":"FeatureCollection","name":"height_difference_2","features":[],"metadata":{"slot_id":"height_difference_2","lineage_id":"height_difference_2_20260930T001051Z","page_generation":1,"partition":"source_area","schema":"AAYS_LAYER24_EVIDENCE_V1","fake_data":false,"owner":"cagdas aydin","batch_id":"batch_0102_post_batch0101_changed_producer_start_criterion_blocker_20261006T172200+0300","cursor":"BLOCKED_POST_BATCH_0101_CHANGED_PRODUCER_START_CRITERION_NO_HD2_CANONICAL_OR_TILE_BINDING","source_area_count":0,"accepted_count":0,"unmatched_count":1,"scan_head_sha":"536c58fe47e29f769b0debd232750d3fbbcd8ee8","reason":"EXACT_BLOCKER: after repeated zero-acceptance rounds, the method was materially changed from external service-metadata review to a post-batch_0101 changed-producer start-criterion audit. Through scan head 536c58fe47e29f769b0debd232750d3fbbcd8ee8, no height_difference_2 path, canonical parcel materialization, or exact DEM/LIDAR tile binding was added. The only new potentially relevant BUILDING_PRESENT producer record is Planning Data entity 42129008 (8 and 9, East Clevedon Triangle), with authoritative MultiPolygon geometry, but canonical_parcel_id is null, parcel_status is UNPROCESSED, and local_spatial_join_required is true. The family start criterion therefore remains unsatisfied; no external DEM/LIDAR source window was opened. Local OpenCode must publish a non-null height_difference_2 canonical_parcel_id with BUILDING_PRESENT plus parcel geometry/bbox, or an exact missing official DEM/LIDAR tile selector, before Height Difference source acceptance."}}
