{"type":"FeatureCollection","name":"height_difference_5","metadata":{"slot_id":"height_difference_5","owner":"height_difference_5","lineage_id":"height_difference_5-eb56f92ed3f0514c","page_generation":1,"schema":"AAYS_LAYER24_EVIDENCE_V1","partition":"layer24","semantic_mode_state":"ABSENT_IN_PRIOR_PHYSICAL_STATE_PRESERVED_BY_OMISSION","batch_id":"20261002T205500Z_belfast_2006_grid_index_shp_zip_blocked","record_policy":"Official Belfast grid-index SHP resource evidence only; no grid record, parcel binding or CRS synthesized.","fake_data":false},"features":[{"type":"Feature","geometry":null,"properties":{"slot_id":"height_difference_5","owner":"height_difference_5","lineage_id":"height_difference_5-eb56f92ed3f0514c","page_generation":1,"schema":"AAYS_LAYER24_EVIDENCE_V1","partition":"layer24","batch_id":"20261002T205500Z_belfast_2006_grid_index_shp_zip_blocked","source_record_id":"DFI_BELFAST_LIDAR_2006:GRID_INDEX_SHP_ZIP","source_url":"https://admin.opendatani.gov.uk/dataset/lidar-belfast-city-2006","resource_page":"https://admin.opendatani.gov.uk/dataset/lidar-belfast-city-2006/resource/215e5c0e-e80f-4238-b0c4-33aad37867b3","payload_url":"https://opendatani.blob.core.windows.net/dfiriverslidar/RiverBasin_LIDAR_Grid_Index.zip","resource_id":"215e5c0e-e80f-4238-b0c4-33aad37867b3","resource_name":"River Basin LIDAR - Grid Index Map","access_utc":"2026-10-02T20:55:00Z","required_building_state":"BUILDING_PRESENT","binding_status":"LOCAL_OPENCODE_BUILDING_PRESENT_GRID_BIND_REQUIRED","payload_transport_status":"WEB_UNSUPPORTED_APPLICATION_ZIP_AND_DIRECT_BINARY_DOWNLOAD_FAILED_DO_NOT_RETRY","exact_grid_identifier":null,"crs":null,"evidence_slice_sha256":"2ea2c9e2fa865a63fc8bbce41563e303c3578d7f8370a1389cf13360cb390773","accepted_count_contribution":0,"source_area_count_contribution":0,"fake_data":false}}]}
