{"type":"FeatureCollection","features":[{"type":"Feature","id":"planned_buildings_2-planning-data-brownfield-1730819","geometry":null,"properties":{"entity":1730819,"reference":"BR046","canonical_record_key":"planning-data:brownfield-land:1730819","planned_project_name":"16 And Land Rear Of 14 To 18A Merry Hill Road, Bushey","planned_project_status":"permissioned","borough":"Hertsmere Borough Council","official_hectares":1.5,"official_minimum_net_dwellings":5,"official_maximum_net_dwellings":5,"planned_building_value":null,"planned_building_probability":null,"planned_building_complete_month":null,"source_quality":"authoritative","fake_data":false}}],"metadata":{"slot_id":"planned_buildings_2","batch_index":182,"source_index":12,"source_window":{"resource_index":5,"limit":1},"feature_count_before":530,"feature_count_after":531,"unique_real_site_project_before":371,"unique_real_site_project_after":372,"duplicate_count_new":0,"nearest_match_used":false,"parcel_match_used":false,"geometry_inference_used":false,"mirror_only":true}}