{"type":"FeatureCollection","features":[{"type":"Feature","id":"planned_buildings_2-planning-data-brownfield-1730812","geometry":null,"properties":{"entity":1730812,"reference":"BR039","canonical_record_key":"planning-data:brownfield-land:1730812","planned_project_name":"Clare Hall Manor, Blanche Lane, South Mimms, EN6 3LD","planned_project_status":"permissioned","borough":"Hertsmere Borough Council","official_hectares":0.74,"planned_building_value":null,"planned_building_probability":null,"planned_building_complete_month":null,"source_quality":"authoritative","fake_data":false}}],"metadata":{"slot_id":"planned_buildings_2","batch_index":178,"source_index":12,"source_window":{"resource_index":1,"limit":1},"feature_count_before":526,"feature_count_after":527,"unique_real_site_project_before":367,"unique_real_site_project_after":368,"duplicate_count_new":0,"nearest_match_used":false,"parcel_match_used":false,"geometry_inference_used":false,"mirror_only":true}}