{"type":"FeatureCollection","features":[{"type":"Feature","id":"planned_buildings_2-planning-data-brownfield-1730833","geometry":null,"properties":{"entity":1730833,"reference":"BR062","canonical_record_key":"planning-data:brownfield-land:1730833","planned_project_name":"North Block Parkside, High Street, Potters Bar, EN6 5AU","planned_project_status":"permissioned","borough":"Hertsmere Borough Council","official_hectares":0.88,"official_minimum_net_dwellings":4,"official_maximum_net_dwellings":4,"planned_building_value":null,"planned_building_probability":null,"planned_building_complete_month":null,"source_quality":"authoritative","fake_data":false}}],"metadata":{"slot_id":"planned_buildings_2","batch_index":183,"source_index":12,"source_window":{"resource_index":6,"limit":1},"feature_count_before":531,"feature_count_after":532,"unique_real_site_project_before":372,"unique_real_site_project_after":373,"duplicate_count_new":0,"nearest_match_used":false,"parcel_match_used":false,"geometry_inference_used":false,"mirror_only":true}}