{"type":"FeatureCollection","features":[{"type":"Feature","id":"planned_buildings_2-planning-data-brownfield-1730818","geometry":null,"properties":{"entity":1730818,"reference":"BR045","canonical_record_key":"planning-data:brownfield-land:1730818","planned_project_name":"Garage Site South, Of 77 Eldon Avenue, Borehamwood","planned_project_status":"permissioned","borough":"Hertsmere Borough Council","official_hectares":1.0,"official_minimum_net_dwellings":11,"official_maximum_net_dwellings":11,"planned_building_value":null,"planned_building_probability":null,"planned_building_complete_month":null,"source_quality":"authoritative","fake_data":false}}],"metadata":{"slot_id":"planned_buildings_2","batch_index":186,"source_index":12,"source_window":{"resource_index":9,"limit":1},"feature_count_before":534,"feature_count_after":535,"unique_real_site_project_before":375,"unique_real_site_project_after":376,"duplicate_count_new":0,"nearest_match_used":false,"parcel_match_used":false,"geometry_inference_used":false,"mirror_only":true}}