{"type":"FeatureCollection","features":[{"type":"Feature","id":"planned_buildings_2-planning-data-brownfield-1730813","geometry":null,"properties":{"entity":1730813,"reference":"BR040","canonical_record_key":"planning-data:brownfield-land:1730813","planned_project_name":"Wheatsheaf Farm, Well End Road, Borehamwood WD6 5PR","fake_data":false}},{"type":"Feature","id":"planned_buildings_2-planning-data-brownfield-1730812","geometry":null,"properties":{"entity":1730812,"reference":"BR039","canonical_record_key":"planning-data:brownfield-land:1730812","planned_project_name":"Clare Hall Manor, Blanche Lane, South Mimms, EN6 3LD","fake_data":false}},{"type":"Feature","id":"planned_buildings_2-planning-data-brownfield-1730814","geometry":null,"properties":{"entity":1730814,"reference":"BR041","canonical_record_key":"planning-data:brownfield-land:1730814","planned_project_name":"Land at Cowley Hill Stables","fake_data":false}},{"type":"Feature","id":"planned_buildings_2-planning-data-brownfield-1730815","geometry":null,"properties":{"entity":1730815,"reference":"BR042","canonical_record_key":"planning-data:brownfield-land:1730815","planned_project_name":"Metropolitan House, Darkes Lane, Potters Bar, EN6 1AG","fake_data":false}},{"type":"Feature","id":"planned_buildings_2-planning-data-brownfield-1730843","geometry":null,"properties":{"entity":1730843,"reference":"BR072","canonical_record_key":"planning-data:brownfield-land:1730843","planned_project_name":"8 Hamilton Close, South Mimms, Potters Bar, EN6 3PG","fake_data":false}},{"type":"Feature","id":"planned_buildings_2-planning-data-brownfield-1730819","geometry":null,"properties":{"entity":1730819,"reference":"BR046","canonical_record_key":"planning-data:brownfield-land:1730819","planned_project_name":"16 And Land Rear Of 14 To 18A Merry Hill Road, Bushey","fake_data":false}},{"type":"Feature","id":"planned_buildings_2-planning-data-brownfield-1730833","geometry":null,"properties":{"entity":1730833,"reference":"BR062","canonical_record_key":"planning-data:brownfield-land:1730833","planned_project_name":"North Block Parkside, High Street, Potters Bar, EN6 5AU","fake_data":false}},{"type":"Feature","id":"planned_buildings_2-planning-data-brownfield-1730853","geometry":null,"properties":{"entity":1730853,"reference":"BR082","canonical_record_key":"planning-data:brownfield-land:1730853","planned_project_name":"Bushey Fire Station, Rudolph Road, Bushey","fake_data":false}},{"type":"Feature","id":"planned_buildings_2-planning-data-brownfield-1727369","geometry":null,"properties":{"entity":1727369,"reference":"BR030","canonical_record_key":"planning-data:brownfield-land:1727369","planned_project_name":"Windmill Garage, 111 High Road, Bushey Heath, WD23 1JA","fake_data":false}},{"type":"Feature","id":"planned_buildings_2-planning-data-brownfield-1730818","geometry":null,"properties":{"entity":1730818,"reference":"BR045","canonical_record_key":"planning-data:brownfield-land:1730818","planned_project_name":"Garage Site South, Of 77 Eldon Avenue, Borehamwood","fake_data":false}},{"type":"Feature","id":"planned_buildings_2-planning-data-brownfield-1730827","geometry":null,"properties":{"entity":1730827,"reference":"BR056","canonical_record_key":"planning-data:brownfield-land:1730827","planned_project_name":"Organ Hall Farm, Theobald Street, Borehamwood, WD6 4PH","fake_data":false}}],"metadata":{"schema_version":1,"slot_id":"planned_buildings_2","continuation_key":"planned_buildings_2_open_source_v2_20260813","run_id":"20260818T080500Z","batch_indices":[176,177,178,179,180,181,182,183,184,185,186,187],"source_11_processed_window_indices":[11],"source_11_zero_result_windows":[11],"source_11_queue_exhausted":true,"source_12_processed_window_indices":[0,1,2,3,4,5,6,7,8,9,10],"source_12_added_window_indices":[0,1,2,3,4,5,6,7,8,9,10],"logical_feature_count_before":525,"features_added":11,"logical_feature_count_after":536,"unique_real_site_project_before":366,"unique_real_site_project_added":11,"unique_real_site_project_after":377,"duplicate_count_new":0,"duplicate_features_written":0,"reprocessed_window_count":0,"nearest_match_used":false,"parcel_match_used":false,"geometry_inference_used":false,"planned_building_value_write_count":0,"planned_building_probability_write_count":0,"planned_building_complete_month_write_count":0,"next_source_index":12,"next_source_family":"planning_data_brownfield_land","next_source_window_index":11,"next_batch_index":188,"canonical_latest_overwritten":false,"mirror_only":true,"demo_only":true,"fake_data":false,"final_ready":false,"production_merge":false}}