{"type":"FeatureCollection","features":[{"type":"Feature","geometry":null,"properties":{"slot_id":"future_growth_3","lineage_id":"future_growth_3-newstart-20261001T203100Z","page_generation":null,"accepted_as_parcel":false,"source_area_count_contribution":1,"exact_identifier":"S03906","exact_identifier_provided":true,"coverage_polygon_provided":false,"identifier_namespace":"Planning Data brownfield-land reference","secondary_exact_identifier":"entity:1731263","source_entity":"S03906 - Former Chapeltown Training Centre","access_utc":"2026-10-03T14:27:24Z","data_date":"2021-12-16","source_url":"https://www.planning.data.gov.uk/entity/1731263","final_url":"https://www.planning.data.gov.uk/entity/1731263","license":"Open Government Licence v3.0; attribution © Crown copyright and database right 2026.","authority":"Sheffield City Council","site_address":"Former Chapeltown Training Centre 220 - 230 Lane End Sheffield S35 2UZ","field_evidence":{"reference":"S03906","entity":1731263,"dataset":"Brownfield land","organisation":"Sheffield City Council","entry_date":"2021-12-16","site_address":"Former Chapeltown Training Centre 220 - 230 Lane End Sheffield S35 2UZ","point":"POINT (-1.473413 53.468587)","hectares":0.76,"deliverable":"yes","notes":"Estimated to comprise of 14 Houses","ownership_status":"owned-by-a-public-authority","planning_permission_date":"2019-04-12","planning_permission_type":"full-planning-permission","planning_permission_status":"permissioned","site_plan_url":"https://sheffieldcc.maps.arcgis.com/apps/webappviewer/index.html?id=91c32db653d64a97922044c3f06c7791","planning_permission_history":"https://planningapps.sheffield.gov.uk/online-applications/applicationDetails.do?activeTab=summary&keyVal=PFPZ67NYHQS00"},"source_payload_sha256":"88fcf32ac4e2d11d0642adfed2d99af66855aed14c444d0eaf159f54f6d36467","source_payload_sha256_basis":"canonicalized official Planning Data S03906 evidence fields","evidence_slice_sha256":"5edd3f87cc5970631d40113f2a7f6461d6e578f875a9cc3a4c761e3eb2a1a068","evidence_grade":"A","confidence_score_0_100":99,"evidence_scope":"exact_official_identifier_from_authoritative_planning_data_brownfield_entity","fake_data":false,"spatial_binding_method":"official Planning Data brownfield reference S03906 / entity 1731263 and Sheffield City Council ArcGIS site-plan URL; canonical parcel spatial join and materialization delegated to local OpenCode","planned_building_count_contribution":0}}]}