{
  "type": "FeatureCollection",
  "name": "internet_access_2",
  "features": [
    {
      "type": "Feature",
      "id": "BDUK_Q1_2026_27_LAD_01",
      "geometry": null,
      "properties": {
        "slot_id": "internet_access_2",
        "lineage_id": "internet_access_2-20260930T004408Z",
        "page_generation": 2,
        "batch_id": "20260930T193102Z_bduk_q1_2026_27_table1",
        "criterion": "Internet Access",
        "source_type": "official_statistics_html_table",
        "publisher": "Building Digital UK",
        "official_identifier": "North Yorkshire",
        "identifier_type": "exact_published_official_label",
        "identifier_scheme": "BDUK Table 1 Local Authority District label",
        "data_period_start": "2026-04-01",
        "data_period_end": "2026-06-30",
        "publication_date": "2026-09-17",
        "source_management_info_date": "2026-09-03",
        "premises_passed_gigabit_capable_bduk_subsidy": 2910,
        "url": "https://www.gov.uk/government/statistics/bduk-delivery-performance-quarterly-april-2026-to-june-2026/bulletin-bduk-delivery-performance-quarterly-april-2026-to-june-2026",
        "final_url": "https://www.gov.uk/government/statistics/bduk-delivery-performance-quarterly-april-2026-to-june-2026/bulletin-bduk-delivery-performance-quarterly-april-2026-to-june-2026",
        "access_utc": "2026-09-30T19:31:02Z",
        "license": "Open Government Licence v3.0",
        "upstream_raw_sha256": null,
        "upstream_raw_sha256_status": "WEB_TEXT_NORMALIZED_NO_RAW_RESPONSE_BYTES",
        "source_evidence_file": "source_evidence_bduk_q1_2026_27_table1.txt",
        "source_evidence_file_sha256": "68f22cd9202853f1401dbcc216c8ce508b49017aee05c95734fbb85c6b36040c",
        "evidence_slice_sha256": "68f22cd9202853f1401dbcc216c8ce508b49017aee05c95734fbb85c6b36040c",
        "field_evidence": {
          "official_identifier": "Exact Local Authority District label in BDUK Table 1.",
          "premises_passed": "Table 1 value for premises passed in 1 April 2026 to 30 June 2026.",
          "scope": "BDUK official statistics define the release as gigabit-capable broadband coverage delivered through BDUK subsidy.",
          "license": "GOV.UK publication states Open Government Licence v3.0."
        },
        "confidence_score_0_100": 98,
        "evidence_grade": "A",
        "fake_data": false,
        "local_boundary_resolution_required": true,
        "local_spatial_join_required": true
      }
    },
    {
      "type": "Feature",
      "id": "BDUK_Q1_2026_27_LAD_02",
      "geometry": null,
      "properties": {
        "slot_id": "internet_access_2",
        "lineage_id": "internet_access_2-20260930T004408Z",
        "page_generation": 2,
        "batch_id": "20260930T193102Z_bduk_q1_2026_27_table1",
        "criterion": "Internet Access",
        "source_type": "official_statistics_html_table",
        "publisher": "Building Digital UK",
        "official_identifier": "Wiltshire",
        "identifier_type": "exact_published_official_label",
        "identifier_scheme": "BDUK Table 1 Local Authority District label",
        "data_period_start": "2026-04-01",
        "data_period_end": "2026-06-30",
        "publication_date": "2026-09-17",
        "source_management_info_date": "2026-09-03",
        "premises_passed_gigabit_capable_bduk_subsidy": 2160,
        "url": "https://www.gov.uk/government/statistics/bduk-delivery-performance-quarterly-april-2026-to-june-2026/bulletin-bduk-delivery-performance-quarterly-april-2026-to-june-2026",
        "final_url": "https://www.gov.uk/government/statistics/bduk-delivery-performance-quarterly-april-2026-to-june-2026/bulletin-bduk-delivery-performance-quarterly-april-2026-to-june-2026",
        "access_utc": "2026-09-30T19:31:02Z",
        "license": "Open Government Licence v3.0",
        "upstream_raw_sha256": null,
        "upstream_raw_sha256_status": "WEB_TEXT_NORMALIZED_NO_RAW_RESPONSE_BYTES",
        "source_evidence_file": "source_evidence_bduk_q1_2026_27_table1.txt",
        "source_evidence_file_sha256": "68f22cd9202853f1401dbcc216c8ce508b49017aee05c95734fbb85c6b36040c",
        "evidence_slice_sha256": "68f22cd9202853f1401dbcc216c8ce508b49017aee05c95734fbb85c6b36040c",
        "field_evidence": {
          "official_identifier": "Exact Local Authority District label in BDUK Table 1.",
          "premises_passed": "Table 1 value for premises passed in 1 April 2026 to 30 June 2026.",
          "scope": "BDUK official statistics define the release as gigabit-capable broadband coverage delivered through BDUK subsidy.",
          "license": "GOV.UK publication states Open Government Licence v3.0."
        },
        "confidence_score_0_100": 98,
        "evidence_grade": "A",
        "fake_data": false,
        "local_boundary_resolution_required": true,
        "local_spatial_join_required": true
      }
    },
    {
      "type": "Feature",
      "id": "BDUK_Q1_2026_27_LAD_03",
      "geometry": null,
      "properties": {
        "slot_id": "internet_access_2",
        "lineage_id": "internet_access_2-20260930T004408Z",
        "page_generation": 2,
        "batch_id": "20260930T193102Z_bduk_q1_2026_27_table1",
        "criterion": "Internet Access",
        "source_type": "official_statistics_html_table",
        "publisher": "Building Digital UK",
        "official_identifier": "Somerset",
        "identifier_type": "exact_published_official_label",
        "identifier_scheme": "BDUK Table 1 Local Authority District label",
        "data_period_start": "2026-04-01",
        "data_period_end": "2026-06-30",
        "publication_date": "2026-09-17",
        "source_management_info_date": "2026-09-03",
        "premises_passed_gigabit_capable_bduk_subsidy": 1820,
        "url": "https://www.gov.uk/government/statistics/bduk-delivery-performance-quarterly-april-2026-to-june-2026/bulletin-bduk-delivery-performance-quarterly-april-2026-to-june-2026",
        "final_url": "https://www.gov.uk/government/statistics/bduk-delivery-performance-quarterly-april-2026-to-june-2026/bulletin-bduk-delivery-performance-quarterly-april-2026-to-june-2026",
        "access_utc": "2026-09-30T19:31:02Z",
        "license": "Open Government Licence v3.0",
        "upstream_raw_sha256": null,
        "upstream_raw_sha256_status": "WEB_TEXT_NORMALIZED_NO_RAW_RESPONSE_BYTES",
        "source_evidence_file": "source_evidence_bduk_q1_2026_27_table1.txt",
        "source_evidence_file_sha256": "68f22cd9202853f1401dbcc216c8ce508b49017aee05c95734fbb85c6b36040c",
        "evidence_slice_sha256": "68f22cd9202853f1401dbcc216c8ce508b49017aee05c95734fbb85c6b36040c",
        "field_evidence": {
          "official_identifier": "Exact Local Authority District label in BDUK Table 1.",
          "premises_passed": "Table 1 value for premises passed in 1 April 2026 to 30 June 2026.",
          "scope": "BDUK official statistics define the release as gigabit-capable broadband coverage delivered through BDUK subsidy.",
          "license": "GOV.UK publication states Open Government Licence v3.0."
        },
        "confidence_score_0_100": 98,
        "evidence_grade": "A",
        "fake_data": false,
        "local_boundary_resolution_required": true,
        "local_spatial_join_required": true
      }
    },
    {
      "type": "Feature",
      "id": "BDUK_Q1_2026_27_LAD_04",
      "geometry": null,
      "properties": {
        "slot_id": "internet_access_2",
        "lineage_id": "internet_access_2-20260930T004408Z",
        "page_generation": 2,
        "batch_id": "20260930T193102Z_bduk_q1_2026_27_table1",
        "criterion": "Internet Access",
        "source_type": "official_statistics_html_table",
        "publisher": "Building Digital UK",
        "official_identifier": "East Riding of Yorkshire",
        "identifier_type": "exact_published_official_label",
        "identifier_scheme": "BDUK Table 1 Local Authority District label",
        "data_period_start": "2026-04-01",
        "data_period_end": "2026-06-30",
        "publication_date": "2026-09-17",
        "source_management_info_date": "2026-09-03",
        "premises_passed_gigabit_capable_bduk_subsidy": 1630,
        "url": "https://www.gov.uk/government/statistics/bduk-delivery-performance-quarterly-april-2026-to-june-2026/bulletin-bduk-delivery-performance-quarterly-april-2026-to-june-2026",
        "final_url": "https://www.gov.uk/government/statistics/bduk-delivery-performance-quarterly-april-2026-to-june-2026/bulletin-bduk-delivery-performance-quarterly-april-2026-to-june-2026",
        "access_utc": "2026-09-30T19:31:02Z",
        "license": "Open Government Licence v3.0",
        "upstream_raw_sha256": null,
        "upstream_raw_sha256_status": "WEB_TEXT_NORMALIZED_NO_RAW_RESPONSE_BYTES",
        "source_evidence_file": "source_evidence_bduk_q1_2026_27_table1.txt",
        "source_evidence_file_sha256": "68f22cd9202853f1401dbcc216c8ce508b49017aee05c95734fbb85c6b36040c",
        "evidence_slice_sha256": "68f22cd9202853f1401dbcc216c8ce508b49017aee05c95734fbb85c6b36040c",
        "field_evidence": {
          "official_identifier": "Exact Local Authority District label in BDUK Table 1.",
          "premises_passed": "Table 1 value for premises passed in 1 April 2026 to 30 June 2026.",
          "scope": "BDUK official statistics define the release as gigabit-capable broadband coverage delivered through BDUK subsidy.",
          "license": "GOV.UK publication states Open Government Licence v3.0."
        },
        "confidence_score_0_100": 98,
        "evidence_grade": "A",
        "fake_data": false,
        "local_boundary_resolution_required": true,
        "local_spatial_join_required": true
      }
    },
    {
      "type": "Feature",
      "id": "BDUK_Q1_2026_27_LAD_05",
      "geometry": null,
      "properties": {
        "slot_id": "internet_access_2",
        "lineage_id": "internet_access_2-20260930T004408Z",
        "page_generation": 2,
        "batch_id": "20260930T193102Z_bduk_q1_2026_27_table1",
        "criterion": "Internet Access",
        "source_type": "official_statistics_html_table",
        "publisher": "Building Digital UK",
        "official_identifier": "Dorset",
        "identifier_type": "exact_published_official_label",
        "identifier_scheme": "BDUK Table 1 Local Authority District label",
        "data_period_start": "2026-04-01",
        "data_period_end": "2026-06-30",
        "publication_date": "2026-09-17",
        "source_management_info_date": "2026-09-03",
        "premises_passed_gigabit_capable_bduk_subsidy": 1390,
        "url": "https://www.gov.uk/government/statistics/bduk-delivery-performance-quarterly-april-2026-to-june-2026/bulletin-bduk-delivery-performance-quarterly-april-2026-to-june-2026",
        "final_url": "https://www.gov.uk/government/statistics/bduk-delivery-performance-quarterly-april-2026-to-june-2026/bulletin-bduk-delivery-performance-quarterly-april-2026-to-june-2026",
        "access_utc": "2026-09-30T19:31:02Z",
        "license": "Open Government Licence v3.0",
        "upstream_raw_sha256": null,
        "upstream_raw_sha256_status": "WEB_TEXT_NORMALIZED_NO_RAW_RESPONSE_BYTES",
        "source_evidence_file": "source_evidence_bduk_q1_2026_27_table1.txt",
        "source_evidence_file_sha256": "68f22cd9202853f1401dbcc216c8ce508b49017aee05c95734fbb85c6b36040c",
        "evidence_slice_sha256": "68f22cd9202853f1401dbcc216c8ce508b49017aee05c95734fbb85c6b36040c",
        "field_evidence": {
          "official_identifier": "Exact Local Authority District label in BDUK Table 1.",
          "premises_passed": "Table 1 value for premises passed in 1 April 2026 to 30 June 2026.",
          "scope": "BDUK official statistics define the release as gigabit-capable broadband coverage delivered through BDUK subsidy.",
          "license": "GOV.UK publication states Open Government Licence v3.0."
        },
        "confidence_score_0_100": 98,
        "evidence_grade": "A",
        "fake_data": false,
        "local_boundary_resolution_required": true,
        "local_spatial_join_required": true
      }
    },
    {
      "type": "Feature",
      "id": "BDUK_Q1_2026_27_LAD_06",
      "geometry": null,
      "properties": {
        "slot_id": "internet_access_2",
        "lineage_id": "internet_access_2-20260930T004408Z",
        "page_generation": 2,
        "batch_id": "20260930T193102Z_bduk_q1_2026_27_table1",
        "criterion": "Internet Access",
        "source_type": "official_statistics_html_table",
        "publisher": "Building Digital UK",
        "official_identifier": "Aberdeenshire",
        "identifier_type": "exact_published_official_label",
        "identifier_scheme": "BDUK Table 1 Local Authority District label",
        "data_period_start": "2026-04-01",
        "data_period_end": "2026-06-30",
        "publication_date": "2026-09-17",
        "source_management_info_date": "2026-09-03",
        "premises_passed_gigabit_capable_bduk_subsidy": 1150,
        "url": "https://www.gov.uk/government/statistics/bduk-delivery-performance-quarterly-april-2026-to-june-2026/bulletin-bduk-delivery-performance-quarterly-april-2026-to-june-2026",
        "final_url": "https://www.gov.uk/government/statistics/bduk-delivery-performance-quarterly-april-2026-to-june-2026/bulletin-bduk-delivery-performance-quarterly-april-2026-to-june-2026",
        "access_utc": "2026-09-30T19:31:02Z",
        "license": "Open Government Licence v3.0",
        "upstream_raw_sha256": null,
        "upstream_raw_sha256_status": "WEB_TEXT_NORMALIZED_NO_RAW_RESPONSE_BYTES",
        "source_evidence_file": "source_evidence_bduk_q1_2026_27_table1.txt",
        "source_evidence_file_sha256": "68f22cd9202853f1401dbcc216c8ce508b49017aee05c95734fbb85c6b36040c",
        "evidence_slice_sha256": "68f22cd9202853f1401dbcc216c8ce508b49017aee05c95734fbb85c6b36040c",
        "field_evidence": {
          "official_identifier": "Exact Local Authority District label in BDUK Table 1.",
          "premises_passed": "Table 1 value for premises passed in 1 April 2026 to 30 June 2026.",
          "scope": "BDUK official statistics define the release as gigabit-capable broadband coverage delivered through BDUK subsidy.",
          "license": "GOV.UK publication states Open Government Licence v3.0."
        },
        "confidence_score_0_100": 98,
        "evidence_grade": "A",
        "fake_data": false,
        "local_boundary_resolution_required": true,
        "local_spatial_join_required": true
      }
    },
    {
      "type": "Feature",
      "id": "BDUK_Q1_2026_27_LAD_07",
      "geometry": null,
      "properties": {
        "slot_id": "internet_access_2",
        "lineage_id": "internet_access_2-20260930T004408Z",
        "page_generation": 2,
        "batch_id": "20260930T193102Z_bduk_q1_2026_27_table1",
        "criterion": "Internet Access",
        "source_type": "official_statistics_html_table",
        "publisher": "Building Digital UK",
        "official_identifier": "East Lindsey",
        "identifier_type": "exact_published_official_label",
        "identifier_scheme": "BDUK Table 1 Local Authority District label",
        "data_period_start": "2026-04-01",
        "data_period_end": "2026-06-30",
        "publication_date": "2026-09-17",
        "source_management_info_date": "2026-09-03",
        "premises_passed_gigabit_capable_bduk_subsidy": 1130,
        "url": "https://www.gov.uk/government/statistics/bduk-delivery-performance-quarterly-april-2026-to-june-2026/bulletin-bduk-delivery-performance-quarterly-april-2026-to-june-2026",
        "final_url": "https://www.gov.uk/government/statistics/bduk-delivery-performance-quarterly-april-2026-to-june-2026/bulletin-bduk-delivery-performance-quarterly-april-2026-to-june-2026",
        "access_utc": "2026-09-30T19:31:02Z",
        "license": "Open Government Licence v3.0",
        "upstream_raw_sha256": null,
        "upstream_raw_sha256_status": "WEB_TEXT_NORMALIZED_NO_RAW_RESPONSE_BYTES",
        "source_evidence_file": "source_evidence_bduk_q1_2026_27_table1.txt",
        "source_evidence_file_sha256": "68f22cd9202853f1401dbcc216c8ce508b49017aee05c95734fbb85c6b36040c",
        "evidence_slice_sha256": "68f22cd9202853f1401dbcc216c8ce508b49017aee05c95734fbb85c6b36040c",
        "field_evidence": {
          "official_identifier": "Exact Local Authority District label in BDUK Table 1.",
          "premises_passed": "Table 1 value for premises passed in 1 April 2026 to 30 June 2026.",
          "scope": "BDUK official statistics define the release as gigabit-capable broadband coverage delivered through BDUK subsidy.",
          "license": "GOV.UK publication states Open Government Licence v3.0."
        },
        "confidence_score_0_100": 98,
        "evidence_grade": "A",
        "fake_data": false,
        "local_boundary_resolution_required": true,
        "local_spatial_join_required": true
      }
    },
    {
      "type": "Feature",
      "id": "BDUK_Q1_2026_27_LAD_08",
      "geometry": null,
      "properties": {
        "slot_id": "internet_access_2",
        "lineage_id": "internet_access_2-20260930T004408Z",
        "page_generation": 2,
        "batch_id": "20260930T193102Z_bduk_q1_2026_27_table1",
        "criterion": "Internet Access",
        "source_type": "official_statistics_html_table",
        "publisher": "Building Digital UK",
        "official_identifier": "Westmorland and Furness",
        "identifier_type": "exact_published_official_label",
        "identifier_scheme": "BDUK Table 1 Local Authority District label",
        "data_period_start": "2026-04-01",
        "data_period_end": "2026-06-30",
        "publication_date": "2026-09-17",
        "source_management_info_date": "2026-09-03",
        "premises_passed_gigabit_capable_bduk_subsidy": 1060,
        "url": "https://www.gov.uk/government/statistics/bduk-delivery-performance-quarterly-april-2026-to-june-2026/bulletin-bduk-delivery-performance-quarterly-april-2026-to-june-2026",
        "final_url": "https://www.gov.uk/government/statistics/bduk-delivery-performance-quarterly-april-2026-to-june-2026/bulletin-bduk-delivery-performance-quarterly-april-2026-to-june-2026",
        "access_utc": "2026-09-30T19:31:02Z",
        "license": "Open Government Licence v3.0",
        "upstream_raw_sha256": null,
        "upstream_raw_sha256_status": "WEB_TEXT_NORMALIZED_NO_RAW_RESPONSE_BYTES",
        "source_evidence_file": "source_evidence_bduk_q1_2026_27_table1.txt",
        "source_evidence_file_sha256": "68f22cd9202853f1401dbcc216c8ce508b49017aee05c95734fbb85c6b36040c",
        "evidence_slice_sha256": "68f22cd9202853f1401dbcc216c8ce508b49017aee05c95734fbb85c6b36040c",
        "field_evidence": {
          "official_identifier": "Exact Local Authority District label in BDUK Table 1.",
          "premises_passed": "Table 1 value for premises passed in 1 April 2026 to 30 June 2026.",
          "scope": "BDUK official statistics define the release as gigabit-capable broadband coverage delivered through BDUK subsidy.",
          "license": "GOV.UK publication states Open Government Licence v3.0."
        },
        "confidence_score_0_100": 98,
        "evidence_grade": "A",
        "fake_data": false,
        "local_boundary_resolution_required": true,
        "local_spatial_join_required": true
      }
    },
    {
      "type": "Feature",
      "id": "BDUK_Q1_2026_27_LAD_09",
      "geometry": null,
      "properties": {
        "slot_id": "internet_access_2",
        "lineage_id": "internet_access_2-20260930T004408Z",
        "page_generation": 2,
        "batch_id": "20260930T193102Z_bduk_q1_2026_27_table1",
        "criterion": "Internet Access",
        "source_type": "official_statistics_html_table",
        "publisher": "Building Digital UK",
        "official_identifier": "Argyll and Bute",
        "identifier_type": "exact_published_official_label",
        "identifier_scheme": "BDUK Table 1 Local Authority District label",
        "data_period_start": "2026-04-01",
        "data_period_end": "2026-06-30",
        "publication_date": "2026-09-17",
        "source_management_info_date": "2026-09-03",
        "premises_passed_gigabit_capable_bduk_subsidy": 1040,
        "url": "https://www.gov.uk/government/statistics/bduk-delivery-performance-quarterly-april-2026-to-june-2026/bulletin-bduk-delivery-performance-quarterly-april-2026-to-june-2026",
        "final_url": "https://www.gov.uk/government/statistics/bduk-delivery-performance-quarterly-april-2026-to-june-2026/bulletin-bduk-delivery-performance-quarterly-april-2026-to-june-2026",
        "access_utc": "2026-09-30T19:31:02Z",
        "license": "Open Government Licence v3.0",
        "upstream_raw_sha256": null,
        "upstream_raw_sha256_status": "WEB_TEXT_NORMALIZED_NO_RAW_RESPONSE_BYTES",
        "source_evidence_file": "source_evidence_bduk_q1_2026_27_table1.txt",
        "source_evidence_file_sha256": "68f22cd9202853f1401dbcc216c8ce508b49017aee05c95734fbb85c6b36040c",
        "evidence_slice_sha256": "68f22cd9202853f1401dbcc216c8ce508b49017aee05c95734fbb85c6b36040c",
        "field_evidence": {
          "official_identifier": "Exact Local Authority District label in BDUK Table 1.",
          "premises_passed": "Table 1 value for premises passed in 1 April 2026 to 30 June 2026.",
          "scope": "BDUK official statistics define the release as gigabit-capable broadband coverage delivered through BDUK subsidy.",
          "license": "GOV.UK publication states Open Government Licence v3.0."
        },
        "confidence_score_0_100": 98,
        "evidence_grade": "A",
        "fake_data": false,
        "local_boundary_resolution_required": true,
        "local_spatial_join_required": true
      }
    },
    {
      "type": "Feature",
      "id": "BDUK_Q1_2026_27_LAD_10",
      "geometry": null,
      "properties": {
        "slot_id": "internet_access_2",
        "lineage_id": "internet_access_2-20260930T004408Z",
        "page_generation": 2,
        "batch_id": "20260930T193102Z_bduk_q1_2026_27_table1",
        "criterion": "Internet Access",
        "source_type": "official_statistics_html_table",
        "publisher": "Building Digital UK",
        "official_identifier": "Northumberland",
        "identifier_type": "exact_published_official_label",
        "identifier_scheme": "BDUK Table 1 Local Authority District label",
        "data_period_start": "2026-04-01",
        "data_period_end": "2026-06-30",
        "publication_date": "2026-09-17",
        "source_management_info_date": "2026-09-03",
        "premises_passed_gigabit_capable_bduk_subsidy": 1010,
        "url": "https://www.gov.uk/government/statistics/bduk-delivery-performance-quarterly-april-2026-to-june-2026/bulletin-bduk-delivery-performance-quarterly-april-2026-to-june-2026",
        "final_url": "https://www.gov.uk/government/statistics/bduk-delivery-performance-quarterly-april-2026-to-june-2026/bulletin-bduk-delivery-performance-quarterly-april-2026-to-june-2026",
        "access_utc": "2026-09-30T19:31:02Z",
        "license": "Open Government Licence v3.0",
        "upstream_raw_sha256": null,
        "upstream_raw_sha256_status": "WEB_TEXT_NORMALIZED_NO_RAW_RESPONSE_BYTES",
        "source_evidence_file": "source_evidence_bduk_q1_2026_27_table1.txt",
        "source_evidence_file_sha256": "68f22cd9202853f1401dbcc216c8ce508b49017aee05c95734fbb85c6b36040c",
        "evidence_slice_sha256": "68f22cd9202853f1401dbcc216c8ce508b49017aee05c95734fbb85c6b36040c",
        "field_evidence": {
          "official_identifier": "Exact Local Authority District label in BDUK Table 1.",
          "premises_passed": "Table 1 value for premises passed in 1 April 2026 to 30 June 2026.",
          "scope": "BDUK official statistics define the release as gigabit-capable broadband coverage delivered through BDUK subsidy.",
          "license": "GOV.UK publication states Open Government Licence v3.0."
        },
        "confidence_score_0_100": 98,
        "evidence_grade": "A",
        "fake_data": false,
        "local_boundary_resolution_required": true,
        "local_spatial_join_required": true
      }
    }
  ]
}
