{"type":"FeatureCollection","features":[{"type":"Feature","id":"DLC196_v1","geometry":{"type":"MultiPolygon","coordinates":[[[[-1.13017,52.6333],[-1.130444,52.633164],[-1.130601,52.633088],[-1.130182,52.632759],[-1.130095,52.632799],[-1.129881,52.632704],[-1.129714,52.632835],[-1.129818,52.632873],[-1.129657,52.633],[-1.129668,52.633005],[-1.129558,52.633092],[-1.129591,52.633112],[-1.130071,52.633325],[-1.130129,52.633321],[-1.13017,52.6333]]]]},"properties":{"ref":"DLC196_v1","listed_building":"1074048","entity":42162390,"name":"THE GRAND HOTEL","type":"hospitality","use":"hotel; ground floor has modern shop fronts","source_url":"https://www.planning.data.gov.uk/entity/42162390","final_url":"https://www.planning.data.gov.uk/entity/42162390","accessed_utc":"2026-10-01T13:11:00+03:00","data_date":"1975-03-14","license":"Open Government Licence v3.0","evidence_url":"https://historicengland.org.uk/listing/the-list/list-entry/1074048","evidence":"Historic England identifies the listed building as The Grand Hotel on Granby Street; the official description says it is a large four-storey corner building, and the ground floor is taken up by modern shop fronts.","confidence_score_0_100":95,"evidence_grade":"A","fake_data":false}},{"type":"Feature","id":"DLC94_v1","geometry":{"type":"MultiPolygon","coordinates":[[[[-1.135423,52.634348],[-1.135449,52.634342],[-1.135481,52.634332],[-1.135506,52.63432],[-1.135513,52.634314],[-1.135514,52.634311],[-1.135518,52.63431],[-1.135462,52.634208],[-1.135389,52.63407],[-1.135169,52.634112],[-1.135134,52.634077],[-1.135111,52.634085],[-1.134994,52.63413],[-1.13505,52.634188],[-1.134913,52.634242],[-1.135081,52.634399],[-1.135095,52.634402],[-1.135114,52.634405],[-1.135146,52.634404],[-1.135247,52.634387],[-1.135249,52.63439],[-1.135325,52.634374],[-1.135323,52.634371],[-1.135423,52.634348]]]]},"properties":{"ref":"DLC94_v1","listed_building":"1074810","entity":42162540,"name":"2 ST MARTINS","type":"bank","use":"former bank","source_url":"https://www.planning.data.gov.uk/entity/42162540","final_url":"https://www.planning.data.gov.uk/entity/42162540","accessed_utc":"2026-10-01T13:11:00+03:00","data_date":"1975-03-14","license":"Open Government Licence v3.0","evidence_url":"https://historicengland.org.uk/listing/the-list/list-entry/1074810","evidence":"Historic England's official list entry identifies 2 St Martins as a former bank, built 1900-1902 for Pares's Bank.","confidence_score_0_100":95,"evidence_grade":"A","fake_data":false}},{"type":"Feature","id":"DLC289_v1","geometry":{"type":"MultiPolygon","coordinates":[[[[-1.116744,52.630207],[-1.116979,52.630039],[-1.116981,52.630002],[-1.116964,52.629974],[-1.116761,52.629895],[-1.11656,52.629856],[-1.116173,52.629828],[-1.116158,52.629841],[-1.116076,52.629859],[-1.115998,52.629895],[-1.115996,52.629906],[-1.116014,52.629929],[-1.116008,52.629974],[-1.115964,52.630031],[-1.115947,52.630114],[-1.115983,52.630116],[-1.115976,52.630204],[-1.116291,52.630228],[-1.116302,52.630173],[-1.116744,52.630207]]]]},"properties":{"ref":"DLC289_v1","listed_building":"1361047","entity":42162683,"name":"CHURCH OF ST PETER","type":"religious","use":"church","source_url":"https://www.planning.data.gov.uk/entity/42162683","final_url":"https://www.planning.data.gov.uk/entity/42162683","accessed_utc":"2026-10-01T13:11:00+03:00","data_date":"1975-03-14","license":"Open Government Licence v3.0","evidence_url":"https://historicengland.org.uk/listing/the-list/list-entry/1361047","evidence":"Historic England's official list entry identifies Church of St Peter on St Peter's Road; the entry describes an 1872-79 Gothic-style church.","confidence_score_0_100":95,"evidence_grade":"A","fake_data":false}}]}