{"type":"FeatureCollection","name":"security_public_safety_1_batch_exact_identifiers","features":[{"type":"Feature","geometry":null,"properties":{"exact_identifier":"Barnehurst","coverage_area_name":"Barnehurst","exact_identifier_type":"met.police.uk.safer_neighbourhood_team.official_name"}},{"type":"Feature","geometry":null,"properties":{"exact_identifier":"Belvedere","coverage_area_name":"Belvedere","exact_identifier_type":"met.police.uk.safer_neighbourhood_team.official_name"}},{"type":"Feature","geometry":null,"properties":{"exact_identifier":"Bexleyheath","coverage_area_name":"Bexleyheath","exact_identifier_type":"met.police.uk.safer_neighbourhood_team.official_name"}},{"type":"Feature","geometry":null,"properties":{"exact_identifier":"Blackfen and Lamorbey","coverage_area_name":"Blackfen and Lamorbey","exact_identifier_type":"met.police.uk.safer_neighbourhood_team.official_name"}},{"type":"Feature","geometry":null,"properties":{"exact_identifier":"Blendon and Penhill","coverage_area_name":"Blendon and Penhill","exact_identifier_type":"met.police.uk.safer_neighbourhood_team.official_name"}},{"type":"Feature","geometry":null,"properties":{"exact_identifier":"Crayford","coverage_area_name":"Crayford","exact_identifier_type":"met.police.uk.safer_neighbourhood_team.official_name"}},{"type":"Feature","geometry":null,"properties":{"exact_identifier":"Crook Log","coverage_area_name":"Crook Log","exact_identifier_type":"met.police.uk.safer_neighbourhood_team.official_name"}},{"type":"Feature","geometry":null,"properties":{"exact_identifier":"East Wickham","coverage_area_name":"East Wickham","exact_identifier_type":"met.police.uk.safer_neighbourhood_team.official_name"}},{"type":"Feature","geometry":null,"properties":{"exact_identifier":"Erith","coverage_area_name":"Erith","exact_identifier_type":"met.police.uk.safer_neighbourhood_team.official_name"}},{"type":"Feature","geometry":null,"properties":{"exact_identifier":"Falconwood and Welling","coverage_area_name":"Falconwood and Welling","exact_identifier_type":"met.police.uk.safer_neighbourhood_team.official_name"}},{"type":"Feature","geometry":null,"properties":{"exact_identifier":"Longlands","coverage_area_name":"Longlands","exact_identifier_type":"met.police.uk.safer_neighbourhood_team.official_name"}},{"type":"Feature","geometry":null,"properties":{"exact_identifier":"Northumberland Heath","coverage_area_name":"Northumberland Heath","exact_identifier_type":"met.police.uk.safer_neighbourhood_team.official_name"}},{"type":"Feature","geometry":null,"properties":{"exact_identifier":"Sidcup","coverage_area_name":"Sidcup","exact_identifier_type":"met.police.uk.safer_neighbourhood_team.official_name"}},{"type":"Feature","geometry":null,"properties":{"exact_identifier":"Slade Green and Northend","coverage_area_name":"Slade Green and Northend","exact_identifier_type":"met.police.uk.safer_neighbourhood_team.official_name"}},{"type":"Feature","geometry":null,"properties":{"exact_identifier":"St Mary's and St James","coverage_area_name":"St Mary's and St James","exact_identifier_type":"met.police.uk.safer_neighbourhood_team.official_name"}},{"type":"Feature","geometry":null,"properties":{"exact_identifier":"Thamesmead East","coverage_area_name":"Thamesmead East","exact_identifier_type":"met.police.uk.safer_neighbourhood_team.official_name"}},{"type":"Feature","geometry":null,"properties":{"exact_identifier":"West Heath","coverage_area_name":"West Heath","exact_identifier_type":"met.police.uk.safer_neighbourhood_team.official_name"}}],"metadata":{"source_area_count":303,"source_area_delta_this_turn":17,"latest_evidence_window":"MET_POLICE_BEXLEY_SNT_CURRENT_20261006T054300Z","exact_blocker":"LOCAL_OPENCODE_EXACT_IDENTIFIER_TO_CANONICAL_SPATIAL_BINDING_REQUIRED","first_missing_criterion":"LOCAL_OPENCODE_EXACT_IDENTIFIER_TO_CANONICAL_SPATIAL_BINDING","prior_cumulative_records_sha":"1c8e233a0242b34258c088ca9e30a3d2e6f7ca9e","record_scope":"CURRENT_BATCH_DELTA"}}
