{"type":"FeatureCollection","features":[{"type":"Feature","geometry":{"type":"Point","coordinates":[-0.199465,51.546787]},"properties":{"slot_id":"planned_buildings_1","lineage_id":"planned_buildings_1-0ffc4ebd6c6e4e41","semantic_mode":"DISTINCT_BUILDINGS","planned_building_id":"planning-application:2025/0642/P::OUTBUILDING_2024_4706_P","building_status":"PLANNED","building_name":"Rear garden outbuilding, Flat 1 53 Iverson Road","planning_reference":"2025/0642/P","entity_id":10000041425,"authority":"London Borough of Camden","source_url":"https://www.planning.data.gov.uk/entity/10000041425","final_url":"https://www.planning.data.gov.uk/entity/10000041425","access_utc":"2026-10-01T23:02:00Z","source_data_date":"2025-09-09","license":"Open Government Licence v3.0","geometry_role":"official planning-application point; not a footprint","field_evidence":"Official Registered condition-details application explicitly cites planning permission 2024/4706/P dated 24/01/2025 for erection of one outbuilding within the rear garden; the condition application is used as current evidence of the distinct planned building.","confidence_score_0_100":96,"evidence_grade":"A","fake_data":false}}]}
