{"type":"FeatureCollection","name":"height_difference_5","crs":{"type":"name","properties":{"name":"EPSG:27700"}},"metadata":{"slot_id":"height_difference_5","owner":"height_difference_5","lineage_id":"height_difference_5-eb56f92ed3f0514c","page_generation":1,"schema":"AAYS_LAYER24_EVIDENCE_V1","partition":"layer24","semantic_mode_state":"ABSENT_IN_PRIOR_PHYSICAL_STATE_PRESERVED_BY_OMISSION","batch_id":"20261001T211800Z_sg_lidar_phase5_dtm_resource","record_policy":"Dataset-level official DTM resource evidence only; no exact tile or parcel materialization synthesized.","fake_data":false},"features":[{"type":"Feature","geometry":null,"properties":{"slot_id":"height_difference_5","owner":"height_difference_5","lineage_id":"height_difference_5-eb56f92ed3f0514c","page_generation":1,"schema":"AAYS_LAYER24_EVIDENCE_V1","partition":"layer24","batch_id":"20261001T211800Z_sg_lidar_phase5_dtm_resource","source_record_id":"SG_LIDAR_PHASE5_DTM:DATA_RESOURCE","source_url":"https://www.data.gov.uk/dataset/78daa005-99d9-4f9f-ac0a-29dd52c59d66/lidar-for-scotland-phase-5-dtm","final_url":"https://remotesensingdata.gov.scot/data/lidar/phase-5/dtm","access_utc":"2026-10-01T21:18:00Z","publisher":"Scottish Government SpatialData.gov.scot","dataset":"LiDAR for Scotland Phase 5 - DTM","dataset_role":"official LiDAR DTM resource evidence","layer_identifier":"scotland:scotland-lidar-5-dtm","crs":"EPSG:27700","format":"GeoTIFF","capture_period":"2020-2021","dataset_creation_date":"2021-09-17","licence":null,"native_resolution_m":null,"per_tile_acquisition_date":null,"canonical_parcel_id":null,"required_building_state":"BUILDING_PRESENT","binding_status":"LOCAL_OPENCODE_BUILDING_PRESENT_EXACT_TILE_BIND_REQUIRED","source_area_count_contribution":0,"accepted_count_contribution":0,"evidence_slice_sha256":"1500ab51b80a09da5ef137b4713501a603fa53c6fd9e319fa56eb71fc0997c01","confidence_score_0_100":98,"evidence_grade":"A_OFFICIAL_DTM_RESOURCE_B_EXACT_TILE_NATIVE_METADATA_REQUIRED","fake_data":false}}]}
