{"type":"FeatureCollection","name":"security_public_safety_6","features":[],"metadata":{"slot_id":"security_public_safety_6","lineage_id":"SECPS6_20260930T003421Z_01","page_generation":1,"batch_id":"BATCH_20261006T114100Z_ONS_CSP19_FEATURESERVER_QUERY_BLOCKER","source_window_id":"ons_csp_dec2019_featureserver_first50","source_url":"https://services1.arcgis.com/ESMARspQHYMw9BZ9/arcgis/rest/services/Community_Safety_Partnerships_Dec_2019_Names_and_Codes_in_England_and__2022/FeatureServer/0/query?where=1%3D1&outFields=CSP19CD%2CCSP19NM%2CCSP19NMW%2CFID&orderByFields=FID&resultRecordCount=50&f=geojson","final_url":"https://services1.arcgis.com/ESMARspQHYMw9BZ9/arcgis/rest/services/Community_Safety_Partnerships_Dec_2019_Names_and_Codes_in_England_and__2022/FeatureServer/0/query?where=1%3D1&outFields=CSP19CD%2CCSP19NM%2CCSP19NMW%2CFID&orderByFields=FID&resultRecordCount=50&f=geojson","dataset_url":"https://www.data.gov.uk/dataset/274fd625-e638-4fd9-83dc-bff97a87f237/community-safety-partnerships-december-2019-names-and-codes-in-ew","service_url":"https://services1.arcgis.com/ESMARspQHYMw9BZ9/arcgis/rest/services/Community_Safety_Partnerships_Dec_2019_Names_and_Codes_in_England_and__2022/FeatureServer","accessed_utc":"2026-10-06T11:41:00Z","data_date":"2019-12-31","license":"Office for National Statistics / National Data Library public dataset; site content OGL v3.0 except where otherwise stated.","new_source_records":0,"source_area_count_delta":0,"cumulative_source_area_count":58,"accepted_count":0,"duplicate_count":0,"rejected_count":0,"unmatched_count":0,"materialized_parcel_count":0,"direct_parcel_count":0,"planned_building_count":0,"cursor":null,"window_complete":false,"dataset_complete":false,"exact_blocker":"ONS_CSP_DEC2019_FEATURESERVER_QUERY_UNAVAILABLE_CURRENT_TOOLCHAIN","local_spatial_join_required":true,"fake_data":false}}
