{"type":"FeatureCollection","features":[{"type":"Feature","geometry":null,"properties":{"slot_id":"future_growth_1","lineage_id":"future_growth_1-newstart-20260927T153100+0300","page_generation":null,"accepted_as_parcel":false,"source_area_count_contribution":1,"exact_identifier":"SAP9","exact_identifier_provided":true,"coverage_polygon_provided":false,"identifier_namespace":"Dover District Local Plan site allocation policy","site_name":"Land at Barwick Road Industrial Estate, Dover","access_utc":"2026-10-03T14:12:00Z","data_date":"2026-04-09","source_url":"https://www.dover.gov.uk/planning/planning-maps","final_url":"https://storymaps.arcgis.com/stories/d3834764cea0479188fcfd66d7af0e4b","license":"Dover District Council public planning information; record-specific reuse licence not stated on the Planning maps/StoryMap source pages","authority":"Dover District Council","allocation_capacity_dwellings":150,"planning_application_reference":"22/01305","permissioned_dwellings":120,"planning_permission_type":"full planning permission","planning_permission_granted":"January 2025","development_status":"not started","evidence_grade":"A","confidence_score_0_100":99,"evidence_scope":"official Dover District Council live Site Allocations StoryMap SAP9 progress record linked from council Planning maps page","evidence_slice_sha256":"2c7bb63ddf3fa7293050aae35483237368e236617cfd6e3cf45fef0aa97afa66","source_window_payload_sha256":"4345199eb48f917f3f89b855e72544f8ade2056d091834082217bb32b5b1e491","fake_data":false,"spatial_binding_method":"official Local Plan allocation identifier SAP9 plus council planning map/StoryMap source; exact boundary resolution, canonical parcel spatial join and materialization delegated to local OpenCode","planned_building_count_contribution":0}}]}