{"type":"FeatureCollection","features":[{"type":"Feature","id":"planned_buildings_1-planning-data-brownfield-1705664","geometry":{"type":"Point","coordinates":[-0.130305,51.478601]},"properties":{"topic_id":"planned-buildings","slot_id":"planned_buildings_1","source_dataset_id":"planning_data_brownfield_land","source_entity":1705664,"official_site_key":"BLR029","canonical_record_key":"planning-data:brownfield-land:1705664","planned_project_name":"Hemans Estate","planned_project_type":"brownfield_residential_or_mixed_use_site","planned_project_status":"not-permissioned","planned_project_owner_type":"owned-by-a-public-authority","planned_building_capacity_net_dwellings":21,"parcel_id":null,"program_parcel_id":null,"planned_building_value":null,"planned_building_probability":null,"planned_building_complete_month":null,"planned_building_expected_window":null,"planned_scoring_status":"METHODOLOGY_APPROVAL_REQUIRED","planned_complete_month_reason":"No explicit official completion YYYY-MM field.","planned_site_geometry":"official_source_point","matching_method":"direct_official_site_record_no_parcel_match","source_url":"https://www.planning.data.gov.uk/entity.json?dataset=brownfield-land&geometry_entity=626195&geometry_relation=within&limit=1&offset=27","source_entity_url":"https://www.planning.data.gov.uk/entity/1705664","source_quality":"authoritative","source_license":"Open Government Licence v3.0","evidence_level":3,"demo_only":true,"fake_data":false,"final_ready":false,"production_merge":false}}],"metadata":{"slot_id":"planned_buildings_1","batch_index":4,"source_window":{"geometry_entity":626195,"geometry_relation":"within","limit":1,"offset":27},"feature_count_before":77,"feature_count_after":78,"unique_real_site_project_before":28,"unique_real_site_project_after":29,"duplicate_count_new":0,"nearest_match_used":false,"fake_data":false,"mirror_only":true}}