{"type":"FeatureCollection","features":[{"type":"Feature","id":"planned_buildings_1-planning-data-brownfield-1705666","geometry":{"type":"Point","coordinates":[-0.114947,51.486431]},"properties":{"topic_id":"planned-buildings","slot_id":"planned_buildings_1","source_dataset_id":"planning_data_brownfield_land","source_entity":1705666,"official_site_key":"BLR031","canonical_record_key":"planning-data:brownfield-land:1705666","planned_project_name":"Tesco, 263-275 Kennington Lane","planned_project_type":"brownfield_residential_or_mixed_use_site","planned_project_status":"permissioned","planned_project_owner_type":"not-owned-by-a-public-authority","planned_building_capacity_net_dwellings":248,"parcel_id":null,"program_parcel_id":null,"planned_building_value":null,"planned_building_probability":null,"planned_building_complete_month":null,"planned_building_expected_window":null,"planned_scoring_status":"METHODOLOGY_APPROVAL_REQUIRED","planned_complete_month_reason":"Planning permission date is not an official completion YYYY-MM field.","planned_site_geometry":"official_source_point","matching_method":"direct_official_site_record_no_parcel_match","source_url":"https://www.planning.data.gov.uk/entity.json?dataset=brownfield-land&geometry_entity=626195&geometry_relation=within&limit=1&offset=29","source_entity_url":"https://www.planning.data.gov.uk/entity/1705666","source_quality":"authoritative","source_license":"Open Government Licence v3.0","source_record_scope":{"reference":"BLR031","planning_permission_date":"2018-12-21","planning_permission_type":"full-planning-permission","maximum_net_dwellings":248},"evidence_level":3,"demo_only":true,"fake_data":false,"final_ready":false,"production_merge":false}}],"metadata":{"slot_id":"planned_buildings_1","batch_index":6,"source_window":{"geometry_entity":626195,"geometry_relation":"within","limit":1,"offset":29},"feature_count_before":79,"feature_count_after":80,"unique_real_site_project_before":30,"unique_real_site_project_after":31,"duplicate_count_new":0,"nearest_match_used":false,"fake_data":false,"mirror_only":true}}