{"type":"FeatureCollection","features":[{"type":"Feature","id":"planned_buildings_1-planning-data-brownfield-1705661","geometry":{"type":"Point","coordinates":[-0.111573,51.446745]},"properties":{"slot_id":"planned_buildings_1","source_entity":1705661,"official_site_key":"BLR026","canonical_record_key":"planning-data:brownfield-land:1705661","planned_project_name":"Cressingham Gardens","source_quality":"authoritative","fake_data":false}},{"type":"Feature","id":"planned_buildings_1-planning-data-brownfield-1705662","geometry":{"type":"Point","coordinates":[-0.127103,51.464639]},"properties":{"slot_id":"planned_buildings_1","source_entity":1705662,"official_site_key":"BLR027","canonical_record_key":"planning-data:brownfield-land:1705662","planned_project_name":"Fenwick Estate","source_quality":"authoritative","fake_data":false}},{"type":"Feature","id":"planned_buildings_1-planning-data-brownfield-1705663","geometry":{"type":"Point","coordinates":[-0.139441,51.46984]},"properties":{"slot_id":"planned_buildings_1","source_entity":1705663,"official_site_key":"BLR028","canonical_record_key":"planning-data:brownfield-land:1705663","planned_project_name":"Westbury Estate","source_quality":"authoritative","fake_data":false}},{"type":"Feature","id":"planned_buildings_1-planning-data-brownfield-1705664","geometry":{"type":"Point","coordinates":[-0.130305,51.478601]},"properties":{"slot_id":"planned_buildings_1","source_entity":1705664,"official_site_key":"BLR029","canonical_record_key":"planning-data:brownfield-land:1705664","planned_project_name":"Hemans Estate","source_quality":"authoritative","fake_data":false}},{"type":"Feature","id":"planned_buildings_1-planning-data-brownfield-1705665","geometry":{"type":"Point","coordinates":[-0.116633,51.477464]},"properties":{"slot_id":"planned_buildings_1","source_entity":1705665,"official_site_key":"BLR030","canonical_record_key":"planning-data:brownfield-land:1705665","planned_project_name":"South Lambeth Estate","source_quality":"authoritative","fake_data":false}},{"type":"Feature","id":"planned_buildings_1-planning-data-brownfield-1705666","geometry":{"type":"Point","coordinates":[-0.114947,51.486431]},"properties":{"slot_id":"planned_buildings_1","source_entity":1705666,"official_site_key":"BLR031","canonical_record_key":"planning-data:brownfield-land:1705666","planned_project_name":"Tesco, 263-275 Kennington Lane","source_quality":"authoritative","fake_data":false}},{"type":"Feature","id":"planned_buildings_1-planning-data-brownfield-1705667","geometry":{"type":"Point","coordinates":[-0.104788,51.491096]},"properties":{"slot_id":"planned_buildings_1","source_entity":1705667,"official_site_key":"BLR032","canonical_record_key":"planning-data:brownfield-land:1705667","planned_project_name":"Knight's Walk Estate","source_quality":"authoritative","fake_data":false}},{"type":"Feature","id":"planned_buildings_1-planning-data-brownfield-1705668","geometry":{"type":"Point","coordinates":[-0.110483,51.463086]},"properties":{"slot_id":"planned_buildings_1","source_entity":1705668,"official_site_key":"BLR033","canonical_record_key":"planning-data:brownfield-land:1705668","planned_project_name":"Pope's Road Car Park","source_quality":"authoritative","fake_data":false}},{"type":"Feature","id":"planned_buildings_1-planning-data-brownfield-1705669","geometry":{"type":"Point","coordinates":[-0.11222,51.456874]},"properties":{"slot_id":"planned_buildings_1","source_entity":1705669,"official_site_key":"BLR034","canonical_record_key":"planning-data:brownfield-land:1705669","planned_project_name":"Fitch Court","source_quality":"authoritative","fake_data":false}},{"type":"Feature","id":"planned_buildings_1-planning-data-brownfield-1717257","geometry":{"type":"Point","coordinates":[-0.113115,51.485005]},"properties":{"slot_id":"planned_buildings_1","source_entity":1717257,"official_site_key":"BLR035","canonical_record_key":"planning-data:brownfield-land:1717257","planned_project_name":"Gasholder Station, Kennington Oval","source_quality":"authoritative","fake_data":false}},{"type":"Feature","id":"planned_buildings_1-planning-data-brownfield-1717258","geometry":{"type":"Point","coordinates":[-0.11861,51.433432]},"properties":{"slot_id":"planned_buildings_1","source_entity":1717258,"official_site_key":"BLR036","canonical_record_key":"planning-data:brownfield-land:1717258","planned_project_name":"133-139 Leigham Court Road","source_quality":"authoritative","fake_data":false}},{"type":"Feature","id":"planned_buildings_1-planning-data-brownfield-1717259","geometry":{"type":"Point","coordinates":[-0.119436,51.459082]},"properties":{"slot_id":"planned_buildings_1","source_entity":1717259,"official_site_key":"BLR037","canonical_record_key":"planning-data:brownfield-land:1717259","planned_project_name":"41-45 Acre Lane","source_quality":"authoritative","fake_data":false}}],"metadata":{"slot_id":"planned_buildings_1","run_id":"20260818T020900Z","source_family":"planning_data_brownfield_land","processed_offsets":[24,25,26,27,28,29,30,31,32,33,34,35],"next_unused_window":{"geometry_entity":626195,"geometry_relation":"within","limit":1,"offset":36},"bounded_batch_count":12,"zero_result_windows":0,"feature_count_before":74,"feature_count_added":12,"feature_count_after_logical":86,"unique_real_site_project_before":25,"unique_real_site_project_added":12,"unique_real_site_project_after":37,"duplicate_count_new":0,"reprocessed_window_count":0,"nearest_match_used":false,"parcel_match_used":false,"fake_data":false,"demo_only":true,"final_ready":false,"production_merge":false,"mirror_only":true,"canonical_latest_overwritten":false}}