{"type":"FeatureCollection","features":[],"metadata":{"slot_id":"planned_buildings_2","batch_index":128,"source_index":7,"source_window":{"resource_index":11,"limit":1},"source_family":"planning_data_brownfield_land","source_result":"ZERO_RESULT_IMMUTABLE_EVIDENCE_QUEUE_EXHAUSTED","feature_count_before":481,"feature_count_after":481,"unique_real_site_project_before":322,"unique_real_site_project_after":322,"new_feature_count":0,"duplicate_count_new":0,"zero_result":true,"source_queue_exhausted":true,"nearest_match_used":false,"parcel_match_used":false,"geometry_inference_used":false,"fake_data":false,"mirror_only":true,"next_source_index":8,"next_source_window_index":0,"next_batch_index":129}}