{"type":"FeatureCollection","features":[{"type":"Feature","id":"planned_buildings_2-planning-data-brownfield-1740799","geometry":null,"properties":{"entity":1740799,"reference":"BR115.2","canonical_record_key":"planning-data:brownfield-land:1740799","planned_project_name":"Sovereign Court, Sovereign Court, Central Milton Keynes","planned_project_status":"permissioned","borough":"Milton Keynes City Council","same_real_site_entity_suppressed":1740798,"planned_building_value":null,"planned_building_probability":null,"planned_building_complete_month":null,"source_url":"https://www.planning.data.gov.uk/entity/1740799","source_quality":"authoritative","fake_data":false}}],"metadata":{"slot_id":"planned_buildings_2","batch_index":139,"source_index":8,"source_window":{"resource_index":10,"limit":1},"feature_count_before":491,"feature_count_after":492,"unique_real_site_project_before":332,"unique_real_site_project_after":333,"duplicate_count_new":0,"nearest_match_used":false,"parcel_match_used":false,"mirror_only":true}}