{"type":"FeatureCollection","features":[{"type":"Feature","id":"planned_buildings_2-planning-data-brownfield-1737508","geometry":null,"properties":{"entity":1737508,"reference":"20/P1091","canonical_record_key":"planning-data:brownfield-land:1737508","planned_project_name":"Land at rear of 2 to 16 Woodville Road, Morden SM4 5AF","planned_project_status":"permissioned","borough":"London Borough of Merton","official_minimum_net_dwellings":9,"official_maximum_net_dwellings":9,"official_hectares":0.08,"official_deliverable":true,"planned_building_value":null,"planned_building_probability":null,"planned_building_complete_month":null,"source_url":"https://www.planning.data.gov.uk/entity/1737508","source_quality":"authoritative","fake_data":false}}],"metadata":{"slot_id":"planned_buildings_2","batch_index":135,"source_index":8,"source_window":{"resource_index":6,"limit":1},"feature_count_before":487,"feature_count_after":488,"unique_real_site_project_before":328,"unique_real_site_project_after":329,"duplicate_count_new":0,"nearest_match_used":false,"parcel_match_used":false,"mirror_only":true}}