{"type":"FeatureCollection","features":[{"type":"Feature","id":"planned_buildings_2-planning-data-brownfield-1731070","geometry":null,"properties":{"entity":1731070,"reference":"19/P2387","canonical_record_key":"planning-data:brownfield-land:1731070","planned_project_name":"Tesco Site 265 Burlington Road, New Malden KT3 4NE","planned_project_status":"permissioned","borough":"London Borough of Merton","official_minimum_net_dwellings":456,"official_maximum_net_dwellings":456,"official_hectares":1.19,"official_deliverable":true,"planned_building_value":null,"planned_building_probability":null,"planned_building_complete_month":null,"source_url":"https://www.planning.data.gov.uk/entity/1731070","source_quality":"authoritative","fake_data":false}}],"metadata":{"slot_id":"planned_buildings_2","batch_index":134,"source_index":8,"source_window":{"resource_index":5,"limit":1},"feature_count_before":486,"feature_count_after":487,"unique_real_site_project_before":327,"unique_real_site_project_after":328,"duplicate_count_new":0,"nearest_match_used":false,"parcel_match_used":false,"mirror_only":true}}