{"type":"FeatureCollection","features":[{"type":"Feature","id":"planned_buildings_2-planning-data-brownfield-1737538","geometry":null,"properties":{"entity":1737538,"reference":"22/P2351","canonical_record_key":"planning-data:brownfield-land:1737538","planned_project_name":"Land at the Former Lessa Sports Ground Meadowview Road, Raynes Park SW20 9EB","planned_project_status":"permissioned","borough":"London Borough of Merton","official_minimum_net_dwellings":107,"official_maximum_net_dwellings":107,"official_hectares":2.82,"official_deliverable":true,"planned_building_value":null,"planned_building_probability":null,"planned_building_complete_month":null,"source_url":"https://www.planning.data.gov.uk/entity/1737538","source_quality":"authoritative","fake_data":false}}],"metadata":{"slot_id":"planned_buildings_2","batch_index":133,"source_index":8,"source_window":{"resource_index":4,"limit":1},"feature_count_before":485,"feature_count_after":486,"unique_real_site_project_before":326,"unique_real_site_project_after":327,"duplicate_count_new":0,"nearest_match_used":false,"parcel_match_used":false,"mirror_only":true}}