{"type":"FeatureCollection","features":[{"type":"Feature","id":"planned_buildings_2-planning-data-brownfield-1737558","geometry":null,"properties":{"entity":1737558,"reference":"23/P2688","canonical_record_key":"planning-data:brownfield-land:1737558","planned_project_name":"Justin Plaza 341 London Road, Mitcham CR4 4BE","planned_project_status":"permissioned","borough":"London Borough of Merton","official_minimum_net_dwellings":7,"official_maximum_net_dwellings":7,"official_hectares":0.01,"official_deliverable":true,"planned_building_value":null,"planned_building_probability":null,"planned_building_complete_month":null,"source_url":"https://www.planning.data.gov.uk/entity/1737558","source_quality":"authoritative","fake_data":false}}],"metadata":{"slot_id":"planned_buildings_2","batch_index":132,"source_index":8,"source_window":{"resource_index":3,"limit":1},"feature_count_before":484,"feature_count_after":485,"unique_real_site_project_before":325,"unique_real_site_project_after":326,"duplicate_count_new":0,"nearest_match_used":false,"parcel_match_used":false,"mirror_only":true}}