{"type":"FeatureCollection","features":[{"type":"Feature","id":"planned_buildings_2-planning-data-brownfield-1737549","geometry":null,"properties":{"entity":1737549,"reference":"23/P0072","canonical_record_key":"planning-data:brownfield-land:1737549","planned_project_name":"39 Mitcham Park, Mitcham CR4 4EP","planned_project_status":"permissioned","borough":"London Borough of Merton","official_hectares":0.05,"official_deliverable":true,"planned_building_value":null,"planned_building_probability":null,"planned_building_complete_month":null,"source_url":"https://www.planning.data.gov.uk/entity/1737549","source_quality":"authoritative","fake_data":false}}],"metadata":{"slot_id":"planned_buildings_2","batch_index":131,"source_index":8,"source_window":{"resource_index":2,"limit":1},"feature_count_before":483,"feature_count_after":484,"unique_real_site_project_before":324,"unique_real_site_project_after":325,"duplicate_count_new":0,"nearest_match_used":false,"parcel_match_used":false,"mirror_only":true}}