{"type":"FeatureCollection","features":[{"type":"Feature","id":"planned_buildings_2-planning-data-brownfield-1731098","geometry":null,"properties":{"entity":1731098,"reference":"21/P0175","canonical_record_key":"planning-data:brownfield-land:1731098","planned_project_name":"Deseret House 288 a London Road, Mitcham CR4 3NB","planned_project_status":"permissioned","borough":"London Borough of Merton","official_minimum_net_dwellings":6,"official_maximum_net_dwellings":6,"official_hectares":0.08,"official_deliverable":true,"planned_building_value":null,"planned_building_probability":null,"planned_building_complete_month":null,"source_url":"https://www.planning.data.gov.uk/entity/1731098","source_quality":"authoritative","fake_data":false}}],"metadata":{"slot_id":"planned_buildings_2","batch_index":136,"source_index":8,"source_window":{"resource_index":7,"limit":1},"feature_count_before":488,"feature_count_after":489,"unique_real_site_project_before":329,"unique_real_site_project_after":330,"duplicate_count_new":0,"nearest_match_used":false,"parcel_match_used":false,"mirror_only":true}}