{"type":"FeatureCollection","features":[{"type":"Feature","id":"planned_buildings_2-planning-data-brownfield-1737551","geometry":null,"properties":{"entity":1737551,"reference":"23/P0455","canonical_record_key":"planning-data:brownfield-land:1737551","planned_project_name":"565 Kingston Road, Raynes Park SW20 8SA","planned_project_status":"permissioned","borough":"London Borough of Merton","official_minimum_net_dwellings":9,"official_maximum_net_dwellings":9,"official_hectares":0.13,"official_deliverable":true,"planned_building_value":null,"planned_building_probability":null,"planned_building_complete_month":null,"source_url":"https://www.planning.data.gov.uk/entity/1737551","source_quality":"authoritative","fake_data":false}}],"metadata":{"slot_id":"planned_buildings_2","batch_index":130,"source_index":8,"source_window":{"resource_index":1,"limit":1},"feature_count_before":482,"feature_count_after":483,"unique_real_site_project_before":323,"unique_real_site_project_after":324,"duplicate_count_new":0,"nearest_match_used":false,"parcel_match_used":false,"mirror_only":true}}