{"type":"FeatureCollection","features":[{"type":"Feature","id":"planned_buildings_2-planning-data-brownfield-1737555","geometry":null,"properties":{"entity":1737555,"reference":"23/P1812","canonical_record_key":"planning-data:brownfield-land:1737555","planned_project_name":"58-62 Haynt Walk, Raynes Park SW20 9NX","planned_project_status":"permissioned","borough":"London Borough of Merton","official_minimum_net_dwellings":4,"official_maximum_net_dwellings":4,"official_hectares":0.17,"official_deliverable":true,"planned_building_value":null,"planned_building_probability":null,"planned_building_complete_month":null,"source_url":"https://www.planning.data.gov.uk/entity/1737555","source_quality":"authoritative","fake_data":false}}],"metadata":{"slot_id":"planned_buildings_2","batch_index":129,"source_index":8,"source_window":{"resource_index":0,"limit":1},"feature_count_before":481,"feature_count_after":482,"unique_real_site_project_before":322,"unique_real_site_project_after":323,"duplicate_count_new":0,"nearest_match_used":false,"parcel_match_used":false,"mirror_only":true}}