{"type":"FeatureCollection","features":[{"type":"Feature","id":"planned_buildings_2-planning-data-brownfield-1737555","geometry":null,"properties":{"entity":1737555,"reference":"23/P1812","canonical_record_key":"planning-data:brownfield-land:1737555","planned_project_name":"58-62 Haynt Walk, Raynes Park SW20 9NX","fake_data":false}},{"type":"Feature","id":"planned_buildings_2-planning-data-brownfield-1737551","geometry":null,"properties":{"entity":1737551,"reference":"23/P0455","canonical_record_key":"planning-data:brownfield-land:1737551","planned_project_name":"565 Kingston Road, Raynes Park SW20 8SA","fake_data":false}},{"type":"Feature","id":"planned_buildings_2-planning-data-brownfield-1737549","geometry":null,"properties":{"entity":1737549,"reference":"23/P0072","canonical_record_key":"planning-data:brownfield-land:1737549","planned_project_name":"39 Mitcham Park, Mitcham CR4 4EP","fake_data":false}},{"type":"Feature","id":"planned_buildings_2-planning-data-brownfield-1737558","geometry":null,"properties":{"entity":1737558,"reference":"23/P2688","canonical_record_key":"planning-data:brownfield-land:1737558","planned_project_name":"Justin Plaza 341 London Road, Mitcham CR4 4BE","fake_data":false}},{"type":"Feature","id":"planned_buildings_2-planning-data-brownfield-1737538","geometry":null,"properties":{"entity":1737538,"reference":"22/P2351","canonical_record_key":"planning-data:brownfield-land:1737538","planned_project_name":"Land at the Former Lessa Sports Ground Meadowview Road, Raynes Park SW20 9EB","fake_data":false}},{"type":"Feature","id":"planned_buildings_2-planning-data-brownfield-1731070","geometry":null,"properties":{"entity":1731070,"reference":"19/P2387","canonical_record_key":"planning-data:brownfield-land:1731070","planned_project_name":"Tesco Site 265 Burlington Road, New Malden KT3 4NE","fake_data":false}},{"type":"Feature","id":"planned_buildings_2-planning-data-brownfield-1737508","geometry":null,"properties":{"entity":1737508,"reference":"20/P1091","canonical_record_key":"planning-data:brownfield-land:1737508","planned_project_name":"Land at rear of 2 to 16 Woodville Road, Morden SM4 5AF","fake_data":false}},{"type":"Feature","id":"planned_buildings_2-planning-data-brownfield-1731098","geometry":null,"properties":{"entity":1731098,"reference":"21/P0175","canonical_record_key":"planning-data:brownfield-land:1731098","planned_project_name":"Deseret House 288 a London Road, Mitcham CR4 3NB","fake_data":false}},{"type":"Feature","id":"planned_buildings_2-planning-data-brownfield-1731126","geometry":null,"properties":{"entity":1731126,"reference":"Wi6","canonical_record_key":"planning-data:brownfield-land:1731126","planned_project_name":"Highlands House, 165-171 The Broadway, Wimbledon, SW19 1NE","fake_data":false}},{"type":"Feature","id":"planned_buildings_2-planning-data-brownfield-1737520","geometry":null,"properties":{"entity":1737520,"reference":"21/P1181","canonical_record_key":"planning-data:brownfield-land:1737520","planned_project_name":"Former Barclays Bank 16-20 Morden Road, South Wimbledon SW19 3BN","same_real_site_entity_suppressed":1737522,"fake_data":false}},{"type":"Feature","id":"planned_buildings_2-planning-data-brownfield-1740799","geometry":null,"properties":{"entity":1740799,"reference":"BR115.2","canonical_record_key":"planning-data:brownfield-land:1740799","planned_project_name":"Sovereign Court, Sovereign Court, Central Milton Keynes","same_real_site_entity_suppressed":1740798,"fake_data":false}}],"metadata":{"schema_version":1,"slot_id":"planned_buildings_2","continuation_key":"planned_buildings_2_open_source_v2_20260813","run_id":"20260818T061600Z","batch_indices":[128,129,130,131,132,133,134,135,136,137,138,139],"source_7_processed_window_indices":[11],"source_7_zero_result_windows":[11],"source_7_queue_exhausted":true,"source_8_processed_window_indices":[0,1,2,3,4,5,6,7,8,9,10],"source_8_added_window_indices":[0,1,2,3,4,5,6,7,8,9,10],"logical_feature_count_before":481,"features_added":11,"logical_feature_count_after":492,"unique_real_site_project_before":322,"unique_real_site_project_added":11,"unique_real_site_project_after":333,"same_real_site_entities_suppressed":[1737522,1740798],"duplicate_count_new":0,"duplicate_features_written":0,"reprocessed_window_count":0,"nearest_match_used":false,"parcel_match_used":false,"geometry_inference_used":false,"planned_building_value_write_count":0,"planned_building_probability_write_count":0,"planned_building_complete_month_write_count":0,"next_source_index":8,"next_source_family":"planning_data_brownfield_land","next_source_window_index":11,"next_batch_index":140,"canonical_latest_overwritten":false,"mirror_only":true,"demo_only":true,"fake_data":false,"final_ready":false,"production_merge":false}}