{"type":"FeatureCollection","features":[],"metadata":{"slot_id":"planned_buildings_1","batch_index":2,"source_family":"planning_data_brownfield_land","source_window":{"geometry_entity":626195,"geometry_relation":"within","limit":1,"offset":109},"source_reference_hint":"BLR111","source_evidence_status":"GENERIC_BEXLEY_COLLISION_REJECTED_EXACT_LAMBETH_ENTITY_POINT_NOT_RESOLVED","feature_count_before":131,"feature_count_after":131,"unique_real_site_project_before":82,"unique_real_site_project_after":82,"new_feature_count":0,"duplicate_count_new":0,"nearest_match_used":false,"fake_data":false,"mirror_only":true}}