{"type":"FeatureCollection","features":[{"type":"Feature","id":"planned_buildings_1-planning-data-brownfield-1736018","geometry":{"type":"Point","coordinates":[-0.112576,51.465268]},"properties":{"slot_id":"planned_buildings_1","source_entity":1736018,"official_site_key":"BLR110","canonical_record_key":"planning-data:brownfield-land:1736018","planned_project_name":"3-5 Gresham Road","source_record_temporal_status":"historical_register_record","source_quality":"authoritative","fake_data":false}},{"type":"Feature","id":"planned_buildings_1-planning-data-brownfield-1736020","geometry":{"type":"Point","coordinates":[-0.132508,51.455245]},"properties":{"slot_id":"planned_buildings_1","source_entity":1736020,"official_site_key":"BLR112","canonical_record_key":"planning-data:brownfield-land:1736020","planned_project_name":"Site Of 12 Rodenhurst Road","source_record_temporal_status":"historical_register_record","source_quality":"authoritative","fake_data":false}},{"type":"Feature","id":"planned_buildings_1-planning-data-brownfield-1736025","geometry":{"type":"Point","coordinates":[-0.126211,51.437115]},"properties":{"slot_id":"planned_buildings_1","source_entity":1736025,"official_site_key":"BLR117","canonical_record_key":"planning-data:brownfield-land:1736025","planned_project_name":"Dorchester Parade, Leigham Court Road","source_record_temporal_status":"current_register_record","source_quality":"authoritative","fake_data":false}},{"type":"Feature","id":"planned_buildings_1-planning-data-brownfield-1736028","geometry":{"type":"Point","coordinates":[-0.136704,51.462821]},"properties":{"slot_id":"planned_buildings_1","source_entity":1736028,"official_site_key":"BLR120","canonical_record_key":"planning-data:brownfield-land:1736028","planned_project_name":"Land Adjacent To 156 Stonhouse Street","source_record_temporal_status":"historical_register_record","source_quality":"authoritative","fake_data":false}}],"metadata":{"slot_id":"planned_buildings_1","run_id":"20260818T054800Z","source_family":"planning_data_brownfield_land","processed_offsets":[108,109,110,111,112,113,114,115,116,117,118,119],"promoted_offsets":[108,110,115,118],"no_add_evidence_insufficient_offsets":[109,111,112,113,114,116,117,119],"reference_collision_rejected_offsets":[109],"next_unused_window":{"geometry_entity":626195,"geometry_relation":"within","limit":1,"offset":120},"bounded_batch_count":12,"zero_result_windows":0,"evidence_insufficient_windows":8,"feature_count_before":130,"feature_count_added":4,"feature_count_after_logical":134,"unique_real_site_project_before":81,"unique_real_site_project_added":4,"unique_real_site_project_after":85,"historical_register_records_promoted":3,"current_register_records_promoted":1,"duplicate_count_new":0,"reprocessed_window_count":0,"nearest_match_used":false,"parcel_match_used":false,"fake_data":false,"demo_only":true,"final_ready":false,"production_merge":false,"mirror_only":true,"canonical_latest_overwritten":false}}