{"type":"FeatureCollection","features":[{"type":"Feature","id":"planned_buildings_2-gla-oa-sutton-2025","geometry":null,"properties":{"slot_id":"planned_buildings_2","source_dataset_id":"london_datastore_opportunity_area_pen_portraits_2025","source_window_index":36,"official_site_key":"GLA-OA-2025-SUTTON","canonical_record_key":"london-datastore:opportunity-area-pen-portraits-2025:sutton","planned_project_name":"Sutton Opportunity Area","source_resource_name":"2025_Sutton_OA_Pen_Portrait.pdf","planned_building_value":null,"planned_building_probability":null,"planned_building_complete_month":null,"matching_method":"direct_official_site_record_no_parcel_match","source_license":"UK Open Government Licence (OGL v3)","fake_data":false}},{"type":"Feature","id":"planned_buildings_2-gla-oa-taw-2025","geometry":null,"properties":{"slot_id":"planned_buildings_2","source_dataset_id":"london_datastore_opportunity_area_pen_portraits_2025","source_window_index":37,"official_site_key":"GLA-OA-2025-TAW","canonical_record_key":"london-datastore:opportunity-area-pen-portraits-2025:taw","planned_project_name":"TAW Opportunity Area","source_resource_name":"2025_TAW_OA_Pen_Portrait.pdf","planned_building_value":null,"planned_building_probability":null,"planned_building_complete_month":null,"matching_method":"direct_official_site_record_no_parcel_match","source_license":"UK Open Government Licence (OGL v3)","fake_data":false}},{"type":"Feature","id":"planned_buildings_2-gla-oa-tottenham-court-road-2025","geometry":null,"properties":{"slot_id":"planned_buildings_2","source_dataset_id":"london_datastore_opportunity_area_pen_portraits_2025","source_window_index":38,"official_site_key":"GLA-OA-2025-TOTTENHAM-COURT-ROAD","canonical_record_key":"london-datastore:opportunity-area-pen-portraits-2025:tottenham-court-road","planned_project_name":"Tottenham Court Road Opportunity Area","source_resource_name":"2025_Tottenham_Court_Road_OA_Pen_Portrait.pdf","planned_building_value":null,"planned_building_probability":null,"planned_building_complete_month":null,"matching_method":"direct_official_site_record_no_parcel_match","source_license":"UK Open Government Licence (OGL v3)","fake_data":false}},{"type":"Feature","id":"planned_buildings_2-gla-oa-victoria-2025","geometry":null,"properties":{"slot_id":"planned_buildings_2","source_dataset_id":"london_datastore_opportunity_area_pen_portraits_2025","source_window_index":39,"official_site_key":"GLA-OA-2025-VICTORIA","canonical_record_key":"london-datastore:opportunity-area-pen-portraits-2025:victoria","planned_project_name":"Victoria Opportunity Area","source_resource_name":"2025_Victoria_OA_Pen_Portrait.pdf","planned_building_value":null,"planned_building_probability":null,"planned_building_complete_month":null,"matching_method":"direct_official_site_record_no_parcel_match","source_license":"UK Open Government Licence (OGL v3)","fake_data":false}},{"type":"Feature","id":"planned_buildings_2-gla-oa-vneb-2025","geometry":null,"properties":{"slot_id":"planned_buildings_2","source_dataset_id":"london_datastore_opportunity_area_pen_portraits_2025","source_window_index":40,"official_site_key":"GLA-OA-2025-VNEB","canonical_record_key":"london-datastore:opportunity-area-pen-portraits-2025:vneb","planned_project_name":"VNEB Opportunity Area","source_resource_name":"2025_VNEB_OA_Pen_Portrait.pdf","planned_building_value":null,"planned_building_probability":null,"planned_building_complete_month":null,"matching_method":"direct_official_site_record_no_parcel_match","source_license":"UK Open Government Licence (OGL v3)","fake_data":false}},{"type":"Feature","id":"planned_buildings_2-gla-oa-waterloo-2025","geometry":null,"properties":{"slot_id":"planned_buildings_2","source_dataset_id":"london_datastore_opportunity_area_pen_portraits_2025","source_window_index":41,"official_site_key":"GLA-OA-2025-WATERLOO","canonical_record_key":"london-datastore:opportunity-area-pen-portraits-2025:waterloo","planned_project_name":"Waterloo Opportunity Area","source_resource_name":"2025_Waterloo_OA_Pen_Portrait.pdf","planned_building_value":null,"planned_building_probability":null,"planned_building_complete_month":null,"matching_method":"direct_official_site_record_no_parcel_match","source_license":"UK Open Government Licence (OGL v3)","fake_data":false}},{"type":"Feature","id":"planned_buildings_2-gla-oa-wembley-2025","geometry":null,"properties":{"slot_id":"planned_buildings_2","source_dataset_id":"london_datastore_opportunity_area_pen_portraits_2025","source_window_index":42,"official_site_key":"GLA-OA-2025-WEMBLEY","canonical_record_key":"london-datastore:opportunity-area-pen-portraits-2025:wembley","planned_project_name":"Wembley Opportunity Area","source_resource_name":"2025_Wembley_OA_Pen_Portrait.pdf","planned_building_value":null,"planned_building_probability":null,"planned_building_complete_month":null,"matching_method":"direct_official_site_record_no_parcel_match","source_license":"UK Open Government Licence (OGL v3)","fake_data":false}},{"type":"Feature","id":"planned_buildings_2-gla-oa-white-city-2025","geometry":null,"properties":{"slot_id":"planned_buildings_2","source_dataset_id":"london_datastore_opportunity_area_pen_portraits_2025","source_window_index":43,"official_site_key":"GLA-OA-2025-WHITE-CITY","canonical_record_key":"london-datastore:opportunity-area-pen-portraits-2025:white-city","planned_project_name":"White City Opportunity Area","source_resource_name":"2025_White_City_OA_Pen_Portrait.pdf","planned_building_value":null,"planned_building_probability":null,"planned_building_complete_month":null,"matching_method":"direct_official_site_record_no_parcel_match","source_license":"UK Open Government Licence (OGL v3)","fake_data":false}},{"type":"Feature","id":"planned_buildings_2-gla-oa-wimbledon-cw-sw-2025","geometry":null,"properties":{"slot_id":"planned_buildings_2","source_dataset_id":"london_datastore_opportunity_area_pen_portraits_2025","source_window_index":44,"official_site_key":"GLA-OA-2025-WIMBLEDON-CW-SW","canonical_record_key":"london-datastore:opportunity-area-pen-portraits-2025:wimbledon-cw-sw","planned_project_name":"Wimbledon CW SW Opportunity Area","source_resource_name":"2025_Wimbledon_CW_SW_OA_Pen_Portrait.pdf","planned_building_value":null,"planned_building_probability":null,"planned_building_complete_month":null,"matching_method":"direct_official_site_record_no_parcel_match","source_license":"UK Open Government Licence (OGL v3)","fake_data":false}},{"type":"Feature","id":"planned_buildings_2-gla-oa-wood-green-2025","geometry":null,"properties":{"slot_id":"planned_buildings_2","source_dataset_id":"london_datastore_opportunity_area_pen_portraits_2025","source_window_index":45,"official_site_key":"GLA-OA-2025-WOOD-GREEN","canonical_record_key":"london-datastore:opportunity-area-pen-portraits-2025:wood-green","planned_project_name":"Wood Green Opportunity Area","source_resource_name":"2025_Wood Green_OA_Pen_Portrait.pdf","planned_building_value":null,"planned_building_probability":null,"planned_building_complete_month":null,"matching_method":"direct_official_site_record_no_parcel_match","source_license":"UK Open Government Licence (OGL v3)","fake_data":false}},{"type":"Feature","id":"planned_buildings_2-gla-oa-woolwich-2025","geometry":null,"properties":{"slot_id":"planned_buildings_2","source_dataset_id":"london_datastore_opportunity_area_pen_portraits_2025","source_window_index":46,"official_site_key":"GLA-OA-2025-WOOLWICH","canonical_record_key":"london-datastore:opportunity-area-pen-portraits-2025:woolwich","planned_project_name":"Woolwich Opportunity Area","source_resource_name":"2025_Woolwich_OA_Pen_Portrait.pdf","planned_building_value":null,"planned_building_probability":null,"planned_building_complete_month":null,"matching_method":"direct_official_site_record_no_parcel_match","source_license":"UK Open Government Licence (OGL v3)","fake_data":false}}],"metadata":{"schema_version":1,"slot_id":"planned_buildings_2","continuation_key":"planned_buildings_2_open_source_v2_20260813","run_id":"20260818T030500Z","source_index":1,"source_family":"gla_opportunity_area_pen_portraits","batch_indices":[44,45,46,47,48,49,50,51,52,53,54,55],"processed_source_window_indices":[36,37,38,39,40,41,42,43,44,45,46,47],"added_source_window_indices":[36,37,38,39,40,41,42,43,44,45,46],"zero_result_windows":[47],"logical_feature_count_before":408,"features_added":11,"logical_feature_count_after":419,"unique_real_site_project_before":249,"unique_real_site_project_added":11,"unique_real_site_project_after":260,"duplicate_count_new":0,"reprocessed_window_count":0,"source_exhausted":true,"nearest_match_used":false,"parcel_match_used":false,"geometry_inference_used":false,"planned_building_value_write_count":0,"planned_building_probability_write_count":0,"planned_building_complete_month_write_count":0,"next_source_index":2,"next_source_family":"gla_housing_zones","next_source_window_index":0,"next_batch_index":56,"canonical_latest_overwritten":false,"mirror_only":true,"demo_only":true,"fake_data":false,"final_ready":false,"production_merge":false}}