{
  "type": "FeatureCollection",
  "features": [
    {
      "type": "Feature",
      "id": "planning-data:brownfield-site:1800667",
      "properties": {
        "slot_id": "future_growth_4",
        "lineage_id": "fg4-e4c9076d6f554f00",
        "page_generation": 1,
        "owner": "future_growth_4",
        "partition": "future_growth",
        "semantic_mode": "SOURCE_AREA_EXACT_IDENTIFIER",
        "batch_id": "20261008T043838Z_b019_BROWNFIELD_1800667",
        "dataset": "brownfield-site",
        "entity": 1800667,
        "reference": "LC020",
        "semantic_identity": "planning-data:brownfield-site:1800667",
        "name": "232 Hither Green Lane",
        "organisation": "London Borough of Lewisham",
        "source_url": "https://www.planning.data.gov.uk/entity/1800667",
        "final_url": "https://www.planning.data.gov.uk/entity/1800667",
        "http_status": "NOT_EXPOSED_BY_WEB_RETRIEVAL",
        "access_utc": "2026-10-08T04:38:38.450Z",
        "data_date": "2020-12-22",
        "license": "Open Government Licence v3.0",
        "field_evidence": {
          "entry-date": "2020-12-22",
          "start-date": "",
          "end-date": "",
          "entity": 1800667,
          "name": "232 Hither Green Lane",
          "dataset": "brownfield-site",
          "typology": "geography",
          "reference": "LC020",
          "prefix": "brownfield-site",
          "organisation-entity": 198,
          "geometry": "MULTIPOLYGON (((-0.005722 51.450411, -0.005998 51.450324, -0.006015 51.450344, -0.006079 51.450323, -0.005983 51.450205, -0.005664 51.450301, -0.005652 51.450306, -0.005645 51.450311, -0.005643 51.450315, -0.005722 51.450411)))",
          "point": "POINT (-0.005857 51.450308)",
          "quality": "some",
          "brownfield-site": "LC020"
        },
        "evidence_slice_sha256": "124648162d19e65a0b62803fa31a42f51d3f5eee2dc5c43cc9e0895ef17aa521",
        "geometry_sha256": "fe12f5792c964202fdf96a9f233ba5ea079bd0e2998efab97a14501c1989f436",
        "confidence_score_0_100": 80,
        "confidence": 0.8,
        "evidence_grade": "B",
        "exact_identifier_provided": false,
        "coverage_polygon_provided": true,
        "fake_data": false,
        "join_mode": "LOCAL_OPENCODE_SPATIAL_JOIN_PENDING",
        "direct_parcel": false,
        "source_area_count_contribution": 1,
        "planned_building_count_contribution": 0
      },
      "geometry": {
        "type": "MultiPolygon",
        "coordinates": [
          [
            [
              [
                -0.005722,
                51.450411
              ],
              [
                -0.005998,
                51.450324
              ],
              [
                -0.006015,
                51.450344
              ],
              [
                -0.006079,
                51.450323
              ],
              [
                -0.005983,
                51.450205
              ],
              [
                -0.005664,
                51.450301
              ],
              [
                -0.005652,
                51.450306
              ],
              [
                -0.005645,
                51.450311
              ],
              [
                -0.005643,
                51.450315
              ],
              [
                -0.005722,
                51.450411
              ]
            ]
          ]
        ]
      }
    }
  ]
}
