{"type":"FeatureCollection","name":"building_type_9_batch_0033","features":[{"type":"Feature","id":"42191652","geometry":{"type":"MultiPolygon","coordinates":[[[[1.384507,51.384817],[1.384428,51.384969],[1.384391,51.385069],[1.384335,51.385056],[1.384341,51.385035],[1.384294,51.385028],[1.384302,51.385002],[1.38432,51.385004],[1.384338,51.384964],[1.384244,51.384946],[1.38425,51.384932],[1.384312,51.384944],[1.384325,51.384916],[1.384262,51.384903],[1.384269,51.384888],[1.384358,51.384904],[1.384364,51.384894],[1.384348,51.384889],[1.384355,51.384877],[1.38432,51.38487],[1.384334,51.384843],[1.384399,51.384855],[1.384406,51.384839],[1.384392,51.384835],[1.384411,51.384796],[1.384507,51.384817]]]]},"properties":{"slot_id":"building_type_9","lineage_id":"building_type_9-20261001T200900Z-newstart","batch_id":"batch-0033","page_generation":1,"source_entity":42191652,"source_reference":"161","source_dataset":"listed-building-outline","source_organisation":"Thanet District Council","building_evidence_status":"BUILDING_PRESENT","parcel_status":"UNPROCESSED","canonical_parcel_id":null,"building_type":"listed_building","building_use":null,"poi_accepted":false,"field_evidence":{"footprint":"official listed-building-outline MULTIPOLYGON","type":"official dataset classification: listed-building-outline","name":"17 Princes Crescent, Margate and Ramsgate, Margate, Kent, England, CT9 1LY","reference":"161","use":"no use inferred"},"source_url":"https://www.planning.data.gov.uk/entity/42191652","final_url":"https://www.planning.data.gov.uk/entity/42191652","access_utc":"2026-10-06T21:24:00Z","data_date":"2026-02-04","licence":"Open Government Licence v3.0","evidence_slice_sha256":"cbfbfa941de55d0219eb9a5d0029938801050245eeb81447d09fdaee769f8873","confidence_score_0_100":94,"evidence_grade":"A","fake_data":false,"local_spatial_join_required":true}},{"type":"Feature","id":"42191699","geometry":{"type":"MultiPolygon","coordinates":[[[[1.415265,51.32936],[1.415135,51.329476],[1.415114,51.329468],[1.415122,51.32946],[1.415109,51.329454],[1.415146,51.329421],[1.415116,51.329409],[1.415035,51.329479],[1.415019,51.32947],[1.415032,51.329457],[1.415011,51.329449],[1.415076,51.329392],[1.415046,51.32938],[1.415137,51.329301],[1.415265,51.32936]]]]},"properties":{"slot_id":"building_type_9","lineage_id":"building_type_9-20261001T200900Z-newstart","batch_id":"batch-0033","page_generation":1,"source_entity":42191699,"source_reference":"785","source_dataset":"listed-building-outline","source_organisation":"Thanet District Council","building_evidence_status":"BUILDING_PRESENT","parcel_status":"UNPROCESSED","canonical_parcel_id":null,"building_type":"listed_building","building_use":null,"poi_accepted":false,"field_evidence":{"footprint":"official listed-building-outline MULTIPOLYGON","type":"official dataset classification: listed-building-outline","name":"8 Paragon, Ramsgate, Kent, England, CT11 9JX","reference":"785","use":"no use inferred"},"source_url":"https://www.planning.data.gov.uk/entity/42191699","final_url":"https://www.planning.data.gov.uk/entity/42191699","access_utc":"2026-10-06T21:24:00Z","data_date":"2026-02-04","licence":"Open Government Licence v3.0","evidence_slice_sha256":"044d0cd5babfe5f4b661316373ca8eb3c6cc201441fc6123734a378334262fe1","confidence_score_0_100":94,"evidence_grade":"A","fake_data":false,"local_spatial_join_required":true}},{"type":"Feature","id":"42192120","geometry":{"type":"MultiPolygon","coordinates":[[[[1.384954,51.391038],[1.384789,51.391092],[1.384779,51.391074],[1.384829,51.391055],[1.384813,51.39104],[1.384791,51.391048],[1.384796,51.391054],[1.384763,51.391064],[1.384753,51.391055],[1.384732,51.391061],[1.384724,51.391049],[1.384767,51.391034],[1.384742,51.391003],[1.384746,51.391],[1.384735,51.390987],[1.384775,51.390974],[1.384747,51.390942],[1.384728,51.390945],[1.384723,51.390936],[1.384647,51.39096],[1.384634,51.390944],[1.384723,51.390916],[1.384713,51.390904],[1.384626,51.390933],[1.384616,51.390924],[1.384666,51.390905],[1.384648,51.390883],[1.384685,51.39087],[1.384665,51.390846],[1.384641,51.390852],[1.384631,51.390845],[1.384751,51.390802],[1.384954,51.391038]]]]},"properties":{"slot_id":"building_type_9","lineage_id":"building_type_9-20261001T200900Z-newstart","batch_id":"batch-0033","page_generation":1,"source_entity":42192120,"source_reference":"76","source_dataset":"listed-building-outline","source_organisation":"Thanet District Council","building_evidence_status":"BUILDING_PRESENT","parcel_status":"UNPROCESSED","canonical_parcel_id":null,"building_type":"listed_building","building_use":null,"poi_accepted":false,"field_evidence":{"footprint":"official listed-building-outline MULTIPOLYGON","type":"official dataset classification: listed-building-outline","name":"16 Trinity Square, Margate and Ramsgate, Margate, Kent, England, CT9 1HR","reference":"76","use":"no use inferred"},"source_url":"https://www.planning.data.gov.uk/entity/42192120","final_url":"https://www.planning.data.gov.uk/entity/42192120","access_utc":"2026-10-06T21:24:00Z","data_date":"2026-02-04","licence":"Open Government Licence v3.0","evidence_slice_sha256":"88720dc7e2d4509ce916688e45c3509bf239cc009b91ed750331e4c40225b678","confidence_score_0_100":94,"evidence_grade":"A","fake_data":false,"local_spatial_join_required":true}},{"type":"Feature","id":"42192240","geometry":{"type":"MultiPolygon","coordinates":[[[[1.304107,51.372583],[1.304026,51.372517],[1.30408,51.372493],[1.304118,51.372524],[1.304142,51.372513],[1.304128,51.372503],[1.304174,51.372486],[1.304181,51.372495],[1.304223,51.372477],[1.304183,51.372446],[1.304166,51.372452],[1.304159,51.372447],[1.304175,51.372439],[1.304162,51.372428],[1.304143,51.372436],[1.30414,51.372428],[1.304154,51.372423],[1.304154,51.372421],[1.304291,51.372355],[1.304328,51.372388],[1.304277,51.37241],[1.304351,51.372472],[1.304107,51.372583]]]]},"properties":{"slot_id":"building_type_9","lineage_id":"building_type_9-20261001T200900Z-newstart","batch_id":"batch-0033","page_generation":1,"source_entity":42192240,"source_reference":"354","source_dataset":"listed-building-outline","source_organisation":"Thanet District Council","building_evidence_status":"BUILDING_PRESENT","parcel_status":"UNPROCESSED","canonical_parcel_id":null,"building_type":"listed_building","building_use":null,"poi_accepted":false,"field_evidence":{"footprint":"official listed-building-outline MULTIPOLYGON","type":"official dataset classification: listed-building-outline","name":"230 Canterbury Road, Birchington, Kent, EnglandTD","reference":"354","use":"no use inferred"},"source_url":"https://www.planning.data.gov.uk/entity/42192240","final_url":"https://www.planning.data.gov.uk/entity/42192240","access_utc":"2026-10-06T21:24:00Z","data_date":"2026-02-04","licence":"Open Government Licence v3.0","evidence_slice_sha256":"5df62943716965eb444f1b9a7c068d7bfe43448a3eaf0e0feb369a68fe26315c","confidence_score_0_100":94,"evidence_grade":"A","fake_data":false,"local_spatial_join_required":true}}]}