{"type":"FeatureCollection","features":[{"type":"Feature","id":"chelmsford-brownfield-register-2026-html:SGS1y","geometry":null,"properties":{"slot_id":"future_growth_4","lineage_id":"fg4-e4c9076d6f554f00","page_generation":1,"owner":"future_growth_4","partition":"future_growth","semantic_mode":"SOURCE_AREA_EXACT_IDENTIFIER","dataset":"chelmsford-brownfield-register-2026-html","entity":"SGS1y","reference":"SGS1y","quality":"authoritative","organisation":"Chelmsford City Council","name":"Land between Hoffmans Way and Brook Street (Marriages Mill)","site_address":"Land between Hoffmans Way and Brook Street (Marriages Mill)","source_url":"https://www.chelmsford.gov.uk/planning-and-building-control/planning-policy-and-local-plan/brownfield-register/","final_url":"https://www.chelmsford.gov.uk/planning-and-building-control/planning-policy-and-local-plan/brownfield-register/","access_utc":"2026-10-04T21:57:00Z","data_date":"2026-07-29","license":"Open Government Licence","field_evidence":{"reference":"SGS1y","site_address":"Land between Hoffmans Way and Brook Street (Marriages Mill)","register_last_updated":"2026-07-29","register_scope":"brownfield sites in the Chelmsford area that may be suitable for residential development","licence":"Open Government Licence"},"evidence_slice_sha256":"58801618131a8f0138ea73ad560d3db79e5a197bf3d65de8f477d56c05a77d84","confidence_score_0_100":99,"confidence":0.99,"evidence_grade":"A","exact_identifier_provided":true,"coverage_polygon_provided":false,"coverage_geometry_available":false,"fake_data":false,"join_mode":"LOCAL_OPENCODE_SPATIAL_JOIN_PENDING","direct_parcel":false,"source_area_count_contribution":1,"planned_building_count_contribution":0}}]}