{"type":"FeatureCollection","features":[{"type":"Feature","id":"planned_buildings_1-planning-data-brownfield-1705652","geometry":{"type":"Point","coordinates":[-0.138776,51.45763]},"properties":{"slot_id":"planned_buildings_1","source_entity":1705652,"official_site_key":"BLR017","canonical_record_key":"planning-data:brownfield-land:1705652","planned_project_name":"44 Clapham Common South Side","planned_project_status":"permissioned","planned_building_capacity_net_dwellings":293,"planned_building_value":null,"planned_building_probability":null,"planned_building_complete_month":null,"matching_method":"direct_official_site_record_no_parcel_match","source_quality":"authoritative","source_license":"Open Government Licence v3.0","fake_data":false,"demo_only":true}}],"metadata":{"slot_id":"planned_buildings_1","batch_index":4,"source_window":{"geometry_entity":626195,"geometry_relation":"within","limit":1,"offset":15},"feature_count_before":65,"feature_count_after":66,"unique_real_site_project_before":16,"unique_real_site_project_after":17,"duplicate_count_new":0,"nearest_match_used":false,"fake_data":false,"mirror_only":true}}