{"type":"FeatureCollection","features":[{"type":"Feature","id":"planned_buildings_1-planning-data-brownfield-1705651","geometry":{"type":"Point","coordinates":[-0.116516,51.487499]},"properties":{"slot_id":"planned_buildings_1","source_entity":1705651,"official_site_key":"BLR016","canonical_record_key":"planning-data:brownfield-land:1705651","planned_project_name":"Rising Sun House, 133 Vauxhall Street","planned_project_status":"permissioned","planned_project_owner_type":"not-owned-by-a-public-authority","planned_building_capacity_net_dwellings":9,"planned_building_value":null,"planned_building_probability":null,"planned_building_complete_month":null,"matching_method":"direct_official_site_record_no_parcel_match","source_quality":"authoritative","source_license":"Open Government Licence v3.0","fake_data":false,"demo_only":true,"final_ready":false,"production_merge":false}}],"metadata":{"slot_id":"planned_buildings_1","batch_index":3,"source_window":{"geometry_entity":626195,"geometry_relation":"within","limit":1,"offset":14},"feature_count_before":64,"feature_count_after":65,"unique_real_site_project_before":15,"unique_real_site_project_after":16,"duplicate_count_new":0,"nearest_match_used":false,"fake_data":false,"mirror_only":true}}