{"type":"FeatureCollection","features":[{"type":"Feature","id":"planned_buildings_1-planning-data-brownfield-1705655","geometry":{"type":"Point","coordinates":[-0.118361,51.46821]},"properties":{"slot_id":"planned_buildings_1","source_entity":1705655,"official_site_key":"BLR020","canonical_record_key":"planning-data:brownfield-land:1705655","planned_project_name":"2-7 Stockwell Green","planned_project_status":"permissioned","planned_building_capacity_net_dwellings":24,"planned_building_value":null,"planned_building_probability":null,"planned_building_complete_month":null,"matching_method":"direct_official_site_record_no_parcel_match","source_quality":"authoritative","source_license":"Open Government Licence v3.0","fake_data":false,"demo_only":true}}],"metadata":{"slot_id":"planned_buildings_1","batch_index":7,"source_window":{"geometry_entity":626195,"geometry_relation":"within","limit":1,"offset":18},"feature_count_before":68,"feature_count_after":69,"unique_real_site_project_before":19,"unique_real_site_project_after":20,"duplicate_count_new":0,"nearest_match_used":false,"fake_data":false,"mirror_only":true}}