{"type":"FeatureCollection","features":[{"type":"Feature","id":"planned_buildings_1-planning-data-brownfield-1705649","geometry":{"type":"Point","coordinates":[-0.118721,51.454909]},"properties":{"slot_id":"planned_buildings_1","source_entity":1705649,"official_site_key":"BLR014","canonical_record_key":"planning-data:brownfield-land:1705649","planned_project_name":"85 Brixton Hill","source_quality":"authoritative","fake_data":false}},{"type":"Feature","id":"planned_buildings_1-planning-data-brownfield-1705650","geometry":{"type":"Point","coordinates":[-0.079098,51.420183]},"properties":{"slot_id":"planned_buildings_1","source_entity":1705650,"official_site_key":"BLR015","canonical_record_key":"planning-data:brownfield-land:1705650","planned_project_name":"Land rear of 77-79 Westow Hill","source_quality":"authoritative","fake_data":false}},{"type":"Feature","id":"planned_buildings_1-planning-data-brownfield-1705651","geometry":{"type":"Point","coordinates":[-0.116516,51.487499]},"properties":{"slot_id":"planned_buildings_1","source_entity":1705651,"official_site_key":"BLR016","canonical_record_key":"planning-data:brownfield-land:1705651","planned_project_name":"Rising Sun House, 133 Vauxhall Street","source_quality":"authoritative","fake_data":false}},{"type":"Feature","id":"planned_buildings_1-planning-data-brownfield-1705652","geometry":{"type":"Point","coordinates":[-0.138776,51.45763]},"properties":{"slot_id":"planned_buildings_1","source_entity":1705652,"official_site_key":"BLR017","canonical_record_key":"planning-data:brownfield-land:1705652","planned_project_name":"44 Clapham Common South Side","source_quality":"authoritative","fake_data":false}},{"type":"Feature","id":"planned_buildings_1-planning-data-brownfield-1705653","geometry":{"type":"Point","coordinates":[-0.104761,51.422833]},"properties":{"slot_id":"planned_buildings_1","source_entity":1705653,"official_site_key":"BLR018","canonical_record_key":"planning-data:brownfield-land:1705653","planned_project_name":"260 Knight's Hill","source_quality":"authoritative","fake_data":false}},{"type":"Feature","id":"planned_buildings_1-planning-data-brownfield-1705654","geometry":{"type":"Point","coordinates":[-0.141662,51.457101]},"properties":{"slot_id":"planned_buildings_1","source_entity":1705654,"official_site_key":"BLR019","canonical_record_key":"planning-data:brownfield-land:1705654","planned_project_name":"John Vetch House, Elms Road","source_quality":"authoritative","fake_data":false}},{"type":"Feature","id":"planned_buildings_1-planning-data-brownfield-1705655","geometry":{"type":"Point","coordinates":[-0.118361,51.46821]},"properties":{"slot_id":"planned_buildings_1","source_entity":1705655,"official_site_key":"BLR020","canonical_record_key":"planning-data:brownfield-land:1705655","planned_project_name":"2-7 Stockwell Green","source_quality":"authoritative","fake_data":false}},{"type":"Feature","id":"planned_buildings_1-planning-data-brownfield-1705656","geometry":{"type":"Point","coordinates":[-0.09733,51.470691]},"properties":{"slot_id":"planned_buildings_1","source_entity":1705656,"official_site_key":"BLR021","canonical_record_key":"planning-data:brownfield-land:1705656","planned_project_name":"Land to rear of Viking House, Denmark Road","source_quality":"authoritative","fake_data":false}},{"type":"Feature","id":"planned_buildings_1-planning-data-brownfield-1705657","geometry":{"type":"Point","coordinates":[-0.131237,51.469863]},"properties":{"slot_id":"planned_buildings_1","source_entity":1705657,"official_site_key":"BLR022","canonical_record_key":"planning-data:brownfield-land:1705657","planned_project_name":"184 Larkhall Lane","source_quality":"authoritative","fake_data":false}},{"type":"Feature","id":"planned_buildings_1-planning-data-brownfield-1705658","geometry":{"type":"Point","coordinates":[-0.10647,51.45705]},"properties":{"slot_id":"planned_buildings_1","source_entity":1705658,"official_site_key":"BLR023","canonical_record_key":"planning-data:brownfield-land:1705658","planned_project_name":"143-149 Railton Road","source_quality":"authoritative","fake_data":false}},{"type":"Feature","id":"planned_buildings_1-planning-data-brownfield-1705659","geometry":{"type":"Point","coordinates":[-0.111203,51.498008]},"properties":{"slot_id":"planned_buildings_1","source_entity":1705659,"official_site_key":"BLR024","canonical_record_key":"planning-data:brownfield-land:1705659","planned_project_name":"2-4 Hercules Road","source_quality":"authoritative","fake_data":false}},{"type":"Feature","id":"planned_buildings_1-planning-data-brownfield-1705660","geometry":{"type":"Point","coordinates":[-0.086676,51.420577]},"properties":{"slot_id":"planned_buildings_1","source_entity":1705660,"official_site_key":"BLR025","canonical_record_key":"planning-data:brownfield-land:1705660","planned_project_name":"Central Hill Estate","source_quality":"authoritative","fake_data":false}}],"metadata":{"slot_id":"planned_buildings_1","run_id":"20260818T014200Z","source_family":"planning_data_brownfield_land","processed_offsets":[12,13,14,15,16,17,18,19,20,21,22,23],"next_unused_window":{"geometry_entity":626195,"geometry_relation":"within","limit":1,"offset":24},"bounded_batch_count":12,"zero_result_windows":0,"feature_count_before":62,"feature_count_added":12,"feature_count_after_logical":74,"unique_real_site_project_before":13,"unique_real_site_project_added":12,"unique_real_site_project_after":25,"duplicate_count_new":0,"reprocessed_window_count":0,"nearest_match_used":false,"parcel_match_used":false,"fake_data":false,"demo_only":true,"final_ready":false,"production_merge":false,"mirror_only":true,"canonical_latest_overwritten":false}}