{
  "type": "FeatureCollection",
  "features": [
    {
      "type": "Feature",
      "geometry": {
        "type": "Polygon",
        "coordinates": [
          [
            [
              -2.369539045969831,
              53.45335868539612
            ],
            [
              -2.369540796732586,
              53.453230863074715
            ],
            [
              -2.369273044891589,
              53.4532298038971
            ],
            [
              -2.369274686435672,
              53.45308930808749
            ],
            [
              -2.36917830857696,
              53.4530889769346
            ],
            [
              -2.369176572295115,
              53.45323594477726
            ],
            [
              -2.369093606006928,
              53.45325408845838
            ],
            [
              -2.369015078172238,
              53.4532978356753
            ],
            [
              -2.368913440363725,
              53.45329877895905
            ],
            [
              -2.368912875441963,
              53.45349410146341
            ],
            [
              -2.368532937387034,
              53.45349338720721
            ],
            [
              -2.368532910768416,
              53.45331649301966
            ],
            [
              -2.368814362272261,
              53.45331706211268
            ],
            [
              -2.36881450171365,
              53.453263669812436
            ],
            [
              -2.368503088538598,
              53.45326364262406
            ],
            [
              -2.368502754072119,
              53.45346840237008
            ],
            [
              -2.368302622736449,
              53.45346830080256
            ],
            [
              -2.368304597475118,
              53.45301805923621
            ],
            [
              -2.368580474706188,
              53.45301855618723
            ],
            [
              -2.368581139947398,
              53.45293891575227
            ],
            [
              -2.368216713615577,
              53.45293779306948
            ],
            [
              -2.368217423104866,
              53.45286318607715
            ],
            [
              -2.36881949691918,
              53.45286717029907
            ],
            [
              -2.368817384443284,
              53.453057733675784
            ],
            [
              -2.368861057052457,
              53.453058048188225
            ],
            [
              -2.368863442601389,
              53.452846900231116
            ],
            [
              -2.36832418314472,
              53.45284523925938
            ],
            [
              -2.368328994542127,
              53.452392202449545
            ],
            [
              -2.368612405255368,
              53.452393664818956
            ],
            [
              -2.368611012100076,
              53.45247618383881
            ],
            [
              -2.369252978632078,
              53.45247941350341
            ],
            [
              -2.369249519899154,
              53.452688137899614
            ],
            [
              -2.369725386136985,
              53.45269035055655
            ],
            [
              -2.369725809786932,
              53.45261781179587
            ],
            [
              -2.369996714496937,
              53.45261823098596
            ],
            [
              -2.36999641687296,
              53.45268789302763
            ],
            [
              -2.37070281708004,
              53.452688847852606
            ],
            [
              -2.370693105399795,
              53.45309506973806
            ],
            [
              -2.370358964225413,
              53.45309610668916
            ],
            [
              -2.370358610406026,
              53.45314194929441
            ],
            [
              -2.370786101046332,
              53.453139274204176
            ],
            [
              -2.370783959664724,
              53.45358466255
            ],
            [
              -2.370305255168524,
              53.45358623808102
            ],
            [
              -2.370304257128623,
              53.4536445767372
            ],
            [
              -2.370448825419192,
              53.4536450271303
            ],
            [
              -2.370448568455513,
              53.45371927318627
            ],
            [
              -2.370339086003442,
              53.453718713970275
            ],
            [
              -2.370337788843232,
              53.45379458118664
            ],
            [
              -2.371252182423315,
              53.45379695482991
            ],
            [
              -2.371251925020118,
              53.45369844133877
            ],
            [
              -2.371047414706709,
              53.45369709958893
            ],
            [
              -2.371054666539851,
              53.4533545241541
            ],
            [
              -2.3722314810538,
              53.45335202962434
            ],
            [
              -2.37223063268637,
              53.45406392389244
            ],
            [
              -2.372071154236861,
              53.45406343223246
            ],
            [
              -2.372072121986113,
              53.45398468969327
            ],
            [
              -2.371973482528498,
              53.45398427795467
            ],
            [
              -2.371968526963621,
              53.45426140976982
            ],
            [
              -2.371844884094108,
              53.454260446619294
            ],
            [
              -2.37184670993897,
              53.45415923008826
            ],
            [
              -2.37135138518925,
              53.454155198787994
            ],
            [
              -2.37134868760636,
              53.454260193203524
            ],
            [
              -2.371222634591316,
              53.45425914701974
            ],
            [
              -2.371226820961024,
              53.45403136466263
            ],
            [
              -2.371187363724714,
              53.45403103790875
            ],
            [
              -2.371185264174721,
              53.45430816080319
            ],
            [
              -2.371270499857514,
              53.45430834521776
            ],
            [
              -2.371267809654628,
              53.45467301820982
            ],
            [
              -2.371064053868234,
              53.45467239321827
            ],
            [
              -2.371065601906622,
              53.45445279864471
            ],
            [
              -2.370655382672211,
              53.45445164591825
            ],
            [
              -2.370656380526949,
              53.45430692750173
            ],
            [
              -2.371147015292429,
              53.45430827970554
            ],
            [
              -2.371149442953199,
              53.45399969593785
            ],
            [
              -2.371098391481262,
              53.45399949508026
            ],
            [
              -2.371096453735341,
              53.45426070777384
            ],
            [
              -2.370938331395869,
              53.45426039015649
            ],
            [
              -2.370940316744594,
              53.45407360234502
            ],
            [
              -2.370875259965707,
              53.454073355017094
            ],
            [
              -2.370873867271658,
              53.454259062362674
            ],
            [
              -2.370330673872571,
              53.454257332756725
            ],
            [
              -2.370334681721005,
              53.45393930615379
            ],
            [
              -2.370171287759623,
              53.45393873421799
            ],
            [
              -2.370166792188863,
              53.45420085367421
            ],
            [
              -2.370016947600157,
              53.45419996986235
            ],
            [
              -2.370019615021519,
              53.45396994512917
            ],
            [
              -2.369589366402059,
              53.45396813173744
            ],
            [
              -2.369588460170988,
              53.45401981858662
            ],
            [
              -2.369920519973597,
              53.4540210373816
            ],
            [
              -2.369918641681478,
              53.45425528427365
            ],
            [
              -2.36886810308765,
              53.454252691900535
            ],
            [
              -2.368870971888961,
              53.45401044218188
            ],
            [
              -2.369342024806948,
              53.454011592632604
            ],
            [
              -2.369343488378876,
              53.453937342852804
            ],
            [
              -2.368752398320285,
              53.45393404641095
            ],
            [
              -2.368756749333363,
              53.45356739085427
            ],
            [
              -2.36920625609652,
              53.45356770952406
            ],
            [
              -2.369209699490209,
              53.4533571875017
            ],
            [
              -2.369539045969831,
              53.45335868539612
            ]
          ],
          [
            [
              -2.370285255351539,
              53.45334729508517
            ],
            [
              -2.370158907805595,
              53.453346698122736
            ],
            [
              -2.370151888959371,
              53.45390724462009
            ],
            [
              -2.370278237386639,
              53.45390775170417
            ],
            [
              -2.370285255351539,
              53.45334729508517
            ]
          ],
          [
            [
              -2.369599601485264,
              53.45367291674092
            ],
            [
              -2.369350519270371,
              53.45367179993875
            ],
            [
              -2.36934771170718,
              53.45390344303233
            ],
            [
              -2.369596644692706,
              53.45390456030414
            ],
            [
              -2.369599601485264,
              53.45367291674092
            ]
          ],
          [
            [
              -2.369783928713868,
              53.453673784167705
            ],
            [
              -2.36978112429041,
              53.45390551715025
            ],
            [
              -2.370009275817824,
              53.453906608036945
            ],
            [
              -2.370012078217507,
              53.45367478516833
            ],
            [
              -2.369783928713868,
              53.453673784167705
            ]
          ],
          [
            [
              -2.372057184120097,
              53.45367139607389
            ],
            [
              -2.371858704344556,
              53.45367084588852
            ],
            [
              -2.371856652626294,
              53.453918486289794
            ],
            [
              -2.372054983757848,
              53.45391912682864
            ],
            [
              -2.372057184120097,
              53.45367139607389
            ]
          ],
          [
            [
              -2.36914087085428,
              53.45274860713854
            ],
            [
              -2.3691423363543,
              53.45265718924523
            ],
            [
              -2.368918112082743,
              53.452656713774644
            ],
            [
              -2.368912861857144,
              53.45305842744317
            ],
            [
              -2.368998847164697,
              53.453058521273334
            ],
            [
              -2.369002929604387,
              53.45274795491507
            ],
            [
              -2.36914087085428,
              53.45274860713854
            ]
          ],
          [
            [
              -2.371357215595534,
              53.45394332100615
            ],
            [
              -2.371356467014611,
              53.45404732062543
            ],
            [
              -2.371781740096605,
              53.4540483341803
            ],
            [
              -2.37178233705369,
              53.45394433502905
            ],
            [
              -2.371357215595534,
              53.45394332100615
            ]
          ],
          [
            [
              -2.371616096427049,
              53.45366962375987
            ],
            [
              -2.371415962593544,
              53.45366934764309
            ],
            [
              -2.371415070412346,
              53.4538776146645
            ],
            [
              -2.371615055425585,
              53.45387798113264
            ],
            [
              -2.371616096427049,
              53.45366962375987
            ]
          ],
          [
            [
              -2.369609844555874,
              53.45284135607554
            ],
            [
              -2.369411820405563,
              53.45284080042029
            ],
            [
              -2.369410750424697,
              53.4529776990575
            ],
            [
              -2.36960877521182,
              53.452978254713436
            ],
            [
              -2.369609844555874,
              53.45284135607554
            ]
          ],
          [
            [
              -2.368606284237843,
              53.452816863765
            ],
            [
              -2.368727057145127,
              53.452817299812736
            ],
            [
              -2.368728975591385,
              53.45263905131743
            ],
            [
              -2.368608203189786,
              53.45263861527076
            ],
            [
              -2.368606284237843,
              53.452816863765
            ]
          ],
          [
            [
              -2.369616842069285,
              53.45347340788909
            ],
            [
              -2.369617882150017,
              53.45338513730228
            ],
            [
              -2.369401329088653,
              53.45338409967327
            ],
            [
              -2.369400289339408,
              53.45347246014186
            ],
            [
              -2.369616842069285,
              53.45347340788909
            ]
          ],
          [
            [
              -2.369828410340748,
              53.45338601343029
            ],
            [
              -2.369827220894746,
              53.453474374367495
            ],
            [
              -2.370025852672843,
              53.45347519711109
            ],
            [
              -2.370027042488393,
              53.45338692605551
            ],
            [
              -2.369828410340748,
              53.45338601343029
            ]
          ],
          [
            [
              -2.370499583146349,
              53.452868080806304
            ],
            [
              -2.370398835802295,
              53.45286740465631
            ],
            [
              -2.370395510411679,
              53.45303891614771
            ],
            [
              -2.370496258161606,
              53.453039592299795
            ],
            [
              -2.370499583146349,
              53.452868080806304
            ]
          ],
          [
            [
              -2.369278281583097,
              53.45280957388748
            ],
            [
              -2.369178141395689,
              53.45280943414237
            ],
            [
              -2.369177337434246,
              53.452977072730036
            ],
            [
              -2.369277478016001,
              53.45297721247511
            ],
            [
              -2.369278281583097,
              53.45280957388748
            ]
          ],
          [
            [
              -2.371809990717376,
              53.45342120632697
            ],
            [
              -2.371810294466351,
              53.453490417068636
            ],
            [
              -2.372023522697876,
              53.453490022527056
            ],
            [
              -2.372023218602239,
              53.453420811786536
            ],
            [
              -2.371809990717376,
              53.45342120632697
            ]
          ],
          [
            [
              -2.369126099525744,
              53.4538403098125
            ],
            [
              -2.369201547835627,
              53.45384070573047
            ],
            [
              -2.369203994106319,
              53.4536540962906
            ],
            [
              -2.369128396323244,
              53.453653790722036
            ],
            [
              -2.369126099525744,
              53.4538403098125
            ]
          ],
          [
            [
              -2.371399218320884,
              53.45342455215601
            ],
            [
              -2.371400393512061,
              53.45349016477474
            ],
            [
              -2.371609397566881,
              53.453488885258984
            ],
            [
              -2.371608222053621,
              53.45342327264284
            ],
            [
              -2.371399218320884,
              53.45342455215601
            ]
          ],
          [
            [
              -2.368816971531106,
              53.453149058421204
            ],
            [
              -2.368817496295219,
              53.45310537254211
            ],
            [
              -2.368532879298199,
              53.453104273917404
            ],
            [
              -2.368532354242011,
              53.45314795979574
            ],
            [
              -2.368816971531106,
              53.453149058421204
            ]
          ],
          [
            [
              -2.37004582341164,
              53.45284539875112
            ],
            [
              -2.369988750868862,
              53.4528453059677
            ],
            [
              -2.369987623241955,
              53.45306193306088
            ],
            [
              -2.370044696075161,
              53.45306202584436
            ],
            [
              -2.37004582341164,
              53.45284539875112
            ]
          ],
          [
            [
              -2.370306298587074,
              53.45353311263109
            ],
            [
              -2.370400421052273,
              53.45353371952824
            ],
            [
              -2.37040212633521,
              53.45343555948608
            ],
            [
              -2.370308004087033,
              53.4534349525899
            ],
            [
              -2.370306298587074,
              53.45353311263109
            ]
          ],
          [
            [
              -2.36885614074992,
              53.45323783398549
            ],
            [
              -2.368857042354931,
              53.453272347156414
            ],
            [
              -2.369049326099906,
              53.453270584459545
            ],
            [
              -2.369048424339053,
              53.453236071290334
            ],
            [
              -2.36885614074992,
              53.45323783398549
            ]
          ],
          [
            [
              -2.370871540862783,
              53.45385404644204
            ],
            [
              -2.370785707669064,
              53.45385431302618
            ],
            [
              -2.370786232583235,
              53.45391453454641
            ],
            [
              -2.370872065898374,
              53.453914267961714
            ],
            [
              -2.370871540862783,
              53.45385404644204
            ]
          ],
          [
            [
              -2.37056635846465,
              53.45391288014166
            ],
            [
              -2.370643915098859,
              53.4539132686055
            ],
            [
              -2.370644846109612,
              53.45384728990612
            ],
            [
              -2.370567289595606,
              53.453846901442674
            ],
            [
              -2.37056635846465,
              53.45391288014166
            ]
          ]
        ]
      },
      "properties": {
        "slot_id": "building_type_3",
        "lineage_id": "building_type_3-new-20260927T1328+0300",
        "owner": "cagdas aydin",
        "partition": "building_type_3",
        "page_generation": 61,
        "semantic_mode": null,
        "batch_id": "BT3-P114G61-20261008-OSOML-TRAFFORD-STYLED-HOSP10",
        "cursor": "BT3-P114G61-20261008-OSOML-TRAFFORD-STYLED-HOSP10-p114",
        "building_state": "BUILDING_PRESENT",
        "source_record_id": "os-openmap-local:important-building:9622CCB0-BD94-478D-AA05-9CF74E8F5E6B",
        "semantic_identity": "os-openmap-local:important-building:9622CCB0-BD94-478D-AA05-9CF74E8F5E6B",
        "source_row_ordinal": 1,
        "name": "Trafford General Hospital",
        "building_type_use": "hospital",
        "type_use_evidence": "OS ImportantBuilding CLASSIFICA=Hospital; BUILDGTHEM=Medical Care; FEATCODE=15020",
        "dataset": "OS OpenMap Local ImportantBuilding",
        "quality": "OS-derived generalized building footprint",
        "coordinate_reference_system": "OGC:CRS84; original EPSG:27700",
        "ID": "9622CCB0-BD94-478D-AA05-9CF74E8F5E6B",
        "DISTNAME": "Trafford General Hospital",
        "BUILDGTHEM": "Medical Care",
        "CLASSIFICA": "Hospital",
        "FEATCODE": 15020,
        "area_code": "E08000009",
        "area_name": "Trafford",
        "stroke": "#fc6721",
        "stroke-width": 3,
        "stroke-opacity": 1,
        "fill": "#fc6721",
        "fill-opacity": 0.8,
        "authority": "Ordnance Survey OS OpenMap Local; Trafford Data Lab local-government data publication",
        "source_url": "https://github.com/traffordDataLab/open_data/blob/10716c696e028978e4dc7a7e20027bd0cab6625e/hospitals/trafford_hospitals_styled.geojson",
        "final_url": "https://github.com/traffordDataLab/open_data/blob/10716c696e028978e4dc7a7e20027bd0cab6625e/hospitals/trafford_hospitals_styled.geojson",
        "http_status": 200,
        "access_utc": "2026-10-08T07:47:05.608Z",
        "data_date": "April 2018, source commit 2018-05-21",
        "source_version": "OS OpenMap Local ImportantBuilding; Trafford Data Lab hospital styled dataset; April 2018; revision 10716c696e028978e4dc7a7e20027bd0cab6625e; blob 14eecd7b7155e2fcba284ce54112b985047a23a6",
        "license": "Open Government Licence v3.0; Contains OS data © Crown copyright and database right 2018",
        "source_file_sha256": "80cb1415c11eb01e2d0a3823c1d6bc92b800f13fcc3a9c39ee76100fae85218b",
        "field_evidence": [
          "ID",
          "DISTNAME",
          "BUILDGTHEM",
          "CLASSIFICA",
          "FEATCODE",
          "area_code",
          "area_name",
          "geometry"
        ],
        "confidence_score_0_100": 96,
        "evidence_grade": "A_OS_OPENMAP_LOCAL_CLASSIFIED_BUILDING_POLYGON",
        "official_public_no_login": true,
        "fake_data": false,
        "evidence_slice_sha256": "5d36dedbc29d1b5debf125e052a4bb27038f6eb6b85e3dd3b33b622ab319f00c"
      }
    },
    {
      "type": "Feature",
      "geometry": {
        "type": "Polygon",
        "coordinates": [
          [
            [
              -2.371439175941411,
              53.4527234122984
            ],
            [
              -2.371255927265016,
              53.452724881095385
            ],
            [
              -2.371251916223812,
              53.452541347745466
            ],
            [
              -2.370997597741788,
              53.45254339665382
            ],
            [
              -2.370995635111865,
              53.452456483647325
            ],
            [
              -2.371433050007777,
              53.45245296642658
            ],
            [
              -2.371439175941411,
              53.4527234122984
            ]
          ]
        ]
      },
      "properties": {
        "slot_id": "building_type_3",
        "lineage_id": "building_type_3-new-20260927T1328+0300",
        "owner": "cagdas aydin",
        "partition": "building_type_3",
        "page_generation": 61,
        "semantic_mode": null,
        "batch_id": "BT3-P114G61-20261008-OSOML-TRAFFORD-STYLED-HOSP10",
        "cursor": "BT3-P114G61-20261008-OSOML-TRAFFORD-STYLED-HOSP10-p114",
        "building_state": "BUILDING_PRESENT",
        "source_record_id": "os-openmap-local:important-building:F13B4F42-9A47-4552-9208-1AEF70212CA5",
        "semantic_identity": "os-openmap-local:important-building:F13B4F42-9A47-4552-9208-1AEF70212CA5",
        "source_row_ordinal": 2,
        "name": "Trafford General Hospital",
        "building_type_use": "hospital",
        "type_use_evidence": "OS ImportantBuilding CLASSIFICA=Hospital; BUILDGTHEM=Medical Care; FEATCODE=15020",
        "dataset": "OS OpenMap Local ImportantBuilding",
        "quality": "OS-derived generalized building footprint",
        "coordinate_reference_system": "OGC:CRS84; original EPSG:27700",
        "ID": "F13B4F42-9A47-4552-9208-1AEF70212CA5",
        "DISTNAME": "Trafford General Hospital",
        "BUILDGTHEM": "Medical Care",
        "CLASSIFICA": "Hospital",
        "FEATCODE": 15020,
        "area_code": "E08000009",
        "area_name": "Trafford",
        "stroke": "#fc6721",
        "stroke-width": 3,
        "stroke-opacity": 1,
        "fill": "#fc6721",
        "fill-opacity": 0.8,
        "authority": "Ordnance Survey OS OpenMap Local; Trafford Data Lab local-government data publication",
        "source_url": "https://github.com/traffordDataLab/open_data/blob/10716c696e028978e4dc7a7e20027bd0cab6625e/hospitals/trafford_hospitals_styled.geojson",
        "final_url": "https://github.com/traffordDataLab/open_data/blob/10716c696e028978e4dc7a7e20027bd0cab6625e/hospitals/trafford_hospitals_styled.geojson",
        "http_status": 200,
        "access_utc": "2026-10-08T07:47:05.608Z",
        "data_date": "April 2018, source commit 2018-05-21",
        "source_version": "OS OpenMap Local ImportantBuilding; Trafford Data Lab hospital styled dataset; April 2018; revision 10716c696e028978e4dc7a7e20027bd0cab6625e; blob 14eecd7b7155e2fcba284ce54112b985047a23a6",
        "license": "Open Government Licence v3.0; Contains OS data © Crown copyright and database right 2018",
        "source_file_sha256": "80cb1415c11eb01e2d0a3823c1d6bc92b800f13fcc3a9c39ee76100fae85218b",
        "field_evidence": [
          "ID",
          "DISTNAME",
          "BUILDGTHEM",
          "CLASSIFICA",
          "FEATCODE",
          "area_code",
          "area_name",
          "geometry"
        ],
        "confidence_score_0_100": 96,
        "evidence_grade": "A_OS_OPENMAP_LOCAL_CLASSIFIED_BUILDING_POLYGON",
        "official_public_no_login": true,
        "fake_data": false,
        "evidence_slice_sha256": "73840528ed8cd7d5aa1b2cd8874b70490d3d3e7eec620a1e7bed1721bf59a698"
      }
    },
    {
      "type": "Feature",
      "geometry": {
        "type": "Polygon",
        "coordinates": [
          [
            [
              -2.370857472055517,
              53.45490035493846
            ],
            [
              -2.37030465082175,
              53.45490072246857
            ],
            [
              -2.370304417073918,
              53.45478737785149
            ],
            [
              -2.371223630396503,
              53.45478739977707
            ],
            [
              -2.371223064357696,
              53.45501588993135
            ],
            [
              -2.370856367652866,
              53.45501550141638
            ],
            [
              -2.370857472055517,
              53.45490035493846
            ]
          ]
        ]
      },
      "properties": {
        "slot_id": "building_type_3",
        "lineage_id": "building_type_3-new-20260927T1328+0300",
        "owner": "cagdas aydin",
        "partition": "building_type_3",
        "page_generation": 61,
        "semantic_mode": null,
        "batch_id": "BT3-P114G61-20261008-OSOML-TRAFFORD-STYLED-HOSP10",
        "cursor": "BT3-P114G61-20261008-OSOML-TRAFFORD-STYLED-HOSP10-p114",
        "building_state": "BUILDING_PRESENT",
        "source_record_id": "os-openmap-local:important-building:1FDDF924-AF7A-486F-8CA4-A0BD4F3AB9D3",
        "semantic_identity": "os-openmap-local:important-building:1FDDF924-AF7A-486F-8CA4-A0BD4F3AB9D3",
        "source_row_ordinal": 3,
        "name": "Trafford General Hospital",
        "building_type_use": "hospital",
        "type_use_evidence": "OS ImportantBuilding CLASSIFICA=Hospital; BUILDGTHEM=Medical Care; FEATCODE=15020",
        "dataset": "OS OpenMap Local ImportantBuilding",
        "quality": "OS-derived generalized building footprint",
        "coordinate_reference_system": "OGC:CRS84; original EPSG:27700",
        "ID": "1FDDF924-AF7A-486F-8CA4-A0BD4F3AB9D3",
        "DISTNAME": "Trafford General Hospital",
        "BUILDGTHEM": "Medical Care",
        "CLASSIFICA": "Hospital",
        "FEATCODE": 15020,
        "area_code": "E08000009",
        "area_name": "Trafford",
        "stroke": "#fc6721",
        "stroke-width": 3,
        "stroke-opacity": 1,
        "fill": "#fc6721",
        "fill-opacity": 0.8,
        "authority": "Ordnance Survey OS OpenMap Local; Trafford Data Lab local-government data publication",
        "source_url": "https://github.com/traffordDataLab/open_data/blob/10716c696e028978e4dc7a7e20027bd0cab6625e/hospitals/trafford_hospitals_styled.geojson",
        "final_url": "https://github.com/traffordDataLab/open_data/blob/10716c696e028978e4dc7a7e20027bd0cab6625e/hospitals/trafford_hospitals_styled.geojson",
        "http_status": 200,
        "access_utc": "2026-10-08T07:47:05.608Z",
        "data_date": "April 2018, source commit 2018-05-21",
        "source_version": "OS OpenMap Local ImportantBuilding; Trafford Data Lab hospital styled dataset; April 2018; revision 10716c696e028978e4dc7a7e20027bd0cab6625e; blob 14eecd7b7155e2fcba284ce54112b985047a23a6",
        "license": "Open Government Licence v3.0; Contains OS data © Crown copyright and database right 2018",
        "source_file_sha256": "80cb1415c11eb01e2d0a3823c1d6bc92b800f13fcc3a9c39ee76100fae85218b",
        "field_evidence": [
          "ID",
          "DISTNAME",
          "BUILDGTHEM",
          "CLASSIFICA",
          "FEATCODE",
          "area_code",
          "area_name",
          "geometry"
        ],
        "confidence_score_0_100": 96,
        "evidence_grade": "A_OS_OPENMAP_LOCAL_CLASSIFIED_BUILDING_POLYGON",
        "official_public_no_login": true,
        "fake_data": false,
        "evidence_slice_sha256": "e8960e7218c700ce72cb1876c248da1e8e381c2578cdb4604f8de2b3398acac0"
      }
    },
    {
      "type": "Feature",
      "geometry": {
        "type": "Polygon",
        "coordinates": [
          [
            [
              -2.370266621784642,
              53.45471855305148
            ],
            [
              -2.370269802794672,
              53.454322778264064
            ],
            [
              -2.370515120263737,
              53.454323455411384
            ],
            [
              -2.370509114646415,
              53.45458486047011
            ],
            [
              -2.37082791309847,
              53.45458449996521
            ],
            [
              -2.370826227282403,
              53.45471933313242
            ],
            [
              -2.370266621784642,
              53.45471855305148
            ]
          ]
        ]
      },
      "properties": {
        "slot_id": "building_type_3",
        "lineage_id": "building_type_3-new-20260927T1328+0300",
        "owner": "cagdas aydin",
        "partition": "building_type_3",
        "page_generation": 61,
        "semantic_mode": null,
        "batch_id": "BT3-P114G61-20261008-OSOML-TRAFFORD-STYLED-HOSP10",
        "cursor": "BT3-P114G61-20261008-OSOML-TRAFFORD-STYLED-HOSP10-p114",
        "building_state": "BUILDING_PRESENT",
        "source_record_id": "os-openmap-local:important-building:14C84CE6-EE64-4D51-90BB-2C7E7D8A9306",
        "semantic_identity": "os-openmap-local:important-building:14C84CE6-EE64-4D51-90BB-2C7E7D8A9306",
        "source_row_ordinal": 4,
        "name": "Trafford General Hospital",
        "building_type_use": "hospital",
        "type_use_evidence": "OS ImportantBuilding CLASSIFICA=Hospital; BUILDGTHEM=Medical Care; FEATCODE=15020",
        "dataset": "OS OpenMap Local ImportantBuilding",
        "quality": "OS-derived generalized building footprint",
        "coordinate_reference_system": "OGC:CRS84; original EPSG:27700",
        "ID": "14C84CE6-EE64-4D51-90BB-2C7E7D8A9306",
        "DISTNAME": "Trafford General Hospital",
        "BUILDGTHEM": "Medical Care",
        "CLASSIFICA": "Hospital",
        "FEATCODE": 15020,
        "area_code": "E08000009",
        "area_name": "Trafford",
        "stroke": "#fc6721",
        "stroke-width": 3,
        "stroke-opacity": 1,
        "fill": "#fc6721",
        "fill-opacity": 0.8,
        "authority": "Ordnance Survey OS OpenMap Local; Trafford Data Lab local-government data publication",
        "source_url": "https://github.com/traffordDataLab/open_data/blob/10716c696e028978e4dc7a7e20027bd0cab6625e/hospitals/trafford_hospitals_styled.geojson",
        "final_url": "https://github.com/traffordDataLab/open_data/blob/10716c696e028978e4dc7a7e20027bd0cab6625e/hospitals/trafford_hospitals_styled.geojson",
        "http_status": 200,
        "access_utc": "2026-10-08T07:47:05.608Z",
        "data_date": "April 2018, source commit 2018-05-21",
        "source_version": "OS OpenMap Local ImportantBuilding; Trafford Data Lab hospital styled dataset; April 2018; revision 10716c696e028978e4dc7a7e20027bd0cab6625e; blob 14eecd7b7155e2fcba284ce54112b985047a23a6",
        "license": "Open Government Licence v3.0; Contains OS data © Crown copyright and database right 2018",
        "source_file_sha256": "80cb1415c11eb01e2d0a3823c1d6bc92b800f13fcc3a9c39ee76100fae85218b",
        "field_evidence": [
          "ID",
          "DISTNAME",
          "BUILDGTHEM",
          "CLASSIFICA",
          "FEATCODE",
          "area_code",
          "area_name",
          "geometry"
        ],
        "confidence_score_0_100": 96,
        "evidence_grade": "A_OS_OPENMAP_LOCAL_CLASSIFIED_BUILDING_POLYGON",
        "official_public_no_login": true,
        "fake_data": false,
        "evidence_slice_sha256": "627f559807a4121f604dddc57c0c0d7785a4749ece83f6e3b5330691f5d10ea7"
      }
    },
    {
      "type": "Feature",
      "geometry": {
        "type": "Polygon",
        "coordinates": [
          [
            [
              -2.370772484450245,
              53.4549978747598
            ],
            [
              -2.370716310203186,
              53.454997509874566
            ],
            [
              -2.370717735182817,
              53.4549363834581
            ],
            [
              -2.370773759544293,
              53.45493683869328
            ],
            [
              -2.370772484450245,
              53.4549978747598
            ]
          ]
        ]
      },
      "properties": {
        "slot_id": "building_type_3",
        "lineage_id": "building_type_3-new-20260927T1328+0300",
        "owner": "cagdas aydin",
        "partition": "building_type_3",
        "page_generation": 61,
        "semantic_mode": null,
        "batch_id": "BT3-P114G61-20261008-OSOML-TRAFFORD-STYLED-HOSP10",
        "cursor": "BT3-P114G61-20261008-OSOML-TRAFFORD-STYLED-HOSP10-p114",
        "building_state": "BUILDING_PRESENT",
        "source_record_id": "os-openmap-local:important-building:BD909337-4476-4E72-BA4D-42054F34F122",
        "semantic_identity": "os-openmap-local:important-building:BD909337-4476-4E72-BA4D-42054F34F122",
        "source_row_ordinal": 5,
        "name": "Trafford General Hospital",
        "building_type_use": "hospital",
        "type_use_evidence": "OS ImportantBuilding CLASSIFICA=Hospital; BUILDGTHEM=Medical Care; FEATCODE=15020",
        "dataset": "OS OpenMap Local ImportantBuilding",
        "quality": "OS-derived generalized building footprint",
        "coordinate_reference_system": "OGC:CRS84; original EPSG:27700",
        "ID": "BD909337-4476-4E72-BA4D-42054F34F122",
        "DISTNAME": "Trafford General Hospital",
        "BUILDGTHEM": "Medical Care",
        "CLASSIFICA": "Hospital",
        "FEATCODE": 15020,
        "area_code": "E08000009",
        "area_name": "Trafford",
        "stroke": "#fc6721",
        "stroke-width": 3,
        "stroke-opacity": 1,
        "fill": "#fc6721",
        "fill-opacity": 0.8,
        "authority": "Ordnance Survey OS OpenMap Local; Trafford Data Lab local-government data publication",
        "source_url": "https://github.com/traffordDataLab/open_data/blob/10716c696e028978e4dc7a7e20027bd0cab6625e/hospitals/trafford_hospitals_styled.geojson",
        "final_url": "https://github.com/traffordDataLab/open_data/blob/10716c696e028978e4dc7a7e20027bd0cab6625e/hospitals/trafford_hospitals_styled.geojson",
        "http_status": 200,
        "access_utc": "2026-10-08T07:47:05.608Z",
        "data_date": "April 2018, source commit 2018-05-21",
        "source_version": "OS OpenMap Local ImportantBuilding; Trafford Data Lab hospital styled dataset; April 2018; revision 10716c696e028978e4dc7a7e20027bd0cab6625e; blob 14eecd7b7155e2fcba284ce54112b985047a23a6",
        "license": "Open Government Licence v3.0; Contains OS data © Crown copyright and database right 2018",
        "source_file_sha256": "80cb1415c11eb01e2d0a3823c1d6bc92b800f13fcc3a9c39ee76100fae85218b",
        "field_evidence": [
          "ID",
          "DISTNAME",
          "BUILDGTHEM",
          "CLASSIFICA",
          "FEATCODE",
          "area_code",
          "area_name",
          "geometry"
        ],
        "confidence_score_0_100": 96,
        "evidence_grade": "A_OS_OPENMAP_LOCAL_CLASSIFIED_BUILDING_POLYGON",
        "official_public_no_login": true,
        "fake_data": false,
        "evidence_slice_sha256": "58b2515ae191d65f90f3780630ee48d53da4ccbe3afea4fcdd2a5ef4c0859da5"
      }
    },
    {
      "type": "Feature",
      "geometry": {
        "type": "Polygon",
        "coordinates": [
          [
            [
              -2.369737888897199,
              53.45456199343809
            ],
            [
              -2.369963782791171,
              53.4545628217517
            ],
            [
              -2.369963023190401,
              53.45463131669323
            ],
            [
              -2.369161848696429,
              53.45462804384333
            ],
            [
              -2.369163664551671,
              53.4545249398084
            ],
            [
              -2.369533078536569,
              53.45452658349666
            ],
            [
              -2.369533371782097,
              53.45438699073878
            ],
            [
              -2.369977178978296,
              53.45438894209535
            ],
            [
              -2.369976419694035,
              53.45447478489856
            ],
            [
              -2.369738626787937,
              53.45447363391652
            ],
            [
              -2.369737888897199,
              53.45456199343809
            ]
          ]
        ]
      },
      "properties": {
        "slot_id": "building_type_3",
        "lineage_id": "building_type_3-new-20260927T1328+0300",
        "owner": "cagdas aydin",
        "partition": "building_type_3",
        "page_generation": 61,
        "semantic_mode": null,
        "batch_id": "BT3-P114G61-20261008-OSOML-TRAFFORD-STYLED-HOSP10",
        "cursor": "BT3-P114G61-20261008-OSOML-TRAFFORD-STYLED-HOSP10-p114",
        "building_state": "BUILDING_PRESENT",
        "source_record_id": "os-openmap-local:important-building:FEC5AF74-825B-48F6-8E8C-C5A4BE38B153",
        "semantic_identity": "os-openmap-local:important-building:FEC5AF74-825B-48F6-8E8C-C5A4BE38B153",
        "source_row_ordinal": 6,
        "name": "Trafford General Hospital",
        "building_type_use": "hospital",
        "type_use_evidence": "OS ImportantBuilding CLASSIFICA=Hospital; BUILDGTHEM=Medical Care; FEATCODE=15020",
        "dataset": "OS OpenMap Local ImportantBuilding",
        "quality": "OS-derived generalized building footprint",
        "coordinate_reference_system": "OGC:CRS84; original EPSG:27700",
        "ID": "FEC5AF74-825B-48F6-8E8C-C5A4BE38B153",
        "DISTNAME": "Trafford General Hospital",
        "BUILDGTHEM": "Medical Care",
        "CLASSIFICA": "Hospital",
        "FEATCODE": 15020,
        "area_code": "E08000009",
        "area_name": "Trafford",
        "stroke": "#fc6721",
        "stroke-width": 3,
        "stroke-opacity": 1,
        "fill": "#fc6721",
        "fill-opacity": 0.8,
        "authority": "Ordnance Survey OS OpenMap Local; Trafford Data Lab local-government data publication",
        "source_url": "https://github.com/traffordDataLab/open_data/blob/10716c696e028978e4dc7a7e20027bd0cab6625e/hospitals/trafford_hospitals_styled.geojson",
        "final_url": "https://github.com/traffordDataLab/open_data/blob/10716c696e028978e4dc7a7e20027bd0cab6625e/hospitals/trafford_hospitals_styled.geojson",
        "http_status": 200,
        "access_utc": "2026-10-08T07:47:05.608Z",
        "data_date": "April 2018, source commit 2018-05-21",
        "source_version": "OS OpenMap Local ImportantBuilding; Trafford Data Lab hospital styled dataset; April 2018; revision 10716c696e028978e4dc7a7e20027bd0cab6625e; blob 14eecd7b7155e2fcba284ce54112b985047a23a6",
        "license": "Open Government Licence v3.0; Contains OS data © Crown copyright and database right 2018",
        "source_file_sha256": "80cb1415c11eb01e2d0a3823c1d6bc92b800f13fcc3a9c39ee76100fae85218b",
        "field_evidence": [
          "ID",
          "DISTNAME",
          "BUILDGTHEM",
          "CLASSIFICA",
          "FEATCODE",
          "area_code",
          "area_name",
          "geometry"
        ],
        "confidence_score_0_100": 96,
        "evidence_grade": "A_OS_OPENMAP_LOCAL_CLASSIFIED_BUILDING_POLYGON",
        "official_public_no_login": true,
        "fake_data": false,
        "evidence_slice_sha256": "9b2bde404eb4ed36e560eabf9e20103b443cdfc2a10f8ebcf5ac2fc358f4a4de"
      }
    },
    {
      "type": "Feature",
      "geometry": {
        "type": "Polygon",
        "coordinates": [
          [
            [
              -2.36916401119554,
              53.45442606492272
            ],
            [
              -2.369164722081498,
              53.45438651319871
            ],
            [
              -2.369264418120814,
              53.454387103760254
            ],
            [
              -2.369263707327482,
              53.454426655484674
            ],
            [
              -2.36916401119554,
              53.45442606492272
            ]
          ]
        ]
      },
      "properties": {
        "slot_id": "building_type_3",
        "lineage_id": "building_type_3-new-20260927T1328+0300",
        "owner": "cagdas aydin",
        "partition": "building_type_3",
        "page_generation": 61,
        "semantic_mode": null,
        "batch_id": "BT3-P114G61-20261008-OSOML-TRAFFORD-STYLED-HOSP10",
        "cursor": "BT3-P114G61-20261008-OSOML-TRAFFORD-STYLED-HOSP10-p114",
        "building_state": "BUILDING_PRESENT",
        "source_record_id": "os-openmap-local:important-building:1A1D89B7-188A-42B7-B272-8DD6B5AEB0DE",
        "semantic_identity": "os-openmap-local:important-building:1A1D89B7-188A-42B7-B272-8DD6B5AEB0DE",
        "source_row_ordinal": 7,
        "name": "Trafford General Hospital",
        "building_type_use": "hospital",
        "type_use_evidence": "OS ImportantBuilding CLASSIFICA=Hospital; BUILDGTHEM=Medical Care; FEATCODE=15020",
        "dataset": "OS OpenMap Local ImportantBuilding",
        "quality": "OS-derived generalized building footprint",
        "coordinate_reference_system": "OGC:CRS84; original EPSG:27700",
        "ID": "1A1D89B7-188A-42B7-B272-8DD6B5AEB0DE",
        "DISTNAME": "Trafford General Hospital",
        "BUILDGTHEM": "Medical Care",
        "CLASSIFICA": "Hospital",
        "FEATCODE": 15020,
        "area_code": "E08000009",
        "area_name": "Trafford",
        "stroke": "#fc6721",
        "stroke-width": 3,
        "stroke-opacity": 1,
        "fill": "#fc6721",
        "fill-opacity": 0.8,
        "authority": "Ordnance Survey OS OpenMap Local; Trafford Data Lab local-government data publication",
        "source_url": "https://github.com/traffordDataLab/open_data/blob/10716c696e028978e4dc7a7e20027bd0cab6625e/hospitals/trafford_hospitals_styled.geojson",
        "final_url": "https://github.com/traffordDataLab/open_data/blob/10716c696e028978e4dc7a7e20027bd0cab6625e/hospitals/trafford_hospitals_styled.geojson",
        "http_status": 200,
        "access_utc": "2026-10-08T07:47:05.608Z",
        "data_date": "April 2018, source commit 2018-05-21",
        "source_version": "OS OpenMap Local ImportantBuilding; Trafford Data Lab hospital styled dataset; April 2018; revision 10716c696e028978e4dc7a7e20027bd0cab6625e; blob 14eecd7b7155e2fcba284ce54112b985047a23a6",
        "license": "Open Government Licence v3.0; Contains OS data © Crown copyright and database right 2018",
        "source_file_sha256": "80cb1415c11eb01e2d0a3823c1d6bc92b800f13fcc3a9c39ee76100fae85218b",
        "field_evidence": [
          "ID",
          "DISTNAME",
          "BUILDGTHEM",
          "CLASSIFICA",
          "FEATCODE",
          "area_code",
          "area_name",
          "geometry"
        ],
        "confidence_score_0_100": 96,
        "evidence_grade": "A_OS_OPENMAP_LOCAL_CLASSIFIED_BUILDING_POLYGON",
        "official_public_no_login": true,
        "fake_data": false,
        "evidence_slice_sha256": "a970dab047beb69dfb885f3833e3adbd287385fd3f01eee6539f84a541a977ee"
      }
    },
    {
      "type": "Feature",
      "geometry": {
        "type": "Polygon",
        "coordinates": [
          [
            [
              -2.368804605795172,
              53.45446708468993
            ],
            [
              -2.368671181256445,
              53.45446695743597
            ],
            [
              -2.368671417408145,
              53.454372577157805
            ],
            [
              -2.369028778466863,
              53.45437372030775
            ],
            [
              -2.369019858613082,
              53.454821017045205
            ],
            [
              -2.368804499843139,
              53.454819615092305
            ],
            [
              -2.368804605795172,
              53.45446708468993
            ]
          ]
        ]
      },
      "properties": {
        "slot_id": "building_type_3",
        "lineage_id": "building_type_3-new-20260927T1328+0300",
        "owner": "cagdas aydin",
        "partition": "building_type_3",
        "page_generation": 61,
        "semantic_mode": null,
        "batch_id": "BT3-P114G61-20261008-OSOML-TRAFFORD-STYLED-HOSP10",
        "cursor": "BT3-P114G61-20261008-OSOML-TRAFFORD-STYLED-HOSP10-p114",
        "building_state": "BUILDING_PRESENT",
        "source_record_id": "os-openmap-local:important-building:49FB396A-238B-4FA4-A56C-83DF35D87F18",
        "semantic_identity": "os-openmap-local:important-building:49FB396A-238B-4FA4-A56C-83DF35D87F18",
        "source_row_ordinal": 8,
        "name": "Trafford General Hospital",
        "building_type_use": "hospital",
        "type_use_evidence": "OS ImportantBuilding CLASSIFICA=Hospital; BUILDGTHEM=Medical Care; FEATCODE=15020",
        "dataset": "OS OpenMap Local ImportantBuilding",
        "quality": "OS-derived generalized building footprint",
        "coordinate_reference_system": "OGC:CRS84; original EPSG:27700",
        "ID": "49FB396A-238B-4FA4-A56C-83DF35D87F18",
        "DISTNAME": "Trafford General Hospital",
        "BUILDGTHEM": "Medical Care",
        "CLASSIFICA": "Hospital",
        "FEATCODE": 15020,
        "area_code": "E08000009",
        "area_name": "Trafford",
        "stroke": "#fc6721",
        "stroke-width": 3,
        "stroke-opacity": 1,
        "fill": "#fc6721",
        "fill-opacity": 0.8,
        "authority": "Ordnance Survey OS OpenMap Local; Trafford Data Lab local-government data publication",
        "source_url": "https://github.com/traffordDataLab/open_data/blob/10716c696e028978e4dc7a7e20027bd0cab6625e/hospitals/trafford_hospitals_styled.geojson",
        "final_url": "https://github.com/traffordDataLab/open_data/blob/10716c696e028978e4dc7a7e20027bd0cab6625e/hospitals/trafford_hospitals_styled.geojson",
        "http_status": 200,
        "access_utc": "2026-10-08T07:47:05.608Z",
        "data_date": "April 2018, source commit 2018-05-21",
        "source_version": "OS OpenMap Local ImportantBuilding; Trafford Data Lab hospital styled dataset; April 2018; revision 10716c696e028978e4dc7a7e20027bd0cab6625e; blob 14eecd7b7155e2fcba284ce54112b985047a23a6",
        "license": "Open Government Licence v3.0; Contains OS data © Crown copyright and database right 2018",
        "source_file_sha256": "80cb1415c11eb01e2d0a3823c1d6bc92b800f13fcc3a9c39ee76100fae85218b",
        "field_evidence": [
          "ID",
          "DISTNAME",
          "BUILDGTHEM",
          "CLASSIFICA",
          "FEATCODE",
          "area_code",
          "area_name",
          "geometry"
        ],
        "confidence_score_0_100": 96,
        "evidence_grade": "A_OS_OPENMAP_LOCAL_CLASSIFIED_BUILDING_POLYGON",
        "official_public_no_login": true,
        "fake_data": false,
        "evidence_slice_sha256": "2b4b168a22b3ead79b2e08ad92b9867ef00439e9e12931c5858fedcfd1c565b3"
      }
    },
    {
      "type": "Feature",
      "geometry": {
        "type": "Polygon",
        "coordinates": [
          [
            [
              -2.368672189865054,
              53.45420107364551
            ],
            [
              -2.368598409825231,
              53.45420211040679
            ],
            [
              -2.36859553264082,
              53.454130750370155
            ],
            [
              -2.368669312557047,
              53.45412971361082
            ],
            [
              -2.368672189865054,
              53.45420107364551
            ]
          ]
        ]
      },
      "properties": {
        "slot_id": "building_type_3",
        "lineage_id": "building_type_3-new-20260927T1328+0300",
        "owner": "cagdas aydin",
        "partition": "building_type_3",
        "page_generation": 61,
        "semantic_mode": null,
        "batch_id": "BT3-P114G61-20261008-OSOML-TRAFFORD-STYLED-HOSP10",
        "cursor": "BT3-P114G61-20261008-OSOML-TRAFFORD-STYLED-HOSP10-p114",
        "building_state": "BUILDING_PRESENT",
        "source_record_id": "os-openmap-local:important-building:EF1A5854-AAE7-4051-9176-371A407A4332",
        "semantic_identity": "os-openmap-local:important-building:EF1A5854-AAE7-4051-9176-371A407A4332",
        "source_row_ordinal": 9,
        "name": "Trafford General Hospital",
        "building_type_use": "hospital",
        "type_use_evidence": "OS ImportantBuilding CLASSIFICA=Hospital; BUILDGTHEM=Medical Care; FEATCODE=15020",
        "dataset": "OS OpenMap Local ImportantBuilding",
        "quality": "OS-derived generalized building footprint",
        "coordinate_reference_system": "OGC:CRS84; original EPSG:27700",
        "ID": "EF1A5854-AAE7-4051-9176-371A407A4332",
        "DISTNAME": "Trafford General Hospital",
        "BUILDGTHEM": "Medical Care",
        "CLASSIFICA": "Hospital",
        "FEATCODE": 15020,
        "area_code": "E08000009",
        "area_name": "Trafford",
        "stroke": "#fc6721",
        "stroke-width": 3,
        "stroke-opacity": 1,
        "fill": "#fc6721",
        "fill-opacity": 0.8,
        "authority": "Ordnance Survey OS OpenMap Local; Trafford Data Lab local-government data publication",
        "source_url": "https://github.com/traffordDataLab/open_data/blob/10716c696e028978e4dc7a7e20027bd0cab6625e/hospitals/trafford_hospitals_styled.geojson",
        "final_url": "https://github.com/traffordDataLab/open_data/blob/10716c696e028978e4dc7a7e20027bd0cab6625e/hospitals/trafford_hospitals_styled.geojson",
        "http_status": 200,
        "access_utc": "2026-10-08T07:47:05.608Z",
        "data_date": "April 2018, source commit 2018-05-21",
        "source_version": "OS OpenMap Local ImportantBuilding; Trafford Data Lab hospital styled dataset; April 2018; revision 10716c696e028978e4dc7a7e20027bd0cab6625e; blob 14eecd7b7155e2fcba284ce54112b985047a23a6",
        "license": "Open Government Licence v3.0; Contains OS data © Crown copyright and database right 2018",
        "source_file_sha256": "80cb1415c11eb01e2d0a3823c1d6bc92b800f13fcc3a9c39ee76100fae85218b",
        "field_evidence": [
          "ID",
          "DISTNAME",
          "BUILDGTHEM",
          "CLASSIFICA",
          "FEATCODE",
          "area_code",
          "area_name",
          "geometry"
        ],
        "confidence_score_0_100": 96,
        "evidence_grade": "A_OS_OPENMAP_LOCAL_CLASSIFIED_BUILDING_POLYGON",
        "official_public_no_login": true,
        "fake_data": false,
        "evidence_slice_sha256": "5f5ab2bb8a3c72bdd8fc67a956326791d8986faa664b761a2d9747f3211821cc"
      }
    },
    {
      "type": "Feature",
      "geometry": {
        "type": "Polygon",
        "coordinates": [
          [
            [
              -2.368432607949356,
              53.453593289755034
            ],
            [
              -2.368369360473306,
              53.453593215251125
            ],
            [
              -2.368369529634212,
              53.45352580075658
            ],
            [
              -2.368432777010102,
              53.45352587526061
            ],
            [
              -2.368432607949356,
              53.453593289755034
            ]
          ]
        ]
      },
      "properties": {
        "slot_id": "building_type_3",
        "lineage_id": "building_type_3-new-20260927T1328+0300",
        "owner": "cagdas aydin",
        "partition": "building_type_3",
        "page_generation": 61,
        "semantic_mode": null,
        "batch_id": "BT3-P114G61-20261008-OSOML-TRAFFORD-STYLED-HOSP10",
        "cursor": "BT3-P114G61-20261008-OSOML-TRAFFORD-STYLED-HOSP10-p114",
        "building_state": "BUILDING_PRESENT",
        "source_record_id": "os-openmap-local:important-building:80D7A296-F3BD-4C16-A0FD-165F46A4B9BF",
        "semantic_identity": "os-openmap-local:important-building:80D7A296-F3BD-4C16-A0FD-165F46A4B9BF",
        "source_row_ordinal": 10,
        "name": "Trafford General Hospital",
        "building_type_use": "hospital",
        "type_use_evidence": "OS ImportantBuilding CLASSIFICA=Hospital; BUILDGTHEM=Medical Care; FEATCODE=15020",
        "dataset": "OS OpenMap Local ImportantBuilding",
        "quality": "OS-derived generalized building footprint",
        "coordinate_reference_system": "OGC:CRS84; original EPSG:27700",
        "ID": "80D7A296-F3BD-4C16-A0FD-165F46A4B9BF",
        "DISTNAME": "Trafford General Hospital",
        "BUILDGTHEM": "Medical Care",
        "CLASSIFICA": "Hospital",
        "FEATCODE": 15020,
        "area_code": "E08000009",
        "area_name": "Trafford",
        "stroke": "#fc6721",
        "stroke-width": 3,
        "stroke-opacity": 1,
        "fill": "#fc6721",
        "fill-opacity": 0.8,
        "authority": "Ordnance Survey OS OpenMap Local; Trafford Data Lab local-government data publication",
        "source_url": "https://github.com/traffordDataLab/open_data/blob/10716c696e028978e4dc7a7e20027bd0cab6625e/hospitals/trafford_hospitals_styled.geojson",
        "final_url": "https://github.com/traffordDataLab/open_data/blob/10716c696e028978e4dc7a7e20027bd0cab6625e/hospitals/trafford_hospitals_styled.geojson",
        "http_status": 200,
        "access_utc": "2026-10-08T07:47:05.608Z",
        "data_date": "April 2018, source commit 2018-05-21",
        "source_version": "OS OpenMap Local ImportantBuilding; Trafford Data Lab hospital styled dataset; April 2018; revision 10716c696e028978e4dc7a7e20027bd0cab6625e; blob 14eecd7b7155e2fcba284ce54112b985047a23a6",
        "license": "Open Government Licence v3.0; Contains OS data © Crown copyright and database right 2018",
        "source_file_sha256": "80cb1415c11eb01e2d0a3823c1d6bc92b800f13fcc3a9c39ee76100fae85218b",
        "field_evidence": [
          "ID",
          "DISTNAME",
          "BUILDGTHEM",
          "CLASSIFICA",
          "FEATCODE",
          "area_code",
          "area_name",
          "geometry"
        ],
        "confidence_score_0_100": 96,
        "evidence_grade": "A_OS_OPENMAP_LOCAL_CLASSIFIED_BUILDING_POLYGON",
        "official_public_no_login": true,
        "fake_data": false,
        "evidence_slice_sha256": "34910e7d9db95cc1c7ab7ab060026f6edc43c71f915004fc757ea06d2ccff16b"
      }
    }
  ]
}
