{
  "features": [
    {
      "geometry": null,
      "id": "cheshire:chester:blacon",
      "properties": {
        "accepted_as_parcel": false,
        "access_utc": "2026-10-02T21:02:00Z",
        "canonical_binding": "LOCAL_OPENCODE_PENDING_NOT_CLAIMED",
        "canonical_url": "https://www.cheshire.police.uk/area/your-area/cheshire/chester/blacon/",
        "confidence_score_0_100": 100,
        "data_date": "2026-10-02 access snapshot",
        "direct_parcel": false,
        "duplicate": false,
        "evidence_grade": "A_OFFICIAL_FORCE_WEBSITE_EXACT_AREA_SLUG",
        "fake_data": false,
        "force_id": "cheshire",
        "identifier": "blacon",
        "identifier_field": "canonical_team_slug",
        "identifier_version": "Cheshire Constabulary Chester team URL slug",
        "name": "Blacon",
        "parent_area": "Chester",
        "record_type": "SOURCE_AREA_EXACT_IDENTIFIER",
        "source_area_counted": true,
        "source_url": "https://www.cheshire.police.uk/area/your-area/cheshire/chester/"
      },
      "type": "Feature"
    },
    {
      "geometry": null,
      "id": "cheshire:chester:boughton",
      "properties": {
        "accepted_as_parcel": false,
        "access_utc": "2026-10-02T21:02:00Z",
        "canonical_binding": "LOCAL_OPENCODE_PENDING_NOT_CLAIMED",
        "canonical_url": "https://www.cheshire.police.uk/area/your-area/cheshire/chester/boughton/",
        "confidence_score_0_100": 100,
        "data_date": "2026-10-02 access snapshot",
        "direct_parcel": false,
        "duplicate": false,
        "evidence_grade": "A_OFFICIAL_FORCE_WEBSITE_EXACT_AREA_SLUG",
        "fake_data": false,
        "force_id": "cheshire",
        "identifier": "boughton",
        "identifier_field": "canonical_team_slug",
        "identifier_version": "Cheshire Constabulary Chester team URL slug",
        "name": "Boughton",
        "parent_area": "Chester",
        "record_type": "SOURCE_AREA_EXACT_IDENTIFIER",
        "source_area_counted": true,
        "source_url": "https://www.cheshire.police.uk/area/your-area/cheshire/chester/"
      },
      "type": "Feature"
    },
    {
      "geometry": null,
      "id": "cheshire:chester:chester-city",
      "properties": {
        "accepted_as_parcel": false,
        "access_utc": "2026-10-02T21:02:00Z",
        "canonical_binding": "LOCAL_OPENCODE_PENDING_NOT_CLAIMED",
        "canonical_url": "https://www.cheshire.police.uk/area/your-area/cheshire/chester/chester-city/",
        "confidence_score_0_100": 100,
        "data_date": "2026-10-02 access snapshot",
        "direct_parcel": false,
        "duplicate": false,
        "evidence_grade": "A_OFFICIAL_FORCE_WEBSITE_EXACT_AREA_SLUG",
        "fake_data": false,
        "force_id": "cheshire",
        "identifier": "chester-city",
        "identifier_field": "canonical_team_slug",
        "identifier_version": "Cheshire Constabulary Chester team URL slug",
        "name": "Chester City",
        "parent_area": "Chester",
        "record_type": "SOURCE_AREA_EXACT_IDENTIFIER",
        "source_area_counted": true,
        "source_url": "https://www.cheshire.police.uk/area/your-area/cheshire/chester/"
      },
      "type": "Feature"
    },
    {
      "geometry": null,
      "id": "cheshire:chester:chester-villages",
      "properties": {
        "accepted_as_parcel": false,
        "access_utc": "2026-10-02T21:02:00Z",
        "canonical_binding": "LOCAL_OPENCODE_PENDING_NOT_CLAIMED",
        "canonical_url": "https://www.cheshire.police.uk/area/your-area/cheshire/chester/chester-villages/",
        "confidence_score_0_100": 100,
        "data_date": "2026-10-02 access snapshot",
        "direct_parcel": false,
        "duplicate": false,
        "evidence_grade": "A_OFFICIAL_FORCE_WEBSITE_EXACT_AREA_SLUG",
        "fake_data": false,
        "force_id": "cheshire",
        "identifier": "chester-villages",
        "identifier_field": "canonical_team_slug",
        "identifier_version": "Cheshire Constabulary Chester team URL slug",
        "name": "Chester Villages",
        "parent_area": "Chester",
        "record_type": "SOURCE_AREA_EXACT_IDENTIFIER",
        "source_area_counted": true,
        "source_url": "https://www.cheshire.police.uk/area/your-area/cheshire/chester/"
      },
      "type": "Feature"
    },
    {
      "geometry": null,
      "id": "cheshire:chester:garden-quarter",
      "properties": {
        "accepted_as_parcel": false,
        "access_utc": "2026-10-02T21:02:00Z",
        "canonical_binding": "LOCAL_OPENCODE_PENDING_NOT_CLAIMED",
        "canonical_url": "https://www.cheshire.police.uk/area/your-area/cheshire/chester/garden-quarter/",
        "confidence_score_0_100": 100,
        "data_date": "2026-10-02 access snapshot",
        "direct_parcel": false,
        "duplicate": false,
        "evidence_grade": "A_OFFICIAL_FORCE_WEBSITE_EXACT_AREA_SLUG",
        "fake_data": false,
        "force_id": "cheshire",
        "identifier": "garden-quarter",
        "identifier_field": "canonical_team_slug",
        "identifier_version": "Cheshire Constabulary Chester team URL slug",
        "name": "Garden Quarter",
        "parent_area": "Chester",
        "record_type": "SOURCE_AREA_EXACT_IDENTIFIER",
        "source_area_counted": true,
        "source_url": "https://www.cheshire.police.uk/area/your-area/cheshire/chester/"
      },
      "type": "Feature"
    },
    {
      "geometry": null,
      "id": "cheshire:chester:great-boughton",
      "properties": {
        "accepted_as_parcel": false,
        "access_utc": "2026-10-02T21:02:00Z",
        "canonical_binding": "LOCAL_OPENCODE_PENDING_NOT_CLAIMED",
        "canonical_url": "https://www.cheshire.police.uk/area/your-area/cheshire/chester/great-boughton/",
        "confidence_score_0_100": 100,
        "data_date": "2026-10-02 access snapshot",
        "direct_parcel": false,
        "duplicate": false,
        "evidence_grade": "A_OFFICIAL_FORCE_WEBSITE_EXACT_AREA_SLUG",
        "fake_data": false,
        "force_id": "cheshire",
        "identifier": "great-boughton",
        "identifier_field": "canonical_team_slug",
        "identifier_version": "Cheshire Constabulary Chester team URL slug",
        "name": "Great Boughton",
        "parent_area": "Chester",
        "record_type": "SOURCE_AREA_EXACT_IDENTIFIER",
        "source_area_counted": true,
        "source_url": "https://www.cheshire.police.uk/area/your-area/cheshire/chester/"
      },
      "type": "Feature"
    },
    {
      "geometry": null,
      "id": "cheshire:chester:handbridge-park",
      "properties": {
        "accepted_as_parcel": false,
        "access_utc": "2026-10-02T21:02:00Z",
        "canonical_binding": "LOCAL_OPENCODE_PENDING_NOT_CLAIMED",
        "canonical_url": "https://www.cheshire.police.uk/area/your-area/cheshire/chester/handbridge-park/",
        "confidence_score_0_100": 100,
        "data_date": "2026-10-02 access snapshot",
        "direct_parcel": false,
        "duplicate": false,
        "evidence_grade": "A_OFFICIAL_FORCE_WEBSITE_EXACT_AREA_SLUG",
        "fake_data": false,
        "force_id": "cheshire",
        "identifier": "handbridge-park",
        "identifier_field": "canonical_team_slug",
        "identifier_version": "Cheshire Constabulary Chester team URL slug",
        "name": "Handbridge Park",
        "parent_area": "Chester",
        "record_type": "SOURCE_AREA_EXACT_IDENTIFIER",
        "source_area_counted": true,
        "source_url": "https://www.cheshire.police.uk/area/your-area/cheshire/chester/"
      },
      "type": "Feature"
    },
    {
      "geometry": null,
      "id": "cheshire:chester:hoole",
      "properties": {
        "accepted_as_parcel": false,
        "access_utc": "2026-10-02T21:02:00Z",
        "canonical_binding": "LOCAL_OPENCODE_PENDING_NOT_CLAIMED",
        "canonical_url": "https://www.cheshire.police.uk/area/your-area/cheshire/chester/hoole/",
        "confidence_score_0_100": 100,
        "data_date": "2026-10-02 access snapshot",
        "direct_parcel": false,
        "duplicate": false,
        "evidence_grade": "A_OFFICIAL_FORCE_WEBSITE_EXACT_AREA_SLUG",
        "fake_data": false,
        "force_id": "cheshire",
        "identifier": "hoole",
        "identifier_field": "canonical_team_slug",
        "identifier_version": "Cheshire Constabulary Chester team URL slug",
        "name": "Hoole",
        "parent_area": "Chester",
        "record_type": "SOURCE_AREA_EXACT_IDENTIFIER",
        "source_area_counted": true,
        "source_url": "https://www.cheshire.police.uk/area/your-area/cheshire/chester/"
      },
      "type": "Feature"
    },
    {
      "geometry": null,
      "id": "cheshire:chester:lache",
      "properties": {
        "accepted_as_parcel": false,
        "access_utc": "2026-10-02T21:02:00Z",
        "canonical_binding": "LOCAL_OPENCODE_PENDING_NOT_CLAIMED",
        "canonical_url": "https://www.cheshire.police.uk/area/your-area/cheshire/chester/lache/",
        "confidence_score_0_100": 100,
        "data_date": "2026-10-02 access snapshot",
        "direct_parcel": false,
        "duplicate": false,
        "evidence_grade": "A_OFFICIAL_FORCE_WEBSITE_EXACT_AREA_SLUG",
        "fake_data": false,
        "force_id": "cheshire",
        "identifier": "lache",
        "identifier_field": "canonical_team_slug",
        "identifier_version": "Cheshire Constabulary Chester team URL slug",
        "name": "Lache",
        "parent_area": "Chester",
        "record_type": "SOURCE_AREA_EXACT_IDENTIFIER",
        "source_area_counted": true,
        "source_url": "https://www.cheshire.police.uk/area/your-area/cheshire/chester/"
      },
      "type": "Feature"
    },
    {
      "geometry": null,
      "id": "cheshire:chester:newton",
      "properties": {
        "accepted_as_parcel": false,
        "access_utc": "2026-10-02T21:02:00Z",
        "canonical_binding": "LOCAL_OPENCODE_PENDING_NOT_CLAIMED",
        "canonical_url": "https://www.cheshire.police.uk/area/your-area/cheshire/chester/newton/",
        "confidence_score_0_100": 100,
        "data_date": "2026-10-02 access snapshot",
        "direct_parcel": false,
        "duplicate": false,
        "evidence_grade": "A_OFFICIAL_FORCE_WEBSITE_EXACT_AREA_SLUG",
        "fake_data": false,
        "force_id": "cheshire",
        "identifier": "newton",
        "identifier_field": "canonical_team_slug",
        "identifier_version": "Cheshire Constabulary Chester team URL slug",
        "name": "Newton",
        "parent_area": "Chester",
        "record_type": "SOURCE_AREA_EXACT_IDENTIFIER",
        "source_area_counted": true,
        "source_url": "https://www.cheshire.police.uk/area/your-area/cheshire/chester/"
      },
      "type": "Feature"
    },
    {
      "geometry": null,
      "id": "cheshire:chester:saughall-mollington-and-elton",
      "properties": {
        "accepted_as_parcel": false,
        "access_utc": "2026-10-02T21:02:00Z",
        "canonical_binding": "LOCAL_OPENCODE_PENDING_NOT_CLAIMED",
        "canonical_url": "https://www.cheshire.police.uk/area/your-area/cheshire/chester/saughall-mollington-and-elton/",
        "confidence_score_0_100": 100,
        "data_date": "2026-10-02 access snapshot",
        "direct_parcel": false,
        "duplicate": false,
        "evidence_grade": "A_OFFICIAL_FORCE_WEBSITE_EXACT_AREA_SLUG",
        "fake_data": false,
        "force_id": "cheshire",
        "identifier": "saughall-mollington-and-elton",
        "identifier_field": "canonical_team_slug",
        "identifier_version": "Cheshire Constabulary Chester team URL slug",
        "name": "Saughall, Mollington and Elton",
        "parent_area": "Chester",
        "record_type": "SOURCE_AREA_EXACT_IDENTIFIER",
        "source_area_counted": true,
        "source_url": "https://www.cheshire.police.uk/area/your-area/cheshire/chester/"
      },
      "type": "Feature"
    },
    {
      "geometry": null,
      "id": "cheshire:chester:upton",
      "properties": {
        "accepted_as_parcel": false,
        "access_utc": "2026-10-02T21:02:00Z",
        "canonical_binding": "LOCAL_OPENCODE_PENDING_NOT_CLAIMED",
        "canonical_url": "https://www.cheshire.police.uk/area/your-area/cheshire/chester/upton/",
        "confidence_score_0_100": 100,
        "data_date": "2026-10-02 access snapshot",
        "direct_parcel": false,
        "duplicate": false,
        "evidence_grade": "A_OFFICIAL_FORCE_WEBSITE_EXACT_AREA_SLUG",
        "fake_data": false,
        "force_id": "cheshire",
        "identifier": "upton",
        "identifier_field": "canonical_team_slug",
        "identifier_version": "Cheshire Constabulary Chester team URL slug",
        "name": "Upton",
        "parent_area": "Chester",
        "record_type": "SOURCE_AREA_EXACT_IDENTIFIER",
        "source_area_counted": true,
        "source_url": "https://www.cheshire.police.uk/area/your-area/cheshire/chester/"
      },
      "type": "Feature"
    }
  ],
  "name": "security_public_safety_3",
  "properties": {
    "accepted_count": 0,
    "batch_id": "20261002T210200Z-cheshire-chester-snt-slugs-000-011",
    "fake_data": false,
    "lineage_id": "L24-SPS3-57442c9c2a0f429be2d2",
    "page_generation": 1,
    "partition": {
      "count": 30761,
      "end": 92283,
      "start": 61523
    },
    "schema": "AAYS_LAYER24_EVIDENCE_V1",
    "slot_id": "security_public_safety_3",
    "source_area_count": 12
  },
  "type": "FeatureCollection"
}
