{"type":"FeatureCollection","features":[{"type":"Feature","geometry":null,"properties":{"slot_id":"future_growth_1","lineage_id":"future_growth_1-newstart-20260927T153100+0300","page_generation":null,"accepted_as_parcel":false,"source_area_count_contribution":1,"exact_identifier":"AA","exact_identifier_provided":true,"coverage_polygon_provided":false,"identifier_namespace":"Barking and Dagenham Local Plan 2037 site reference","site_name":"Barking Riverside","access_utc":"2026-10-04T16:02:00Z","data_date":"2024-09-18","source_url":"https://www.lbbd.gov.uk/sites/default/files/2024-10/B%26D_LocalPlan_A4_SEP24_digital.pdf","final_url":"https://www.lbbd.gov.uk/sites/default/files/2024-10/B%26D_LocalPlan_A4_SEP24_digital.pdf","adoption_url":"https://www.lbbd.gov.uk/sites/default/files/2024-10/Local%20Plan%20Adoption%20Statement%20September%202024.pdf","gis_url":"https://services.arcgis.com/drifeOPKLpgnJ8Qa/arcgis/rest/services/planning_local_plan_data_02/FeatureServer/6","license":"Publicly accessible LBBD Local Plan and public ArcGIS planning service; layer-specific reuse licence not stated in service metadata","authority":"London Borough of Barking and Dagenham","indicative_net_minimum_capacity_homes":11162,"plan_status":"adopted","adoption_date":"2024-09-18","policy":"SPP2","feature_service_layer_id":6,"feature_service_layer_name":"Site Allocations","feature_service_geometry_type":"esriGeometryPolygon","feature_service_spatial_reference_epsg":27700,"evidence_grade":"A","confidence_score_0_100":99,"evidence_scope":"exact adopted Local Plan site allocation AA plus public Site Allocations polygon layer metadata","evidence_slice_sha256":"30f9c8d097bbce26acf2c390d283263abaab9723633da1d82c9164e984641034","fake_data":false,"spatial_binding_method":"official adopted site reference AA plus public polygon FeatureServer layer 6; exact feature boundary resolution, canonical parcel spatial join and materialization delegated to local OpenCode","planned_building_count_contribution":0}}]}