{
  "type": "FeatureCollection",
  "features": [
    {
      "type": "Feature",
      "id": "brownfield-site:BLR4",
      "geometry": {
        "type": "MultiPolygon",
        "coordinates": [
          [
            [
              [
                0.017033,
                51.407628
              ],
              [
                0.016907,
                51.40747
              ],
              [
                0.016891,
                51.407366
              ],
              [
                0.016879,
                51.407169
              ],
              [
                0.017244,
                51.407284
              ],
              [
                0.017296,
                51.407228
              ],
              [
                0.017366,
                51.407148
              ],
              [
                0.01759,
                51.406908
              ],
              [
                0.017497,
                51.406876
              ],
              [
                0.017492,
                51.406883
              ],
              [
                0.017396,
                51.406868
              ],
              [
                0.017497,
                51.406535
              ],
              [
                0.017521,
                51.406535
              ],
              [
                0.017541,
                51.40653
              ],
              [
                0.017555,
                51.40652
              ],
              [
                0.017565,
                51.406506
              ],
              [
                0.017615,
                51.406284
              ],
              [
                0.018405,
                51.406346
              ],
              [
                0.018427,
                51.40635
              ],
              [
                0.018444,
                51.406359
              ],
              [
                0.018453,
                51.406374
              ],
              [
                0.018459,
                51.406389
              ],
              [
                0.018429,
                51.406475
              ],
              [
                0.018408,
                51.406516
              ],
              [
                0.018379,
                51.406556
              ],
              [
                0.018288,
                51.406659
              ],
              [
                0.0183,
                51.406663
              ],
              [
                0.018249,
                51.406722
              ],
              [
                0.018236,
                51.406719
              ],
              [
                0.018146,
                51.406814
              ],
              [
                0.018156,
                51.406818
              ],
              [
                0.018149,
                51.406828
              ],
              [
                0.018161,
                51.406835
              ],
              [
                0.018168,
                51.406845
              ],
              [
                0.018171,
                51.406854
              ],
              [
                0.018168,
                51.406865
              ],
              [
                0.018163,
                51.406873
              ],
              [
                0.018146,
                51.406883
              ],
              [
                0.018125,
                51.406887
              ],
              [
                0.018097,
                51.406884
              ],
              [
                0.01809,
                51.40689
              ],
              [
                0.018074,
                51.406885
              ],
              [
                0.017986,
                51.406977
              ],
              [
                0.017992,
                51.40698
              ],
              [
                0.017941,
                51.407036
              ],
              [
                0.017884,
                51.407117
              ],
              [
                0.017879,
                51.407137
              ],
              [
                0.017688,
                51.4073
              ],
              [
                0.017511,
                51.407386
              ],
              [
                0.017237,
                51.407527
              ],
              [
                0.017106,
                51.40759
              ],
              [
                0.017033,
                51.407628
              ]
            ]
          ]
        ]
      },
      "properties": {
        "slot_id": "future_growth_2",
        "lineage_id": "d409404e-c2b6-4d79-b904-d05e944a949e",
        "page_generation": 4,
        "batch_id": "batch-20261009T033918Z_mhclg_bromley_BLR4_official_WKT",
        "schema": "AAYS_LAYER24_EVIDENCE_V1",
        "source_dataset": "brownfield-site",
        "source_provider": "MHCLG Planning Data / London Borough of Bromley",
        "source_exact_identifier": "brownfield-site:BLR4",
        "category": "brownfield-site",
        "source_url": "https://www.planning.data.gov.uk/entity/1802113",
        "final_url": "https://www.planning.data.gov.uk/entity/1802113",
        "accessed_utc": "2026-10-09T03:39:18.953Z",
        "http_status": null,
        "data_date": "2020-12-22",
        "license": "Open Government Licence v3.0",
        "source_file_sha256": "3e08682c236f8aab0ca12ad964638761410679dcb3a2eb46f3ef6a5381e68570",
        "source_file_sha256_scope": "normalized_official_WKT_field_evidence_slice; not raw source bytes",
        "evidence_slice_sha256": "3e08682c236f8aab0ca12ad964638761410679dcb3a2eb46f3ef6a5381e68570",
        "field_evidence": {
          "entity": 1802113,
          "curie": "brownfield-site:BLR4",
          "reference": "BLR4",
          "name": "Opportunity Site C Old Town Hall 30 Tweedy Road BR1 3FE",
          "dataset": "brownfield-site",
          "organisation": "London Borough of Bromley",
          "organisation_entity": 65,
          "quality": "some",
          "start_date": "",
          "entry_date": "2020-12-22",
          "geometry_source_field": "geometry",
          "geometry_type": "MultiPolygon",
          "point": "POINT (0.017698 51.40687)"
        },
        "confidence_score_0_100": 85,
        "evidence_grade": "B_OFFICIAL_BROWNFIELD_WKT_QUALITY_SOME",
        "geometry_crs": "EPSG:4326",
        "direct_parcel": false,
        "canonical_join_status": "PENDING_LOCAL_SPATIAL_JOIN",
        "fake_data": false
      }
    }
  ]
}
