{"type":"FeatureCollection","features":[{"type":"Feature","id":"ons-ogp-wd-dec-2024-bgc:E05009390","geometry":null,"properties":{"evidence_scope":"coverage_area","coverage_area_id":"E05009390","coverage_area_name":"Campden","identifier_scheme":"ONS_OGP_WD24CD_BINDING","exact_official_identifier":"E05009390","source_resolution":"ONS_OGP_DEC_2024_BGC_GENERALISED_20M_COASTLINE_CLIPPED","time_window":"2024-12","measurement_date":"2024-12","measurement_method":"official ONS ward-boundary dataset binding","spatial_binding_method":"FEATURE_EXTRACTION_AND_PARCEL_JOIN_DEFERRED_TO_LOCAL_OPENCODE","source_url":"https://www.data.gov.uk/dataset/e8493e3d-619e-4362-aa3a-0a3538177da8/wards-december-2024-boundaries-uk-bgc","final_url":"https://www.data.gov.uk/dataset/e8493e3d-619e-4362-aa3a-0a3538177da8/wards-december-2024-boundaries-uk-bgc","accessed_at_utc":"2026-10-05T23:55:00Z","data_date":"2024-12","licence":"Contains Ordnance Survey and ONS Intellectual Property Rights","sha256":"2aaf5d28d855c9b7add3594e2f4fe768c1ee2f4500b18a07cac014a823070756","field_evidence":{"dataset_title":"Wards (December 2024) Boundaries UK BGC","publisher":"Office for National Statistics","updated":"2025-01-12","boundary_reference_date":"2024-12","boundary_resolution":"BGC Generalised (20m) - clipped to the coastline (Mean High Water mark)","feature_access_service":"https://services1.arcgis.com/ESMARspQHYMw9BZ9/arcgis/rest/services/Wards_December_2024_Boundaries_UK_BGC/FeatureServer","wfs_service":"https://dservices1.arcgis.com/ESMARspQHYMw9BZ9/arcgis/services/Wards_December_2024_Boundaries_UK_BGC/WFSServer?service=wfs&request=getcapabilities","map_service":"https://services1.arcgis.com/ESMARspQHYMw9BZ9/arcgis/rest/services/Wards_December_2024_Boundaries_UK_BGC/MapServer","harvest_guid":"91a1b096076843838f4341cf7dd6d14d","target_ward_code":"E05009390","target_ward_name":"Campden","target_binding_basis":"existing verified Campden ward identity; feature extraction and parcel join deferred to local OpenCode","geometry_materialized":false,"source_url":"https://www.data.gov.uk/dataset/e8493e3d-619e-4362-aa3a-0a3538177da8/wards-december-2024-boundaries-uk-bgc","accessed_at_utc":"2026-10-05T23:55:00Z"},"evidence_slice_sha256":"03cae39adc91fb6ae084feaabe4e1453b12cc2e00ade33a2fd2efa1236bd43b3","confidence_score_0_100":98,"evidence_grade":"A","fake_data":false,"source_window_id":"ons_ogp_WD_DEC_2024_UK_BGC_E05009390_sps5_20261006_v1","cursor":"ons_ogp_WD_DEC_2024_UK_BGC_E05009390_sps5_20261006_v1:record=1"}}]}
