{"type":"FeatureCollection","features":[{"type":"Feature","geometry":null,"properties":{"slot_id":"future_growth_3","lineage_id":"future_growth_3-newstart-20261001T203100Z","page_generation":null,"accepted_as_parcel":false,"source_area_count_contribution":1,"exact_identifier":"HS26","exact_identifier_provided":true,"coverage_polygon_provided":false,"identifier_namespace":"Hastings Local Plan 2023-2041 Regulation 19 site allocation policy reference","secondary_exact_identifier":"Site of Four Courts, Stonehouse Drive","source_entity":"HS26 - Site of Four Courts, Stonehouse Drive","access_utc":"2026-10-02T19:34:35Z","data_date":"2026-10-01","source_url":"https://www.hastings.gov.uk/news/councilleaderscolumn/leader-col-28-aug/","final_url":"https://www.hastings.gov.uk/news/councilleaderscolumn/leader-col-28-aug/","license":"© 2003 - 2026 Hastings Borough Council. Unless otherwise stated these pages are copyright protected. All rights reserved.","authority":"Hastings Borough Council","site_address":"Site of Four Courts, Stonehouse Drive, Hastings","field_evidence":{"reference":"HS26","dataset":"Hastings Local Plan Pre-Submission Version 2023-2041 (Regulation 19)","organisation":"Hastings Borough Council","site_name":"Site of Four Courts, Stonehouse Drive","plan_horizon":2041,"regulation_stage":"Regulation 19","representation_start_date":"2026-10-01","representation_end_date":"2026-11-12","current_stage_evidence_url":"https://www.hastings.gov.uk/planning/policy/new-local-plan/draft-new-local-plan-reg-19/"},"source_payload_sha256":"ecf6352f9564cf74a43536302b522d47c279b122db61c71a29a9c0a3fd7a2756","source_payload_sha256_basis":"canonicalized official Hastings Borough Council HS26 Regulation 19 evidence fields","evidence_slice_sha256":"4b1a8ffc61059fdcb02e0cea204c0b7a07b0c6d24c587272bd5d8b00f04de9a3","evidence_grade":"A","confidence_score_0_100":99,"evidence_scope":"exact_official_identifier_from_current_council_regulation19_site_allocation","fake_data":false,"spatial_binding_method":"official Hastings Borough Council Policy HS26 exact site-allocation reference; canonical parcel spatial join and materialization delegated to local OpenCode","planned_building_count_contribution":0}}]}