{"features":[{"geometry":{"coordinates":[[[[1.441115,51.358485],[1.4411,51.358456],[1.441057,51.358464],[1.441046,51.358443],[1.441087,51.358435],[1.441092,51.35844],[1.441206,51.35842],[1.441281,51.358561],[1.441207,51.358579],[1.441184,51.358538],[1.441148,51.358545],[1.441115,51.358485]]]],"type":"MultiPolygon"},"id":"42191566","properties":{"access_utc":"2026-10-04T03:35:00Z","batch_id":"batch-0039","building_evidence_status":"BUILDING_PRESENT","building_type":"listed_building","building_use":null,"canonical_parcel_id":null,"confidence_score_0_100":94,"data_date":"2026-02-04","evidence_grade":"A","evidence_slice_sha256":"ada7b89860ee89ab81cd4b4230ce472c99abc04f1807b54af932775dfcf0a445","fake_data":false,"field_evidence":{"footprint":"official listed-building-outline MULTIPOLYGON","name":"Nationwide Broadstairs","reference":"979","type":"official dataset classification: listed-building-outline","use":"no use inferred"},"final_url":"https://www.planning.data.gov.uk/entity/42191566","licence":"Open Government Licence v3.0","lineage_id":"building_type_9-20261001T200900Z-newstart","local_spatial_join_required":true,"page_generation":1,"parcel_status":"UNPROCESSED","poi_accepted":false,"slot_id":"building_type_9","source_dataset":"listed-building-outline","source_entity":42191566,"source_organisation":"Thanet District Council","source_reference":"979","source_url":"https://www.planning.data.gov.uk/entity/42191566"},"type":"Feature"},{"geometry":{"coordinates":[[[[1.414224,51.330879],[1.414276,51.330892],[1.414286,51.330876],[1.414243,51.330862],[1.414272,51.330827],[1.414421,51.330873],[1.414425,51.330885],[1.414379,51.330934],[1.41437,51.33093],[1.414361,51.330939],[1.414162,51.330886],[1.414177,51.330867],[1.414224,51.330879]]]],"type":"MultiPolygon"},"id":"42192456","properties":{"access_utc":"2026-10-04T03:35:00Z","batch_id":"batch-0039","building_evidence_status":"BUILDING_PRESENT","building_type":"listed_building","building_use":null,"canonical_parcel_id":null,"confidence_score_0_100":94,"data_date":"2026-02-04","evidence_grade":"A","evidence_slice_sha256":"a99fbd516a178e765ae52d4e575a450245b5684480a4dcd5844ec6015bcf3915","fake_data":false,"field_evidence":{"footprint":"official listed-building-outline MULTIPOLYGON","name":"Londis","reference":"1079","type":"official dataset classification: listed-building-outline","use":"no use inferred"},"final_url":"https://www.planning.data.gov.uk/entity/42192456","licence":"Open Government Licence v3.0","lineage_id":"building_type_9-20261001T200900Z-newstart","local_spatial_join_required":true,"page_generation":1,"parcel_status":"UNPROCESSED","poi_accepted":false,"slot_id":"building_type_9","source_dataset":"listed-building-outline","source_entity":42192456,"source_organisation":"Thanet District Council","source_reference":"1079","source_url":"https://www.planning.data.gov.uk/entity/42192456"},"type":"Feature"},{"geometry":{"coordinates":[[[[1.409791,51.328318],[1.409777,51.328312],[1.409747,51.328333],[1.409697,51.32831],[1.409763,51.328259],[1.409752,51.32825],[1.40974,51.328259],[1.409718,51.32825],[1.409644,51.328309],[1.409619,51.328297],[1.409714,51.32822],[1.409601,51.328165],[1.409647,51.328127],[1.409701,51.328154],[1.409765,51.328104],[1.409906,51.328174],[1.409898,51.32818],[1.410011,51.328235],[1.409975,51.328261],[1.409958,51.328253],[1.409933,51.328269],[1.409895,51.328253],[1.409831,51.328302],[1.409791,51.328318]]]],"type":"MultiPolygon"},"id":"42192125","properties":{"access_utc":"2026-10-04T03:35:00Z","batch_id":"batch-0039","building_evidence_status":"BUILDING_PRESENT","building_type":"listed_building","building_use":null,"canonical_parcel_id":null,"confidence_score_0_100":94,"data_date":"2026-02-04","evidence_grade":"A","evidence_slice_sha256":"aa28dba8e4237a27fbef598748ffa3f84e546ee9330ace0d1212aa28bdd99f80","fake_data":false,"field_evidence":{"footprint":"official listed-building-outline MULTIPOLYGON","name":"The Grange","reference":"763","type":"official dataset classification: listed-building-outline","use":"no use inferred"},"final_url":"https://www.planning.data.gov.uk/entity/42192125","licence":"Open Government Licence v3.0","lineage_id":"building_type_9-20261001T200900Z-newstart","local_spatial_join_required":true,"page_generation":1,"parcel_status":"UNPROCESSED","poi_accepted":false,"slot_id":"building_type_9","source_dataset":"listed-building-outline","source_entity":42192125,"source_organisation":"Thanet District Council","source_reference":"763","source_url":"https://www.planning.data.gov.uk/entity/42192125"},"type":"Feature"},{"geometry":{"coordinates":[[[[1.304107,51.372583],[1.304026,51.372517],[1.30408,51.372493],[1.304118,51.372524],[1.304142,51.372513],[1.304128,51.372503],[1.304174,51.372486],[1.304181,51.372495],[1.304223,51.372477],[1.304183,51.372446],[1.304166,51.372452],[1.304159,51.372447],[1.304175,51.372439],[1.304162,51.372428],[1.304143,51.372436],[1.30414,51.372428],[1.304154,51.372423],[1.304154,51.372421],[1.304291,51.372355],[1.304328,51.372388],[1.304277,51.37241],[1.304351,51.372472],[1.304107,51.372583]]]],"type":"MultiPolygon"},"id":"42192240","properties":{"access_utc":"2026-10-04T03:35:00Z","batch_id":"batch-0039","building_evidence_status":"BUILDING_PRESENT","building_type":"listed_building","building_use":null,"canonical_parcel_id":null,"confidence_score_0_100":94,"data_date":"2026-02-04","evidence_grade":"A","evidence_slice_sha256":"921394f40c8e53d1007ba1169e7fc264c85c258e690a10b69d0b265b29be81ba","fake_data":false,"field_evidence":{"footprint":"official listed-building-outline MULTIPOLYGON","name":"230 Canterbury Road, Birchington, Kent, EnglandTD","reference":"354","type":"official dataset classification: listed-building-outline","use":"no use inferred"},"final_url":"https://www.planning.data.gov.uk/entity/42192240","licence":"Open Government Licence v3.0","lineage_id":"building_type_9-20261001T200900Z-newstart","local_spatial_join_required":true,"page_generation":1,"parcel_status":"UNPROCESSED","poi_accepted":false,"slot_id":"building_type_9","source_dataset":"listed-building-outline","source_entity":42192240,"source_organisation":"Thanet District Council","source_reference":"354","source_url":"https://www.planning.data.gov.uk/entity/42192240"},"type":"Feature"},{"geometry":{"coordinates":[[[[1.384507,51.384817],[1.384428,51.384969],[1.384391,51.385069],[1.384335,51.385056],[1.384341,51.385035],[1.384294,51.385028],[1.384302,51.385002],[1.38432,51.385004],[1.384338,51.384964],[1.384244,51.384946],[1.38425,51.384932],[1.384312,51.384944],[1.384325,51.384916],[1.384262,51.384903],[1.384269,51.384888],[1.384358,51.384904],[1.384364,51.384894],[1.384348,51.384889],[1.384355,51.384877],[1.38432,51.38487],[1.384334,51.384843],[1.384399,51.384855],[1.384406,51.384839],[1.384392,51.384835],[1.384411,51.384796],[1.384507,51.384817]]]],"type":"MultiPolygon"},"id":"42191652","properties":{"access_utc":"2026-10-04T03:35:00Z","batch_id":"batch-0039","building_evidence_status":"BUILDING_PRESENT","building_type":"listed_building","building_use":null,"canonical_parcel_id":null,"confidence_score_0_100":94,"data_date":"2026-02-04","evidence_grade":"A","evidence_slice_sha256":"f2ebdc4b8551164aaa5cd55e44e8dd08474333c2f8f97bdc680d0684ea5f2b55","fake_data":false,"field_evidence":{"footprint":"official listed-building-outline MULTIPOLYGON","name":"17 Princes Crescent, Margate and Ramsgate, Margate, Kent, England, CT9 1LY","reference":"161","type":"official dataset classification: listed-building-outline","use":"no use inferred"},"final_url":"https://www.planning.data.gov.uk/entity/42191652","licence":"Open Government Licence v3.0","lineage_id":"building_type_9-20261001T200900Z-newstart","local_spatial_join_required":true,"page_generation":1,"parcel_status":"UNPROCESSED","poi_accepted":false,"slot_id":"building_type_9","source_dataset":"listed-building-outline","source_entity":42191652,"source_organisation":"Thanet District Council","source_reference":"161","source_url":"https://www.planning.data.gov.uk/entity/42191652"},"type":"Feature"}],"name":"building_type_9_batch_0039","type":"FeatureCollection"}