{
  "type": "FeatureCollection",
  "features": [
    {
      "type": "Feature",
      "geometry": null,
      "properties": {
        "schema": "AAYS_LAYER24_EVIDENCE_V1",
        "slot_id": "security_public_safety_4",
        "lineage_id": "L24-SPS4-57de1ed0eaf0f860383f",
        "page_generation": 10,
        "criterion": "security_public_safety_official_coverage_identifier",
        "record_role": "source_area_identifier",
        "source_record_index": 2,
        "area_name": "Harborough North",
        "major_text": "force=leicestershire",
        "minor_text": "neighbourhood_id=NA41",
        "series_start": null,
        "series_end": null,
        "series_month_count": 0,
        "visible_nonzero_evidence": true,
        "source_url": "https://data.police.uk/api/leicestershire/neighbourhoods",
        "final_url": "https://data.police.uk/api/leicestershire/neighbourhoods",
        "access_utc": "2026-10-07T04:41:44Z",
        "data_date": "current official neighbourhood listing observed 2026-10-07; endpoint carries no intrinsic effective date",
        "license": "Open Government Licence v3.0",
        "source_payload_sha256": "3806ae2ba3b914b1ad38e7806cd3398718827a2fa131a72561b20e9ffc995b7f",
        "field_evidence": {
          "id": "official API response field id; documentation defines it as a police-force-specific team identifier",
          "name": "official API response field name; documentation defines it as the neighbourhood name",
          "force_context": "endpoint path leicestershire/neighbourhoods fixes the police-force context",
          "window": "non-overlapping response record 2; Leicestershire records 0-1, Metropolitan records 0-60 and prior NC04 exact record were already processed",
          "authentication": "data.police.uk API authentication is not required",
          "license": "data.police.uk publishes the relevant data under Open Government Licence v3.0"
        },
        "evidence_slice_sha256": "00794e103626735b36a50a850a9efcbb53ebacff34dd247c00d19365f6b24a9f",
        "confidence_score_0_100": 100,
        "evidence_grade": "A_OFFICIAL_API_EXACT_IDENTIFIER",
        "join_state": "UNPROCESSED",
        "fake_data": false
      }
    }
  ]
}
