{"type":"FeatureCollection","features":[{"type":"Feature","geometry":null,"properties":{"slot_id":"future_growth_1","lineage_id":"future_growth_1-newstart-20260927T153100+0300","page_generation":null,"accepted_as_parcel":false,"source_area_count_contribution":1,"exact_identifier":"Blyth Tax Site","exact_identifier_provided":true,"coverage_polygon_provided":false,"identifier_namespace":"North East Investment Zone special tax site","site_name":"Blyth Tax Site","access_utc":"2026-10-07T03:42:00Z","data_date":"2026-08-20","source_url":"https://www.data.gov.uk/dataset/943b173c-c2e8-456e-a6f7-05c02d5df56f/investment-zones-northumberland","final_url":"https://www.data.gov.uk/dataset/943b173c-c2e8-456e-a6f7-05c02d5df56f/investment-zones-northumberland","gis_url":"https://services2.arcgis.com/LrUbY6lLLgV3tEa5/ArcGIS/rest/services/Investment_Zones/FeatureServer","legal_map_url":"https://www.gov.uk/government/publications/maps-of-north-east-investment-zone-tax-sites","designation_regulations_url":"https://www.legislation.gov.uk/uksi/2024/383/pdfs/uksi_20240383_en.pdf","license":"UK Open Government Licence (OGL)","authority":"Northumberland County Council","investment_zone":"North East Investment Zone","designation_effective_date":"2024-04-08","feature_service_layer_id":0,"feature_service_name":"Investment_Zones","feature_service_spatial_reference_epsg":27700,"evidence_grade":"A","confidence_score_0_100":99,"evidence_scope":"exact legally designated Blyth Tax Site plus Northumberland County Council Investment Zones public geospatial dataset and HMRC designation map/register","evidence_slice_sha256":"23d3458c21a17c71c4e4add27a4518134b90dfb3f93ab40a85d8ca637a821f72","fake_data":false,"spatial_binding_method":"official exact tax-site identifier plus authority-hosted Investment_Zones polygon service; canonical parcel spatial join and materialization delegated to local OpenCode","planned_building_count_contribution":0}}]}