{"type":"FeatureCollection","name":"height_difference_4_20261002T010000Z-ea-dtm-time-stamped-metadata","features":[{"type":"Feature","geometry":{"type":"Point","coordinates":[-1.202938,51.510277]},"properties":{"slot_id":"height_difference_4","owner":"height_difference_4","lineage_id":"height_difference_4-b0366fed520fdde8","page_generation":1,"partition":"layer24","schema":"AAYS_LAYER24_EVIDENCE_V1","semantic_mode":"HEIGHT_DIFFERENCE_OFFICIAL_DEM_EVIDENCE_ONLY","batch_id":"20261002T010000Z-ea-dtm-time-stamped-metadata","source_record_id":"EA_DTM_TIME_STAMPED_METADATA_DBADF364_20261002T010000Z","publisher":"Environment Agency","platform":"Defra Data Services Platform","dataset":"LIDAR DTM Time Stamped Tiles","metadata_identifier":"dbadf364-0192-4bcf-a223-f3d403f08682","source_url":"https://dsp.environment.data.gov.uk/dataset/dbadf364-0192-4bcf-a223-f3d403f08682","final_url":"https://dsp.environment.data.gov.uk/dataset/dbadf364-0192-4bcf-a223-f3d403f08682","access_utc":"2026-10-02T01:00:00Z","official_no_login":true,"data_date":{"creation":"1998-01-10","revision":"2024-07-19","period_start":"1996-12-01","period_end":"2024-04-18"},"license":"Open Government Licence","crs":"EPSG:27700","horizontal_units":"metres","vertical_datum":"Ordnance Survey Newlyn","resolution_range_m":{"min":0.25,"max":2},"format":"GeoTIFF","tile_size_km":5,"update_frequency":"quarterly","vertical_accuracy_rmse_m":0.15,"target":{"building_state":"BUILDING_PRESENT","building_entity":42122663,"building_reference":"1313121","centroid_wgs84":[-1.202938,51.510277],"centroid_epsg27700":[455411.669,179339.727],"provenance_commit":"7659c26b3fa4458508d06a5eb29a7b98b14c783e"},"tile":{"grid_basis":"OS National Grid aligned 5 km download tiles","target_grid_cell":"SU57NE","bbox_epsg27700":{"xmin":455000,"ymin":175000,"xmax":460000,"ymax":180000},"target_inside":true,"binding_basis":"Carried-forward accepted target BNG position; this source window corroborates the 5 km OS-grid-aligned GeoTIFF supply model but does not independently expose a tile-specific survey row."},"field_evidence":{"dataset_identity":"Official Environment Agency dataset metadata and identifier.","tile_supply":"Official metadata states GeoTIFF rasters are supplied in 5 km zipfiles aligned to the OS Grid.","crs":"Official metadata exposes EPSG:27700.","resolution":"Official metadata states 25 cm, 50 cm, 1 m and 2 m products depending on survey.","date":"Official metadata exposes revision 2024-07-19 and archive period 1996-12-01 through 2024-04-18; exact target-tile survey date requires the separate metadata index catalogue.","license":"Official metadata identifies Open Government Licence and no public access constraints.","vertical_reference":"Official metadata states metres referenced to Ordnance Survey Newlyn."},"source_original_file_sha256":null,"source_sha256_status":"NO_BINARY_TILE_DOWNLOADED_IN_THIS_METADATA_WINDOW","confidence":0.92,"evidence_grade":"B_OFFICIAL_TIME_STAMPED_DTM_METADATA_SUPPORTING_TILE_SUPPLY","accepted":true,"accepted_scope":"SUPPLEMENTAL_OFFICIAL_SOURCE_METADATA","height_difference_computed":false,"fake_data":false,"source_record_sha256":"8b6ed415a19b1392c969cebc5e81e4897de8870140229ceb0035e549580c6e09","evidence_slice_sha256":"cc28e446a4646c0b2a7bc8cd2fe5779248c55db8f4a12714a024ac818f65e9b8"}}]}
