{"type":"FeatureCollection","features":[{"type":"Feature","geometry":null,"properties":{"slot_id":"planned_buildings_1","lineage_id":"planned_buildings_1-0ffc4ebd6c6e4e41","semantic_mode":"DISTINCT_BUILDINGS","planned_building_id":"planning-application:W/25/02401/FUL::DWELLING_01","building_status":"PLANNED","building_name":"Dwelling 1, The Ridgeway New End Astwood Bank","planning_reference":"W/25/02401/FUL","authority":"Wychavon District Council","source_url":"https://plan.wychavon.gov.uk/Planning/Display/W/25/02401/FUL","final_url":"https://plan.wychavon.gov.uk/Planning/Display/W/25/02401/FUL","access_utc":"2026-10-05T04:47:00Z","source_data_date":"2025-11-07","license":"Council planning-register copyright/consultation terms; no separate data licence stated on page","geometry_role":"null; no geometry inferred","field_evidence":"Valid; Pending Decision; decision Pending; proposal explicitly states erection of 3 dwellings.","identity_limitation":"Exactly three new dwellings are counted from the explicit source cardinality; demolished existing buildings and associated works are not counted as new buildings.","confidence_score_0_100":99,"evidence_grade":"A","fake_data":false}},{"type":"Feature","geometry":null,"properties":{"slot_id":"planned_buildings_1","lineage_id":"planned_buildings_1-0ffc4ebd6c6e4e41","semantic_mode":"DISTINCT_BUILDINGS","planned_building_id":"planning-application:W/25/02401/FUL::DWELLING_02","building_status":"PLANNED","building_name":"Dwelling 2, The Ridgeway New End Astwood Bank","planning_reference":"W/25/02401/FUL","authority":"Wychavon District Council","source_url":"https://plan.wychavon.gov.uk/Planning/Display/W/25/02401/FUL","final_url":"https://plan.wychavon.gov.uk/Planning/Display/W/25/02401/FUL","access_utc":"2026-10-05T04:47:00Z","source_data_date":"2025-11-07","license":"Council planning-register copyright/consultation terms; no separate data licence stated on page","geometry_role":"null; no geometry inferred","field_evidence":"Valid; Pending Decision; decision Pending; proposal explicitly states erection of 3 dwellings.","identity_limitation":"Exactly three new dwellings are counted from the explicit source cardinality; demolished existing buildings and associated works are not counted as new buildings.","confidence_score_0_100":99,"evidence_grade":"A","fake_data":false}},{"type":"Feature","geometry":null,"properties":{"slot_id":"planned_buildings_1","lineage_id":"planned_buildings_1-0ffc4ebd6c6e4e41","semantic_mode":"DISTINCT_BUILDINGS","planned_building_id":"planning-application:W/25/02401/FUL::DWELLING_03","building_status":"PLANNED","building_name":"Dwelling 3, The Ridgeway New End Astwood Bank","planning_reference":"W/25/02401/FUL","authority":"Wychavon District Council","source_url":"https://plan.wychavon.gov.uk/Planning/Display/W/25/02401/FUL","final_url":"https://plan.wychavon.gov.uk/Planning/Display/W/25/02401/FUL","access_utc":"2026-10-05T04:47:00Z","source_data_date":"2025-11-07","license":"Council planning-register copyright/consultation terms; no separate data licence stated on page","geometry_role":"null; no geometry inferred","field_evidence":"Valid; Pending Decision; decision Pending; proposal explicitly states erection of 3 dwellings.","identity_limitation":"Exactly three new dwellings are counted from the explicit source cardinality; demolished existing buildings and associated works are not counted as new buildings.","confidence_score_0_100":99,"evidence_grade":"A","fake_data":false}}]}