{"type":"FeatureCollection","features":[{"type":"Feature","id":"rochdale-brownfield-register-rochdale-area:SH 0483","geometry":null,"properties":{"slot_id":"future_growth_4","lineage_id":"fg4-e4c9076d6f554f00","page_generation":1,"owner":"future_growth_4","partition":"future_growth","semantic_mode":"SOURCE_AREA_EXACT_IDENTIFIER","dataset":"rochdale-brownfield-register-rochdale-area","entity":"SH 0483","reference":"SH 0483","quality":"authoritative","organisation":"Rochdale Borough Council","name":"Site of 53-61 Tweedale Street, Rochdale","site_address":"Site of 53-61 Tweedale Street, Rochdale","source_url":"https://www.rochdale.gov.uk/planning-permission/brownfield-register/4","final_url":"https://www.rochdale.gov.uk/planning-permission/brownfield-register/4","access_utc":"2026-10-02T18:24:35Z","data_date":"","license":"not stated on source window","field_evidence":{"reference":"SH 0483","site_name_address":"Site of 53-61 Tweedale Street, Rochdale","register_area":"Rochdale register"},"evidence_slice_sha256":"753b2692296b93c20f0b63c39169748a9952e75d539dbf439f5cb6bf81078d23","confidence_score_0_100":99,"confidence":0.99,"evidence_grade":"A","exact_identifier_provided":true,"coverage_polygon_provided":false,"fake_data":false,"join_mode":"LOCAL_OPENCODE_SPATIAL_JOIN_PENDING","direct_parcel":false,"source_area_count_contribution":1,"planned_building_count_contribution":0}}]}