{"type":"FeatureCollection","name":"building_type_2_batch_0040","features":[{"type":"Feature","id":"42132445","geometry":{"type":"MultiPolygon","coordinates":[[[[-2.610307,51.458889],[-2.610438,51.459008],[-2.610496,51.458983],[-2.610365,51.458864],[-2.610307,51.458889]]]]},"properties":{"slot_id":"building_type_2","lineage_id":"building_type_2-20260930T173100Z-newstart","batch_id":"batch-0040","page_generation":1,"source_entity":42132445,"source_reference":"77/00889/PRINC","source_dataset":"listed-building-outline","source_organisation":"Bristol City Council","building_evidence_status":"BUILDING_PRESENT","parcel_status":"UNPROCESSED","canonical_parcel_id":null,"building_type":"listed_building","building_use":null,"poi_accepted":false,"field_evidence":{"footprint":"official listed-building-outline MULTIPOLYGON","type":"official dataset classification: listed-building-outline","reference":"77/00889/PRINC","quality":"authoritative","name":"3 St Pauls Road Clifton Bristol BS8 1LX"},"source_url":"https://www.planning.data.gov.uk/entity/42132445","final_url":"https://www.planning.data.gov.uk/entity/42132445","access_utc":"2026-10-05T09:59:51Z","data_date":"1977-03-04","licence":"Open Government Licence v3.0","evidence_slice_sha256":"4cae148d507f5f535f4828f833f566b6443a2f06a72578f809f8bcaa0cf396b7","confidence_score_0_100":96,"evidence_grade":"A","fake_data":false,"local_spatial_join_required":true}}]}