{"type":"FeatureCollection","features":[{"type":"Feature","id":"fareham-brownfield-land-register-2026:26f888af-e48b-4c82-a307-8cd7376129a9","geometry":null,"properties":{"slot_id":"future_growth_4","lineage_id":"fg4-e4c9076d6f554f00","page_generation":1,"owner":"future_growth_4","partition":"future_growth","semantic_mode":"SOURCE_AREA_EXACT_IDENTIFIER","dataset":"fareham-brownfield-land-register-2026","entity":"26f888af-e48b-4c82-a307-8cd7376129a9","reference":"26f888af-e48b-4c82-a307-8cd7376129a9","quality":"authoritative","organisation":"Fareham Borough Council","name":"Brownfield Land Register 2026","source_url":"https://www.data.gov.uk/dataset/26f888af-e48b-4c82-a307-8cd7376129a9/fareham-brownfield-land-register","final_url":"https://www.data.gov.uk/dataset/26f888af-e48b-4c82-a307-8cd7376129a9/fareham-brownfield-land-register","access_utc":"2026-10-06T05:30:00Z","data_date":"2026-04-13","license":"UK Open Government Licence (OGL)","field_evidence":{"dataset_guid":"26f888af-e48b-4c82-a307-8cd7376129a9","dataset_title":"Brownfield Land Register","publisher":"Fareham Borough Council","updated_date":"2026-04-13","council_register_reference_date":"2026-04-01","available_formats":["WFS","SHP/ZIP"],"license":"UK Open Government Licence (OGL)","register_scope":"previously developed sites capable of redevelopment or conversion for housing-led development","part_2_status":"no sites currently considered suitable for entry on Part 2"},"evidence_slice_sha256":"354654d718eb561db89cc72dfd19c2a4949d8a53f539563e183ff910826e5671","confidence_score_0_100":99,"confidence":0.99,"evidence_grade":"A","exact_identifier_provided":true,"coverage_polygon_provided":false,"coverage_geometry_available":true,"coverage_geometry_source":"official dataset provides WFS and Shapefile download links","fake_data":false,"join_mode":"LOCAL_OPENCODE_SPATIAL_JOIN_PENDING","direct_parcel":false,"source_area_count_contribution":1,"planned_building_count_contribution":0}}]}