{"type":"FeatureCollection","features":[{"type":"Feature","properties":{"slot_id":"building_type_3","lineage_id":"building_type_3-new-20260927T1328+0300","batch_id":"BT3-P101G61-20261007-PLANNINGDATA-LBO42148948","cursor":"BT3-P101G61-20261007-PLANNINGDATA-LBO42148948-p101","building_state":"BUILDING_PRESENT","source_record_id":"listed-building-outline:424278","entity":42148948,"reference":"424278","name":"STANHOPE COURT HOTEL","building_type_use":"hotel","type_use_evidence":"official_name=STANHOPE COURT HOTEL","dataset":"listed-building-outline","quality":"authoritative","start_date":"1984-11-07","entry_date":"1984-11-07","organisation":"Royal Borough of Kensington and Chelsea","listed_building":"424278","source_url":"https://www.planning.data.gov.uk/entity/42148948","final_url":"https://www.planning.data.gov.uk/entity/42148948","source_version":"Planning Data listed-building-outline entity 42148948 reference 424278; authoritative Royal Borough of Kensington and Chelsea; entry-date 1984-11-07; name STANHOPE COURT HOTEL","access_utc":"2026-10-07T04:03:34Z","data_date":"start-date 1984-11-07; entry-date 1984-11-07","license":"Open Government Licence v3.0; © Crown copyright and database right 2026","source_file_sha256":"28806dbb576d213beb2707082b38f0bda03c4f656f68f4b47ca0880da3281e69","evidence_slice_sha256":"830b9afbafbf22ef8beb3737980e9d149a74debce0e9d7252eba054e223104b6","field_evidence":["entity","reference","name","dataset","organisation","start-date","entry-date","geometry","listed-building"],"confidence_score_0_100":99,"evidence_grade":"A_OFFICIAL_GOVERNMENT_BUILDING_OUTLINE_AND_NAMED_TYPE_USE","fake_data":false},"geometry":{"type":"MultiPolygon","coordinates":[[[[-0.1813,51.49399],[-0.18133,51.49398],[-0.18133,51.49399],[-0.18159,51.49405],[-0.18162,51.49401],[-0.18163,51.49399],[-0.1816,51.49394],[-0.18157,51.49393],[-0.18156,51.49392],[-0.18152,51.49392],[-0.18152,51.49393],[-0.1815,51.49393],[-0.18149,51.49391],[-0.18157,51.49389],[-0.18145,51.49368],[-0.18141,51.49362],[-0.18137,51.49354],[-0.1812,51.49358],[-0.18119,51.49356],[-0.18111,51.49357],[-0.18107,51.49358],[-0.18104,51.49359],[-0.18105,51.49361],[-0.18108,51.4936],[-0.18109,51.49362],[-0.18108,51.49363],[-0.18109,51.49365],[-0.18111,51.49365],[-0.18112,51.49367],[-0.18111,51.49368],[-0.18112,51.4937],[-0.18114,51.4937],[-0.18111,51.49371],[-0.18112,51.49373],[-0.18114,51.49373],[-0.18115,51.49376],[-0.18118,51.49376],[-0.18114,51.49377],[-0.18115,51.49379],[-0.18119,51.49378],[-0.18118,51.4938],[-0.18119,51.49382],[-0.18121,51.49382],[-0.18118,51.49383],[-0.18119,51.49385],[-0.18121,51.49385],[-0.18122,51.49387],[-0.18124,51.49388],[-0.18123,51.49388],[-0.18129,51.49398],[-0.18129,51.49397],[-0.1813,51.49399]]]]}}]}
