{"type":"FeatureCollection","features":[{"type":"Feature","geometry":null,"properties":{"slot_id":"planned_buildings_1","lineage_id":"planned_buildings_1-0ffc4ebd6c6e4e41","semantic_mode":"DISTINCT_BUILDINGS","planned_building_id":"planning-application:RB2026/1074::DETACHED_OUTBUILDING","building_status":"PLANNED","building_name":"Detached outbuilding, Owl Barn Burrs Lane","planning_reference":"RB2026/1074","authority":"Rotherham Metropolitan Borough Council","source_url":"https://planning.rotherham.gov.uk/detail.asp?AltRef=RB2026%2F1074","final_url":"https://planning.rotherham.gov.uk/detail.asp?AltRef=RB2026%2F1074","access_utc":"2026-10-06T02:50:00Z","source_data_date":"2026-09-21","license":"Open Government Licence v3.0","geometry_role":"official planning detail page exposes no machine-readable point or building footprint; geometry null; no geometry inferred","field_evidence":"Official planning detail explicitly records erection of a detached outbuilding; decision GRANTED CONDITIONALLY dated 21/09/2026.","identity_limitation":"Exactly one detached outbuilding is counted.","confidence_score_0_100":95,"evidence_grade":"A","fake_data":false}}]}
