{"type":"FeatureCollection","features":[{"type":"Feature","geometry":{"type":"Point","coordinates":[-0.095159,51.475644]},"properties":{"slot_id":"future_growth_1","lineage_id":"future_growth_1-newstart-20260927T153100+0300","page_generation":null,"evidence_scope":"exact_identifier","exact_identifier":"brownfield-land:NSP26","coverage_area_id":"brownfield-land:NSP26","entity":1719812,"reference":"NSP26","dataset":"brownfield-land","organisation":"London Borough of Southwark","organisation_curie":"local-authority:SWK","source_url":"https://www.planning.data.gov.uk/entity/1719812","final_url":"https://www.planning.data.gov.uk/entity/1719812","access_utc":"2026-09-30T18:49:31Z","data_date":"2020-03-25","license":"Open Government Licence v3.0","source_file_sha256":"7e9ca3d180c3b1dc188b7d727937c66cb14f1c6126af6181890ba7167c9ab702","source_file_sha256_basis":"captured source_snapshot.json for official entity record","evidence_slice_sha256":"b33f54afd315d09195ed5e77738d9aa04cafa1cbe96266da0e075396cb04e204","field_evidence":{"entity":1719812,"curie":"brownfield-land:NSP26","reference":"NSP26","site_address":"Abellio Bus Garage","hectares":1.133,"planning_permission_status":"not-permissioned","ownership_status":"unknown-ownership","quality":"authoritative","organisation":"London Borough of Southwark","organisation_curie":"local-authority:SWK","point_wkt":"POINT (-0.095159 51.475644)","notes":"Class C3 should be provided"},"confidence_score_0_100":94,"evidence_grade":"A","fake_data":false,"coverage_polygon_provided":false,"exact_identifier_provided":true,"spatial_binding_method":"exact official brownfield-land identifier plus source-provided point; canonical parcel spatial join/materialization delegated to local OpenCode","accepted_as_parcel":false}}]}
