{"features":[{"geometry":null,"properties":{"accepted_as_parcel":false,"access_utc":"2026-10-02T00:01:00Z","confidence":0.99,"confidence_score_0_100":99,"coverage_polygon_provided":false,"data_date":"2026-03-18","dataset":"local-plan-boundary","evidence_grade":"A_EXACT_OFFICIAL_IDENTIFIER","evidence_slice_sha256":"f36f1afcc1739facef91b8ac5b8cd0c9ecc53be7877b5a831012da0b6a46c10a","exact_identifier":"E60000288","exact_identifier_provided":true,"fake_data":false,"field_evidence":{"dataset":"local-plan-boundary","entity":4211054,"entry_date":"2026-03-18","full_geometry_download_available":true,"geometry_download_url":"https://www.planning.data.gov.uk/entity/4211054.geojson","geometry_note":"Official entity page states geometry is too large to display and provides a full geometry download.","local_planning_authorities":"E60000288","name":"Bath and North East Somerset Council","organisation":"Ministry of Housing, Communities & Local Government","organisations":"local-authority:BAS","point":"POINT (-2.475201 51.355967)","quality":"authoritative","reference":"E60000288","related_emerging_local_plan_entity":4220134,"related_emerging_local_plan_name":"Emerging Local Plan 2022-2042","related_emerging_local_plan_period_start":"2022-01-01","related_emerging_local_plan_period_end":"2042-01-01","related_emerging_local_plan_process":"regulation-18","related_emerging_local_plan_documentation_url":"https://www.bathnes.gov.uk/emerging-local-plan","typology":"geography"},"final_url":"https://www.planning.data.gov.uk/entity/4211054","identifier_namespace":"local-plan-boundary","license":"Open Government Licence v3.0","lineage_id":"future_growth_ 9-newstart-20261001T204400Z","official_entity_id":4211054,"official_reference":"E60000288","organisation":"Ministry of Housing, Communities & Local Government","owner":"cagdas aydin","page_generation":1,"partition":"plan0","publisher":"Planning Data / Ministry of Housing, Communities & Local Government","semantic_mode":"SOURCE_AREA_EXACT_IDENTIFIER","sha256":"f36f1afcc1739facef91b8ac5b8cd0c9ecc53be7877b5a831012da0b6a46c10a","sha256_scope":"normalized_evidence_slice","slot_id":"future_growth_ 9","source_area_count_contribution":1,"source_url":"https://www.planning.data.gov.uk/entity/4211054","spatial_binding_method":"official local-plan-boundary exact identifier; full polygon available from official entity GeoJSON download; canonical parcel spatial join/materialization delegated to local OpenCode"},"type":"Feature"}],"name":"future_growth_ 9","type":"FeatureCollection"}