{"type":"FeatureCollection","features":[{"type":"Feature","id":"wyre-forest-brownfield-land-register-2024:BHS/16","geometry":null,"properties":{"slot_id":"future_growth_4","lineage_id":"fg4-e4c9076d6f554f00","page_generation":1,"owner":"future_growth_4","partition":"future_growth","semantic_mode":"SOURCE_AREA_EXACT_IDENTIFIER","dataset":"wyre-forest-brownfield-land-register-2024","entity":"BHS/16","reference":"BHS/16","quality":"authoritative","organisation":"Wyre Forest District Council","name":"Timber Yard Park Lane","site_address":"Timber Yard Park Lane","source_url":"https://www.wyreforestdc.gov.uk/planning-and-buildings/planning-policy/brownfield-land-register.aspx","final_url":"https://www.wyreforestdc.gov.uk/planning-and-buildings/planning-policy/brownfield-land-register.aspx","access_utc":"2026-10-04T14:55:00Z","data_date":"2024-11","license":"Open Government Licence","field_evidence":{"reference":"BHS/16","site_name_address":"Timber Yard Park Lane","geo_x":-2.252964,"geo_y":52.386496,"hectares":2.1,"ownership_status":"mixed ownership","planning_status":"not permissioned","deliverable":"yes","net_dwellings_range_from":90,"net_dwellings_range_to":100,"allocation_reference":"SA.K5","notes":"Allocated for residential development under SA.K5","first_added_date":"2017-12-31","last_updated_date":"2022-12-31"},"evidence_slice_sha256":"c1e2b849c3b6ff7b26ecd29b2ea1ae3cd7b9cd4dea748d947b8a051688c91619","confidence_score_0_100":99,"confidence":0.99,"evidence_grade":"A","exact_identifier_provided":true,"coverage_polygon_provided":false,"fake_data":false,"join_mode":"LOCAL_OPENCODE_SPATIAL_JOIN_PENDING","direct_parcel":false,"source_area_count_contribution":1,"planned_building_count_contribution":0}}]}