{"type":"FeatureCollection","name":"internet_access_4","metadata":{"slot_id":"internet_access_4","lineage_id":"IA4-b55255e80113bdd22f6c","page_generation":1,"batch_id":"20260930T201000Z-ofcom-spring2026-uk-fixed-001","record_role":"SOURCE_AREA_EXACT_IDENTIFIER_EVIDENCE_ONLY","data_date":"2026-01","publication_date":"2026-05-13","url":"https://www.ofcom.org.uk/siteassets/resources/documents/research-and-data/multi-sector/infrastructure-research/connected-nations-spring-2026/202601_fixed_broadband_coverage_and_full_fibre_take-up-r1.zip?v=422620","final_url":"https://www.ofcom.org.uk/siteassets/resources/documents/research-and-data/multi-sector/infrastructure-research/connected-nations-spring-2026/202601_fixed_broadband_coverage_and_full_fibre_take-up-r1.zip?v=422620","access_utc":"2026-09-30T20:10:00Z","license":"Open Government Licence","evidence_slice_sha256":"8ed0bd01bd147d78b83596f03300c140ed533878f6e54c380237489cee2c055c","confidence_score_0_100":96,"evidence_grade":"A_OFFICIAL_REPORT_PLUS_OFFICIAL_DATASET_POINTER","fake_data":false,"canonical_join_status":"UNPROCESSED_LOCAL_OPENCODE_REQUIRED"},"features":[{"type":"Feature","id":"OFCOM_CN_SPRING_2026_UK_RESIDENTIAL_001","geometry":null,"properties":{"official_identifier_type":"Ofcom Location","official_identifier":"UK","premise_type":"Residential","snapshot_date":"2026-01","full_fibre_availability_pct":82,"full_fibre_residential_premises":24900000,"gigabit_availability_pct":89,"gigabit_residential_premises":27100000,"premises_without_affordable_decent_broadband":4000,"premises_without_decent_fixed_or_fwa":39000}}]}
