{"type":"FeatureCollection","features":[{"type":"Feature","id":"planned_buildings_1-planning-data-brownfield-1736030","geometry":{"type":"Point","coordinates":[-0.095711,51.458511]},"properties":{"slot_id":"planned_buildings_1","source_entity":1736030,"official_site_key":"BLR122","canonical_record_key":"planning-data:brownfield-land:1736030","planned_project_name":"Land Rear Of 18-24 Herne Hill","source_record_temporal_status":"historical_register_record","source_quality":"authoritative","fake_data":false}},{"type":"Feature","id":"planned_buildings_1-planning-data-brownfield-1736031","geometry":{"type":"Point","coordinates":[-0.116914,51.478089]},"properties":{"slot_id":"planned_buildings_1","source_entity":1736031,"official_site_key":"BLR123","canonical_record_key":"planning-data:brownfield-land:1736031","planned_project_name":"124 Clapham Road","source_record_temporal_status":"current_register_record","source_quality":"authoritative","fake_data":false}},{"type":"Feature","id":"planned_buildings_1-planning-data-brownfield-1736032","geometry":{"type":"Point","coordinates":[-0.103538,51.436013]},"properties":{"slot_id":"planned_buildings_1","source_entity":1736032,"official_site_key":"BLR124","canonical_record_key":"planning-data:brownfield-land:1736032","planned_project_name":"21-27 Dalton Street","source_record_temporal_status":"historical_register_record","source_quality":"authoritative","fake_data":false}},{"type":"Feature","id":"planned_buildings_1-planning-data-brownfield-1736033","geometry":{"type":"Point","coordinates":[-0.114309,51.437895]},"properties":{"slot_id":"planned_buildings_1","source_entity":1736033,"official_site_key":"BLR125","canonical_record_key":"planning-data:brownfield-land:1736033","planned_project_name":"89 Kingsmead Road","source_record_temporal_status":"historical_register_record","source_quality":"authoritative","fake_data":false}},{"type":"Feature","id":"planned_buildings_1-planning-data-brownfield-1736037","geometry":{"type":"Point","coordinates":[-0.100327,51.430871]},"properties":{"slot_id":"planned_buildings_1","source_entity":1736037,"official_site_key":"BLR129","canonical_record_key":"planning-data:brownfield-land:1736037","planned_project_name":"193 Auckland Hill","source_record_temporal_status":"historical_register_record","source_quality":"authoritative","fake_data":false}},{"type":"Feature","id":"planned_buildings_1-planning-data-brownfield-1736038","geometry":{"type":"Point","coordinates":[-0.098445,51.424572]},"properties":{"slot_id":"planned_buildings_1","source_entity":1736038,"official_site_key":"BLR130","canonical_record_key":"planning-data:brownfield-land:1736038","planned_project_name":"Park Tavern 56 Elder Road","source_record_temporal_status":"historical_register_record","source_quality":"authoritative","fake_data":false}},{"type":"Feature","id":"planned_buildings_1-planning-data-brownfield-1736041","geometry":{"type":"Point","coordinates":[-0.131335,51.474786]},"properties":{"slot_id":"planned_buildings_1","source_entity":1736041,"official_site_key":"BLR133","canonical_record_key":"planning-data:brownfield-land:1736041","planned_project_name":"1 -9 Southville","source_record_temporal_status":"current_register_record","source_quality":"authoritative","fake_data":false}}],"metadata":{"slot_id":"planned_buildings_1","run_id":"20260818T061500Z","source_family":"planning_data_brownfield_land","processed_offsets":[120,121,122,123,124,125,126,127,128,129,130,131],"promoted_offsets":[120,121,122,123,127,128,131],"no_add_evidence_insufficient_offsets":[124,125,126,129,130],"reference_collision_rejected_offsets":[129,130],"next_unused_window":{"geometry_entity":626195,"geometry_relation":"within","limit":1,"offset":132},"bounded_batch_count":12,"zero_result_windows":0,"evidence_insufficient_windows":5,"feature_count_before":134,"feature_count_added":7,"feature_count_after_logical":141,"unique_real_site_project_before":85,"unique_real_site_project_added":7,"unique_real_site_project_after":92,"historical_register_records_promoted":5,"current_register_records_promoted":2,"duplicate_count_new":0,"reprocessed_window_count":0,"nearest_match_used":false,"parcel_match_used":false,"fake_data":false,"demo_only":true,"final_ready":false,"production_merge":false,"mirror_only":true,"canonical_latest_overwritten":false}}