{"type":"FeatureCollection","features":[{"type":"Feature","geometry":null,"properties":{"slot_id":"future_growth_3","lineage_id":"future_growth_3-newstart-20261001T203100Z","page_generation":null,"accepted_as_parcel":false,"source_area_count_contribution":1,"exact_identifier":"PLY16","exact_identifier_provided":true,"coverage_polygon_provided":false,"identifier_namespace":"Plymouth & South West Devon Joint Local Plan policy reference","secondary_exact_identifier":"Plymouth Railway Station","source_entity":"PLY16 - Plymouth Railway Station","access_utc":"2026-10-06T12:54:00Z","data_date":"2019-03-26","source_url":"https://plymswdevonplan.co.uk/policy/ply16-plymouth-railway-station","final_url":"https://plymswdevonplan.co.uk/policy/ply16-plymouth-railway-station","license":"Plymouth City Council copyright; reproduction, redistribution or alteration beyond the Council's stated private/educational permissions requires prior written agreement; Ordnance Survey mapping is subject to Crown copyright.","authority":"Plymouth City Council","site_address":"Plymouth Railway Station, Plymouth","field_evidence":{"reference":"PLY16","dataset":"Plymouth and South West Devon Joint Local Plan 2014-2034","organisation":"Plymouth City Council / South Hams District Council / West Devon Borough Council","plan_period":"2014-2034","adoption_plymouth":"2019-03-26","site_name":"Plymouth Railway Station","allocation_status":"adopted site allocation","allocated_use":"mixed-use regeneration scheme"},"source_payload_sha256":"74056002ea3410252630687810a48626f1e8aa9235decbcf57ffa653f29f138c","source_payload_sha256_basis":"canonicalized official Plymouth & South West Devon Joint Local Plan PLY16 evidence fields","evidence_slice_sha256":"02d325bd136cf72d0cc9770af69de7414a376bbded6879a6980772f181cac654","evidence_grade":"A","confidence_score_0_100":99,"evidence_scope":"exact_official_identifier_from_adopted_joint_local_plan_policy","fake_data":false,"spatial_binding_method":"official adopted Joint Local Plan Policy PLY16 and Plymouth Policy Area policies map; canonical parcel spatial join and materialization delegated to local OpenCode","planned_building_count_contribution":0}}]}