{"type":"FeatureCollection","name":"security_public_safety_1_batch_exact_identifiers","features":[{"type":"Feature","geometry":null,"properties":{"slot_id":"security_public_safety_1","evidence_scope":"coverage_exact_identifier","coverage_area_id":"G26","exact_identifier":"G26","exact_identifier_type":"london-fire.gov.uk.station.callsign_code","coverage_area_name":"Acton","source_url":"https://www.london-fire.gov.uk/media/4998/foia43101.pdf","final_url":"https://www.london-fire.gov.uk/media/4998/foia43101.pdf","access_utc":"2026-10-07T04:36:00Z","data_date":"2018-10","data_date_basis":"Official FOI response states station callsigns/current fleet are current as of October 2018","license":"London Fire Brigade publication; explicit reuse licence not asserted in extracted source window","file_sha256":"b18b4861874d6a72aff595631aabbeaa5848710c0fcf56549b15591a1b603e27","file_sha256_scope":"normalized first 5 official station/code rows; not raw PDF bytes","evidence_slice_sha256":"da10b232b1b846fa5482950f421cfec0fb5a141b82f0702cbdfead52d07c9482","field_evidence":{"ordinal":1,"station":"Acton","code":"G26"},"confidence_score_0_100":100,"evidence_grade":"A_OFFICIAL_EXACT_IDENTIFIER","fake_data":false,"spatial_binding_method":"DEFERRED_TO_LOCAL_OPENCODE","canonical_parcel_id":null,"materialized_parcel_count":0,"direct_parcel_count":0}},{"type":"Feature","geometry":null,"properties":{"slot_id":"security_public_safety_1","evidence_scope":"coverage_exact_identifier","coverage_area_id":"H26","exact_identifier":"H26","exact_identifier_type":"london-fire.gov.uk.station.callsign_code","coverage_area_name":"Addington","source_url":"https://www.london-fire.gov.uk/media/4998/foia43101.pdf","final_url":"https://www.london-fire.gov.uk/media/4998/foia43101.pdf","access_utc":"2026-10-07T04:36:00Z","data_date":"2018-10","data_date_basis":"Official FOI response states station callsigns/current fleet are current as of October 2018","license":"London Fire Brigade publication; explicit reuse licence not asserted in extracted source window","file_sha256":"b18b4861874d6a72aff595631aabbeaa5848710c0fcf56549b15591a1b603e27","file_sha256_scope":"normalized first 5 official station/code rows; not raw PDF bytes","evidence_slice_sha256":"1d0e860a0454967dba279aec8e4b01daec7eaca20f853d1e7ebbae9ee5fb6d32","field_evidence":{"ordinal":2,"station":"Addington","code":"H26"},"confidence_score_0_100":100,"evidence_grade":"A_OFFICIAL_EXACT_IDENTIFIER","fake_data":false,"spatial_binding_method":"DEFERRED_TO_LOCAL_OPENCODE","canonical_parcel_id":null,"materialized_parcel_count":0,"direct_parcel_count":0}},{"type":"Feature","geometry":null,"properties":{"slot_id":"security_public_safety_1","evidence_scope":"coverage_exact_identifier","coverage_area_id":"F43","exact_identifier":"F43","exact_identifier_type":"london-fire.gov.uk.station.callsign_code","coverage_area_name":"Barking","source_url":"https://www.london-fire.gov.uk/media/4998/foia43101.pdf","final_url":"https://www.london-fire.gov.uk/media/4998/foia43101.pdf","access_utc":"2026-10-07T04:36:00Z","data_date":"2018-10","data_date_basis":"Official FOI response states station callsigns/current fleet are current as of October 2018","license":"London Fire Brigade publication; explicit reuse licence not asserted in extracted source window","file_sha256":"b18b4861874d6a72aff595631aabbeaa5848710c0fcf56549b15591a1b603e27","file_sha256_scope":"normalized first 5 official station/code rows; not raw PDF bytes","evidence_slice_sha256":"eebfb6e1c867cc47452e9b0104a27f6bfe96ebf80915ed67afa9473ac1eb8827","field_evidence":{"ordinal":3,"station":"Barking","code":"F43"},"confidence_score_0_100":100,"evidence_grade":"A_OFFICIAL_EXACT_IDENTIFIER","fake_data":false,"spatial_binding_method":"DEFERRED_TO_LOCAL_OPENCODE","canonical_parcel_id":null,"materialized_parcel_count":0,"direct_parcel_count":0}},{"type":"Feature","geometry":null,"properties":{"slot_id":"security_public_safety_1","evidence_scope":"coverage_exact_identifier","coverage_area_id":"A37","exact_identifier":"A37","exact_identifier_type":"london-fire.gov.uk.station.callsign_code","coverage_area_name":"Barnet","source_url":"https://www.london-fire.gov.uk/media/4998/foia43101.pdf","final_url":"https://www.london-fire.gov.uk/media/4998/foia43101.pdf","access_utc":"2026-10-07T04:36:00Z","data_date":"2018-10","data_date_basis":"Official FOI response states station callsigns/current fleet are current as of October 2018","license":"London Fire Brigade publication; explicit reuse licence not asserted in extracted source window","file_sha256":"b18b4861874d6a72aff595631aabbeaa5848710c0fcf56549b15591a1b603e27","file_sha256_scope":"normalized first 5 official station/code rows; not raw PDF bytes","evidence_slice_sha256":"6bf8fe0c2243a899af59117f253ca5ee7b753bf059202b23f5e51d9989c0a8b4","field_evidence":{"ordinal":4,"station":"Barnet","code":"A37"},"confidence_score_0_100":100,"evidence_grade":"A_OFFICIAL_EXACT_IDENTIFIER","fake_data":false,"spatial_binding_method":"DEFERRED_TO_LOCAL_OPENCODE","canonical_parcel_id":null,"materialized_parcel_count":0,"direct_parcel_count":0}},{"type":"Feature","geometry":null,"properties":{"slot_id":"security_public_safety_1","evidence_scope":"coverage_exact_identifier","coverage_area_id":"H27","exact_identifier":"H27","exact_identifier_type":"london-fire.gov.uk.station.callsign_code","coverage_area_name":"Battersea","source_url":"https://www.london-fire.gov.uk/media/4998/foia43101.pdf","final_url":"https://www.london-fire.gov.uk/media/4998/foia43101.pdf","access_utc":"2026-10-07T04:36:00Z","data_date":"2018-10","data_date_basis":"Official FOI response states station callsigns/current fleet are current as of October 2018","license":"London Fire Brigade publication; explicit reuse licence not asserted in extracted source window","file_sha256":"b18b4861874d6a72aff595631aabbeaa5848710c0fcf56549b15591a1b603e27","file_sha256_scope":"normalized first 5 official station/code rows; not raw PDF bytes","evidence_slice_sha256":"222d81137aacb26964358e130e889f308a89ea886b9e16e6edc2ce3dff9c0779","field_evidence":{"ordinal":5,"station":"Battersea","code":"H27"},"confidence_score_0_100":100,"evidence_grade":"A_OFFICIAL_EXACT_IDENTIFIER","fake_data":false,"spatial_binding_method":"DEFERRED_TO_LOCAL_OPENCODE","canonical_parcel_id":null,"materialized_parcel_count":0,"direct_parcel_count":0}}]}
