{"type":"FeatureCollection","name":"future_growth_9_batch_32","demo_only":true,"metadata":{"schema_version":3,"slot_id":"future_growth_9","continuation_key":"future_growth_9_open_source_v2_20260813","run_id":"future_growth_9_bounded12_20260818T100700Z","batch_index":32,"feature_count_before":31,"feature_count_added":1,"feature_count_after":32,"source_family":"planning_data_brownfield_land_direct_identity","source_authority":"City of Bradford Metropolitan District Council","source_window":{"dataset":"brownfield-land","window_index":31,"window_size":1,"entity":1712075},"fake_data":false,"final_ready":false,"production_merge":false,"duplicate_count":0,"nearest_match_used":false},"features":[{"type":"Feature","id":"future_growth_9:planning_data_bradford:bi-038","geometry":{"type":"Point","coordinates":[-1.850891,53.866357]},"properties":{"slot_id":"future_growth_9","continuation_key":"future_growth_9_open_source_v2_20260813","source_index":0,"source_family":"planning_data_brownfield_land_direct_identity","source_name":"Planning Data Brownfield Land — City of Bradford Metropolitan District Council","source_publisher":"City of Bradford Metropolitan District Council via Planning Data (MHCLG)","source_feature_id":"BI/038","planning_data_entity":1712075,"source_url":"https://www.planning.data.gov.uk/entity/1712075","source_dataset_url":"https://www.planning.data.gov.uk/dataset/brownfield-land","source_entry_date":"2022-11-01","source_sha256":"077ee1ae781ff48295ed821c61e437eb59864c7eb1f7877ab4b0c084e9ab00e3","source_sha256_scope":"sha256 of sorted-key canonical JSON of official fields used in this bounded batch","license":"Open Government Licence v3.0","future_growth_evidence_type":"direct_project","direct_project_evidence":true,"evidence_summary":"Official brownfield record marks the site deliverable and states that the owners intend to resubmit a planning application in the near future.","matching_method":"direct official brownfield-land CURIE/reference identity plus published WGS84 point; no nearest matching, no cross-parcel identity inference","accuracy_scale_1_4":4,"future_growth_value":null,"future_growth_probability":null,"planned_building_complete_month":null,"unknown_reason":"Numeric value/probability withheld because no approved scoring rule exists.","site_name":"Marley Court, Crossflatts","hectares":0.3,"net_dwellings_range_from":null,"net_dwellings_range_to":null,"fake_data":false,"final_ready":false,"production_merge":false,"demo_only":true}}]}