{"type":"FeatureCollection","name":"future_growth_9_batch_137","demo_only":true,"metadata":{"schema_version":3,"slot_id":"future_growth_9","continuation_key":"future_growth_9_open_source_v2_20260813","run_id":"future_growth_9_bounded12_20260818T193109Z","batch_index":137,"feature_count_before":135,"feature_count_added":1,"feature_count_after":136,"source_window":{"dataset":"brownfield-land","window_index":136,"window_size":1,"entity":1712141},"source_query_variant":"bradford_official_frozen_snapshot_entity_reference_sorted","source_request_url":"https://www.planning.data.gov.uk/entity/1712141","source_result":"ADDED","fake_data":false,"final_ready":false,"production_merge":false,"duplicate_count":0,"duplicate_candidate_skipped":false,"nearest_match_used":false},"features":[{"type":"Feature","id":"future_growth_9:planning_data_bradford:ha-033","geometry":{"type":"Point","coordinates":[-1.951877,53.828031]},"properties":{"slot_id":"future_growth_9","continuation_key":"future_growth_9_open_source_v2_20260813","source_family":"planning_data_brownfield_land_direct_identity","source_name":"Planning Data Brownfield Land — City of Bradford Metropolitan District Council","source_publisher":"City of Bradford Metropolitan District Council via Planning Data","source_feature_id":"HA/033","planning_data_entity":1712141,"source_url":"https://www.planning.data.gov.uk/entity/1712141","source_dataset_url":"https://www.planning.data.gov.uk/dataset/brownfield-land","source_entry_date":"2019-12-01","source_start_date":"2017-11-01","source_sha256":"cd0ace5be3ca7f4d6a3abe877bffd3807daa2b14e0aa21c6b66ef52f775fd161","source_sha256_scope":"canonical JSON of official API entity payload used in this bounded batch","license":"Open Government Licence v3.0","planning_status":"permissioned","future_growth_evidence_type":"direct_project","direct_project_evidence":true,"evidence_summary":"Conversion of the Drill Hall to form 4 x 2-bedroom dwellings and the construction of 3 x 3-bedroom dwellings with associated parking and means of access","matching_method":"direct official brownfield-land reference identity plus published WGS84 point; no nearest matching, no cross-parcel identity inference","source_query_variant":"bradford_official_frozen_snapshot_entity_reference_sorted","accuracy_scale_1_4":4,"future_growth_value":null,"future_growth_probability":null,"unknown_reason":"Numeric value/probability withheld because no approved scoring rule exists.","site_name":"Warehouse, Clevedon Street, Haworth","hectares":0.11,"net_dwellings_range_from":0,"net_dwellings_range_to":0,"planning_permission_date":"2019-01-08","planning_permission_type":"full-planning-permission","deliverable":"yes","fake_data":false,"final_ready":false,"production_merge":false,"demo_only":true}}]}
