{"type":"FeatureCollection","name":"future_growth_9_batch_139","demo_only":true,"metadata":{"schema_version":3,"slot_id":"future_growth_9","continuation_key":"future_growth_9_open_source_v2_20260813","run_id":"future_growth_9_bounded12_20260818T193109Z","batch_index":139,"feature_count_before":137,"feature_count_added":1,"feature_count_after":138,"source_window":{"dataset":"brownfield-land","window_index":138,"window_size":1,"entity":1712143},"source_query_variant":"bradford_official_frozen_snapshot_entity_reference_sorted","source_request_url":"https://www.planning.data.gov.uk/entity/1712143","source_result":"ADDED","fake_data":false,"final_ready":false,"production_merge":false,"duplicate_count":0,"duplicate_candidate_skipped":false,"nearest_match_used":false},"features":[{"type":"Feature","id":"future_growth_9:planning_data_bradford:il-006","geometry":{"type":"Point","coordinates":[-1.815624,53.924954]},"properties":{"slot_id":"future_growth_9","continuation_key":"future_growth_9_open_source_v2_20260813","source_family":"planning_data_brownfield_land_direct_identity","source_name":"Planning Data Brownfield Land — City of Bradford Metropolitan District Council","source_publisher":"City of Bradford Metropolitan District Council via Planning Data","source_feature_id":"IL/006","planning_data_entity":1712143,"source_url":"https://www.planning.data.gov.uk/entity/1712143","source_dataset_url":"https://www.planning.data.gov.uk/dataset/brownfield-land","source_entry_date":"2017-11-01","source_start_date":"2017-11-01","source_sha256":"1f74043f48ab86f48c4c302087410136bc753736e5780feacd01525412d1fc9b","source_sha256_scope":"canonical JSON of official API entity payload used in this bounded batch","license":"Open Government Licence v3.0","planning_status":"permissioned","future_growth_evidence_type":"direct_project","direct_project_evidence":true,"evidence_summary":"Details and amended plans approved recently. Site with permission for retirement apartments and assisted living units together with care home and employment development","matching_method":"direct official brownfield-land reference identity plus published WGS84 point; no nearest matching, no cross-parcel identity inference","source_query_variant":"bradford_official_frozen_snapshot_entity_reference_sorted","accuracy_scale_1_4":4,"future_growth_value":null,"future_growth_probability":null,"unknown_reason":"Numeric value/probability withheld because no approved scoring rule exists.","site_name":"Railway Road. Mayfield Road, Ilkley","hectares":1.08,"net_dwellings_range_from":0,"net_dwellings_range_to":0,"planning_permission_date":"2016-12-21","planning_permission_type":"full-planning-permission","deliverable":"yes","fake_data":false,"final_ready":false,"production_merge":false,"demo_only":true}}]}
