{"type":"FeatureCollection","name":"future_growth_9_batch_130","demo_only":true,"metadata":{"schema_version":3,"slot_id":"future_growth_9","continuation_key":"future_growth_9_open_source_v2_20260813","run_id":"future_growth_9_bounded12_20260818T193109Z","batch_index":130,"feature_count_before":128,"feature_count_added":1,"feature_count_after":129,"source_window":{"dataset":"brownfield-land","window_index":129,"window_size":1,"entity":1712129},"source_query_variant":"bradford_official_frozen_snapshot_entity_reference_sorted","source_request_url":"https://www.planning.data.gov.uk/entity/1712129","source_result":"ADDED","fake_data":false,"final_ready":false,"production_merge":false,"duplicate_count":0,"duplicate_candidate_skipped":false,"nearest_match_used":false},"features":[{"type":"Feature","id":"future_growth_9:planning_data_bradford:cr-040","geometry":{"type":"Point","coordinates":[-1.776354,53.832435]},"properties":{"slot_id":"future_growth_9","continuation_key":"future_growth_9_open_source_v2_20260813","source_family":"planning_data_brownfield_land_direct_identity","source_name":"Planning Data Brownfield Land — City of Bradford Metropolitan District Council","source_publisher":"City of Bradford Metropolitan District Council via Planning Data","source_feature_id":"CR/040","planning_data_entity":1712129,"source_url":"https://www.planning.data.gov.uk/entity/1712129","source_dataset_url":"https://www.planning.data.gov.uk/dataset/brownfield-land","source_entry_date":"2019-12-01","source_start_date":"2017-11-01","source_sha256":"5796fd392f4d6089cc95358c0fda100af8e4a858ec2468f7b44bd538497d38ea","source_sha256_scope":"canonical JSON of official API entity payload used in this bounded batch","license":"Open Government Licence v3.0","planning_status":"not-permissioned","future_growth_evidence_type":"area_proxy","direct_project_evidence":false,"evidence_summary":"Site identified in the Shipley and Canal road corridor AAP as a site for redevelopment which could include residential development at a target of 50 units (ref STC4). Owner intentions not currently known","matching_method":"direct official brownfield-land reference identity plus published WGS84 point; no nearest matching, no cross-parcel identity inference","source_query_variant":"bradford_official_frozen_snapshot_entity_reference_sorted","accuracy_scale_1_4":3,"future_growth_value":null,"future_growth_probability":null,"unknown_reason":"Numeric value/probability withheld because no approved scoring rule exists.","site_name":"Market Street and Otley Road, Shipley","hectares":0.49,"net_dwellings_range_from":50,"net_dwellings_range_to":50,"planning_permission_date":null,"planning_permission_type":null,"deliverable":null,"fake_data":false,"final_ready":false,"production_merge":false,"demo_only":true}}]}
