{"type":"FeatureCollection","name":"building_type_2_batch_0009","features":[{"type":"Feature","id":"42161252","geometry":{"type":"MultiPolygon","coordinates":[[[[-2.990214,53.407294],[-2.990013,53.407054],[-2.990093,53.407032],[-2.989949,53.406746],[-2.989787,53.406774],[-2.989757,53.406734],[-2.989595,53.406779],[-2.98963,53.406826],[-2.989544,53.406847],[-2.989786,53.407116],[-2.989902,53.407078],[-2.990102,53.407321],[-2.990104,53.407335],[-2.990214,53.407294]]]]},"properties":{"slot_id":"building_type_2","lineage_id":"building_type_2-20260930T173100Z-newstart","batch_id":"batch-0009","page_generation":1,"source_entity":42161252,"source_reference":"7","source_dataset":"listed-building-outline","source_organisation":"Liverpool City Council","building_evidence_status":"BUILDING_PRESENT","parcel_status":"UNPROCESSED","canonical_parcel_id":null,"building_type":"listed_building","building_use":null,"poi_accepted":false,"field_evidence":{"footprint":"official listed-building-outline MULTIPOLYGON","type":"official dataset classification: listed-building-outline","reference":"7","quality":"authoritative","name":"STATE INSURANCE BUILDING"},"source_url":"https://www.planning.data.gov.uk/entity/42161252","final_url":"https://www.planning.data.gov.uk/entity/42161252","access_utc":"2026-10-01T22:16:24Z","data_date":"2025-04-11","licence":"Open Government Licence v3.0","evidence_slice_sha256":"cc95a4fa57003cd6844791d2d45d86104a336267810a21d8b41b9b73b7513fde","confidence_score_0_100":96,"evidence_grade":"A","fake_data":false,"local_spatial_join_required":true}},{"type":"Feature","id":"42161272","geometry":{"type":"MultiPolygon","coordinates":[[[[-2.990829,53.406717],[-2.990945,53.406688],[-2.990867,53.406576],[-2.990713,53.406622],[-2.990743,53.406661],[-2.990783,53.406658],[-2.990829,53.406717]]]]},"properties":{"slot_id":"building_type_2","lineage_id":"building_type_2-20260930T173100Z-newstart","batch_id":"batch-0009","page_generation":1,"source_entity":42161272,"source_reference":"27","source_dataset":"listed-building-outline","source_organisation":"Liverpool City Council","building_evidence_status":"BUILDING_PRESENT","parcel_status":"UNPROCESSED","canonical_parcel_id":null,"building_type":"listed_building","building_use":null,"poi_accepted":false,"field_evidence":{"footprint":"official listed-building-outline MULTIPOLYGON","type":"official dataset classification: listed-building-outline","reference":"27","quality":"authoritative","name":"QUEEN INSURANCE BUILDING"},"source_url":"https://www.planning.data.gov.uk/entity/42161272","final_url":"https://www.planning.data.gov.uk/entity/42161272","access_utc":"2026-10-01T22:16:24Z","data_date":"2025-04-11","licence":"Open Government Licence v3.0","evidence_slice_sha256":"0831eddd9dd2a62ed3af9ed3c853c4f76da97e06f9f45636a7cc4894ceed0d8f","confidence_score_0_100":96,"evidence_grade":"A","fake_data":false,"local_spatial_join_required":true}},{"type":"Feature","id":"42161269","geometry":{"type":"MultiPolygon","coordinates":[[[[-2.971584,53.401033],[-2.971617,53.400941],[-2.971286,53.400893],[-2.971242,53.401008],[-2.971274,53.401013],[-2.971282,53.400991],[-2.971321,53.400996],[-2.971313,53.401018],[-2.971344,53.401022],[-2.971352,53.401],[-2.971387,53.401005],[-2.97138,53.401027],[-2.971402,53.40103],[-2.97141,53.401009],[-2.971453,53.401014],[-2.971445,53.401036],[-2.971469,53.401039],[-2.971477,53.401018],[-2.971521,53.401024],[-2.971513,53.401045],[-2.97154,53.401049],[-2.971547,53.401027],[-2.971584,53.401033]]]]},"properties":{"slot_id":"building_type_2","lineage_id":"building_type_2-20260930T173100Z-newstart","batch_id":"batch-0009","page_generation":1,"source_entity":42161269,"source_reference":"24","source_dataset":"listed-building-outline","source_organisation":"Liverpool City Council","building_evidence_status":"BUILDING_PRESENT","parcel_status":"UNPROCESSED","canonical_parcel_id":null,"building_type":"listed_building","building_use":null,"poi_accepted":false,"field_evidence":{"footprint":"official listed-building-outline MULTIPOLYGON","type":"official dataset classification: listed-building-outline","reference":"24","quality":"authoritative","name":"9-17, HOPE PLACE"},"source_url":"https://www.planning.data.gov.uk/entity/42161269","final_url":"https://www.planning.data.gov.uk/entity/42161269","access_utc":"2026-10-01T22:16:24Z","data_date":"2025-04-11","licence":"Open Government Licence v3.0","evidence_slice_sha256":"82ae3fd68c2f403681d1aacae5320f5a5ff0b4cae0f4642a6e2abaae1165899d","confidence_score_0_100":96,"evidence_grade":"A","fake_data":false,"local_spatial_join_required":true}}]}