{
  "type": "FeatureCollection",
  "features": [
    {
      "type": "Feature",
      "geometry": {
        "type": "Polygon",
        "coordinates": [
          [
            [
              -2.377065698706378,
              51.37559074133008
            ],
            [
              -2.377253081935536,
              51.37559508322547
            ],
            [
              -2.377254015642878,
              51.375673667663996
            ],
            [
              -2.376906442524021,
              51.37570481919292
            ],
            [
              -2.377222379773519,
              51.37442994777627
            ],
            [
              -2.377341441534354,
              51.37444269204735
            ],
            [
              -2.377065698706378,
              51.37559074133008
            ]
          ]
        ]
      },
      "properties": {
        "slot_id": "building_type_3",
        "lineage_id": "building_type_3-new-20260927T1328+0300",
        "owner": "cagdas aydin",
        "partition": "building_type_3",
        "page_generation": 61,
        "semantic_mode": null,
        "batch_id": "BT3-P122G61-20261009-OSOML-BANES-BUILDING10",
        "cursor": "BT3-P122G61-20261009-OSOML-BANES-BUILDING10-p122",
        "building_state": "BUILDING_PRESENT",
        "source_record_id": "os-openmap-local:building:03092E3B-CA4C-439D-84AC-4A1D907B6E6E",
        "semantic_identity": "os-openmap-local:building:03092E3B-CA4C-439D-84AC-4A1D907B6E6E",
        "source_row_ordinal": 1,
        "building_type_use": "building_use_unspecified",
        "building_type": "building",
        "building_use": "UNVERIFIED",
        "type_use_evidence": "OS OpenMap Local Building FEATCODE=15014 identifies building polygon; does not establish occupancy/use",
        "dataset": "OS OpenMap Local Building",
        "coordinate_reference_system": "OGC:CRS84",
        "id": "03092E3B-CA4C-439D-84AC-4A1D907B6E6E",
        "featcode": 15014,
        "authority": "Ordnance Survey OS OpenMap Local, geographically clipped and published by Bath:Hacked for Bath & North East Somerset",
        "source_url": "https://github.com/BathHacked/banes-geographic-data/blob/fd72378589e5c57eea6e96f0013a24a9749589ad/os_buildings.geojson",
        "final_url": "https://github.com/BathHacked/banes-geographic-data/blob/fd72378589e5c57eea6e96f0013a24a9749589ad/os_buildings.geojson",
        "http_status": 200,
        "access_utc": "2026-10-09T10:30:43.283Z",
        "data_date": "2017-10-05 OS OpenMap Local retrieval; source commit 2017-10-07",
        "source_version": "OS OpenMap Local Building (FEATCODE 15014), Bath & North East Somerset; retrieved 2017-10-05, revision fd72378589e5c57eea6e96f0013a24a9749589ad, blob 64a0bdb08df8109f599c4b7850d2a88f3ced6412",
        "license": "OS OpenData Licence; Contains Ordnance Survey data © Crown copyright and database right 2017",
        "source_file_sha256": "5474718970b2f63609f1ccbddc2ab82771b5f136d333f892261adb2695c6f69a",
        "field_evidence": [
          "id",
          "featcode",
          "geometry"
        ],
        "confidence_score_0_100": 98,
        "evidence_grade": "A_OS_OPENMAP_LOCAL_BUILDING_FOOTPRINT_USE_UNSPECIFIED",
        "official_public_no_login": true,
        "fake_data": false,
        "evidence_slice_sha256": "82d922ba050d10a6f575307f6b9d77f620b47088a237115c87d9f26191008b4a"
      }
    },
    {
      "type": "Feature",
      "geometry": {
        "type": "Polygon",
        "coordinates": [
          [
            [
              -2.374633443896011,
              51.37514590604008
            ],
            [
              -2.374471406496865,
              51.37513104853496
            ],
            [
              -2.374498649594441,
              51.37501883492392
            ],
            [
              -2.374786618016879,
              51.37504309035035
            ],
            [
              -2.374719192677675,
              51.37530145780913
            ],
            [
              -2.374375222578809,
              51.37526344414131
            ],
            [
              -2.37439784482301,
              51.37518352552858
            ],
            [
              -2.374617568993216,
              51.37520754996498
            ],
            [
              -2.374633443896011,
              51.37514590604008
            ]
          ]
        ]
      },
      "properties": {
        "slot_id": "building_type_3",
        "lineage_id": "building_type_3-new-20260927T1328+0300",
        "owner": "cagdas aydin",
        "partition": "building_type_3",
        "page_generation": 61,
        "semantic_mode": null,
        "batch_id": "BT3-P122G61-20261009-OSOML-BANES-BUILDING10",
        "cursor": "BT3-P122G61-20261009-OSOML-BANES-BUILDING10-p122",
        "building_state": "BUILDING_PRESENT",
        "source_record_id": "os-openmap-local:building:549902F0-0BC9-4C78-9065-B0A55EF4CC6A",
        "semantic_identity": "os-openmap-local:building:549902F0-0BC9-4C78-9065-B0A55EF4CC6A",
        "source_row_ordinal": 2,
        "building_type_use": "building_use_unspecified",
        "building_type": "building",
        "building_use": "UNVERIFIED",
        "type_use_evidence": "OS OpenMap Local Building FEATCODE=15014 identifies building polygon; does not establish occupancy/use",
        "dataset": "OS OpenMap Local Building",
        "coordinate_reference_system": "OGC:CRS84",
        "id": "549902F0-0BC9-4C78-9065-B0A55EF4CC6A",
        "featcode": 15014,
        "authority": "Ordnance Survey OS OpenMap Local, geographically clipped and published by Bath:Hacked for Bath & North East Somerset",
        "source_url": "https://github.com/BathHacked/banes-geographic-data/blob/fd72378589e5c57eea6e96f0013a24a9749589ad/os_buildings.geojson",
        "final_url": "https://github.com/BathHacked/banes-geographic-data/blob/fd72378589e5c57eea6e96f0013a24a9749589ad/os_buildings.geojson",
        "http_status": 200,
        "access_utc": "2026-10-09T10:30:43.283Z",
        "data_date": "2017-10-05 OS OpenMap Local retrieval; source commit 2017-10-07",
        "source_version": "OS OpenMap Local Building (FEATCODE 15014), Bath & North East Somerset; retrieved 2017-10-05, revision fd72378589e5c57eea6e96f0013a24a9749589ad, blob 64a0bdb08df8109f599c4b7850d2a88f3ced6412",
        "license": "OS OpenData Licence; Contains Ordnance Survey data © Crown copyright and database right 2017",
        "source_file_sha256": "5474718970b2f63609f1ccbddc2ab82771b5f136d333f892261adb2695c6f69a",
        "field_evidence": [
          "id",
          "featcode",
          "geometry"
        ],
        "confidence_score_0_100": 98,
        "evidence_grade": "A_OS_OPENMAP_LOCAL_BUILDING_FOOTPRINT_USE_UNSPECIFIED",
        "official_public_no_login": true,
        "fake_data": false,
        "evidence_slice_sha256": "9884ad454e574903e366335e08d594afa96b3a62b4229e10e6ac3bbdba0cad6e"
      }
    },
    {
      "type": "Feature",
      "geometry": {
        "type": "Polygon",
        "coordinates": [
          [
            [
              -2.376666330262672,
              51.37552539816082
            ],
            [
              -2.375699421560286,
              51.37515687749031
            ],
            [
              -2.375803990030744,
              51.375048821386535
            ],
            [
              -2.376771040954358,
              51.375417340741734
            ],
            [
              -2.376666330262672,
              51.37552539816082
            ]
          ]
        ]
      },
      "properties": {
        "slot_id": "building_type_3",
        "lineage_id": "building_type_3-new-20260927T1328+0300",
        "owner": "cagdas aydin",
        "partition": "building_type_3",
        "page_generation": 61,
        "semantic_mode": null,
        "batch_id": "BT3-P122G61-20261009-OSOML-BANES-BUILDING10",
        "cursor": "BT3-P122G61-20261009-OSOML-BANES-BUILDING10-p122",
        "building_state": "BUILDING_PRESENT",
        "source_record_id": "os-openmap-local:building:D3908214-F673-4439-A9CE-51ADF71DD1AA",
        "semantic_identity": "os-openmap-local:building:D3908214-F673-4439-A9CE-51ADF71DD1AA",
        "source_row_ordinal": 3,
        "building_type_use": "building_use_unspecified",
        "building_type": "building",
        "building_use": "UNVERIFIED",
        "type_use_evidence": "OS OpenMap Local Building FEATCODE=15014 identifies building polygon; does not establish occupancy/use",
        "dataset": "OS OpenMap Local Building",
        "coordinate_reference_system": "OGC:CRS84",
        "id": "D3908214-F673-4439-A9CE-51ADF71DD1AA",
        "featcode": 15014,
        "authority": "Ordnance Survey OS OpenMap Local, geographically clipped and published by Bath:Hacked for Bath & North East Somerset",
        "source_url": "https://github.com/BathHacked/banes-geographic-data/blob/fd72378589e5c57eea6e96f0013a24a9749589ad/os_buildings.geojson",
        "final_url": "https://github.com/BathHacked/banes-geographic-data/blob/fd72378589e5c57eea6e96f0013a24a9749589ad/os_buildings.geojson",
        "http_status": 200,
        "access_utc": "2026-10-09T10:30:43.283Z",
        "data_date": "2017-10-05 OS OpenMap Local retrieval; source commit 2017-10-07",
        "source_version": "OS OpenMap Local Building (FEATCODE 15014), Bath & North East Somerset; retrieved 2017-10-05, revision fd72378589e5c57eea6e96f0013a24a9749589ad, blob 64a0bdb08df8109f599c4b7850d2a88f3ced6412",
        "license": "OS OpenData Licence; Contains Ordnance Survey data © Crown copyright and database right 2017",
        "source_file_sha256": "5474718970b2f63609f1ccbddc2ab82771b5f136d333f892261adb2695c6f69a",
        "field_evidence": [
          "id",
          "featcode",
          "geometry"
        ],
        "confidence_score_0_100": 98,
        "evidence_grade": "A_OS_OPENMAP_LOCAL_BUILDING_FOOTPRINT_USE_UNSPECIFIED",
        "official_public_no_login": true,
        "fake_data": false,
        "evidence_slice_sha256": "9074bb774be1fe8213534ca73e8f9c060390f956f87f080cf3c2fde90cbbbe7b"
      }
    },
    {
      "type": "Feature",
      "geometry": {
        "type": "Polygon",
        "coordinates": [
          [
            [
              -2.377410060542345,
              51.37508214044858
            ],
            [
              -2.377398128445483,
              51.375133611426904
            ],
            [
              -2.37731028036755,
              51.37512562215858
            ],
            [
              -2.377322212560941,
              51.37507415118895
            ],
            [
              -2.377410060542345,
              51.37508214044858
            ]
          ]
        ]
      },
      "properties": {
        "slot_id": "building_type_3",
        "lineage_id": "building_type_3-new-20260927T1328+0300",
        "owner": "cagdas aydin",
        "partition": "building_type_3",
        "page_generation": 61,
        "semantic_mode": null,
        "batch_id": "BT3-P122G61-20261009-OSOML-BANES-BUILDING10",
        "cursor": "BT3-P122G61-20261009-OSOML-BANES-BUILDING10-p122",
        "building_state": "BUILDING_PRESENT",
        "source_record_id": "os-openmap-local:building:2ABDBA68-DBE3-4E95-8C81-42D26457D238",
        "semantic_identity": "os-openmap-local:building:2ABDBA68-DBE3-4E95-8C81-42D26457D238",
        "source_row_ordinal": 4,
        "building_type_use": "building_use_unspecified",
        "building_type": "building",
        "building_use": "UNVERIFIED",
        "type_use_evidence": "OS OpenMap Local Building FEATCODE=15014 identifies building polygon; does not establish occupancy/use",
        "dataset": "OS OpenMap Local Building",
        "coordinate_reference_system": "OGC:CRS84",
        "id": "2ABDBA68-DBE3-4E95-8C81-42D26457D238",
        "featcode": 15014,
        "authority": "Ordnance Survey OS OpenMap Local, geographically clipped and published by Bath:Hacked for Bath & North East Somerset",
        "source_url": "https://github.com/BathHacked/banes-geographic-data/blob/fd72378589e5c57eea6e96f0013a24a9749589ad/os_buildings.geojson",
        "final_url": "https://github.com/BathHacked/banes-geographic-data/blob/fd72378589e5c57eea6e96f0013a24a9749589ad/os_buildings.geojson",
        "http_status": 200,
        "access_utc": "2026-10-09T10:30:43.283Z",
        "data_date": "2017-10-05 OS OpenMap Local retrieval; source commit 2017-10-07",
        "source_version": "OS OpenMap Local Building (FEATCODE 15014), Bath & North East Somerset; retrieved 2017-10-05, revision fd72378589e5c57eea6e96f0013a24a9749589ad, blob 64a0bdb08df8109f599c4b7850d2a88f3ced6412",
        "license": "OS OpenData Licence; Contains Ordnance Survey data © Crown copyright and database right 2017",
        "source_file_sha256": "5474718970b2f63609f1ccbddc2ab82771b5f136d333f892261adb2695c6f69a",
        "field_evidence": [
          "id",
          "featcode",
          "geometry"
        ],
        "confidence_score_0_100": 98,
        "evidence_grade": "A_OS_OPENMAP_LOCAL_BUILDING_FOOTPRINT_USE_UNSPECIFIED",
        "official_public_no_login": true,
        "fake_data": false,
        "evidence_slice_sha256": "bb71b20838448b388c1346a1f01cfee86938f3a553c4bd43ba95c4a4e8e186e2"
      }
    },
    {
      "type": "Feature",
      "geometry": {
        "type": "Polygon",
        "coordinates": [
          [
            [
              -2.375003346785359,
              51.37531583404141
            ],
            [
              -2.374860074635577,
              51.37525910557739
            ],
            [
              -2.374997178483297,
              51.37512370119119
            ],
            [
              -2.375043032255654,
              51.37512652159896
            ],
            [
              -2.375150256720002,
              51.375167360109366
            ],
            [
              -2.375003346785359,
              51.37531583404141
            ]
          ]
        ]
      },
      "properties": {
        "slot_id": "building_type_3",
        "lineage_id": "building_type_3-new-20260927T1328+0300",
        "owner": "cagdas aydin",
        "partition": "building_type_3",
        "page_generation": 61,
        "semantic_mode": null,
        "batch_id": "BT3-P122G61-20261009-OSOML-BANES-BUILDING10",
        "cursor": "BT3-P122G61-20261009-OSOML-BANES-BUILDING10-p122",
        "building_state": "BUILDING_PRESENT",
        "source_record_id": "os-openmap-local:building:2D24EF9B-BB0D-46DE-B8A0-AE0FF085092E",
        "semantic_identity": "os-openmap-local:building:2D24EF9B-BB0D-46DE-B8A0-AE0FF085092E",
        "source_row_ordinal": 5,
        "building_type_use": "building_use_unspecified",
        "building_type": "building",
        "building_use": "UNVERIFIED",
        "type_use_evidence": "OS OpenMap Local Building FEATCODE=15014 identifies building polygon; does not establish occupancy/use",
        "dataset": "OS OpenMap Local Building",
        "coordinate_reference_system": "OGC:CRS84",
        "id": "2D24EF9B-BB0D-46DE-B8A0-AE0FF085092E",
        "featcode": 15014,
        "authority": "Ordnance Survey OS OpenMap Local, geographically clipped and published by Bath:Hacked for Bath & North East Somerset",
        "source_url": "https://github.com/BathHacked/banes-geographic-data/blob/fd72378589e5c57eea6e96f0013a24a9749589ad/os_buildings.geojson",
        "final_url": "https://github.com/BathHacked/banes-geographic-data/blob/fd72378589e5c57eea6e96f0013a24a9749589ad/os_buildings.geojson",
        "http_status": 200,
        "access_utc": "2026-10-09T10:30:43.283Z",
        "data_date": "2017-10-05 OS OpenMap Local retrieval; source commit 2017-10-07",
        "source_version": "OS OpenMap Local Building (FEATCODE 15014), Bath & North East Somerset; retrieved 2017-10-05, revision fd72378589e5c57eea6e96f0013a24a9749589ad, blob 64a0bdb08df8109f599c4b7850d2a88f3ced6412",
        "license": "OS OpenData Licence; Contains Ordnance Survey data © Crown copyright and database right 2017",
        "source_file_sha256": "5474718970b2f63609f1ccbddc2ab82771b5f136d333f892261adb2695c6f69a",
        "field_evidence": [
          "id",
          "featcode",
          "geometry"
        ],
        "confidence_score_0_100": 98,
        "evidence_grade": "A_OS_OPENMAP_LOCAL_BUILDING_FOOTPRINT_USE_UNSPECIFIED",
        "official_public_no_login": true,
        "fake_data": false,
        "evidence_slice_sha256": "d14fa54753e77e65f886c082e76b61c0e18d72b462ccda7e5f4d0960b2d8da4c"
      }
    },
    {
      "type": "Feature",
      "geometry": {
        "type": "Polygon",
        "coordinates": [
          [
            [
              -2.375194897027845,
              51.37539066079943
            ],
            [
              -2.375059153168568,
              51.37534101189913
            ],
            [
              -2.375195628312988,
              51.37519904535579
            ],
            [
              -2.375330501805455,
              51.37524770780176
            ],
            [
              -2.375194897027845,
              51.37539066079943
            ]
          ]
        ]
      },
      "properties": {
        "slot_id": "building_type_3",
        "lineage_id": "building_type_3-new-20260927T1328+0300",
        "owner": "cagdas aydin",
        "partition": "building_type_3",
        "page_generation": 61,
        "semantic_mode": null,
        "batch_id": "BT3-P122G61-20261009-OSOML-BANES-BUILDING10",
        "cursor": "BT3-P122G61-20261009-OSOML-BANES-BUILDING10-p122",
        "building_state": "BUILDING_PRESENT",
        "source_record_id": "os-openmap-local:building:5B07EF44-FCE7-4942-87C0-3EEE2ED8C814",
        "semantic_identity": "os-openmap-local:building:5B07EF44-FCE7-4942-87C0-3EEE2ED8C814",
        "source_row_ordinal": 6,
        "building_type_use": "building_use_unspecified",
        "building_type": "building",
        "building_use": "UNVERIFIED",
        "type_use_evidence": "OS OpenMap Local Building FEATCODE=15014 identifies building polygon; does not establish occupancy/use",
        "dataset": "OS OpenMap Local Building",
        "coordinate_reference_system": "OGC:CRS84",
        "id": "5B07EF44-FCE7-4942-87C0-3EEE2ED8C814",
        "featcode": 15014,
        "authority": "Ordnance Survey OS OpenMap Local, geographically clipped and published by Bath:Hacked for Bath & North East Somerset",
        "source_url": "https://github.com/BathHacked/banes-geographic-data/blob/fd72378589e5c57eea6e96f0013a24a9749589ad/os_buildings.geojson",
        "final_url": "https://github.com/BathHacked/banes-geographic-data/blob/fd72378589e5c57eea6e96f0013a24a9749589ad/os_buildings.geojson",
        "http_status": 200,
        "access_utc": "2026-10-09T10:30:43.283Z",
        "data_date": "2017-10-05 OS OpenMap Local retrieval; source commit 2017-10-07",
        "source_version": "OS OpenMap Local Building (FEATCODE 15014), Bath & North East Somerset; retrieved 2017-10-05, revision fd72378589e5c57eea6e96f0013a24a9749589ad, blob 64a0bdb08df8109f599c4b7850d2a88f3ced6412",
        "license": "OS OpenData Licence; Contains Ordnance Survey data © Crown copyright and database right 2017",
        "source_file_sha256": "5474718970b2f63609f1ccbddc2ab82771b5f136d333f892261adb2695c6f69a",
        "field_evidence": [
          "id",
          "featcode",
          "geometry"
        ],
        "confidence_score_0_100": 98,
        "evidence_grade": "A_OS_OPENMAP_LOCAL_BUILDING_FOOTPRINT_USE_UNSPECIFIED",
        "official_public_no_login": true,
        "fake_data": false,
        "evidence_slice_sha256": "1027271a350165f59632fad68b34c3261ab74eb90277920cdca22adc37e95229"
      }
    },
    {
      "type": "Feature",
      "geometry": {
        "type": "Polygon",
        "coordinates": [
          [
            [
              -2.377496758839859,
              51.37528210613188
            ],
            [
              -2.377658017207874,
              51.37528940893987
            ],
            [
              -2.377621393815689,
              51.3756050457703
            ],
            [
              -2.377460134344021,
              51.37559774291455
            ],
            [
              -2.377496758839859,
              51.37528210613188
            ]
          ]
        ]
      },
      "properties": {
        "slot_id": "building_type_3",
        "lineage_id": "building_type_3-new-20260927T1328+0300",
        "owner": "cagdas aydin",
        "partition": "building_type_3",
        "page_generation": 61,
        "semantic_mode": null,
        "batch_id": "BT3-P122G61-20261009-OSOML-BANES-BUILDING10",
        "cursor": "BT3-P122G61-20261009-OSOML-BANES-BUILDING10-p122",
        "building_state": "BUILDING_PRESENT",
        "source_record_id": "os-openmap-local:building:0B2EB841-BFA0-43A9-848D-1EB66D01102B",
        "semantic_identity": "os-openmap-local:building:0B2EB841-BFA0-43A9-848D-1EB66D01102B",
        "source_row_ordinal": 7,
        "building_type_use": "building_use_unspecified",
        "building_type": "building",
        "building_use": "UNVERIFIED",
        "type_use_evidence": "OS OpenMap Local Building FEATCODE=15014 identifies building polygon; does not establish occupancy/use",
        "dataset": "OS OpenMap Local Building",
        "coordinate_reference_system": "OGC:CRS84",
        "id": "0B2EB841-BFA0-43A9-848D-1EB66D01102B",
        "featcode": 15014,
        "authority": "Ordnance Survey OS OpenMap Local, geographically clipped and published by Bath:Hacked for Bath & North East Somerset",
        "source_url": "https://github.com/BathHacked/banes-geographic-data/blob/fd72378589e5c57eea6e96f0013a24a9749589ad/os_buildings.geojson",
        "final_url": "https://github.com/BathHacked/banes-geographic-data/blob/fd72378589e5c57eea6e96f0013a24a9749589ad/os_buildings.geojson",
        "http_status": 200,
        "access_utc": "2026-10-09T10:30:43.283Z",
        "data_date": "2017-10-05 OS OpenMap Local retrieval; source commit 2017-10-07",
        "source_version": "OS OpenMap Local Building (FEATCODE 15014), Bath & North East Somerset; retrieved 2017-10-05, revision fd72378589e5c57eea6e96f0013a24a9749589ad, blob 64a0bdb08df8109f599c4b7850d2a88f3ced6412",
        "license": "OS OpenData Licence; Contains Ordnance Survey data © Crown copyright and database right 2017",
        "source_file_sha256": "5474718970b2f63609f1ccbddc2ab82771b5f136d333f892261adb2695c6f69a",
        "field_evidence": [
          "id",
          "featcode",
          "geometry"
        ],
        "confidence_score_0_100": 98,
        "evidence_grade": "A_OS_OPENMAP_LOCAL_BUILDING_FOOTPRINT_USE_UNSPECIFIED",
        "official_public_no_login": true,
        "fake_data": false,
        "evidence_slice_sha256": "7f21bb67a336c2d3b772aeec87650e81ae1aae8a4aaddea1a88c0a34b24d2ac1"
      }
    },
    {
      "type": "Feature",
      "geometry": {
        "type": "Polygon",
        "coordinates": [
          [
            [
              -2.376442769837374,
              51.37580450005319
            ],
            [
              -2.375415814621322,
              51.375419895101125
            ],
            [
              -2.375527505120499,
              51.37530417347291
            ],
            [
              -2.376552035511119,
              51.37569112309097
            ],
            [
              -2.376442769837374,
              51.37580450005319
            ]
          ]
        ]
      },
      "properties": {
        "slot_id": "building_type_3",
        "lineage_id": "building_type_3-new-20260927T1328+0300",
        "owner": "cagdas aydin",
        "partition": "building_type_3",
        "page_generation": 61,
        "semantic_mode": null,
        "batch_id": "BT3-P122G61-20261009-OSOML-BANES-BUILDING10",
        "cursor": "BT3-P122G61-20261009-OSOML-BANES-BUILDING10-p122",
        "building_state": "BUILDING_PRESENT",
        "source_record_id": "os-openmap-local:building:D2E2021E-999B-4885-BB10-47441AB90FE8",
        "semantic_identity": "os-openmap-local:building:D2E2021E-999B-4885-BB10-47441AB90FE8",
        "source_row_ordinal": 8,
        "building_type_use": "building_use_unspecified",
        "building_type": "building",
        "building_use": "UNVERIFIED",
        "type_use_evidence": "OS OpenMap Local Building FEATCODE=15014 identifies building polygon; does not establish occupancy/use",
        "dataset": "OS OpenMap Local Building",
        "coordinate_reference_system": "OGC:CRS84",
        "id": "D2E2021E-999B-4885-BB10-47441AB90FE8",
        "featcode": 15014,
        "authority": "Ordnance Survey OS OpenMap Local, geographically clipped and published by Bath:Hacked for Bath & North East Somerset",
        "source_url": "https://github.com/BathHacked/banes-geographic-data/blob/fd72378589e5c57eea6e96f0013a24a9749589ad/os_buildings.geojson",
        "final_url": "https://github.com/BathHacked/banes-geographic-data/blob/fd72378589e5c57eea6e96f0013a24a9749589ad/os_buildings.geojson",
        "http_status": 200,
        "access_utc": "2026-10-09T10:30:43.283Z",
        "data_date": "2017-10-05 OS OpenMap Local retrieval; source commit 2017-10-07",
        "source_version": "OS OpenMap Local Building (FEATCODE 15014), Bath & North East Somerset; retrieved 2017-10-05, revision fd72378589e5c57eea6e96f0013a24a9749589ad, blob 64a0bdb08df8109f599c4b7850d2a88f3ced6412",
        "license": "OS OpenData Licence; Contains Ordnance Survey data © Crown copyright and database right 2017",
        "source_file_sha256": "5474718970b2f63609f1ccbddc2ab82771b5f136d333f892261adb2695c6f69a",
        "field_evidence": [
          "id",
          "featcode",
          "geometry"
        ],
        "confidence_score_0_100": 98,
        "evidence_grade": "A_OS_OPENMAP_LOCAL_BUILDING_FOOTPRINT_USE_UNSPECIFIED",
        "official_public_no_login": true,
        "fake_data": false,
        "evidence_slice_sha256": "005bd435a6c77001d090969856f91ffc1219f7d5c315381aa7682724410ae7ae"
      }
    },
    {
      "type": "Feature",
      "geometry": {
        "type": "Polygon",
        "coordinates": [
          [
            [
              -2.374617933685836,
              51.37537533389473
            ],
            [
              -2.374498963780325,
              51.37556759728479
            ],
            [
              -2.374342625969457,
              51.37552952279123
            ],
            [
              -2.374461311301344,
              51.375337530220285
            ],
            [
              -2.374617933685836,
              51.37537533389473
            ]
          ]
        ]
      },
      "properties": {
        "slot_id": "building_type_3",
        "lineage_id": "building_type_3-new-20260927T1328+0300",
        "owner": "cagdas aydin",
        "partition": "building_type_3",
        "page_generation": 61,
        "semantic_mode": null,
        "batch_id": "BT3-P122G61-20261009-OSOML-BANES-BUILDING10",
        "cursor": "BT3-P122G61-20261009-OSOML-BANES-BUILDING10-p122",
        "building_state": "BUILDING_PRESENT",
        "source_record_id": "os-openmap-local:building:381C628D-1845-4F7F-AA3D-47ECCAE676A3",
        "semantic_identity": "os-openmap-local:building:381C628D-1845-4F7F-AA3D-47ECCAE676A3",
        "source_row_ordinal": 9,
        "building_type_use": "building_use_unspecified",
        "building_type": "building",
        "building_use": "UNVERIFIED",
        "type_use_evidence": "OS OpenMap Local Building FEATCODE=15014 identifies building polygon; does not establish occupancy/use",
        "dataset": "OS OpenMap Local Building",
        "coordinate_reference_system": "OGC:CRS84",
        "id": "381C628D-1845-4F7F-AA3D-47ECCAE676A3",
        "featcode": 15014,
        "authority": "Ordnance Survey OS OpenMap Local, geographically clipped and published by Bath:Hacked for Bath & North East Somerset",
        "source_url": "https://github.com/BathHacked/banes-geographic-data/blob/fd72378589e5c57eea6e96f0013a24a9749589ad/os_buildings.geojson",
        "final_url": "https://github.com/BathHacked/banes-geographic-data/blob/fd72378589e5c57eea6e96f0013a24a9749589ad/os_buildings.geojson",
        "http_status": 200,
        "access_utc": "2026-10-09T10:30:43.283Z",
        "data_date": "2017-10-05 OS OpenMap Local retrieval; source commit 2017-10-07",
        "source_version": "OS OpenMap Local Building (FEATCODE 15014), Bath & North East Somerset; retrieved 2017-10-05, revision fd72378589e5c57eea6e96f0013a24a9749589ad, blob 64a0bdb08df8109f599c4b7850d2a88f3ced6412",
        "license": "OS OpenData Licence; Contains Ordnance Survey data © Crown copyright and database right 2017",
        "source_file_sha256": "5474718970b2f63609f1ccbddc2ab82771b5f136d333f892261adb2695c6f69a",
        "field_evidence": [
          "id",
          "featcode",
          "geometry"
        ],
        "confidence_score_0_100": 98,
        "evidence_grade": "A_OS_OPENMAP_LOCAL_BUILDING_FOOTPRINT_USE_UNSPECIFIED",
        "official_public_no_login": true,
        "fake_data": false,
        "evidence_slice_sha256": "66eb6649480d47c2aa81f548835697256548f091adc496103facf8b519fa271f"
      }
    },
    {
      "type": "Feature",
      "geometry": {
        "type": "Polygon",
        "coordinates": [
          [
            [
              -2.374683807205798,
              51.37541936229042
            ],
            [
              -2.374712075526773,
              51.375397511924916
            ],
            [
              -2.374798346968655,
              51.37544111531314
            ],
            [
              -2.374770078662112,
              51.37546296569927
            ],
            [
              -2.374683807205798,
              51.37541936229042
            ]
          ]
        ]
      },
      "properties": {
        "slot_id": "building_type_3",
        "lineage_id": "building_type_3-new-20260927T1328+0300",
        "owner": "cagdas aydin",
        "partition": "building_type_3",
        "page_generation": 61,
        "semantic_mode": null,
        "batch_id": "BT3-P122G61-20261009-OSOML-BANES-BUILDING10",
        "cursor": "BT3-P122G61-20261009-OSOML-BANES-BUILDING10-p122",
        "building_state": "BUILDING_PRESENT",
        "source_record_id": "os-openmap-local:building:17387D08-7700-4250-8C97-84612B9A4EB6",
        "semantic_identity": "os-openmap-local:building:17387D08-7700-4250-8C97-84612B9A4EB6",
        "source_row_ordinal": 10,
        "building_type_use": "building_use_unspecified",
        "building_type": "building",
        "building_use": "UNVERIFIED",
        "type_use_evidence": "OS OpenMap Local Building FEATCODE=15014 identifies building polygon; does not establish occupancy/use",
        "dataset": "OS OpenMap Local Building",
        "coordinate_reference_system": "OGC:CRS84",
        "id": "17387D08-7700-4250-8C97-84612B9A4EB6",
        "featcode": 15014,
        "authority": "Ordnance Survey OS OpenMap Local, geographically clipped and published by Bath:Hacked for Bath & North East Somerset",
        "source_url": "https://github.com/BathHacked/banes-geographic-data/blob/fd72378589e5c57eea6e96f0013a24a9749589ad/os_buildings.geojson",
        "final_url": "https://github.com/BathHacked/banes-geographic-data/blob/fd72378589e5c57eea6e96f0013a24a9749589ad/os_buildings.geojson",
        "http_status": 200,
        "access_utc": "2026-10-09T10:30:43.283Z",
        "data_date": "2017-10-05 OS OpenMap Local retrieval; source commit 2017-10-07",
        "source_version": "OS OpenMap Local Building (FEATCODE 15014), Bath & North East Somerset; retrieved 2017-10-05, revision fd72378589e5c57eea6e96f0013a24a9749589ad, blob 64a0bdb08df8109f599c4b7850d2a88f3ced6412",
        "license": "OS OpenData Licence; Contains Ordnance Survey data © Crown copyright and database right 2017",
        "source_file_sha256": "5474718970b2f63609f1ccbddc2ab82771b5f136d333f892261adb2695c6f69a",
        "field_evidence": [
          "id",
          "featcode",
          "geometry"
        ],
        "confidence_score_0_100": 98,
        "evidence_grade": "A_OS_OPENMAP_LOCAL_BUILDING_FOOTPRINT_USE_UNSPECIFIED",
        "official_public_no_login": true,
        "fake_data": false,
        "evidence_slice_sha256": "b087c7309d41669bc8cbf125cdb24bdd410095100000c974ee8b533cb7451ba0"
      }
    }
  ]
}
