{"type":"FeatureCollection","features":[{"type":"Feature","id":"planned_buildings_1-planning-data-brownfield-1736003","geometry":{"type":"Point","coordinates":[-0.122466,51.4537]},"properties":{"topic_id":"planned-buildings","slot_id":"planned_buildings_1","source_dataset_id":"planning_data_brownfield_land","source_entity":1736003,"official_site_key":"BLR095","canonical_record_key":"planning-data:brownfield-land:1736003","planned_project_name":"Land Between 29 And 31 Blenheim Gardens","planned_project_status":"permissioned","planned_project_owner_type":"not-owned-by-a-public-authority","planned_building_capacity_net_dwellings":17,"source_record_start_date":"2021-12-15","source_record_end_date":"2023-12-20","source_record_temporal_status":"historical_register_record","parcel_id":null,"program_parcel_id":null,"planned_building_value":null,"planned_building_probability":null,"planned_building_complete_month":null,"planned_scoring_status":"METHODOLOGY_APPROVAL_REQUIRED","matching_method":"direct_official_site_record_no_parcel_match","source_quality":"authoritative","source_license":"Open Government Licence v3.0","demo_only":true,"fake_data":false,"final_ready":false,"production_merge":false}}],"metadata":{"slot_id":"planned_buildings_1","batch_index":10,"source_window":{"geometry_entity":626195,"geometry_relation":"within","limit":1,"offset":93},"feature_count_before":118,"feature_count_after":119,"unique_real_site_project_before":69,"unique_real_site_project_after":70,"new_feature_count":1,"duplicate_count_new":0,"nearest_match_used":false,"fake_data":false,"mirror_only":true}}