{"type":"FeatureCollection","features":[{"type":"Feature","id":"planned_buildings_1-planning-data-brownfield-1719401","geometry":{"type":"Point","coordinates":[-0.119441,51.438364]},"properties":{"slot_id":"planned_buildings_1","source_entity":1719401,"official_site_key":"BLR086","canonical_record_key":"planning-data:brownfield-land:1719401","planned_project_name":"St Margarets Church","source_record_temporal_status":"historical_register_record","fake_data":false}},{"type":"Feature","id":"planned_buildings_1-planning-data-brownfield-1719402","geometry":{"type":"Point","coordinates":[-0.136714,51.462587]},"properties":{"slot_id":"planned_buildings_1","source_entity":1719402,"official_site_key":"BLR087","canonical_record_key":"planning-data:brownfield-land:1719402","planned_project_name":"154-166 Clapham High Street And 162 Stonhouse","source_record_temporal_status":"historical_register_record","fake_data":false}},{"type":"Feature","id":"planned_buildings_1-planning-data-brownfield-1719403","geometry":{"type":"Point","coordinates":[-0.108406,51.491612]},"properties":{"slot_id":"planned_buildings_1","source_entity":1719403,"official_site_key":"BLR088","canonical_record_key":"planning-data:brownfield-land:1719403","planned_project_name":"Vanbrugh Court","source_record_temporal_status":"historical_register_record","fake_data":false}},{"type":"Feature","id":"planned_buildings_1-planning-data-brownfield-1719404","geometry":{"type":"Point","coordinates":[-0.102615,51.465575]},"properties":{"slot_id":"planned_buildings_1","source_entity":1719404,"official_site_key":"BLR089","canonical_record_key":"planning-data:brownfield-land:1719404","planned_project_name":"219 - 223 Coldharbour Lane","source_record_temporal_status":"historical_register_record","fake_data":false}},{"type":"Feature","id":"planned_buildings_1-planning-data-brownfield-1719405","geometry":{"type":"Point","coordinates":[-0.118706,51.460789]},"properties":{"slot_id":"planned_buildings_1","source_entity":1719405,"official_site_key":"BLR090","canonical_record_key":"planning-data:brownfield-land:1719405","planned_project_name":"34 Acre Lane","source_record_temporal_status":"current_register_record","fake_data":false}},{"type":"Feature","id":"planned_buildings_1-planning-data-brownfield-1719406","geometry":{"type":"Point","coordinates":[-0.125045,51.434668]},"properties":{"slot_id":"planned_buildings_1","source_entity":1719406,"official_site_key":"BLR091","canonical_record_key":"planning-data:brownfield-land:1719406","planned_project_name":"19 Leigham Avenue","source_record_temporal_status":"historical_register_record","fake_data":false}},{"type":"Feature","id":"planned_buildings_1-planning-data-brownfield-1719407","geometry":{"type":"Point","coordinates":[-0.1131,51.486418]},"properties":{"slot_id":"planned_buildings_1","source_entity":1719407,"official_site_key":"BLR092","canonical_record_key":"planning-data:brownfield-land:1719407","planned_project_name":"Land To The East Of Montford Place","source_record_temporal_status":"historical_register_record","fake_data":false}},{"type":"Feature","id":"planned_buildings_1-planning-data-brownfield-1736001","geometry":{"type":"Point","coordinates":[-0.119051,51.453798]},"properties":{"slot_id":"planned_buildings_1","source_entity":1736001,"official_site_key":"BLR093","canonical_record_key":"planning-data:brownfield-land:1736001","planned_project_name":"Raleigh Park Baptist Church Arodene Road","source_record_temporal_status":"historical_register_record","fake_data":false}},{"type":"Feature","id":"planned_buildings_1-planning-data-brownfield-1736002","geometry":{"type":"Point","coordinates":[-0.137764,51.464016]},"properties":{"slot_id":"planned_buildings_1","source_entity":1736002,"official_site_key":"BLR094","canonical_record_key":"planning-data:brownfield-land:1736002","planned_project_name":"128 Stonhouse Street","source_record_temporal_status":"historical_register_record","fake_data":false}},{"type":"Feature","id":"planned_buildings_1-planning-data-brownfield-1736003","geometry":{"type":"Point","coordinates":[-0.122466,51.4537]},"properties":{"slot_id":"planned_buildings_1","source_entity":1736003,"official_site_key":"BLR095","canonical_record_key":"planning-data:brownfield-land:1736003","planned_project_name":"Land Between 29 And 31 Blenheim Gardens","source_record_temporal_status":"historical_register_record","fake_data":false}},{"type":"Feature","id":"planned_buildings_1-planning-data-brownfield-1736004","geometry":{"type":"Point","coordinates":[-0.106462,51.423407]},"properties":{"slot_id":"planned_buildings_1","source_entity":1736004,"official_site_key":"BLR096","canonical_record_key":"planning-data:brownfield-land:1736004","planned_project_name":"Rear Of 260 Knight's Hill","source_record_temporal_status":"historical_register_record","fake_data":false}},{"type":"Feature","id":"planned_buildings_1-planning-data-brownfield-1736005","geometry":{"type":"Point","coordinates":[-0.144358,51.467915]},"properties":{"slot_id":"planned_buildings_1","source_entity":1736005,"official_site_key":"BLR097","canonical_record_key":"planning-data:brownfield-land:1736005","planned_project_name":"693 - 697 Wandsworth Road","source_record_temporal_status":"historical_register_record","fake_data":false}}],"metadata":{"slot_id":"planned_buildings_1","run_id":"20260818T045300Z","source_family":"planning_data_brownfield_land","processed_offsets":[84,85,86,87,88,89,90,91,92,93,94,95],"promoted_offsets":[84,85,86,87,88,89,90,91,92,93,94,95],"next_unused_window":{"geometry_entity":626195,"geometry_relation":"within","limit":1,"offset":96},"bounded_batch_count":12,"zero_result_windows":0,"evidence_insufficient_windows":0,"feature_count_before":109,"feature_count_added":12,"feature_count_after_logical":121,"unique_real_site_project_before":60,"unique_real_site_project_added":12,"unique_real_site_project_after":72,"historical_register_records_promoted":11,"current_register_records_promoted":1,"duplicate_candidate_rejected":0,"duplicate_count_new":0,"reprocessed_window_count":0,"nearest_match_used":false,"parcel_match_used":false,"fake_data":false,"demo_only":true,"final_ready":false,"production_merge":false,"mirror_only":true,"canonical_latest_overwritten":false}}