{"type":"FeatureCollection","features":[{"type":"Feature","geometry":null,"properties":{"slot_id":"future_growth_1","lineage_id":"future_growth_1-newstart-20260927T153100+0300","page_generation":null,"accepted_as_parcel":false,"source_area_count_contribution":1,"exact_identifier":"Map ref 2 Policy SA1 SALP (July 2013)","exact_identifier_provided":true,"coverage_polygon_provided":false,"identifier_namespace":"Bracknell Forest Site Allocations Local Plan / brownfield-land","site_name":"Albert Road Car Park Bracknell","entity":1712450,"access_utc":"2026-10-04T18:22:00Z","data_date":"2022-12-01","source_url":"https://www.planning.data.gov.uk/entity/1712450","final_url":"https://www.planning.data.gov.uk/entity/1712450","geojson_url":"https://www.planning.data.gov.uk/entity/1712450.geojson","site_plan_url":"https://consult.bracknell-forest.gov.uk/file/5954421","planning_permission_history_url":"https://www.bracknell-forest.gov.uk/planning-and-building-control/planning/planning-policy/development-plan/site-allocations-local-plan","license":"Open Government Licence v3.0","authority":"Bracknell Forest Council","hectares":0.53,"deliverable":"yes","ownership_status":"owned-by-a-public-authority","minimum_net_dwellings":40,"maximum_net_dwellings":40,"planning_permission_status":"not-permissioned","evidence_grade":"A","confidence_score_0_100":99,"evidence_scope":"exact authoritative Planning Data brownfield-land entity 1712450 and Bracknell Forest Site Allocations Local Plan references","evidence_slice_sha256":"32f03091d2783b60b94180b43432b9b1ee17a528caf0396d6a109a9eb5728344","fake_data":false,"spatial_binding_method":"official Planning Data entity/reference plus geographical-area geojson endpoint; exact polygon retrieval, canonical parcel spatial join and materialization delegated to local OpenCode","planned_building_count_contribution":0}}]}