{"type":"FeatureCollection","name":"ONSDIGITAL_GEOSCRIPTS_LSOA21_EXACTID_ROW_006","features":[{"type":"Feature","id":"E01000007","geometry":null,"properties":{"slot_id":"gas_emissions_6","lineage_id":"LOCAL-NEW-92271296-1318-4c0c-a293-d0d4ebc2d06b","page_generation":1,"semantic_mode":"AREA_JOIN","partition":{"start":76904,"end":92283,"count":15380},"evidence_scope":"coverage_area","coverage_area_id":"E01000007","coverage_area_name":"Barking and Dagenham 015A","coverage_area_identifier_scheme":"ONS_GSS_LSOA21","boundary_vintage":"LSOA 2021 exact identifier list","source_area_record":true,"accepted_parcel_record":false,"spatial_binding_method":"EXACT_OFFICIAL_IDENTIFIER","source_row_cursor":6,"source_url":"https://raw.githubusercontent.com/ONSdigital/geo-scripts/7ee374970b457a0e7d2228f96c63f078ab1825f3/output/lists/lsoa21.csv","final_url":"https://raw.githubusercontent.com/ONSdigital/geo-scripts/7ee374970b457a0e7d2228f96c63f078ab1825f3/output/lists/lsoa21.csv","source_access_utc":"2026-10-05T01:35:00Z","source_blob_sha":"c3c64add890c37f5db373d9738f01237f3d43355","source_file_sha256":"537c9ab4876460366e582959685adc8f6ccac4d267ece9eedc26420f29a6d452","field_evidence":{"areacd":"E01000007","areanm":"Barking and Dagenham 015A"},"evidence_slice_sha256":"05321593f25719c12a73414ed72a45d5f4065bb4aa95ace0b6cadcf4a0d827e2","confidence_score_0_100":96,"evidence_grade":"A","licence":"Open Government Licence v3.0","fake_data":false,"local_spatial_join_status":"DEFERRED_TO_LOCAL_OPENCODE"}}]}
