{"type":"FeatureCollection","name":"building_type_2_batch_0070","features":[{"type":"Feature","id":"42129411","geometry":{"type":"MultiPolygon","coordinates":[[[[-2.7992,51.464634],[-2.799166,51.464587],[-2.799197,51.464581],[-2.799184,51.464564],[-2.799081,51.46457],[-2.799074,51.464529],[-2.798979,51.464536],[-2.798846,51.464335],[-2.798674,51.464063],[-2.798532,51.464078],[-2.798437,51.464084],[-2.79837,51.464091],[-2.798338,51.464092],[-2.798294,51.4641],[-2.798253,51.464114],[-2.798337,51.464243],[-2.798397,51.464365],[-2.798482,51.46456],[-2.798549,51.464693],[-2.798576,51.464689],[-2.798823,51.464682],[-2.799098,51.464663],[-2.799216,51.464658],[-2.7992,51.464634]]]]},"properties":{"slot_id":"building_type_2","lineage_id":"building_type_2-20260930T173100Z-newstart","batch_id":"batch-0070","page_generation":1,"source_entity":42129411,"source_reference":"LSB707","source_dataset":"listed-building-outline","source_organisation":"North Somerset Council","building_evidence_status":"BUILDING_PRESENT","parcel_status":"UNPROCESSED","canonical_parcel_id":null,"building_type":"listed_building","building_use":null,"poi_accepted":false,"field_evidence":{"footprint":"official listed-building-outline MULTIPOLYGON","type":"official dataset classification: listed-building-outline","reference":"LSB707","quality":"authoritative","name":"The White Hart","listed_building":"1129138"},"source_url":"https://www.planning.data.gov.uk/entity/42129411","final_url":"https://www.planning.data.gov.uk/entity/42129411","access_utc":"2026-10-04T22:50:59Z","data_date":"2026-04-24","licence":"Open Government Licence v3.0","evidence_slice_sha256":"efdf4e5f80edc22085a555407cf1c1c8e9d6a50570d4da61f7e9bc8c75b3f19d","confidence_score_0_100":96,"evidence_grade":"A","fake_data":false,"local_spatial_join_required":true}}]}