{"type":"FeatureCollection","features":[{"type":"Feature","id":"PLANNINGDATA_LBO_42118148","geometry":{"type":"MultiPolygon","coordinates":[[[[1.734726,52.599307],[1.734733,52.599344],[1.734745,52.599349],[1.734749,52.59937],[1.734737,52.599375],[1.734738,52.599382],[1.734781,52.599379],[1.734803,52.599525],[1.734762,52.599528],[1.734763,52.599536],[1.734783,52.599541],[1.734785,52.599558],[1.734768,52.599567],[1.73477,52.599573],[1.734704,52.599578],[1.734705,52.599585],[1.734636,52.599588],[1.734623,52.599588],[1.734622,52.599581],[1.734548,52.599587],[1.73454,52.599541],[1.734364,52.599552],[1.734361,52.599532],[1.734405,52.59953],[1.734399,52.599491],[1.734355,52.599494],[1.734351,52.599464],[1.734239,52.599469],[1.734235,52.599453],[1.734222,52.599371],[1.734181,52.599373],[1.734172,52.599317],[1.734253,52.599313],[1.734255,52.599323],[1.734589,52.599304],[1.734591,52.599315],[1.734726,52.599307]]]]},"properties":{"slot_id":"building_type_3","lineage_id":"building_type_3-new-20260927T1328+0300","batch_id":"BT3-P82-20261004-PLANNINGDATA-LBO42118148","cursor":"BT3-P82-20261004-PLANNINGDATA-LBO42118148-p82","building_state":"BUILDING_PRESENT","source_record_id":"entity=42118148","entity":42118148,"reference":"1271606","name":"MASONIC ROYAL ASSEMBLY ROOMS","building_type_use":"MASONIC ROYAL ASSEMBLY ROOMS","type_use_evidence":"official_name","dataset":"listed-building-outline","quality":"authoritative","start_date":"1974-08-05","entry_date":"2023-07-12","organisation_entity":152,"source_url":"https://www.planning.data.gov.uk/entity/42118148","final_url":"https://www.planning.data.gov.uk/entity/42118148","source_version":"Planning Data listed-building-outline entity 42118148; reference 1271606; authoritative Great Yarmouth Borough Council record","access_utc":"2026-10-03T21:35:00Z","data_date":"2023-07-12","license":"Open Government Licence v3.0; © Crown copyright and database right 2026.","source_file_sha256":"4d0beacbb502cd59557fdc76f0d38a72fb74c7588bbf007ffe3a0912a78b14fb","evidence_slice_sha256":"437f28a84c4fd809c504db85462dd8f9216dda78e6f0ec6a498569656414fd02","field_evidence":["entity","reference","name","dataset","quality","geometry","start-date","entry-date","organisation-entity"],"confidence_score_0_100":97,"evidence_grade":"A_OFFICIAL_GOVERNMENT_BUILDING_OUTLINE_AND_NAMED_TYPE_USE","fake_data":false}}]}
