{"type":"FeatureCollection","features":[{"type":"Feature","geometry":null,"properties":{"slot_id":"future_growth_1","lineage_id":"future_growth_1-newstart-20260927T153100+0300","page_generation":null,"accepted_as_parcel":false,"source_area_count_contribution":1,"exact_identifier":"BC48","exact_identifier_provided":true,"coverage_polygon_provided":false,"identifier_namespace":"Islington Local Plan Bunhill and Clerkenwell Area Action Plan site allocation","site_name":"Castle House, 37-45 Paul Street; and Fitzroy House, 13-17 Epworth Street and 1-15 Clere Street","access_utc":"2026-10-06T16:35:00Z","data_date":"2025-01-13","source_url":"https://www.islington.gov.uk/planning/planning-policy/islington-local-plan","final_url":"https://www.islington.gov.uk/planning/planning-policy/islington-local-plan","gis_url":"https://services.arcgis.com/drifeOPKLpgnJ8Qa/ArcGIS/rest/services/planning_local_plan_data_19/FeatureServer/41","committee_url":"https://democracy.islington.gov.uk/ieListDocuments.aspx?MId=4660","license":"Greater London Authority Site Allocations dataset: Open Government Licence v3.0","authority":"London Borough of Islington","plan_status":"adopted 28 September 2023","planning_application_reference":"P2022/2893/FUL","feature_service_layer_id":41,"feature_service_layer_name":"Site Allocations","feature_service_geometry_type":"esriGeometryPolygon","feature_service_spatial_reference_epsg":27700,"evidence_grade":"A","confidence_score_0_100":99,"evidence_scope":"exact adopted Islington allocation BC48 plus official current polygon layer and official planning-committee record","evidence_slice_sha256":"4e60bea9e3ee19ee01c25a072cf9c6ca697c081228c13422a48f5845e0c92a87","fake_data":false,"spatial_binding_method":"official exact site-allocation identifier BC48 plus Islington polygon feature layer 41; exact polygon extraction, canonical parcel spatial join and materialization delegated to local OpenCode","planned_building_count_contribution":0}}]}