{"type":"FeatureCollection","name":"future_growth_9_batch_95","demo_only":true,"metadata":{"schema_version":3,"slot_id":"future_growth_9","continuation_key":"future_growth_9_open_source_v2_20260813","run_id":"future_growth_9_bounded12_20260818T181616Z","batch_index":95,"feature_count_before":93,"feature_count_added":1,"feature_count_after":94,"source_window":{"dataset":"brownfield-land","window_index":94,"window_size":1,"entity":1712071},"source_query_variant":"bradford_official_frozen_snapshot_entity_reference_sorted","source_request_url":"https://www.planning.data.gov.uk/entity/1712071","source_result":"ADDED","fake_data":false,"final_ready":false,"production_merge":false,"duplicate_count":0,"duplicate_candidate_skipped":false,"nearest_match_used":false},"features":[{"type":"Feature","id":"future_growth_9:planning_data_bradford:bi-001","geometry":{"type":"Point","coordinates":[-1.835432,53.846355]},"properties":{"slot_id":"future_growth_9","continuation_key":"future_growth_9_open_source_v2_20260813","source_family":"planning_data_brownfield_land_direct_identity","source_name":"Planning Data Brownfield Land — City of Bradford Metropolitan District Council","source_publisher":"City of Bradford Metropolitan District Council via Planning Data","source_feature_id":"BI/001","planning_data_entity":1712071,"source_url":"https://www.planning.data.gov.uk/entity/1712071","source_dataset_url":"https://www.planning.data.gov.uk/dataset/brownfield-land","source_entry_date":"2022-11-01","source_start_date":"2018-12-01","source_sha256":"7c1a5668c5b8b6fe9d1c645ac09c68355d1a9d640bc4ab0649c86c8976835dba","source_sha256_scope":"canonical JSON of official API entity payload used in this bounded batch","license":"Open Government Licence v3.0","planning_status":"pending-decision","future_growth_evidence_type":"area_proxy","direct_project_evidence":false,"evidence_summary":"Work is starting to demolish and clear the site. The site is suitable for residential and/or mixed uses","matching_method":"direct official brownfield-land reference identity plus published WGS84 point; no nearest matching, no cross-parcel identity inference","source_query_variant":"bradford_official_frozen_snapshot_entity_reference_sorted","accuracy_scale_1_4":3,"future_growth_value":null,"future_growth_probability":null,"unknown_reason":"Numeric value/probability withheld because no approved scoring rule exists.","site_name":"Victoria Street, Bingley","hectares":0.39,"net_dwellings_range_from":45,"net_dwellings_range_to":45,"planning_permission_date":null,"planning_permission_type":"22/00306/MAF pending for 45 unit apartment block","deliverable":"yes","fake_data":false,"final_ready":false,"production_merge":false,"demo_only":true}}]}
