{"type":"FeatureCollection","name":"future_growth_9_batch_103","demo_only":true,"metadata":{"schema_version":3,"slot_id":"future_growth_9","continuation_key":"future_growth_9_open_source_v2_20260813","run_id":"future_growth_9_bounded12_20260818T181616Z","batch_index":103,"feature_count_before":101,"feature_count_added":1,"feature_count_after":102,"source_window":{"dataset":"brownfield-land","window_index":102,"window_size":1,"entity":1712087},"source_query_variant":"bradford_official_frozen_snapshot_entity_reference_sorted","source_request_url":"https://www.planning.data.gov.uk/entity/1712087","source_result":"ADDED","fake_data":false,"final_ready":false,"production_merge":false,"duplicate_count":0,"duplicate_candidate_skipped":false,"nearest_match_used":false},"features":[{"type":"Feature","id":"future_growth_9:planning_data_bradford:cc-024","geometry":{"type":"Point","coordinates":[-1.76571,53.79511]},"properties":{"slot_id":"future_growth_9","continuation_key":"future_growth_9_open_source_v2_20260813","source_family":"planning_data_brownfield_land_direct_identity","source_name":"Planning Data Brownfield Land — City of Bradford Metropolitan District Council","source_publisher":"City of Bradford Metropolitan District Council via Planning Data","source_feature_id":"CC/024","planning_data_entity":1712087,"source_url":"https://www.planning.data.gov.uk/entity/1712087","source_dataset_url":"https://www.planning.data.gov.uk/dataset/brownfield-land","source_entry_date":"2022-11-01","source_start_date":"2020-12-01","source_sha256":"cb3870e36b82eb15b55383fbc7c3fcec97339e61e19aa3547f958e4b7abb164b","source_sha256_scope":"canonical JSON of official API entity payload used in this bounded batch","license":"Open Government Licence v3.0","planning_status":"pending-decision","future_growth_evidence_type":"area_proxy","direct_project_evidence":false,"evidence_summary":"Unsurfaced level car park and adjacent car wash. The site is a former gas work site but is identified as suitable for residential/mixed use in the city centre AAP (ref V/1.2) with a minimum 400 units","matching_method":"direct official brownfield-land reference identity plus published WGS84 point; no nearest matching, no cross-parcel identity inference","source_query_variant":"bradford_official_frozen_snapshot_entity_reference_sorted","accuracy_scale_1_4":3,"future_growth_value":null,"future_growth_probability":null,"unknown_reason":"Numeric value/probability withheld because no approved scoring rule exists.","site_name":"Thornton Rd south, City Centre","hectares":1.54,"net_dwellings_range_from":261,"net_dwellings_range_to":376,"planning_permission_date":null,"planning_permission_type":null,"deliverable":null,"fake_data":false,"final_ready":false,"production_merge":false,"demo_only":true}}]}
