{"type":"FeatureCollection","features":[{"type":"Feature","geometry":{"type":"MultiPolygon","coordinates":[[[[-0.115611,51.51895],[-0.115546,51.518794],[-0.115333,51.518809],[-0.11541,51.518969],[-0.115611,51.51895]]]]},"properties":{"slot_id":"future_growth_3","lineage_id":"future_growth_3-newstart-20261001T203100Z","page_generation":null,"accepted_as_parcel":false,"source_area_count_contribution":1,"exact_identifier":"LBCBLR045","exact_identifier_provided":true,"coverage_polygon_provided":true,"identifier_namespace":"Planning Data brownfield-site reference","secondary_exact_identifier":"entity:1800538","source_entity":"LBCBLR045 - 46, 47 & 47a Bedford Row London WC1R 4LR","access_utc":"2026-10-04T20:14:25Z","data_date":"2020-12-22","source_url":"https://www.planning.data.gov.uk/entity/1800538","final_url":"https://www.planning.data.gov.uk/entity/1800538","license":"Open Government Licence v3.0; attribution © Crown copyright and database right 2026.","authority":"London Borough of Camden","site_address":"46, 47 & 47a Bedford Row London WC1R 4LR","field_evidence":{"reference":"LBCBLR045","entity":1800538,"dataset":"Brownfield site","organisation":"London Borough of Camden","entry_date":"2020-12-22","site_name":"46, 47 & 47a Bedford Row London WC1R 4LR","geometry":"MULTIPOLYGON (((-0.115611 51.51895, -0.115546 51.518794, -0.115333 51.518809, -0.11541 51.518969, -0.115611 51.51895)))","point":"POINT (-0.115474 51.51888)","quality":"some","brownfield_site":"LBCBLR045"},"source_payload_sha256":"5a51aa80094b92c5ef1aa75efe1800def333eb5f48af7702d98fe948eb7bda43","source_payload_sha256_basis":"canonicalized official Planning Data brownfield-site LBCBLR045 evidence fields","evidence_slice_sha256":"74d505e75836eb18fb2896ea82eac5f0090ddf527668c841f36bb3663d01b665","evidence_grade":"B","confidence_score_0_100":95,"evidence_scope":"official_public_no_login_planning_data_brownfield_site_explicit_multipolygon","fake_data":false,"spatial_binding_method":"official Planning Data brownfield-site entity 1800538 supplies an explicit MultiPolygon boundary; canonical parcel spatial join and materialization delegated to local OpenCode","planned_building_count_contribution":0}}]}