{"type":"FeatureCollection","features":[{"type":"Feature","id":"crawley-brownfield-land-register-part-one-text-summary:CBCBLR059","geometry":null,"properties":{"slot_id":"future_growth_4","lineage_id":"fg4-e4c9076d6f554f00","page_generation":1,"owner":"future_growth_4","partition":"future_growth","semantic_mode":"SOURCE_AREA_EXACT_IDENTIFIER","dataset":"crawley-brownfield-land-register-part-one-text-summary","entity":"CBCBLR059","reference":"CBCBLR059","quality":"authoritative","organisation":"Crawley Borough Council","name":"Turnpike House, 121 - 123 High Street, Northgate, Crawley","site_address":"Turnpike House, 121 - 123 High Street, Northgate, Crawley","source_url":"https://crawley.gov.uk/planning/planning-policy/engagement-and-monitoring/brownfield-land-register/publications/brownfield-land-register-part-one-text-summary/brownfield-land-register-part-one-text-summary","final_url":"https://crawley.gov.uk/planning/planning-policy/engagement-and-monitoring/brownfield-land-register/publications/brownfield-land-register-part-one-text-summary/brownfield-land-register-part-one-text-summary","access_utc":"2026-10-04T10:48:00Z","data_date":"2025-12-15","license":"Crawley Borough Council official publication; page footer copyright; no explicit reuse licence stated","field_evidence":{"reference":"CBCBLR059","site_name_address":"Turnpike House, 121 - 123 High Street, Northgate, Crawley","site_area_hectares":0.23,"ownership_status":"not owned by a public authority","planning_status":"permissioned – prior approval","permission_date":"2025-06-27","deliverable_within_five_years":true,"planning_reference":"CR/2025/0055/PA3","approved_dwellings":68,"first_added_date":"2025-12-15","end_date":null},"evidence_slice_sha256":"8d4ad9d63d5b7cd510cc3db830c0797630382a1a7b7b1900802df69b80401e95","confidence_score_0_100":99,"confidence":0.99,"evidence_grade":"A","exact_identifier_provided":true,"coverage_polygon_provided":false,"coverage_geometry_available":true,"coverage_geometry_source":"official register entry links a site-plan PDF; PDF not inspected in this batch","fake_data":false,"join_mode":"LOCAL_OPENCODE_SPATIAL_JOIN_PENDING","direct_parcel":false,"source_area_count_contribution":1,"planned_building_count_contribution":0}}]}