{"type":"FeatureCollection","features":[{"type":"Feature","geometry":null,"properties":{"slot_id":"planned_buildings_1","lineage_id":"planned_buildings_1-0ffc4ebd6c6e4e41","semantic_mode":"DISTINCT_BUILDINGS","planned_building_id":"planning-application:2026/0919/FPA::AGRICULTURAL_BUILDING","building_status":"PLANNED","building_name":"Proposed steel framed agricultural building, Low Levens Farm","planning_reference":"2026/0919/FPA","authority":"Westmorland & Furness Council","source_url":"https://planningregister.westmorlandandfurness.gov.uk/Planning/Display/2026/0919/FPA","final_url":"https://planningregister.westmorlandandfurness.gov.uk/Planning/Display/2026/0919/FPA","access_utc":"2026-10-03T23:31:00Z","source_data_date":"2026-07-27","license":"Open Government Licence v3.0","geometry_role":"official planning register exposes no machine-readable application point or building footprint in the retrieved record; geometry null; no geometry inferred","field_evidence":"Official Valid Full Application states erection of a steel framed agricultural building over a cattle gathering area and slurry store; status Consultation Started and decision Pending.","identity_limitation":"The source explicitly states one new steel framed agricultural building; the cattle gathering area and slurry store are site elements beneath/served by it and are not counted as separate new buildings; deterministic AGRICULTURAL_BUILDING suffix identifies the source-described building role only.","confidence_score_0_100":98,"evidence_grade":"A","fake_data":false}}]}