{"type":"FeatureCollection","features":[{"type":"Feature","geometry":null,"properties":{"slot_id":"future_growth_3","lineage_id":"future_growth_3-newstart-20261001T203100Z","page_generation":null,"accepted_as_parcel":false,"source_area_count_contribution":1,"exact_identifier":"SS7","exact_identifier_provided":true,"coverage_polygon_provided":false,"identifier_namespace":"Waverley Local Plan Part 1 strategic-site policy reference","secondary_exact_identifier":"Dunsfold Aerodrome","source_entity":"SS7 - New settlement at Dunsfold Aerodrome","access_utc":"2026-10-04T07:57:35Z","data_date":"2018-02","source_url":"https://www.waverley.gov.uk/services/planning-and-building/strategic-and-waverley-owned-developments/dunsfold-park-garden-village/dunsfold-park-supplementary-planning-document-consultation","final_url":"https://www.waverley.gov.uk/services/planning-and-building/strategic-and-waverley-owned-developments/dunsfold-park-garden-village/dunsfold-park-supplementary-planning-document-consultation","license":"All material on the Waverley Borough Council website is, unless otherwise stated, copyright of Waverley Borough Council; copying or reuse requires written permission.","authority":"Waverley Borough Council","site_address":"Dunsfold Aerodrome, Waverley, Surrey","field_evidence":{"reference":"SS7","dataset":"Waverley Local Plan Part 1: Strategic Policies and Sites","organisation":"Waverley Borough Council","site_name":"Dunsfold Aerodrome","policy_title":"New settlement at Dunsfold Aerodrome","adoption_date":"2018-02","allocation_type":"mixed use strategic development","allocated_homes":2600,"employment_floorspace_sqm":26000,"local_centre_floorspace_sqm_min":3750,"hybrid_outline_permission_homes":1800,"hybrid_outline_permission_date":"2018-03"},"source_payload_sha256":"7e37f7c1ac83e3ab0d045812dd95a4554ec1b768f9b96c029adfab9b008ae302","source_payload_sha256_basis":"canonicalized official Waverley Borough Council Policy SS7 evidence fields","evidence_slice_sha256":"986577c216292964acde34a21eb0979a04ae8c3db4475705f72019c6c2f00acd","evidence_grade":"A","confidence_score_0_100":99,"evidence_scope":"exact_official_identifier_from_adopted_local_plan_strategic_site_policy","fake_data":false,"spatial_binding_method":"official Waverley Borough Council Policy SS7 and adopted Policies Map; canonical parcel spatial join and materialization delegated to local OpenCode","planned_building_count_contribution":0}}]}