{"type":"FeatureCollection","features":[{"type":"Feature","geometry":null,"properties":{"slot_id":"future_growth_3","lineage_id":"future_growth_3-newstart-20261001T203100Z","page_generation":null,"accepted_as_parcel":false,"source_area_count_contribution":1,"exact_identifier":"HOU342","exact_identifier_provided":true,"coverage_polygon_provided":false,"identifier_namespace":"North East Lincolnshire Local Plan allocation reference","secondary_exact_identifier":"Grimsby West Urban Extension (Strategic Site)","source_entity":"HOU342 - Grimsby West Urban Extension (Strategic Site)","access_utc":"2026-10-07T00:42:00Z","data_date":"2025-06","source_url":"https://www.nelincs.gov.uk/assets/uploads/2025/06/20250624-2025-FiveYearHousingLandSupply.pdf","final_url":"https://www.nelincs.gov.uk/assets/uploads/2025/06/20250624-2025-FiveYearHousingLandSupply.pdf","license":"© North East Lincolnshire Council; Council website terms permit personal/educational/private research use unless otherwise stated; third-party mapping rights remain subject to their stated terms.","authority":"North East Lincolnshire Council","site_address":"Grimsby West Urban Extension, Grimsby","field_evidence":{"reference":"HOU342","dataset":"North East Lincolnshire Five Year Housing Land Supply Assessment 2025","organisation":"North East Lincolnshire Council","site_name":"Grimsby West Urban Extension (Strategic Site)","settlement":"Grimsby","status":"Allocation","remaining_site_capacity":3337,"five_year_supply":0,"remaining_units_years_6_plus":3247,"commentary":"Developers carried out an initial round of consultation in 2024 and are now progressing the masterplan for Council approval."},"source_payload_sha256":"fc5e86c346d4047df4b6c00533e66d0efa3fb298a0ecdc023c4e5fdef3f2500c","source_payload_sha256_basis":"canonicalized official North East Lincolnshire Council HOU342 evidence fields","evidence_slice_sha256":"b87af65f934689ac36cf66c11cd8751fbd78f585bd22d2f215999f88bedda334","evidence_grade":"A","confidence_score_0_100":99,"evidence_scope":"exact_official_identifier_from_council_five_year_housing_land_supply_monitoring_document","fake_data":false,"spatial_binding_method":"official North East Lincolnshire Council Local Plan allocation reference HOU342 in the 2025 Five Year Housing Land Supply Assessment; canonical parcel spatial join and materialization delegated to local OpenCode","planned_building_count_contribution":0}}]}