{"type":"FeatureCollection","features":[{"type":"Feature","geometry":null,"properties":{"slot_id":"future_growth_1","lineage_id":"future_growth_1-newstart-20260927T153100+0300","page_generation":null,"accepted_as_parcel":false,"source_area_count_contribution":1,"exact_identifier":"LC019","exact_identifier_provided":true,"coverage_polygon_provided":false,"identifier_namespace":"Planning Data brownfield-land reference / Lewisham Brownfield Register","planning_data_entity":1705074,"site_allocation_reference":"LCA SA14","site_name":"Driving test centre, off Ennersdale Road","access_utc":"2026-10-06T04:49:00Z","data_date":"2025-12-09","source_url":"https://www.planning.data.gov.uk/entity/1705074","final_url":"https://www.planning.data.gov.uk/entity/1705074","geojson_url":"https://www.planning.data.gov.uk/entity/1705074.geojson","site_plan_url":"https://lewisham.gov.uk/brownfieldregister","license":"Open Government Licence v3.0","authority":"London Borough of Lewisham","point_wkt":"POINT (-0.00396 51.45276)","hectares":0.41,"minimum_net_dwellings":40,"maximum_net_dwellings":40,"planning_permission_status":"not-permissioned","ownership_status":"not-owned-by-a-public-authority","quality":"authoritative","evidence_grade":"A","confidence_score_0_100":99,"evidence_scope":"exact Planning Data authoritative entity 1705074 / LC019 and Lewisham allocation LCA SA14","evidence_slice_sha256":"bb760a55262dc564a27789ac1d80fd781d6baa9d11169da71109abfe1f3b73bc","fake_data":false,"spatial_binding_method":"official Planning Data entity 1705074 plus exact reference LC019; geographical-area GeoJSON resolution, canonical parcel spatial join and materialization delegated to local OpenCode","planned_building_count_contribution":0}}]}