{"type":"FeatureCollection","name":"building_type_2_batch_0033","features":[{"type":"Feature","id":"42129075","geometry":{"type":"MultiPolygon","coordinates":[[[[-2.831818,51.440233],[-2.831842,51.440297],[-2.831908,51.440285],[-2.831898,51.440272],[-2.832013,51.440286],[-2.832018,51.440294],[-2.832201,51.440263],[-2.832188,51.440227],[-2.832247,51.440216],[-2.832267,51.440258],[-2.832325,51.440247],[-2.832332,51.440262],[-2.83237,51.440255],[-2.832364,51.440241],[-2.832468,51.440221],[-2.83245,51.440176],[-2.832417,51.440182],[-2.832374,51.440077],[-2.832276,51.44009],[-2.832271,51.440081],[-2.832205,51.440091],[-2.83222,51.440121],[-2.832154,51.440133],[-2.832138,51.440103],[-2.832065,51.440115],[-2.832081,51.440148],[-2.831994,51.440165],[-2.831991,51.440156],[-2.831889,51.440147],[-2.831867,51.440226],[-2.831818,51.440233]]]]},"properties":{"slot_id":"building_type_2","lineage_id":"building_type_2-20260930T173100Z-newstart","batch_id":"batch-0033","page_generation":1,"source_entity":42129075,"source_reference":"LSB294","source_dataset":"listed-building-outline","source_organisation":"North Somerset Council","building_evidence_status":"BUILDING_PRESENT","parcel_status":"UNPROCESSED","canonical_parcel_id":null,"building_type":"listed_building","building_use":null,"poi_accepted":false,"field_evidence":{"footprint":"official listed-building-outline MULTIPOLYGON","type":"official dataset classification: listed-building-outline","reference":"LSB294","quality":"authoritative","name":"Clevedon Court"},"source_url":"https://www.planning.data.gov.uk/entity/42129075","final_url":"https://www.planning.data.gov.uk/entity/42129075","access_utc":"2026-10-06T22:30:19Z","data_date":"2026-04-24","licence":"Open Government Licence v3.0","evidence_slice_sha256":"058b3ae9a26e6c58762b8faa81289d3c10e566da6e84461b71306246a0a1511d","confidence_score_0_100":96,"evidence_grade":"A","fake_data":false,"local_spatial_join_required":true}}]}