{"type":"FeatureCollection","features":[{"type":"Feature","geometry":{"type":"MultiPolygon","coordinates":[[[[-0.129173,51.516642],[-0.129218,51.516748],[-0.129444,51.516671],[-0.129423,51.516611],[-0.129407,51.516608],[-0.129173,51.516642]]]]},"properties":{"slot_id":"future_growth_3","lineage_id":"future_growth_3-newstart-20261001T203100Z","page_generation":null,"accepted_as_parcel":false,"source_area_count_contribution":1,"exact_identifier":"LBCBLR027","exact_identifier_provided":true,"coverage_polygon_provided":true,"identifier_namespace":"Planning Data brownfield-site reference","secondary_exact_identifier":"entity:1800403","source_entity":"LBCBLR027 - 112-116 New Oxford Street London WC1A 1HH","access_utc":"2026-10-05T00:21:03Z","data_date":"2020-12-22","source_url":"https://www.planning.data.gov.uk/entity/1800403","final_url":"https://www.planning.data.gov.uk/entity/1800403","license":"Open Government Licence v3.0; attribution © Crown copyright and database right 2026.","authority":"London Borough of Camden","site_address":"112-116 New Oxford Street London WC1A 1HH","field_evidence":{"reference":"LBCBLR027","entity":1800403,"dataset":"Brownfield site","organisation":"London Borough of Camden","entry_date":"2020-12-22","site_name":"112-116 New Oxford Street London WC1A 1HH","quality":"some","geometry":"MULTIPOLYGON (((-0.129173 51.516642, -0.129218 51.516748, -0.129444 51.516671, -0.129423 51.516611, -0.129407 51.516608, -0.129173 51.516642)))","point":"POINT (-0.129304 51.516669)","brownfield_site":"LBCBLR027"},"source_payload_sha256":"5bb32e11327a2cfd407744129bfc83f90dc3aa441ad2a5fc3716ade7f9004500","source_payload_sha256_basis":"canonicalized official Planning Data LBCBLR027 evidence fields","evidence_slice_sha256":"111c28a39aee1f2dbf48250059674285f0e139f673b6e57da0d8e829d94f3872","evidence_grade":"B","confidence_score_0_100":95,"evidence_scope":"direct_official_source_area_multipolygon_from_planning_data_brownfield_site","fake_data":false,"spatial_binding_method":"official Planning Data brownfield-site LBCBLR027 / entity 1800403 direct MultiPolygon; canonical parcel spatial join and materialization delegated to local OpenCode","planned_building_count_contribution":0}}]}