{"features":[{"geometry":{"coordinates":[[[[-0.070854,51.469882],[-0.070862,51.469896],[-0.070684,51.469939],[-0.070735,51.470018],[-0.070931,51.46997],[-0.070873,51.469878],[-0.070854,51.469882]]]],"type":"MultiPolygon"},"id":"42115558","properties":{"access_utc":"2026-10-04T00:40:00Z","batch_id":"batch-0035","building_evidence_status":"BUILDING_PRESENT","building_type":"listed_building","building_use":null,"canonical_parcel_id":null,"confidence_score_0_100":94,"data_date":"2023-08-16","evidence_grade":"A","evidence_slice_sha256":"f91f0c5f3b9ddb2d2e8c9169b58bf0bb8d48b97940a43d335e52198ebe5c646c","fake_data":false,"field_evidence":{"footprint":"official listed-building-outline MULTIPOLYGON","name":"Numbers 15 and 16 and handrails and garden railings","reference":"471016","type":"official dataset classification: listed-building-outline","use":"no use inferred"},"final_url":"https://www.planning.data.gov.uk/entity/42115558","licence":"Open Government Licence v3.0","lineage_id":"building_type_9-20261001T200900Z-newstart","local_spatial_join_required":true,"page_generation":1,"parcel_status":"UNPROCESSED","poi_accepted":false,"slot_id":"building_type_9","source_dataset":"listed-building-outline","source_entity":42115558,"source_organisation":"London Borough of Southwark","source_reference":"471016","source_url":"https://www.planning.data.gov.uk/entity/42115558"},"type":"Feature"},{"geometry":{"coordinates":[[[[-0.072907,51.48458],[-0.0729,51.484641],[-0.073083,51.484651],[-0.073086,51.484621],[-0.073022,51.484618],[-0.07303,51.484563],[-0.073073,51.484566],[-0.073077,51.484535],[-0.072913,51.484527],[-0.072907,51.48458]]]],"type":"MultiPolygon"},"id":"42115581","properties":{"access_utc":"2026-10-04T00:40:00Z","batch_id":"batch-0035","building_evidence_status":"BUILDING_PRESENT","building_type":"listed_building","building_use":null,"canonical_parcel_id":null,"confidence_score_0_100":94,"data_date":"2023-08-16","evidence_grade":"A","evidence_slice_sha256":"ba99438cec70c73adea5188ad3d5eb2334f3e0536d1c7c412f988d2d7cb2348c","fake_data":false,"field_evidence":{"footprint":"official listed-building-outline MULTIPOLYGON","name":"Numbers 32 and 34 and attached railings","reference":"470964","type":"official dataset classification: listed-building-outline","use":"no use inferred"},"final_url":"https://www.planning.data.gov.uk/entity/42115581","licence":"Open Government Licence v3.0","lineage_id":"building_type_9-20261001T200900Z-newstart","local_spatial_join_required":true,"page_generation":1,"parcel_status":"UNPROCESSED","poi_accepted":false,"slot_id":"building_type_9","source_dataset":"listed-building-outline","source_entity":42115581,"source_organisation":"London Borough of Southwark","source_reference":"470964","source_url":"https://www.planning.data.gov.uk/entity/42115581"},"type":"Feature"},{"geometry":{"coordinates":[[[[-0.081657,51.496557],[-0.08175,51.496582],[-0.081807,51.496498],[-0.081746,51.496483],[-0.081754,51.496471],[-0.081732,51.496466],[-0.081725,51.496477],[-0.0816,51.496446],[-0.081592,51.496458],[-0.081546,51.496447],[-0.081544,51.49645],[-0.081473,51.496432],[-0.081421,51.496504],[-0.081569,51.49654],[-0.081573,51.496534],[-0.081657,51.496557]]]],"type":"MultiPolygon"},"id":"42115216","properties":{"access_utc":"2026-10-04T00:40:00Z","batch_id":"batch-0035","building_evidence_status":"BUILDING_PRESENT","building_type":"listed_building","building_use":null,"canonical_parcel_id":null,"confidence_score_0_100":94,"data_date":"2023-08-16","evidence_grade":"A","evidence_slice_sha256":"df09e813d4c5538c569b3446a816e9978c9da65ac68909290025f58f691e7dc8","fake_data":false,"field_evidence":{"footprint":"official listed-building-outline MULTIPOLYGON","name":"Numbers 8-11 and attached railings to number 11","reference":"470969","type":"official dataset classification: listed-building-outline","use":"no use inferred"},"final_url":"https://www.planning.data.gov.uk/entity/42115216","licence":"Open Government Licence v3.0","lineage_id":"building_type_9-20261001T200900Z-newstart","local_spatial_join_required":true,"page_generation":1,"parcel_status":"UNPROCESSED","poi_accepted":false,"slot_id":"building_type_9","source_dataset":"listed-building-outline","source_entity":42115216,"source_organisation":"London Borough of Southwark","source_reference":"470969","source_url":"https://www.planning.data.gov.uk/entity/42115216"},"type":"Feature"},{"geometry":{"coordinates":[[[[-0.105318,51.494717],[-0.105489,51.494761],[-0.105677,51.494807],[-0.105748,51.494692],[-0.10571,51.494682],[-0.105685,51.494717],[-0.105639,51.494704],[-0.105685,51.494633],[-0.105659,51.494627],[-0.105639,51.494631],[-0.105596,51.494694],[-0.105499,51.494668],[-0.105525,51.494633],[-0.105481,51.494623],[-0.105477,51.494633],[-0.105459,51.49466],[-0.105412,51.494647],[-0.105438,51.494612],[-0.10539,51.494602],[-0.105318,51.494717]]]],"type":"MultiPolygon"},"id":"42115312","properties":{"access_utc":"2026-10-04T00:40:00Z","batch_id":"batch-0035","building_evidence_status":"BUILDING_PRESENT","building_type":"listed_building","building_use":null,"canonical_parcel_id":null,"confidence_score_0_100":94,"data_date":"2023-08-16","evidence_grade":"A","evidence_slice_sha256":"24eb5f2f5406a3c351ce2220dfbc1cba5f4e5a134d7da6c5b348f0a011c3ef2a","fake_data":false,"field_evidence":{"footprint":"official listed-building-outline MULTIPOLYGON","name":"Numbers 25-28 and attached railings","reference":"471463","type":"official dataset classification: listed-building-outline","use":"no use inferred"},"final_url":"https://www.planning.data.gov.uk/entity/42115312","licence":"Open Government Licence v3.0","lineage_id":"building_type_9-20261001T200900Z-newstart","local_spatial_join_required":true,"page_generation":1,"parcel_status":"UNPROCESSED","poi_accepted":false,"slot_id":"building_type_9","source_dataset":"listed-building-outline","source_entity":42115312,"source_organisation":"London Borough of Southwark","source_reference":"471463","source_url":"https://www.planning.data.gov.uk/entity/42115312"},"type":"Feature"}],"name":"building_type_9_batch_0035","type":"FeatureCollection"}