{"type":"FeatureCollection","features":[{"type":"Feature","id":10002,"geometry":{"type":"Polygon","coordinates":[[[-71.12052132896635,42.38132653922582],[-71.12061693918945,42.38130606942626],[-71.12066474430098,42.38129583452648],[-71.12066474430098,42.38130095197637],[-71.12066474430098,42.38131118687615],[-71.1206838663456,42.38131118687615],[-71.12071254941253,42.3813828311746],[-71.12071254941253,42.381387948624486],[-71.12054045101097,42.3814288882236],[-71.12051176794404,42.381347009025376],[-71.12053088998866,42.38134189157548],[-71.12052132896635,42.38132653922582]]]},"properties":{"source_id":"220-2","building_type":"BLDG","building_present":true,"BldgID":"220-2","TOP_SL":67.9,"TOP_GL":42.4,"ELEV_SL":46.5,"BASE_ELEV":25.5,"ELEV_GL":21,"created_date":"2020-04-27","last_edited_date":"2020-04-27","evidence_grade":"A_OFFICIAL_CITY_BUILDING_FOOTPRINT_AND_TYPE"}},{"type":"Feature","id":131,"geometry":{"type":"Polygon","coordinates":[[[-71.11317846383328,42.3586869409155],[-71.11320714690021,42.35870741071505],[-71.11322626894483,42.358692058365385],[-71.1131975858779,42.35867158856583],[-71.11317846383328,42.3586869409155]]]},"properties":{"source_id":"999-126","building_type":"OUTBLDG","building_present":true,"BldgID":"999-126","TOP_SL":28.9,"TOP_GL":10.4,"ELEV_SL":28.7,"BASE_ELEV":18.5,"ELEV_GL":10.2,"created_date":"2020-04-27","last_edited_date":"2021-10-20","evidence_grade":"A_OFFICIAL_CITY_BUILDING_FOOTPRINT_AND_TYPE"}},{"type":"Feature","id":13182,"geometry":{"type":"Polygon","coordinates":[[[-71.12886810144184,42.39509759687796],[-71.12887766246415,42.39509759687796],[-71.12891590655337,42.395072009628514],[-71.12892546757568,42.395072009628514],[-71.12891590655337,42.395066892178626],[-71.12890634553106,42.39505665727884],[-71.12892546757568,42.39504642237907],[-71.128935028598,42.39504130492918],[-71.12885854041953,42.39496454318083],[-71.12883941837491,42.394974778080616],[-71.1288298573526,42.39496966063073],[-71.12883941837491,42.39496454318083],[-71.12882029633029,42.39495430828106],[-71.12881073530798,42.39494919083117],[-71.12881073530798,42.39494407338128],[-71.12879161326336,42.394923603581724],[-71.12875336917413,42.39494919083117],[-71.12874380815182,42.39494919083117],[-71.12875336917413,42.39494919083117],[-71.12876293019644,42.394959425730946],[-71.12875336917413,42.39496454318083],[-71.12874380815182,42.394974778080616],[-71.12873424712951,42.394979895530504],[-71.12878205224105,42.39502083512962],[-71.12884897939722,42.39508736197818],[-71.12885854041953,42.39508736197818],[-71.12886810144184,42.39509759687796]]]},"properties":{"source_id":"43-25","building_type":"BLDG","building_present":true,"BldgID":"43-25","TOP_SL":55.3,"TOP_GL":27.4,"ELEV_SL":51.5,"BASE_ELEV":27.9,"ELEV_GL":23.6,"created_date":"2020-04-27","last_edited_date":"2020-04-27","evidence_grade":"A_OFFICIAL_CITY_BUILDING_FOOTPRINT_AND_TYPE"}},{"type":"Feature","id":14716,"geometry":{"type":"Polygon","coordinates":[[[-71.09218245884341,42.36784717621737],[-71.09224938599957,42.367867646016926],[-71.0922780690665,42.36782158896792],[-71.09221114191034,42.36780111916836],[-71.09218245884341,42.36784717621737]]]},"properties":{"source_id":"999-3821","building_type":"BLDG","building_present":true,"BldgID":"999-3821","TOP_SL":23.7,"TOP_GL":14.3,"ELEV_SL":17.5,"BASE_ELEV":9.4,"ELEV_GL":8.1,"created_date":"2020-04-27","last_edited_date":"2021-10-20","evidence_grade":"A_OFFICIAL_CITY_BUILDING_FOOTPRINT_AND_TYPE"}},{"type":"Feature","id":16323,"geometry":{"type":"Polygon","coordinates":[[[-71.13527398638865,42.402947765008165],[-71.13530266945558,42.402927295208606],[-71.1353122304779,42.40291706030883],[-71.1353313525225,42.40290170795916],[-71.13535047456712,42.402886355609496],[-71.1353122304779,42.40286076836005],[-71.13528354741096,42.40284029856049],[-71.13528354741096,42.4028351811106],[-71.1352070592325,42.40290170795916],[-71.13525486434403,42.40293753010839],[-71.13527398638865,42.402947765008165]]]},"properties":{"source_id":"999-4744","building_type":"BLDG","building_present":true,"BldgID":"999-4744","TOP_SL":38.9,"TOP_GL":31.7,"ELEV_SL":29.3,"BASE_ELEV":7.2,"ELEV_GL":22.1,"created_date":"2020-04-27","last_edited_date":"2021-10-20","evidence_grade":"A_OFFICIAL_CITY_BUILDING_FOOTPRINT_AND_TYPE"}},{"type":"Feature","id":449,"geometry":{"type":"Polygon","coordinates":[[[-71.09396080899283,42.369285179636265],[-71.09397037001513,42.36933635413516],[-71.09398949205975,42.36933635413516],[-71.09400861410437,42.36933123668526],[-71.09401817512668,42.36933123668526],[-71.09399905308206,42.36927494473648],[-71.09396080899283,42.369285179636265]]]},"properties":{"source_id":"999-424","building_type":"OUTBLDG","building_present":true,"BldgID":"999-424","TOP_SL":19.2,"TOP_GL":7.1,"ELEV_SL":19.1,"BASE_ELEV":12.1,"ELEV_GL":7,"created_date":"2020-04-27","last_edited_date":"2021-10-20","evidence_grade":"A_OFFICIAL_CITY_BUILDING_FOOTPRINT_AND_TYPE"}},{"type":"Feature","id":6155,"geometry":{"type":"Polygon","coordinates":[[[-71.08352973365405,42.37111722669663],[-71.08363490489944,42.371127461596416],[-71.08363490489944,42.37112234414653],[-71.08364446592175,42.37106605219774],[-71.08364446592175,42.37106093474785],[-71.08361578285484,42.37106093474785],[-71.08360622183253,42.371055817297965],[-71.08360622183253,42.3710865219973],[-71.0835870997879,42.37108140454741],[-71.0835870997879,42.37107628709752],[-71.08355841672098,42.37107628709752],[-71.08355841672098,42.37108140454741],[-71.08352017263174,42.37107628709752],[-71.08351061160943,42.371112109246745],[-71.08352973365405,42.37111722669663]]]},"properties":{"source_id":"432-14","building_type":"BLDG","building_present":true,"BldgID":"432-14","TOP_SL":57.4,"TOP_GL":32.2,"ELEV_SL":49.7,"BASE_ELEV":25.2,"ELEV_GL":24.5,"created_date":"2020-04-27","last_edited_date":"2020-04-27","evidence_grade":"A_OFFICIAL_CITY_BUILDING_FOOTPRINT_AND_TYPE"}},{"type":"Feature","id":17683,"geometry":{"type":"Polygon","coordinates":[[[-71.08035547424757,42.370457075660916],[-71.08042240140372,42.37046731056069],[-71.08044152344834,42.37046731056069],[-71.08046064549296,42.37046731056069],[-71.08043196242603,42.370590129358035],[-71.08042240140372,42.370590129358035],[-71.08041284038141,42.37064130385693],[-71.08039371833681,42.370697595805716],[-71.08033635220295,42.37069247835582],[-71.08035547424757,42.37061571660748],[-71.08036503526988,42.37059524680792],[-71.08036503526988,42.3705594246587],[-71.08033635220295,42.3705594246587],[-71.08035547424757,42.370457075660916]]]},"properties":{"source_id":"447-8","building_type":"BLDG","building_present":true,"BldgID":"447-8","TOP_SL":90.7,"TOP_GL":58.7,"ELEV_SL":83.2,"BASE_ELEV":32,"ELEV_GL":51.2,"created_date":"2020-04-27","last_edited_date":"2020-12-22","evidence_grade":"A_OFFICIAL_CITY_BUILDING_FOOTPRINT_AND_TYPE"}},{"type":"Feature","id":10001,"geometry":{"type":"Polygon","coordinates":[[[-71.13906015122289,42.38137771372471],[-71.13910795633444,42.381367478824934],[-71.13914620042367,42.38144935802316],[-71.13914620042367,42.38145447547305],[-71.13898366304443,42.38148518017238],[-71.1389549799775,42.38141865332383],[-71.13896454099981,42.38141353587393],[-71.13899322406674,42.381408418424044],[-71.13903146815596,42.381403300974156],[-71.13904102917827,42.38139306607438],[-71.13906015122289,42.381387948624486],[-71.13906015122289,42.38137771372471]]]},"properties":{"source_id":"225-4","building_type":"BLDG","building_present":true,"BldgID":"225-4","TOP_SL":63.9,"TOP_GL":37,"ELEV_SL":52.7,"BASE_ELEV":26.9,"ELEV_GL":25.8,"created_date":"2020-04-27","last_edited_date":"2020-04-27","evidence_grade":"A_OFFICIAL_CITY_BUILDING_FOOTPRINT_AND_TYPE"}},{"type":"Feature","id":13181,"geometry":{"type":"Polygon","coordinates":[[[-71.12809365863482,42.39501060022984],[-71.12809365863482,42.39501571767973],[-71.12809365863482,42.39502083512962],[-71.1281701468133,42.39508224452829],[-71.12822751294715,42.39504130492918],[-71.12824663499177,42.395036187479285],[-71.12825619601408,42.3950310700294],[-71.12818926885792,42.394974778080616],[-71.12820839090253,42.39496454318083],[-71.1281701468133,42.3949338384815],[-71.12814146374637,42.39495430828106],[-71.12813190272406,42.394959425730946],[-71.12809365863482,42.394979895530504],[-71.12809365863482,42.39498501298039],[-71.12807453659022,42.39500036533006],[-71.12807453659022,42.39501060022984],[-71.12808409761253,42.39501571767973],[-71.12809365863482,42.39501060022984]]]},"properties":{"source_id":"53-6","building_type":"BLDG","building_present":true,"BldgID":"53-6","TOP_SL":57.1,"TOP_GL":29.1,"ELEV_SL":49.7,"BASE_ELEV":28,"ELEV_GL":21.7,"created_date":"2020-04-27","last_edited_date":"2020-04-27","evidence_grade":"A_OFFICIAL_CITY_BUILDING_FOOTPRINT_AND_TYPE"}},{"type":"Feature","id":132,"geometry":{"type":"Polygon","coordinates":[[[-71.11302548747635,42.358676706015714],[-71.1130828536102,42.35871252816494],[-71.11313065872174,42.35866647111594],[-71.11307329258788,42.35863064896671],[-71.11302548747635,42.358676706015714]]]},"properties":{"source_id":"999-127","building_type":"OUTBLDG","building_present":true,"BldgID":"999-127","TOP_SL":32.1,"TOP_GL":10.3,"ELEV_SL":31.4,"BASE_ELEV":21.8,"ELEV_GL":9.6,"created_date":"2020-04-27","last_edited_date":"2021-10-20","evidence_grade":"A_OFFICIAL_CITY_BUILDING_FOOTPRINT_AND_TYPE"}},{"type":"Feature","id":14715,"geometry":{"type":"Polygon","coordinates":[[[-71.09672394444003,42.36782158896792],[-71.09672394444003,42.36782670641781],[-71.09669526137311,42.36785741111714],[-71.09675262750696,42.3678778809167],[-71.09680043261851,42.36780623661825],[-71.09680999364082,42.36781135406814],[-71.09684823773004,42.36776529701913],[-71.09677174955158,42.3677345923198],[-71.09673350546234,42.367780649368804],[-71.09675262750696,42.36778576681869],[-71.09672394444003,42.36782158896792]]]},"properties":{"source_id":"527-15","building_type":"BLDG","building_present":true,"BldgID":"527-15","TOP_SL":38,"TOP_GL":27.6,"ELEV_SL":30.7,"BASE_ELEV":10.4,"ELEV_GL":20.3,"created_date":"2020-04-27","last_edited_date":"2020-04-27","evidence_grade":"A_OFFICIAL_CITY_BUILDING_FOOTPRINT_AND_TYPE"}},{"type":"Feature","id":16324,"geometry":{"type":"Polygon","coordinates":[[[-71.13241524071836,42.402855650910155],[-71.13242480174067,42.40286076836005],[-71.13243436276298,42.402871003259825],[-71.13236743560681,42.40291706030883],[-71.1323578745845,42.40291706030883],[-71.13231963049527,42.402947765008165],[-71.1323578745845,42.40297335225761],[-71.1323387525399,42.402983587157394],[-71.1323578745845,42.40299893950706],[-71.13236743560681,42.40300917440684],[-71.13237699662912,42.40301429185673],[-71.13252041196375,42.40291194285894],[-71.13250128991913,42.402891473059384],[-71.13249172889682,42.402886355609496],[-71.13250128991913,42.4028812381596],[-71.13250128991913,42.402871003259825],[-71.13251085094144,42.40286588580994],[-71.1324534848076,42.40282494621082],[-71.13241524071836,42.402855650910155]]]},"properties":{"source_id":"999-4745","building_type":"BLDG","building_present":true,"BldgID":"999-4745","TOP_SL":61.5,"TOP_GL":33.4,"ELEV_SL":57.2,"BASE_ELEV":28.1,"ELEV_GL":29.1,"created_date":"2020-04-27","last_edited_date":"2021-10-20","evidence_grade":"A_OFFICIAL_CITY_BUILDING_FOOTPRINT_AND_TYPE"}},{"type":"Feature","id":450,"geometry":{"type":"Polygon","coordinates":[[[-71.08891258921383,42.36930053198593],[-71.08891258921383,42.36932100178549],[-71.08895083330307,42.36932100178549],[-71.08895083330307,42.36930053198593],[-71.08891258921383,42.36930053198593]]]},"properties":{"source_id":"999-425","building_type":"OUTBLDG","building_present":true,"BldgID":"999-425","TOP_SL":17.4,"TOP_GL":7.1,"ELEV_SL":16.4,"BASE_ELEV":10.3,"ELEV_GL":6.1,"created_date":"2020-04-27","last_edited_date":"2021-10-20","evidence_grade":"A_OFFICIAL_CITY_BUILDING_FOOTPRINT_AND_TYPE"}},{"type":"Feature","id":6156,"geometry":{"type":"Polygon","coordinates":[[[-71.09006947291319,42.37112234414653],[-71.09027025438168,42.371183753545196],[-71.09027025438168,42.37117863609531],[-71.09028937642628,42.37115304884586],[-71.0903084984709,42.371147931395974],[-71.09031805949321,42.371127461596416],[-71.0903084984709,42.37110699179686],[-71.09027025438168,42.37109675689708],[-71.09025113233706,42.37107628709752],[-71.09023201029244,42.371071169647635],[-71.09021288824782,42.37107628709752],[-71.09014596109166,42.371055817297965],[-71.09013640006935,42.371055817297965],[-71.09013640006935,42.37105069984808],[-71.09011727802474,42.37104558239819],[-71.09006947291319,42.37112234414653]]]},"properties":{"source_id":"435-10","building_type":"BLDG","building_present":true,"BldgID":"435-10","TOP_SL":50.3,"TOP_GL":40.9,"ELEV_SL":43.9,"BASE_ELEV":9.4,"ELEV_GL":34.5,"created_date":"2020-04-27","last_edited_date":"2020-04-27","evidence_grade":"A_OFFICIAL_CITY_BUILDING_FOOTPRINT_AND_TYPE"}},{"type":"Feature","id":17684,"geometry":{"type":"Polygon","coordinates":[[[-71.08046064549296,42.37046731056069],[-71.08047020651527,42.370462193110804],[-71.08048932855989,42.370462193110804],[-71.08048932855989,42.37046731056069],[-71.0804988895822,42.37047242801058],[-71.08051801162682,42.370477545460474],[-71.08052757264912,42.37047242801058],[-71.08053713367143,42.37046731056069],[-71.08054669469374,42.37047242801058],[-71.08055625571605,42.37048266291036],[-71.08056581673836,42.37048266291036],[-71.08054669469374,42.370605481707706],[-71.08043196242603,42.370590129358035],[-71.08046064549296,42.37046731056069]]]},"properties":{"source_id":"447-1","building_type":"BLDG","building_present":true,"BldgID":"447-1","TOP_SL":90.7,"TOP_GL":58.7,"ELEV_SL":83.2,"BASE_ELEV":32,"ELEV_GL":51.2,"created_date":"2020-12-22","last_edited_date":"2020-12-22","evidence_grade":"A_OFFICIAL_CITY_BUILDING_FOOTPRINT_AND_TYPE"}},{"type":"Feature","id":10004,"geometry":{"type":"Polygon","coordinates":[[[-71.13791282854585,42.381387948624486],[-71.13791282854585,42.3813828311746],[-71.1379606336574,42.38137771372471],[-71.1379606336574,42.3813828311746],[-71.13797019467971,42.38137771372471],[-71.13798931672432,42.38137771372471],[-71.13800843876894,42.3813828311746],[-71.13801799979124,42.3813828311746],[-71.13802756081355,42.3813828311746],[-71.13803712183586,42.3813828311746],[-71.13804668285817,42.38143912312338],[-71.13801799979124,42.38144424057327],[-71.13802756081355,42.381495415072166],[-71.13798931672432,42.381500532522054],[-71.13792238956816,42.38150564997194],[-71.13792238956816,42.381500532522054],[-71.13790326752354,42.381387948624486],[-71.13791282854585,42.381387948624486]]]},"properties":{"source_id":"197-30","building_type":"BLDG","building_present":true,"BldgID":"197-30","TOP_SL":68.6,"TOP_GL":38.1,"ELEV_SL":53.5,"BASE_ELEV":30.5,"ELEV_GL":23,"created_date":"2020-04-27","last_edited_date":"2020-04-27","evidence_grade":"A_OFFICIAL_CITY_BUILDING_FOOTPRINT_AND_TYPE"}},{"type":"Feature","id":13184,"geometry":{"type":"Polygon","coordinates":[[[-71.13730092311809,42.39512318412741],[-71.13730092311809,42.395143653926965],[-71.13735828925195,42.395143653926965],[-71.13735828925195,42.39512318412741],[-71.13730092311809,42.39512318412741]]]},"properties":{"source_id":"999-3790","building_type":"BLDG","building_present":true,"BldgID":"999-3790","TOP_SL":22.1,"TOP_GL":9.5,"ELEV_SL":22.1,"BASE_ELEV":12.6,"ELEV_GL":9.5,"created_date":"2020-04-27","last_edited_date":"2021-10-20","evidence_grade":"A_OFFICIAL_CITY_BUILDING_FOOTPRINT_AND_TYPE"}},{"type":"Feature","id":133,"geometry":{"type":"Polygon","coordinates":[[[-71.11333144019022,42.358768820113724],[-71.11336012325715,42.35878417246339],[-71.11337924530177,42.358763702663836],[-71.11336012325715,42.358748350314166],[-71.11333144019022,42.358768820113724]]]},"properties":{"source_id":"999-128","building_type":"OUTBLDG","building_present":true,"BldgID":"999-128","TOP_SL":23.9,"TOP_GL":6.6,"ELEV_SL":23,"BASE_ELEV":17.3,"ELEV_GL":5.7,"created_date":"2020-04-27","last_edited_date":"2021-10-20","evidence_grade":"A_OFFICIAL_CITY_BUILDING_FOOTPRINT_AND_TYPE"}},{"type":"Feature","id":14718,"geometry":{"type":"Polygon","coordinates":[[[-71.07970532473058,42.36782158896792],[-71.07975312984212,42.36782670641781],[-71.07976269086443,42.36781135406814],[-71.07988698415444,42.36782670641781],[-71.07989654517675,42.367775531918916],[-71.07972444677519,42.36775506211936],[-71.07971488575289,42.367780649368804],[-71.07971488575289,42.367796001718474],[-71.07970532473058,42.36782158896792]]]},"properties":{"source_id":"544-8","building_type":"BLDG","building_present":true,"BldgID":"544-8","TOP_SL":38.2,"TOP_GL":30,"ELEV_SL":29,"BASE_ELEV":8.2,"ELEV_GL":20.8,"created_date":"2020-04-27","last_edited_date":"2020-04-27","evidence_grade":"A_OFFICIAL_CITY_BUILDING_FOOTPRINT_AND_TYPE"}},{"type":"Feature","id":16039,"geometry":{"type":"Polygon","coordinates":[[[-71.10395207730541,42.37670548197577],[-71.10397119935001,42.37672083432543],[-71.10403812650618,42.37667477727643],[-71.10414329775158,42.37660825042787],[-71.10414329775158,42.37660313297798],[-71.10414329775158,42.3765928980782],[-71.10412417570696,42.37657754572853],[-71.10411461468465,42.37657754572853],[-71.10411461468465,42.37657242827864],[-71.10408593161772,42.376551958479084],[-71.10407637059542,42.376551958479084],[-71.10389471117155,42.37666965982654],[-71.10388515014924,42.37667989472632],[-71.10393295526079,42.37672083432543],[-71.10395207730541,42.37670548197577]]]},"properties":{"source_id":"999-4461","building_type":"BLDG","building_present":true,"BldgID":"999-4461","TOP_SL":73.5,"TOP_GL":39.6,"ELEV_SL":71.2,"BASE_ELEV":33.9,"ELEV_GL":37.3,"created_date":"2020-04-27","last_edited_date":"2021-10-20","evidence_grade":"A_OFFICIAL_CITY_BUILDING_FOOTPRINT_AND_TYPE"}},{"type":"Feature","id":16321,"geometry":{"type":"Polygon","coordinates":[[[-71.13210928800449,42.40280959386116],[-71.13212841004909,42.40282494621082],[-71.13215709311602,42.402814711311045],[-71.13215709311602,42.40281982876093],[-71.13216665413833,42.40282494621082],[-71.13229094742834,42.402737949562706],[-71.13228138640604,42.40272771466292],[-71.13223358129449,42.4026918925137],[-71.13222402027219,42.40268165761392],[-71.13221445924988,42.40268165761392],[-71.13209972698218,42.40276353681215],[-71.13208060493756,42.40277377171193],[-71.13209016595987,42.402778889161816],[-71.13209972698218,42.40278400661171],[-71.13209016595987,42.4027891240616],[-71.13209016595987,42.40279424151149],[-71.13209972698218,42.40280447641126],[-71.13210928800449,42.40280959386116]]]},"properties":{"source_id":"999-4742","building_type":"BLDG","building_present":true,"BldgID":"999-4742","TOP_SL":64,"TOP_GL":33.8,"ELEV_SL":54.6,"BASE_ELEV":30.2,"ELEV_GL":24.4,"created_date":"2020-04-27","last_edited_date":"2021-10-20","evidence_grade":"A_OFFICIAL_CITY_BUILDING_FOOTPRINT_AND_TYPE"}},{"type":"Feature","id":6157,"geometry":{"type":"Polygon","coordinates":[[[-71.10377041788153,42.37123492804409],[-71.10380866197077,42.37117863609531],[-71.10371305174769,42.37113769649619],[-71.10370349072538,42.371147931395974],[-71.1036270025469,42.37111722669663],[-71.10357919743537,42.371183753545196],[-71.10357919743537,42.371188870995084],[-71.10358875845768,42.37119910589487],[-71.1036078805023,42.371204223344755],[-71.1036078805023,42.37119910589487],[-71.10361744152459,42.371204223344755],[-71.10361744152459,42.37120934079464],[-71.1036270025469,42.37120934079464],[-71.10364612459152,42.371219575694425],[-71.10364612459152,42.37121445824453],[-71.10365568561383,42.37121445824453],[-71.10366524663614,42.37119398844498],[-71.10377041788153,42.37123492804409]]]},"properties":{"source_id":"364-52","building_type":"BLDG","building_present":true,"BldgID":"364-52","TOP_SL":42.6,"TOP_GL":26.7,"ELEV_SL":39.6,"BASE_ELEV":15.9,"ELEV_GL":23.7,"created_date":"2020-04-27","last_edited_date":"2020-04-27","evidence_grade":"A_OFFICIAL_CITY_BUILDING_FOOTPRINT_AND_TYPE"}},{"type":"Feature","id":17681,"geometry":{"type":"Polygon","coordinates":[[[-71.08685696941747,42.371613619335896],[-71.08685696941747,42.37160338443612],[-71.08686653043978,42.37159826698623],[-71.08687609146209,42.371577797186674],[-71.08686653043978,42.371572679736786],[-71.08686653043978,42.371562444837004],[-71.08687609146209,42.371557327387116],[-71.0868856524844,42.37153685758756],[-71.08687609146209,42.37153174013767],[-71.08687609146209,42.37152662268778],[-71.08686653043978,42.37152662268778],[-71.08675179817207,42.371516387788006],[-71.08672311510516,42.37151127033811],[-71.08672311510516,42.371516387788006],[-71.08667530999361,42.37151127033811],[-71.0866657489713,42.37158291463656],[-71.0866657489713,42.37158803208645],[-71.08668487101592,42.37158803208645],[-71.08670399306054,42.371593149536345],[-71.08685696941747,42.371613619335896]]]},"properties":{"source_id":"423-1","building_type":"BLDG","building_present":true,"BldgID":"423-1","TOP_SL":40.8,"TOP_GL":32.2,"ELEV_SL":36.3,"BASE_ELEV":8.6,"ELEV_GL":27.7,"created_date":"2020-04-27","last_edited_date":"2020-12-22","evidence_grade":"A_OFFICIAL_CITY_BUILDING_FOOTPRINT_AND_TYPE"}},{"type":"Feature","id":10003,"geometry":{"type":"Polygon","coordinates":[[[-71.12130533279567,42.38144935802316],[-71.12127664972874,42.38139818352427],[-71.12126708870643,42.38139818352427],[-71.12124796666181,42.381367478824934],[-71.1212384056395,42.38137259627482],[-71.12120972257257,42.38132142177593],[-71.12133401586259,42.38129071707659],[-71.1213531379072,42.38133677412559],[-71.12144874813029,42.381316304326035],[-71.12144874813029,42.38131118687615],[-71.1214583091526,42.38130606942626],[-71.12149655324184,42.381403300974156],[-71.12144874813029,42.38141353587393],[-71.12144874813029,42.38141865332383],[-71.12142962608567,42.381423770773715],[-71.12142962608567,42.38141865332383],[-71.12138182097414,42.3814288882236],[-71.12138182097414,42.38143400567349],[-71.1213531379072,42.38143912312338],[-71.1213531379072,42.38143400567349],[-71.12130533279567,42.38144935802316]]]},"properties":{"source_id":"228-2","building_type":"BLDG","building_present":true,"BldgID":"228-2","TOP_SL":61.9,"TOP_GL":38.9,"ELEV_SL":55.6,"BASE_ELEV":23,"ELEV_GL":32.6,"created_date":"2020-04-27","last_edited_date":"2020-04-27","evidence_grade":"A_OFFICIAL_CITY_BUILDING_FOOTPRINT_AND_TYPE"}},{"type":"Feature","id":13183,"geometry":{"type":"Polygon","coordinates":[[[-71.12590418452615,42.39509247942807],[-71.12595198963768,42.39506177472873],[-71.12596155066,42.39506177472873],[-71.1259711116823,42.395051539828955],[-71.12598067270461,42.39504642237907],[-71.1259711116823,42.3950310700294],[-71.1258563794146,42.39492872103161],[-71.12582769634767,42.39494407338128],[-71.12582769634767,42.39493895593139],[-71.12581813532536,42.39494407338128],[-71.12579901328074,42.3949338384815],[-71.12577033021383,42.394959425730946],[-71.12577989123614,42.394974778080616],[-71.12577033021383,42.394979895530504],[-71.12588506248153,42.39508224452829],[-71.12589462350384,42.3950771270784],[-71.12590418452615,42.39509247942807]]]},"properties":{"source_id":"54-2","building_type":"BLDG","building_present":true,"BldgID":"54-2","TOP_SL":63,"TOP_GL":36,"ELEV_SL":54.9,"BASE_ELEV":27,"ELEV_GL":27.9,"created_date":"2020-04-27","last_edited_date":"2020-04-27","evidence_grade":"A_OFFICIAL_CITY_BUILDING_FOOTPRINT_AND_TYPE"}},{"type":"Feature","id":134,"geometry":{"type":"Polygon","coordinates":[[[-71.11194509195546,42.35878417246339],[-71.11197377502239,42.35879952481306],[-71.11200245808932,42.3587790550135],[-71.11197377502239,42.358763702663836],[-71.11194509195546,42.35878417246339]]]},"properties":{"source_id":"999-129","building_type":"OUTBLDG","building_present":true,"BldgID":"999-129","TOP_SL":28.5,"TOP_GL":6.4,"ELEV_SL":27.4,"BASE_ELEV":22.1,"ELEV_GL":5.3,"created_date":"2020-04-27","last_edited_date":"2021-10-20","evidence_grade":"A_OFFICIAL_CITY_BUILDING_FOOTPRINT_AND_TYPE"}},{"type":"Feature","id":14717,"geometry":{"type":"Polygon","coordinates":[[[-71.10459266580008,42.36784717621737],[-71.10476476420165,42.36791370306592],[-71.10479344726856,42.36787276346681],[-71.10475520317934,42.36786252856703],[-71.10476476420165,42.36784717621737],[-71.10480300829087,42.36785741111714],[-71.1048316913578,42.36782158896792],[-71.10479344726856,42.36780623661825],[-71.10480300829087,42.36779088426858],[-71.10484125238011,42.36780623661825],[-71.10486037442473,42.36777041446903],[-71.10482213033549,42.36775506211936],[-71.10484125238011,42.36772947486991],[-71.1048316913578,42.36772947486991],[-71.10482213033549,42.36771412252024],[-71.10480300829087,42.367703887620465],[-71.10479344726856,42.36770900507035],[-71.10478388624625,42.36770900507035],[-71.10470739806779,42.367683417820906],[-71.10470739806779,42.367688535270794],[-71.10468827602317,42.36769365272068],[-71.10467871500086,42.367703887620465],[-71.10467871500086,42.367719239970135],[-71.10466915397855,42.36773970976969],[-71.10465003193394,42.36774482721958],[-71.10464047091163,42.367760179569245],[-71.10464047091163,42.36777041446903],[-71.10465003193394,42.367775531918916],[-71.10463090988932,42.36779088426858],[-71.10462134886701,42.367796001718474],[-71.10462134886701,42.36780111916836],[-71.1046117878447,42.367796001718474],[-71.1046022268224,42.367816471518026],[-71.1046117878447,42.367816471518026],[-71.1046022268224,42.36782158896792],[-71.10459266580008,42.36784717621737]]]},"properties":{"source_id":"517-4","building_type":"BLDG","building_present":true,"BldgID":"517-4","TOP_SL":72.9,"TOP_GL":44.9,"ELEV_SL":58.6,"BASE_ELEV":28,"ELEV_GL":30.6,"created_date":"2020-04-27","last_edited_date":"2020-04-27","evidence_grade":"A_OFFICIAL_CITY_BUILDING_FOOTPRINT_AND_TYPE"}},{"type":"Feature","id":16040,"geometry":{"type":"Polygon","coordinates":[[[-71.10407637059542,42.37670548197577],[-71.10411461468465,42.376731069225215],[-71.10422934695235,42.37664919002698],[-71.10418154184082,42.37660313297798],[-71.10414329775158,42.37662872022743],[-71.1040572485508,42.37668501217621],[-71.10407637059542,42.37670548197577]]]},"properties":{"source_id":"999-4462","building_type":"BLDG","building_present":true,"BldgID":"999-4462","TOP_SL":71.4,"TOP_GL":38,"ELEV_SL":68.9,"BASE_ELEV":33.4,"ELEV_GL":35.5,"created_date":"2020-04-27","last_edited_date":"2021-10-20","evidence_grade":"A_OFFICIAL_CITY_BUILDING_FOOTPRINT_AND_TYPE"}},{"type":"Feature","id":16322,"geometry":{"type":"Polygon","coordinates":[[[-71.13226226436142,42.40291706030883],[-71.13228138640604,42.40291194285894],[-71.13240567969605,42.40281982876093],[-71.13239611867374,42.40280959386116],[-71.13237699662912,42.402799358961374],[-71.13240567969605,42.40278400661171],[-71.13236743560681,42.40275330191237],[-71.1323387525399,42.40276865426204],[-71.1323387525399,42.40276353681215],[-71.13220489822757,42.402855650910155],[-71.13219533720526,42.40286588580994],[-71.13220489822757,42.40287612070971],[-71.13220489822757,42.4028812381596],[-71.1322431423168,42.40291194285894],[-71.1322527033391,42.40290682540905],[-71.13226226436142,42.40291706030883]]]},"properties":{"source_id":"999-4743","building_type":"BLDG","building_present":true,"BldgID":"999-4743","TOP_SL":60.5,"TOP_GL":31.9,"ELEV_SL":56.6,"BASE_ELEV":28.6,"ELEV_GL":28,"created_date":"2020-04-27","last_edited_date":"2021-10-20","evidence_grade":"A_OFFICIAL_CITY_BUILDING_FOOTPRINT_AND_TYPE"}},{"type":"Feature","id":17682,"geometry":{"type":"Polygon","coordinates":[[[-71.08670399306054,42.371593149536345],[-71.08669443203823,42.371634089135455],[-71.08682828635055,42.371649441485125],[-71.08682828635055,42.37165455893501],[-71.08684740839516,42.37165455893501],[-71.08685696941747,42.371649441485125],[-71.08685696941747,42.37162897168557],[-71.08685696941747,42.37162385423568],[-71.08685696941747,42.371613619335896],[-71.08670399306054,42.371593149536345]]]},"properties":{"source_id":"423-5","building_type":"BLDG","building_present":true,"BldgID":"423-5","TOP_SL":40.8,"TOP_GL":32.2,"ELEV_SL":36.3,"BASE_ELEV":8.6,"ELEV_GL":27.7,"created_date":"2020-12-22","last_edited_date":"2020-12-22","evidence_grade":"A_OFFICIAL_CITY_BUILDING_FOOTPRINT_AND_TYPE"}},{"type":"Feature","id":6158,"geometry":{"type":"Polygon","coordinates":[[[-71.09677174955158,42.37117351864542],[-71.09691516488621,42.37121445824453],[-71.09693428693083,42.37117863609531],[-71.09692472590852,42.37117351864542],[-71.09691516488621,42.37117351864542],[-71.09685779875235,42.37115304884586],[-71.09685779875235,42.37114281394608],[-71.09682911568544,42.371132579046304],[-71.09682911568544,42.37114281394608],[-71.09680043261851,42.371132579046304],[-71.09677174955158,42.37117351864542]]]},"properties":{"source_id":"385-52","building_type":"BLDG","building_present":true,"BldgID":"385-52","TOP_SL":37,"TOP_GL":23.5,"ELEV_SL":28.2,"BASE_ELEV":13.5,"ELEV_GL":14.7,"created_date":"2020-04-27","last_edited_date":"2020-04-27","evidence_grade":"A_OFFICIAL_CITY_BUILDING_FOOTPRINT_AND_TYPE"}},{"type":"Feature","id":13186,"geometry":{"type":"Polygon","coordinates":[[[-71.12648740688697,42.395051539828955],[-71.12655433404313,42.39510271432785],[-71.12656389506544,42.39511806667752],[-71.12662126119929,42.39508736197818],[-71.12661170017698,42.3950771270784],[-71.12664038324391,42.39505665727884],[-71.12659257813237,42.39500548277995],[-71.12657345608775,42.39501571767973],[-71.1265160899539,42.394959425730946],[-71.1265160899539,42.39495430828106],[-71.12650652893159,42.394959425730946],[-71.12648740688697,42.39493895593139],[-71.12643960177543,42.394974778080616],[-71.12643004075312,42.394979895530504],[-71.12642047973081,42.39498501298039],[-71.12643960177543,42.39500036533006],[-71.12648740688697,42.395051539828955]]]},"properties":{"source_id":"45-18","building_type":"BLDG","building_present":true,"BldgID":"45-18","TOP_SL":65,"TOP_GL":37.2,"ELEV_SL":58.9,"BASE_ELEV":27.8,"ELEV_GL":31.1,"created_date":"2020-04-27","last_edited_date":"2020-04-27","evidence_grade":"A_OFFICIAL_CITY_BUILDING_FOOTPRINT_AND_TYPE"}},{"type":"Feature","id":135,"geometry":{"type":"Polygon","coordinates":[[[-71.11338880632407,42.35888652146118],[-71.11338880632407,42.35889163891107],[-71.11344617245793,42.35892746106029],[-71.11349397756948,42.35888652146118],[-71.1134270504133,42.35885069931195],[-71.11338880632407,42.35888652146118]]]},"properties":{"source_id":"999-130","building_type":"OUTBLDG","building_present":true,"BldgID":"999-130","TOP_SL":24,"TOP_GL":9.6,"ELEV_SL":23.2,"BASE_ELEV":14.4,"ELEV_GL":8.8,"created_date":"2020-04-27","last_edited_date":"2021-10-20","evidence_grade":"A_OFFICIAL_CITY_BUILDING_FOOTPRINT_AND_TYPE"}},{"type":"Feature","id":14010,"geometry":{"type":"Polygon","coordinates":[[[-71.13349563623923,42.40329575160064],[-71.13354344135078,42.403300869050526],[-71.13355300237309,42.403300869050526],[-71.13355300237309,42.40329063415075],[-71.13355300237309,42.40327528180108],[-71.1335625633954,42.40327528180108],[-71.13358168544002,42.40327528180108],[-71.13359124646233,42.403280399250974],[-71.13359124646233,42.40327016435119],[-71.13359124646233,42.40322410730219],[-71.13364861259618,42.40322410730219],[-71.13364861259618,42.403229224752074],[-71.13365817361849,42.403229224752074],[-71.13365817361849,42.40322410730219],[-71.13370597873003,42.403229224752074],[-71.13371553975234,42.40323434220197],[-71.13371553975234,42.403229224752074],[-71.13376334486388,42.40323434220197],[-71.13377290588619,42.40323434220197],[-71.13382071099774,42.40323434220197],[-71.13382071099774,42.40323945965186],[-71.13383027202005,42.40323945965186],[-71.13383027202005,42.40323434220197],[-71.13387807713158,42.40323945965186],[-71.1338876381539,42.403244577101745],[-71.1338876381539,42.40323945965186],[-71.13392588224313,42.40323945965186],[-71.13393544326544,42.403244577101745],[-71.13394500428775,42.403244577101745],[-71.13394500428775,42.40323945965186],[-71.13394500428775,42.40322410730219],[-71.13395456531005,42.40322410730219],[-71.13395456531005,42.40321387240241],[-71.13395456531005,42.403188285152964],[-71.13399280939929,42.40319340260285],[-71.1340023704216,42.40319852005274],[-71.1340023704216,42.40319340260285],[-71.1340023704216,42.403188285152964],[-71.13401193144391,42.403152463003735],[-71.1340023704216,42.40314734555385],[-71.1340023704216,42.40314222810396],[-71.13399280939929,42.40314222810396],[-71.13399280939929,42.40314734555385],[-71.13396412633236,42.40314734555385],[-71.13397368735467,42.40304499655606],[-71.13390676019851,42.403039879106174],[-71.1338971991762,42.403039879106174],[-71.1338971991762,42.40305011400595],[-71.1338971991762,42.40306034890573],[-71.1338971991762,42.40308081870529],[-71.1338876381539,42.40308081870529],[-71.1338876381539,42.40308593615518],[-71.13386851610927,42.40308593615518],[-71.13385895508696,42.40308593615518],[-71.13384939406465,42.40308593615518],[-71.13384939406465,42.40308081870529],[-71.13383983304234,42.40308081870529],[-71.13383983304234,42.40308593615518],[-71.13379202793081,42.40308081870529],[-71.13377290588619,42.403075701255396],[-71.13377290588619,42.40308081870529],[-71.13373466179695,42.40308081870529],[-71.13373466179695,42.403075701255396],[-71.13371553975234,42.403075701255396],[-71.1336677346408,42.403075701255396],[-71.1336677346408,42.40307058380551],[-71.13365817361849,42.40307058380551],[-71.13365817361849,42.403075701255396],[-71.13361036850694,42.40307058380551],[-71.13361992952925,42.40301429185673],[-71.13361036850694,42.40301429185673],[-71.13359124646233,42.40301429185673],[-71.13358168544002,42.40301429185673],[-71.13358168544002,42.40299382205717],[-71.13359124646233,42.40299382205717],[-71.13359124646233,42.40298870460728],[-71.13358168544002,42.40298870460728],[-71.13353388032847,42.402983587157394],[-71.13352431930616,42.402983587157394],[-71.13352431930616,42.40299382205717],[-71.13353388032847,42.40299382205717],[-71.13352431930616,42.40300917440684],[-71.13351475828385,42.40300917440684],[-71.13348607521694,42.40300917440684],[-71.13348607521694,42.403019409306616],[-71.13345739215,42.403019409306616],[-71.13340002601615,42.40301429185673],[-71.13339046499384,42.40308081870529],[-71.13338090397153,42.40308081870529],[-71.13338090397153,42.40309105360507],[-71.13339046499384,42.40309105360507],[-71.13338090397153,42.40317805025318],[-71.13337134294923,42.40317805025318],[-71.13337134294923,42.403188285152964],[-71.13338090397153,42.403188285152964],[-71.13337134294923,42.40324969455163],[-71.13345739215,42.40325481200153],[-71.13345739215,42.40327016435119],[-71.13349563623923,42.40327016435119],[-71.13349563623923,42.40328551670086],[-71.13349563623923,42.40329575160064]]]},"properties":{"source_id":"2-3","building_type":"BLDG","building_present":true,"BldgID":"2-3","TOP_SL":97,"TOP_GL":86.1,"ELEV_SL":70.7,"BASE_ELEV":10.9,"ELEV_GL":59.8,"created_date":"2020-04-27","last_edited_date":"2020-04-27","evidence_grade":"A_OFFICIAL_CITY_BUILDING_FOOTPRINT_AND_TYPE"}},{"type":"Feature","id":14712,"geometry":{"type":"Polygon","coordinates":[[[-71.09606423390073,42.36780623661825],[-71.0961311610569,42.3678318238677],[-71.09614072207921,42.367836941317584],[-71.09621721025768,42.367867646016926],[-71.09626501536921,42.367796001718474],[-71.09621721025768,42.367775531918916],[-71.09622677127999,42.36776529701913],[-71.09621721025768,42.367760179569245],[-71.09618852719075,42.36774994466947],[-71.09616940514613,42.36774482721958],[-71.09616940514613,42.36775506211936],[-71.09612160003459,42.36773970976969],[-71.09606423390073,42.36780623661825]]]},"properties":{"source_id":"527-16","building_type":"BLDG","building_present":true,"BldgID":"527-16","TOP_SL":43.7,"TOP_GL":33,"ELEV_SL":31.6,"BASE_ELEV":10.7,"ELEV_GL":20.9,"created_date":"2020-04-27","last_edited_date":"2020-04-27","evidence_grade":"A_OFFICIAL_CITY_BUILDING_FOOTPRINT_AND_TYPE"}},{"type":"Feature","id":16327,"geometry":{"type":"Polygon","coordinates":[[[-71.13253953400837,42.40306034890573],[-71.13251085094144,42.40308081870529],[-71.13252041196375,42.40309105360507],[-71.13250128991913,42.40310640595474],[-71.1324726068522,42.40312687575429],[-71.13249172889682,42.40314222810396],[-71.13251085094144,42.403152463003735],[-71.13252041196375,42.40315758045363],[-71.13252041196375,42.403152463003735],[-71.13254909503068,42.40317805025318],[-71.1325777780976,42.40316269790352],[-71.13262558320915,42.40312687575429],[-71.13259690014222,42.40310640595474],[-71.1325777780976,42.403096171054955],[-71.1325682170753,42.40308593615518],[-71.13253953400837,42.40306034890573]]]},"properties":{"source_id":"999-4748","building_type":"BLDG","building_present":true,"BldgID":"999-4748","TOP_SL":57.4,"TOP_GL":35,"ELEV_SL":49.6,"BASE_ELEV":22.4,"ELEV_GL":27.2,"created_date":"2020-04-27","last_edited_date":"2021-10-20","evidence_grade":"A_OFFICIAL_CITY_BUILDING_FOOTPRINT_AND_TYPE"}},{"type":"Feature","id":17687,"geometry":{"type":"Polygon","coordinates":[[[-71.08015469277909,42.370533837409255],[-71.08012600971216,42.370646421306816],[-71.080059082556,42.37063618640704],[-71.080059082556,42.37063106895715],[-71.0800686435783,42.37058501190815],[-71.0800686435783,42.37057989445826],[-71.08007820460061,42.37058501190815],[-71.08007820460061,42.37057477700837],[-71.0800686435783,42.37057477700837],[-71.0800686435783,42.3705594246587],[-71.08008776562292,42.3705594246587],[-71.08008776562292,42.37052360250948],[-71.080059082556,42.37052360250948],[-71.08008776562292,42.3704161360618],[-71.08015469277909,42.37042637096158],[-71.08017381482371,42.37042637096158],[-71.08015469277909,42.370533837409255]]]},"properties":{"source_id":"447-11","building_type":"BLDG","building_present":true,"BldgID":"447-11","TOP_SL":90.7,"TOP_GL":58.7,"ELEV_SL":83.2,"BASE_ELEV":32,"ELEV_GL":51.2,"created_date":"2020-12-22","last_edited_date":"2020-12-22","evidence_grade":"A_OFFICIAL_CITY_BUILDING_FOOTPRINT_AND_TYPE"}},{"type":"Feature","id":6151,"geometry":{"type":"Polygon","coordinates":[[[-71.11228928875857,42.37116840119553],[-71.11229884978088,42.37117351864542],[-71.1123084108032,42.37117863609531],[-71.11236577693704,42.37119910589487],[-71.11235621591473,42.37121445824453],[-71.11247094818243,42.37125539784365],[-71.11249963124936,42.371204223344755],[-71.11248050920474,42.37119910589487],[-71.11245182613783,42.371183753545196],[-71.11247094818243,42.37115304884586],[-71.11245182613783,42.371147931395974],[-71.11234665489243,42.371112109246745],[-71.11233709387012,42.371127461596416],[-71.11232753284781,42.37113769649619],[-71.11232753284781,42.37114281394608],[-71.11232753284781,42.371147931395974],[-71.1123084108032,42.37114281394608],[-71.11228928875857,42.37116840119553]]]},"properties":{"source_id":"433-7","building_type":"BLDG","building_present":true,"BldgID":"433-7","TOP_SL":61.5,"TOP_GL":32.4,"ELEV_SL":54,"BASE_ELEV":29.1,"ELEV_GL":24.9,"created_date":"2020-04-27","last_edited_date":"2020-04-27","evidence_grade":"A_OFFICIAL_CITY_BUILDING_FOOTPRINT_AND_TYPE"}},{"type":"Feature","id":10006,"geometry":{"type":"Polygon","coordinates":[[[-71.11559740247738,42.38143912312338],[-71.11559740247738,42.381367478824934],[-71.11564520758893,42.38137259627482],[-71.11564520758893,42.381352126475264],[-71.11563564656662,42.381352126475264],[-71.11563564656662,42.38131118687615],[-71.11564520758893,42.38131118687615],[-71.11564520758893,42.381260012377254],[-71.11566432963355,42.381260012377254],[-71.11567389065586,42.381260012377254],[-71.11572169576739,42.381260012377254],[-71.1157312567897,42.381260012377254],[-71.11574081781201,42.38126512982714],[-71.11575037883432,42.38126512982714],[-71.11575037883432,42.38128048217681],[-71.11575993985663,42.38128048217681],[-71.11576950087894,42.38127024727704],[-71.11579818394586,42.38127024727704],[-71.11581730599048,42.38128048217681],[-71.1158364280351,42.3812855996267],[-71.1158459890574,42.3812855996267],[-71.1158459890574,42.38130606942626],[-71.1158364280351,42.38132142177593],[-71.11585555007971,42.38132142177593],[-71.1158459890574,42.38134189157548],[-71.1158459890574,42.381352126475264],[-71.1158459890574,42.381367478824934],[-71.1158364280351,42.38136236137504],[-71.11582686701279,42.381423770773715],[-71.11578862292356,42.381423770773715],[-71.11577906190125,42.38143400567349],[-71.11575037883432,42.3814288882236],[-71.11574081781201,42.381423770773715],[-71.1157312567897,42.38141865332383],[-71.11572169576739,42.3814288882236],[-71.11569301270046,42.3814288882236],[-71.11568345167815,42.38144424057327],[-71.11567389065586,42.38144424057327],[-71.11560696349969,42.38143912312338],[-71.11559740247738,42.38143912312338]]]},"properties":{"source_id":"224-3","building_type":"BLDG","building_present":true,"BldgID":"224-3","TOP_SL":64.4,"TOP_GL":44.6,"ELEV_SL":58.4,"BASE_ELEV":19.8,"ELEV_GL":38.6,"created_date":"2020-04-27","last_edited_date":"2020-04-27","evidence_grade":"A_OFFICIAL_CITY_BUILDING_FOOTPRINT_AND_TYPE"}},{"type":"Feature","id":10005,"geometry":{"type":"Polygon","coordinates":[[[-71.11598940439204,42.3814288882236],[-71.11594159928049,42.381423770773715],[-71.11593203825818,42.381423770773715],[-71.11592247723587,42.381423770773715],[-71.11593203825818,42.38139818352427],[-71.11594159928049,42.381403300974156],[-71.1159511603028,42.381347009025376],[-71.1159511603028,42.381331656675705],[-71.11594159928049,42.381331656675705],[-71.11594159928049,42.38131118687615],[-71.11596072132511,42.38131118687615],[-71.11602764848126,42.381316304326035],[-71.11601808745897,42.38132653922582],[-71.11603720950357,42.38132653922582],[-71.11603720950357,42.38129071707659],[-71.11610413665974,42.38129583452648],[-71.11610413665974,42.38130095197637],[-71.11616150279359,42.38130606942626],[-71.11616150279359,42.381316304326035],[-71.1161710638159,42.38132142177593],[-71.1161710638159,42.38134189157548],[-71.11618062483821,42.38134189157548],[-71.11618062483821,42.381352126475264],[-71.11618062483821,42.38137771372471],[-71.11618062483821,42.3813828311746],[-71.11616150279359,42.3813828311746],[-71.11615194177128,42.3814288882236],[-71.11614238074897,42.38143400567349],[-71.11613281972667,42.38143912312338],[-71.11610413665974,42.38143912312338],[-71.11608501461512,42.3814288882236],[-71.1160658925705,42.3814288882236],[-71.1160563315482,42.38144424057327],[-71.11598940439204,42.38143912312338],[-71.11598940439204,42.3814288882236]]]},"properties":{"source_id":"224-2","building_type":"BLDG","building_present":true,"BldgID":"224-2","TOP_SL":63.7,"TOP_GL":44.1,"ELEV_SL":48.8,"BASE_ELEV":19.6,"ELEV_GL":29.2,"created_date":"2020-04-27","last_edited_date":"2020-04-27","evidence_grade":"A_OFFICIAL_CITY_BUILDING_FOOTPRINT_AND_TYPE"}},{"type":"Feature","id":13185,"geometry":{"type":"Polygon","coordinates":[[[-71.13295065796764,42.39509759687796],[-71.13295065796764,42.39513853647707],[-71.13296021898995,42.39513853647707],[-71.13307495125765,42.39513853647707],[-71.13307495125765,42.39509247942807],[-71.13303670716842,42.39509247942807],[-71.13303670716842,42.39508224452829],[-71.13304626819072,42.39508224452829],[-71.13304626819072,42.395051539828955],[-71.13303670716842,42.395051539828955],[-71.13303670716842,42.39504642237907],[-71.13297934103457,42.39504642237907],[-71.13297934103457,42.3950771270784],[-71.13297934103457,42.39509247942807],[-71.13295065796764,42.39509247942807],[-71.13295065796764,42.39509759687796]]]},"properties":{"source_id":"49-20","building_type":"BLDG","building_present":true,"BldgID":"49-20","TOP_SL":47.2,"TOP_GL":28.7,"ELEV_SL":40.1,"BASE_ELEV":18.5,"ELEV_GL":21.6,"created_date":"2020-04-27","last_edited_date":"2020-04-27","evidence_grade":"A_OFFICIAL_CITY_BUILDING_FOOTPRINT_AND_TYPE"}},{"type":"Feature","id":136,"geometry":{"type":"Polygon","coordinates":[[[-71.11344617245793,42.35893769596007],[-71.11350353859177,42.35896840065941],[-71.11355134370332,42.35892746106029],[-71.11349397756948,42.35889163891107],[-71.11344617245793,42.35893769596007]]]},"properties":{"source_id":"999-131","building_type":"OUTBLDG","building_present":true,"BldgID":"999-131","TOP_SL":23.4,"TOP_GL":11.4,"ELEV_SL":21.8,"BASE_ELEV":12,"ELEV_GL":9.8,"created_date":"2020-04-27","last_edited_date":"2021-10-20","evidence_grade":"A_OFFICIAL_CITY_BUILDING_FOOTPRINT_AND_TYPE"}},{"type":"Feature","id":14009,"geometry":{"type":"Polygon","coordinates":[[[-71.13214753209371,42.4022108522241],[-71.13218577618295,42.40224155692344],[-71.13231963049527,42.402354140821004],[-71.13231963049527,42.402349023371116],[-71.13232919151758,42.40235925827089],[-71.13234831356219,42.402369493170674],[-71.1323387525399,42.402410432769784],[-71.13232919151758,42.40241555021968],[-71.13231006947296,42.40243090256934],[-71.13222402027219,42.40249231196802],[-71.13223358129449,42.402497429417906],[-71.13222402027219,42.40250766431768],[-71.13228138640604,42.40255372136669],[-71.13229094742834,42.4025486039168],[-71.13231963049527,42.402574191166245],[-71.13232919151758,42.402574191166245],[-71.13241524071836,42.402517899217465],[-71.13244392378529,42.40249231196802],[-71.13249172889682,42.402497429417906],[-71.13259690014222,42.40257930861613],[-71.13264470525377,42.40255372136669],[-71.13266382729839,42.402574191166245],[-71.132682949343,42.402558838816574],[-71.13271163240992,42.40257930861613],[-71.13274031547685,42.40255372136669],[-71.13272119343223,42.40253836901702],[-71.13273075445454,42.40253325156713],[-71.13274987649916,42.40255372136669],[-71.13275943752147,42.4025486039168],[-71.13277855956609,42.40253836901702],[-71.1327881205884,42.4025486039168],[-71.132807242633,42.40253325156713],[-71.13281680365532,42.40253325156713],[-71.132807242633,42.40252301666735],[-71.1328932918338,42.40246672471857],[-71.13296021898995,42.40242066766957],[-71.1331227563692,42.402558838816574],[-71.13313231739151,42.402558838816574],[-71.13315143943612,42.40256907371636],[-71.13314187841382,42.402650952914584],[-71.13308451227996,42.402645835464696],[-71.13306539023534,42.40280447641126],[-71.13308451227996,42.40280959386116],[-71.13308451227996,42.402855650910155],[-71.13314187841382,42.40286076836005],[-71.13313231739151,42.402871003259825],[-71.1333426598823,42.402886355609496],[-71.1333426598823,42.402891473059384],[-71.1333426598823,42.40289659050927],[-71.13335222090461,42.40290170795916],[-71.13335222090461,42.40290682540905],[-71.13336178192692,42.40290682540905],[-71.13336178192692,42.40291194285894],[-71.13337134294923,42.40291194285894],[-71.13338090397153,42.40291194285894],[-71.13339046499384,42.40291194285894],[-71.13339046499384,42.40290682540905],[-71.13340002601615,42.40290682540905],[-71.13340002601615,42.40290170795916],[-71.13340958703846,42.40290170795916],[-71.13340958703846,42.40289659050927],[-71.13340958703846,42.402891473059384],[-71.13341914806077,42.40280447641126],[-71.13336178192692,42.402799358961374],[-71.13338090397153,42.402574191166245],[-71.13339046499384,42.40252301666735],[-71.13339046499384,42.40249231196802],[-71.13329485477075,42.40248719451813],[-71.13328529374844,42.40248719451813],[-71.13326617170382,42.40246672471857],[-71.13325661068153,42.40246672471857],[-71.13309407330227,42.40232855357156],[-71.13308451227996,42.40232343612167],[-71.13306539023534,42.402313201221894],[-71.1330080241015,42.402262026723],[-71.13271163240992,42.40245648981879],[-71.13274031547685,42.40247695961835],[-71.13273075445454,42.402482077068235],[-71.13271163240992,42.40249231196802],[-71.13263514423146,42.40243602001924],[-71.13262558320915,42.402425785119455],[-71.13261602218684,42.40241555021968],[-71.13261602218684,42.40237972807045],[-71.13266382729839,42.402349023371116],[-71.132682949343,42.40233878847134],[-71.13270207138761,42.40232343612167],[-71.1326925103653,42.40231831867178],[-71.13259690014222,42.40224155692344],[-71.13259690014222,42.40223643947355],[-71.13251085094144,42.402292731422335],[-71.1324630458299,42.40228761397245],[-71.13244392378529,42.40227226162278],[-71.1322527033391,42.40212385557599],[-71.1322527033391,42.4021187381261],[-71.13223358129449,42.402128973025874],[-71.13220489822757,42.402108503226316],[-71.13210928800449,42.40217503007488],[-71.1321379710714,42.40219549987444],[-71.13212841004909,42.402200617324326],[-71.13214753209371,42.4022108522241]]]},"properties":{"source_id":"2-5","building_type":"BLDG","building_present":true,"BldgID":"2-5","TOP_SL":102.5,"TOP_GL":78.4,"ELEV_SL":81.8,"BASE_ELEV":24.1,"ELEV_GL":57.7,"created_date":"2020-04-27","last_edited_date":"2020-04-27","evidence_grade":"A_OFFICIAL_CITY_BUILDING_FOOTPRINT_AND_TYPE"}},{"type":"Feature","id":14711,"geometry":{"type":"Polygon","coordinates":[[[-71.10323500063225,42.3678318238677],[-71.10322543960994,42.36784717621737],[-71.10323500063225,42.367852293667255],[-71.1032923667661,42.36787276346681],[-71.10331148881072,42.36788299836659],[-71.10332104983303,42.36788811581648],[-71.10337841596689,42.36780111916836],[-71.10334973289996,42.36779088426858],[-71.10334017187765,42.36778576681869],[-71.10328280574379,42.36776529701913],[-71.10323500063225,42.3678318238677]]]},"properties":{"source_id":"523-19","building_type":"BLDG","building_present":true,"BldgID":"523-19","TOP_SL":56.6,"TOP_GL":39,"ELEV_SL":41.6,"BASE_ELEV":17.6,"ELEV_GL":24,"created_date":"2020-04-27","last_edited_date":"2020-04-27","evidence_grade":"A_OFFICIAL_CITY_BUILDING_FOOTPRINT_AND_TYPE"}},{"type":"Feature","id":16328,"geometry":{"type":"Polygon","coordinates":[[[-71.13272119343223,42.403280399250974],[-71.13273075445454,42.40328551670086],[-71.1328932918338,42.403167815353406],[-71.13287416978918,42.403152463003735],[-71.13287416978918,42.40314734555385],[-71.13283592569994,42.40311664085451],[-71.13281680365532,42.4031217583044],[-71.132807242633,42.403131993204184],[-71.13279768161071,42.4031217583044],[-71.13264470525377,42.403229224752074],[-71.13265426627608,42.40323434220197],[-71.1326925103653,42.4032650469013],[-71.1326925103653,42.403259929451416],[-71.13270207138761,42.4032650469013],[-71.13272119343223,42.403280399250974]]]},"properties":{"source_id":"999-4749","building_type":"BLDG","building_present":true,"BldgID":"999-4749","TOP_SL":53.2,"TOP_GL":33.3,"ELEV_SL":41.3,"BASE_ELEV":19.9,"ELEV_GL":21.4,"created_date":"2020-04-27","last_edited_date":"2021-10-20","evidence_grade":"A_OFFICIAL_CITY_BUILDING_FOOTPRINT_AND_TYPE"}},{"type":"Feature","id":17688,"geometry":{"type":"Polygon","coordinates":[[[-71.08718204417598,42.370011857520545],[-71.08719160519827,42.370011857520545],[-71.08720116622058,42.370011857520545],[-71.08726809337675,42.37002209242032],[-71.08727765439906,42.37002209242032],[-71.08729677644368,42.36992997832232],[-71.08728721542137,42.36992997832232],[-71.08728721542137,42.369919743422535],[-71.08726809337675,42.36991462597265],[-71.08724897133213,42.36992486087242],[-71.08722984928751,42.369919743422535],[-71.0872202882652,42.369919743422535],[-71.08721072724289,42.369919743422535],[-71.08718204417598,42.370011857520545]]]},"properties":{"source_id":"472-15","building_type":"BLDG","building_present":true,"BldgID":"472-15","TOP_SL":41.5,"TOP_GL":33.3,"ELEV_SL":32.8,"BASE_ELEV":8.2,"ELEV_GL":24.6,"created_date":"2020-04-27","last_edited_date":"2020-12-22","evidence_grade":"A_OFFICIAL_CITY_BUILDING_FOOTPRINT_AND_TYPE"}},{"type":"Feature","id":6152,"geometry":{"type":"Polygon","coordinates":[[[-71.10842663574587,42.3712298105942],[-71.10845531881279,42.37124004549398],[-71.1084648798351,42.37124004549398],[-71.1084648798351,42.3712298105942],[-71.1084744408574,42.3712298105942],[-71.10854136801358,42.37111722669663],[-71.10853180699127,42.371112109246745],[-71.1084744408574,42.37109675689708],[-71.10844575779048,42.3710865219973],[-71.10841707472356,42.37113769649619],[-71.10839795267894,42.37114281394608],[-71.10839795267894,42.37115816629575],[-71.10839795267894,42.37116840119553],[-71.10837883063432,42.37119910589487],[-71.10837883063432,42.37120934079464],[-71.10840751370125,42.37121445824453],[-71.10839795267894,42.371219575694425],[-71.10842663574587,42.3712298105942]]]},"properties":{"source_id":"440-9","building_type":"BLDG","building_present":true,"BldgID":"440-9","TOP_SL":90.2,"TOP_GL":39.7,"ELEV_SL":85.3,"BASE_ELEV":50.5,"ELEV_GL":34.8,"created_date":"2020-04-27","last_edited_date":"2020-04-27","evidence_grade":"A_OFFICIAL_CITY_BUILDING_FOOTPRINT_AND_TYPE"}},{"type":"Feature","id":10008,"geometry":{"type":"Polygon","coordinates":[[[-71.1417085544024,42.38153123722139],[-71.14168943235778,42.38148518017238],[-71.14167987133547,42.38145959292294],[-71.14167987133547,42.38145447547305],[-71.14175635951395,42.38143912312338],[-71.14189021382626,42.381408418424044],[-71.14189021382626,42.38143400567349],[-71.14189977484857,42.38143912312338],[-71.14191889689319,42.38143400567349],[-71.1419284579155,42.38147494527261],[-71.14190933587088,42.381480062722495],[-71.14190933587088,42.38148518017238],[-71.14191889689319,42.38149029762227],[-71.14190933587088,42.38149029762227],[-71.14188065280395,42.381495415072166],[-71.1418232866701,42.38151076742183],[-71.1418137256478,42.38151588487172],[-71.14180416462548,42.38151588487172],[-71.14179460360317,42.38151588487172],[-71.14178504258086,42.38151588487172],[-71.1417085544024,42.38153123722139]]]},"properties":{"source_id":"213-15","building_type":"BLDG","building_present":true,"BldgID":"213-15","TOP_SL":57.1,"TOP_GL":34.8,"ELEV_SL":43,"BASE_ELEV":22.3,"ELEV_GL":20.7,"created_date":"2020-04-27","last_edited_date":"2020-04-27","evidence_grade":"A_OFFICIAL_CITY_BUILDING_FOOTPRINT_AND_TYPE"}},{"type":"Feature","id":13188,"geometry":{"type":"Polygon","coordinates":[[[-71.13195631164754,42.39509247942807],[-71.13195631164754,42.39510271432785],[-71.13195631164754,42.39513853647707],[-71.13195631164754,42.395143653926965],[-71.132032799826,42.39513853647707],[-71.132032799826,42.395128301577294],[-71.132032799826,42.39511806667752],[-71.13205192187063,42.39511806667752],[-71.13205192187063,42.395072009628514],[-71.132032799826,42.395072009628514],[-71.132032799826,42.39504642237907],[-71.13194675062523,42.39504642237907],[-71.13194675062523,42.39506177472873],[-71.13192762858061,42.39506177472873],[-71.13193718960292,42.39508736197818],[-71.13195631164754,42.39508736197818],[-71.13195631164754,42.39509247942807]]]},"properties":{"source_id":"47-16","building_type":"BLDG","building_present":true,"BldgID":"47-16","TOP_SL":49.6,"TOP_GL":26.9,"ELEV_SL":40.3,"BASE_ELEV":22.7,"ELEV_GL":17.6,"created_date":"2020-04-27","last_edited_date":"2020-04-27","evidence_grade":"A_OFFICIAL_CITY_BUILDING_FOOTPRINT_AND_TYPE"}}]}
