{"type":"FeatureCollection","features":[{"type":"Feature","geometry":null,"properties":{"slot_id":"future_growth_ 2","lineage_id":"future_growth_ 2-newstart-20261001T203100Z","page_generation":1,"owner":"future_growth_ 2","partition":"future_growth","semantic_mode":"SOURCE_AREA_EXACT_IDENTIFIER","accepted_as_parcel":false,"source_area_count_contribution":1,"exact_identifier":"AL/CRS 5","exact_identifier_provided":true,"coverage_polygon_provided":false,"identifier_namespace":"Tunbridge Wells adopted Local Plan GIS layer/policy","service_item_id":"20f00d0e071f4c7b9cb2b5150b66bffe","layer_id":10,"access_utc":"2026-10-02T00:26:00Z","data_date":"2025-12-10","source_url":"https://services.arcgis.com/tghlG7ZjtJZbhYYT/arcgis/rest/services/TWBC_Local_Plan__Adopted_2025__Interactive_Policies_Map_v2_WFL1/FeatureServer/10","final_url":"https://services.arcgis.com/tghlG7ZjtJZbhYYT/arcgis/rest/services/TWBC_Local_Plan__Adopted_2025__Interactive_Policies_Map_v2_WFL1/FeatureServer/10","dataset_url":"https://tunbridgewells.gov.uk/planning/planning-policy/local-plan/adoption-borough-local-plan-documents","license":"not stated on FeatureServer metadata","authority":"Tunbridge Wells Borough Council","site_address":null,"hectares":null,"point":null,"maximum_net_dwellings":null,"minimum_net_dwellings":null,"planning_permission_status":null,"confidence_score_0_100":99,"confidence":0.99,"evidence_grade":"A","evidence_scope":"official_gis_layer_exact_identifier","field_evidence":{"service_item_id":"20f00d0e071f4c7b9cb2b5150b66bffe","layer_id":"10","layer_name":"Site Allocation (AL/CRS 5)","service_name":"TWBC_Local_Plan__Adopted_2025__Interactive_Policies_Map_v2_WFL1","adopted_local_plan":"Tunbridge Wells Local Plan 2020-2038","adopted_date":"2025-12-10","official_council_listing":"Adopted Local Plan 2020-2038 Interactive Policies map","spatial_reference":"EPSG:27700","service_max_record_count":"2000"},"evidence_slice_sha256":"edd0a6f65ef4946abe5f60b8d79b78bf05b6b0a040b677b8a82d48077a10c1e8","fake_data":false,"spatial_binding_method":"exact official adopted Local Plan GIS layer/policy identifier; canonical parcel spatial join/materialization delegated to local OpenCode","planned_building_count_contribution":0}}]}