{"type":"FeatureCollection","name":"building_type_9_20261009T064636Z_TRAFFORD_COUNCIL_LEISURE_FOOTPRINTS_6","features":[{"type":"Feature","id":"trafford-council-leisure:WA15 8EW:move-altrincham","geometry":{"type":"MultiPolygon","coordinates":[[[[-2.345804,53.388726],[-2.345332,53.388598],[-2.345375,53.388554],[-2.345339,53.388535],[-2.345303,53.388586],[-2.345243,53.388564],[-2.345271,53.388537],[-2.345067,53.38849],[-2.345543,53.387869],[-2.345893,53.387961],[-2.345868,53.387987],[-2.346237,53.388083],[-2.346215,53.388104],[-2.34634,53.388136],[-2.346247,53.388268],[-2.346176,53.388242],[-2.346158,53.388277],[-2.346097,53.388257],[-2.346072,53.388302],[-2.346187,53.388345],[-2.346069,53.388507],[-2.346008,53.388488],[-2.345818,53.388729],[-2.345804,53.388726]]]]},"properties":{"slot_id":"building_type_9","lineage_id":"building_type_9-20261001T200900Z-newstart","page_generation":1,"batch_id":"20261009T064636Z_TRAFFORD_COUNCIL_LEISURE_FOOTPRINTS_6","source_entity":"trafford-council-leisure:WA15 8EW:move-altrincham","source_reference":"Move Altrincham|WA15 8EW","source_dataset":"Trafford Council Leisure Centres and Parking Polygons","source_organisation":"Trafford Council / Trafford Data Lab","building_evidence_status":"BUILDING_PRESENT","parcel_status":"UNPROCESSED","canonical_parcel_id":null,"building_type":"leisure_centre","building_use":"leisure_and_sport_as_of_2026_02","poi_accepted":false,"field_evidence":{"footprint":"Official Trafford Council MultiPolygon covering the named leisure centre, separately delineated from dedicated parking polygons in the same 2026 layer; receiver validates precise footprint","building_type":"Source name and indoor facilities specify leisure centre / sports barn","use":"Official council data updated 2026-02-26; named facility, documented indoor facilities and managed_by","name":"Move Altrincham","postcode":"WA15 8EW","managed_by":"Trafford Leisure CIC.","facilities":"The new look centre, branded move Altrincham, benefits from a 25m swimming pool, a 20m learner pool, a pool pod to improve accessibility, a combined lobby area with pool viewing and caf\u00e9, a wet village change, an inclusive changing places toilet and The Cove Spa - a stunning health and wellbeing spa facility. There is also a wellness assessment room, an enlarged fitness suite, fitness changing and dry change areas, two flexible studio spaces, an immersive indoor cycle studio, a four-court sports hall and storage, a gymnastics hub and staff rooms, and offices."},"source_url":"https://raw.githubusercontent.com/traffordDataLab/council_open_data/c2dab7924aca1c6a9684fafa0e0cf98f33a2db6b/assets/leisure_centres/trafford_leisure_centres_and_parking_polygons.geojson","final_url":"https://raw.githubusercontent.com/traffordDataLab/council_open_data/c2dab7924aca1c6a9684fafa0e0cf98f33a2db6b/assets/leisure_centres/trafford_leisure_centres_and_parking_polygons.geojson","http_status":null,"http_status_note":"GitHub connector public file read, numeric HTTP status not exposed","access_utc":"2026-10-09T06:46:36.216Z","data_date":"2026-02-26","licence":"Open Government Licence v3.0; attribution: Trafford Council, Trafford Leisure CIC, George Carnall Community Group CIC, Schools Plus","source_sha256":"02299a9f233112e1a328e19eb996eaad1e005cedb9f11e9c90ad2d08cd5b8773","source_sha256_scope":"entire official public 17-feature GeoJSON UTF-8 source content at pinned blob","evidence_slice_sha256":"2436abc0bd47c16c2b04cca5e99cc48513a5aeab55a19ce26c8f5b18277fb614","confidence_score_0_100":82,"evidence_grade":"B","fake_data":false,"local_spatial_join_required":true}},{"type":"Feature","id":"trafford-council-leisure:M33 2AL:sale-leisure-centre","geometry":{"type":"MultiPolygon","coordinates":[[[[-2.31649,53.424747],[-2.316397,53.424549],[-2.316176,53.424587],[-2.316154,53.424546],[-2.316083,53.424563],[-2.316004,53.424412],[-2.315418,53.424517],[-2.315505,53.424684],[-2.315425,53.424693],[-2.315536,53.424913],[-2.316487,53.424751],[-2.31649,53.424747]]]]},"properties":{"slot_id":"building_type_9","lineage_id":"building_type_9-20261001T200900Z-newstart","page_generation":1,"batch_id":"20261009T064636Z_TRAFFORD_COUNCIL_LEISURE_FOOTPRINTS_6","source_entity":"trafford-council-leisure:M33 2AL:sale-leisure-centre","source_reference":"Sale Leisure Centre|M33 2AL","source_dataset":"Trafford Council Leisure Centres and Parking Polygons","source_organisation":"Trafford Council / Trafford Data Lab","building_evidence_status":"BUILDING_PRESENT","parcel_status":"UNPROCESSED","canonical_parcel_id":null,"building_type":"leisure_centre","building_use":"leisure_and_sport_as_of_2026_02","poi_accepted":false,"field_evidence":{"footprint":"Official Trafford Council MultiPolygon covering the named leisure centre, separately delineated from dedicated parking polygons in the same 2026 layer; receiver validates precise footprint","building_type":"Source name and indoor facilities specify leisure centre / sports barn","use":"Official council data updated 2026-02-26; named facility, documented indoor facilities and managed_by","name":"Sale Leisure Centre","postcode":"M33 2AL","managed_by":"Trafford Leisure CIC.","facilities":"Sale has a multifunctional gym, spinning studio, 25-metre main swimming pool & a small kids swimming pool and also a club training pool, spectator area, sports hall, badminton, and more."},"source_url":"https://raw.githubusercontent.com/traffordDataLab/council_open_data/c2dab7924aca1c6a9684fafa0e0cf98f33a2db6b/assets/leisure_centres/trafford_leisure_centres_and_parking_polygons.geojson","final_url":"https://raw.githubusercontent.com/traffordDataLab/council_open_data/c2dab7924aca1c6a9684fafa0e0cf98f33a2db6b/assets/leisure_centres/trafford_leisure_centres_and_parking_polygons.geojson","http_status":null,"http_status_note":"GitHub connector public file read, numeric HTTP status not exposed","access_utc":"2026-10-09T06:46:36.216Z","data_date":"2026-02-26","licence":"Open Government Licence v3.0; attribution: Trafford Council, Trafford Leisure CIC, George Carnall Community Group CIC, Schools Plus","source_sha256":"02299a9f233112e1a328e19eb996eaad1e005cedb9f11e9c90ad2d08cd5b8773","source_sha256_scope":"entire official public 17-feature GeoJSON UTF-8 source content at pinned blob","evidence_slice_sha256":"8b82a1a05cd64102d325f6546398a2fc0929eede12098aeebea5f893adc793ba","confidence_score_0_100":82,"evidence_grade":"B","fake_data":false,"local_spatial_join_required":true}},{"type":"Feature","id":"trafford-council-leisure:M32 0ZS:stretford-sports-village-chester-centre","geometry":{"type":"MultiPolygon","coordinates":[[[[-2.292677,53.458639],[-2.29327,53.458386],[-2.293016,53.458188],[-2.292963,53.458213],[-2.292816,53.458094],[-2.29258,53.458207],[-2.292119,53.457843],[-2.29169,53.458045],[-2.292323,53.458537],[-2.292451,53.458475],[-2.292684,53.458641],[-2.292677,53.458639]]]]},"properties":{"slot_id":"building_type_9","lineage_id":"building_type_9-20261001T200900Z-newstart","page_generation":1,"batch_id":"20261009T064636Z_TRAFFORD_COUNCIL_LEISURE_FOOTPRINTS_6","source_entity":"trafford-council-leisure:M32 0ZS:stretford-sports-village-chester-centre","source_reference":"Stretford Sports Village, Chester Centre|M32 0ZS","source_dataset":"Trafford Council Leisure Centres and Parking Polygons","source_organisation":"Trafford Council / Trafford Data Lab","building_evidence_status":"BUILDING_PRESENT","parcel_status":"UNPROCESSED","canonical_parcel_id":null,"building_type":"leisure_centre","building_use":"leisure_and_sport_as_of_2026_02","poi_accepted":false,"field_evidence":{"footprint":"Official Trafford Council MultiPolygon covering the named leisure centre, separately delineated from dedicated parking polygons in the same 2026 layer; receiver validates precise footprint","building_type":"Source name and indoor facilities specify leisure centre / sports barn","use":"Official council data updated 2026-02-26; named facility, documented indoor facilities and managed_by","name":"Stretford Sports Village, Chester Centre","postcode":"M32 0ZS","managed_by":"Trafford Leisure CIC.","facilities":"Stretford has a multifunctional gym and studio, a ladies gym, a 25-metre swimming pool and a small swimming pool, a sports hall, badminton, and more."},"source_url":"https://raw.githubusercontent.com/traffordDataLab/council_open_data/c2dab7924aca1c6a9684fafa0e0cf98f33a2db6b/assets/leisure_centres/trafford_leisure_centres_and_parking_polygons.geojson","final_url":"https://raw.githubusercontent.com/traffordDataLab/council_open_data/c2dab7924aca1c6a9684fafa0e0cf98f33a2db6b/assets/leisure_centres/trafford_leisure_centres_and_parking_polygons.geojson","http_status":null,"http_status_note":"GitHub connector public file read, numeric HTTP status not exposed","access_utc":"2026-10-09T06:46:36.216Z","data_date":"2026-02-26","licence":"Open Government Licence v3.0; attribution: Trafford Council, Trafford Leisure CIC, George Carnall Community Group CIC, Schools Plus","source_sha256":"02299a9f233112e1a328e19eb996eaad1e005cedb9f11e9c90ad2d08cd5b8773","source_sha256_scope":"entire official public 17-feature GeoJSON UTF-8 source content at pinned blob","evidence_slice_sha256":"f5f904c4ae19063da17c678b964da0d79e0f6a8cf82cb7b6b4627b854d54b011","confidence_score_0_100":82,"evidence_grade":"B","fake_data":false,"local_spatial_join_required":true}},{"type":"Feature","id":"trafford-council-leisure:M16 9PQ:stretford-sports-village-old-trafford-sports-barn","geometry":{"type":"MultiPolygon","coordinates":[[[[-2.273491,53.460429],[-2.273617,53.460402],[-2.273469,53.46012],[-2.273166,53.460179],[-2.273324,53.460455],[-2.27321,53.460479],[-2.273075,53.460258],[-2.272901,53.460286],[-2.273087,53.460626],[-2.273258,53.46059],[-2.273277,53.460611],[-2.273396,53.46059],[-2.273333,53.460472],[-2.273491,53.460429]]]]},"properties":{"slot_id":"building_type_9","lineage_id":"building_type_9-20261001T200900Z-newstart","page_generation":1,"batch_id":"20261009T064636Z_TRAFFORD_COUNCIL_LEISURE_FOOTPRINTS_6","source_entity":"trafford-council-leisure:M16 9PQ:stretford-sports-village-old-trafford-sports-barn","source_reference":"Stretford Sports Village, Old Trafford Sports Barn|M16 9PQ","source_dataset":"Trafford Council Leisure Centres and Parking Polygons","source_organisation":"Trafford Council / Trafford Data Lab","building_evidence_status":"BUILDING_PRESENT","parcel_status":"UNPROCESSED","canonical_parcel_id":null,"building_type":"leisure_centre","building_use":"leisure_and_sport_as_of_2026_02","poi_accepted":false,"field_evidence":{"footprint":"Official Trafford Council MultiPolygon covering the named leisure centre, separately delineated from dedicated parking polygons in the same 2026 layer; receiver validates precise footprint","building_type":"Source name and indoor facilities specify leisure centre / sports barn","use":"Official council data updated 2026-02-26; named facility, documented indoor facilities and managed_by","name":"Stretford Sports Village, Old Trafford Sports Barn","postcode":"M16 9PQ","managed_by":"Trafford Leisure CIC.","facilities":"Sports Hall (4 x Badminton courts), Outdoor Artificial 3G floodlght pitch, Outdoor Hard Courts, Disabled Changing facilities."},"source_url":"https://raw.githubusercontent.com/traffordDataLab/council_open_data/c2dab7924aca1c6a9684fafa0e0cf98f33a2db6b/assets/leisure_centres/trafford_leisure_centres_and_parking_polygons.geojson","final_url":"https://raw.githubusercontent.com/traffordDataLab/council_open_data/c2dab7924aca1c6a9684fafa0e0cf98f33a2db6b/assets/leisure_centres/trafford_leisure_centres_and_parking_polygons.geojson","http_status":null,"http_status_note":"GitHub connector public file read, numeric HTTP status not exposed","access_utc":"2026-10-09T06:46:36.216Z","data_date":"2026-02-26","licence":"Open Government Licence v3.0; attribution: Trafford Council, Trafford Leisure CIC, George Carnall Community Group CIC, Schools Plus","source_sha256":"02299a9f233112e1a328e19eb996eaad1e005cedb9f11e9c90ad2d08cd5b8773","source_sha256_scope":"entire official public 17-feature GeoJSON UTF-8 source content at pinned blob","evidence_slice_sha256":"c730a3cad772dc96095082379ff3ab58c34d12c2512be2112a0123c8c5ea3b6a","confidence_score_0_100":82,"evidence_grade":"B","fake_data":false,"local_spatial_join_required":true}},{"type":"Feature","id":"trafford-council-leisure:M41 5RR:move-urmston","geometry":{"type":"MultiPolygon","coordinates":[[[[-2.3718,53.45032],[-2.37171,53.45019],[-2.371639,53.450201],[-2.371593,53.45012],[-2.37155,53.450124],[-2.371429,53.449919],[-2.371199,53.449967],[-2.371178,53.44992],[-2.37082,53.449996],[-2.370852,53.450035],[-2.370616,53.450088],[-2.370853,53.450515],[-2.371811,53.450323],[-2.3718,53.45032]]]]},"properties":{"slot_id":"building_type_9","lineage_id":"building_type_9-20261001T200900Z-newstart","page_generation":1,"batch_id":"20261009T064636Z_TRAFFORD_COUNCIL_LEISURE_FOOTPRINTS_6","source_entity":"trafford-council-leisure:M41 5RR:move-urmston","source_reference":"Move Urmston|M41 5RR","source_dataset":"Trafford Council Leisure Centres and Parking Polygons","source_organisation":"Trafford Council / Trafford Data Lab","building_evidence_status":"BUILDING_PRESENT","parcel_status":"UNPROCESSED","canonical_parcel_id":null,"building_type":"leisure_centre","building_use":"leisure_and_sport_as_of_2026_02","poi_accepted":false,"field_evidence":{"footprint":"Official Trafford Council MultiPolygon covering the named leisure centre, separately delineated from dedicated parking polygons in the same 2026 layer; receiver validates precise footprint","building_type":"Source name and indoor facilities specify leisure centre / sports barn","use":"Official council data updated 2026-02-26; named facility, documented indoor facilities and managed_by","name":"Move Urmston","postcode":"M41 5RR","managed_by":"Trafford Leisure CIC.","facilities":"Badminton, Birthdays & Events, Clip and Climb, Fitness and Wellbeing Gym, Fitness Classes, Sensory Room, Swimming, Table Tennis"},"source_url":"https://raw.githubusercontent.com/traffordDataLab/council_open_data/c2dab7924aca1c6a9684fafa0e0cf98f33a2db6b/assets/leisure_centres/trafford_leisure_centres_and_parking_polygons.geojson","final_url":"https://raw.githubusercontent.com/traffordDataLab/council_open_data/c2dab7924aca1c6a9684fafa0e0cf98f33a2db6b/assets/leisure_centres/trafford_leisure_centres_and_parking_polygons.geojson","http_status":null,"http_status_note":"GitHub connector public file read, numeric HTTP status not exposed","access_utc":"2026-10-09T06:46:36.216Z","data_date":"2026-02-26","licence":"Open Government Licence v3.0; attribution: Trafford Council, Trafford Leisure CIC, George Carnall Community Group CIC, Schools Plus","source_sha256":"02299a9f233112e1a328e19eb996eaad1e005cedb9f11e9c90ad2d08cd5b8773","source_sha256_scope":"entire official public 17-feature GeoJSON UTF-8 source content at pinned blob","evidence_slice_sha256":"fd2748053f8564e4383794ff08339274140805539ec00563f82e7f7fab058486","confidence_score_0_100":82,"evidence_grade":"B","fake_data":false,"local_spatial_join_required":true}},{"type":"Feature","id":"trafford-council-leisure:M41 7FJ:beactive-urmston","geometry":{"type":"MultiPolygon","coordinates":[[[[-2.343796,53.457826],[-2.343782,53.457638],[-2.343885,53.457638],[-2.343875,53.457519],[-2.343456,53.457538],[-2.343455,53.457551],[-2.343449,53.457555],[-2.34317,53.45757],[-2.343167,53.457551],[-2.342477,53.457585],[-2.34253,53.457932],[-2.34321,53.457896],[-2.343199,53.457851],[-2.343356,53.457847],[-2.34336,53.457877],[-2.343553,53.45787],[-2.343542,53.457832],[-2.343807,53.45783],[-2.343796,53.457826]]]]},"properties":{"slot_id":"building_type_9","lineage_id":"building_type_9-20261001T200900Z-newstart","page_generation":1,"batch_id":"20261009T064636Z_TRAFFORD_COUNCIL_LEISURE_FOOTPRINTS_6","source_entity":"trafford-council-leisure:M41 7FJ:beactive-urmston","source_reference":"BeActive Urmston|M41 7FJ","source_dataset":"Trafford Council Leisure Centres and Parking Polygons","source_organisation":"Trafford Council / Trafford Data Lab","building_evidence_status":"BUILDING_PRESENT","parcel_status":"UNPROCESSED","canonical_parcel_id":null,"building_type":"leisure_centre","building_use":"leisure_and_sport_as_of_2026_02","poi_accepted":false,"field_evidence":{"footprint":"Official Trafford Council MultiPolygon covering the named leisure centre, separately delineated from dedicated parking polygons in the same 2026 layer; receiver validates precise footprint","building_type":"Source name and indoor facilities specify leisure centre / sports barn","use":"Official council data updated 2026-02-26; named facility, documented indoor facilities and managed_by","name":"BeActive Urmston","postcode":"M41 7FJ","managed_by":"George Carnall Community Group CIC.","facilities":"From our fully-refurbished gym and personal training, to our great class timetable, accessible sports like walking netball, walking football and pickleball, and versatile spaces where you can meet up with others, we help you to achieve your health and wellbeing goals and build a happier, healthier Urmston."},"source_url":"https://raw.githubusercontent.com/traffordDataLab/council_open_data/c2dab7924aca1c6a9684fafa0e0cf98f33a2db6b/assets/leisure_centres/trafford_leisure_centres_and_parking_polygons.geojson","final_url":"https://raw.githubusercontent.com/traffordDataLab/council_open_data/c2dab7924aca1c6a9684fafa0e0cf98f33a2db6b/assets/leisure_centres/trafford_leisure_centres_and_parking_polygons.geojson","http_status":null,"http_status_note":"GitHub connector public file read, numeric HTTP status not exposed","access_utc":"2026-10-09T06:46:36.216Z","data_date":"2026-02-26","licence":"Open Government Licence v3.0; attribution: Trafford Council, Trafford Leisure CIC, George Carnall Community Group CIC, Schools Plus","source_sha256":"02299a9f233112e1a328e19eb996eaad1e005cedb9f11e9c90ad2d08cd5b8773","source_sha256_scope":"entire official public 17-feature GeoJSON UTF-8 source content at pinned blob","evidence_slice_sha256":"501dea559893fb4a918f59a8f83a9a6f8b439ba742a8f0cfe5c53c832b481f2f","confidence_score_0_100":82,"evidence_grade":"B","fake_data":false,"local_spatial_join_required":true}}]}
