{"type":"FeatureCollection","features":[{"type":"Feature","id":"ons-ogp-wd-may-2025-bgc-v2:E05009390","geometry":null,"properties":{"evidence_scope":"coverage_area","coverage_area_id":"E05009390","coverage_area_name":"Campden","identifier_scheme":"ONS_OGP_WD25CD_BINDING","exact_official_identifier":"E05009390","source_resolution":"ONS_OGP_MAY_2025_BGC_V2_GENERALISED_20M_COASTLINE_CLIPPED","time_window":"2025-05","measurement_date":"2025-05","measurement_method":"official ONS ward-boundary dataset binding","spatial_binding_method":"FEATURE_EXTRACTION_AND_PARCEL_JOIN_DEFERRED_TO_LOCAL_OPENCODE","source_url":"https://www.data.gov.uk/dataset/3c9ef269-e1a4-4e70-9de6-544b01c3fdd5/wards-may-2025-boundaries-uk-bgc-v2","final_url":"https://www.data.gov.uk/dataset/3c9ef269-e1a4-4e70-9de6-544b01c3fdd5/wards-may-2025-boundaries-uk-bgc-v2","accessed_at_utc":"2026-10-05T23:20:00Z","data_date":"2025-05","licence":"Contains Ordnance Survey and ONS Intellectual Property Rights","sha256":"2b7624df9b70cbcbffb4dd90d387dfc6f10f821407bf11ac1ec7f4a94dea6404","field_evidence":{"dataset_title":"Wards (May 2025) Boundaries UK BGC (V2)","publisher":"Office for National Statistics","updated":"2025-12-02","boundary_reference_date":"2025-05","boundary_resolution":"BGC Generalised (20m) - clipped to the coastline (Mean High Water mark)","feature_access_service":"https://services1.arcgis.com/ESMARspQHYMw9BZ9/arcgis/rest/services/WD_MAY_2025_UK_BGC_V2/FeatureServer","map_service":"https://services1.arcgis.com/ESMARspQHYMw9BZ9/arcgis/rest/services/Wards_(May_2025)_Boundaries_UK_BGC_(V2)/MapServer","wfs_service":"https://dservices1.arcgis.com/ESMARspQHYMw9BZ9/arcgis/services/Wards_(May_2025)_Boundaries_UK_BGC_(V2)/WFSServer?request=getcapabilities&service=wfs","harvest_guid":"6ba7cf950a504d82809131c945fe70f1","target_ward_code":"E05009390","target_ward_name":"Campden","target_binding_basis":"existing verified Campden ward identity; feature extraction and parcel join deferred to local OpenCode","geometry_materialized":false,"source_url":"https://www.data.gov.uk/dataset/3c9ef269-e1a4-4e70-9de6-544b01c3fdd5/wards-may-2025-boundaries-uk-bgc-v2","accessed_at_utc":"2026-10-05T23:20:00Z"},"evidence_slice_sha256":"c55482ae95266613dec539acbb34250b03b61f4c7a4cba0d79bd79c879e8ce71","confidence_score_0_100":98,"evidence_grade":"A","fake_data":false,"source_window_id":"ons_ogp_WD_MAY_2025_UK_BGC_V2_E05009390_sps5_20261006_v1","cursor":"ons_ogp_WD_MAY_2025_UK_BGC_V2_E05009390_sps5_20261006_v1:record=1"}}]}
