{"type":"FeatureCollection","features":[{"type":"Feature","geometry":null,"properties":{"slot_id":"future_growth_3","lineage_id":"future_growth_3-newstart-20261001T203100Z","page_generation":null,"accepted_as_parcel":false,"source_area_count_contribution":1,"exact_identifier":"SA1","exact_identifier_provided":true,"coverage_polygon_provided":false,"identifier_namespace":"RBKC Local Plan 2024 site-allocation policy reference","secondary_exact_identifier":"Kensal Canalside Opportunity Area","source_entity":"SA1 - Kensal Canalside Opportunity Area","access_utc":"2026-10-04T23:47:15Z","data_date":"2024-07","source_url":"https://www.rbkc.gov.uk/planning-and-building-control/large-developments-within-borough/former-kensal-gas-works-kensal-canalside-opportunity-area","final_url":"https://www.rbkc.gov.uk/planning-and-building-control/large-developments-within-borough/former-kensal-gas-works-kensal-canalside-opportunity-area","license":"Royal Borough of Kensington and Chelsea website terms: copyright and website material owned by the Council; personal-use copying permitted, while republication, transmission, reproduction, communication or making information publicly available is restricted.","authority":"Royal Borough of Kensington and Chelsea","site_address":"Kensal Canalside Opportunity Area, Royal Borough of Kensington and Chelsea","field_evidence":{"reference":"SA1","dataset":"Royal Borough of Kensington and Chelsea Local Plan 2024","organisation":"Royal Borough of Kensington and Chelsea","site_name":"Kensal Canalside Opportunity Area","plan_status":"adopted","plan_adoption_month":"2024-07","allocation_status":"allocated site under Local Plan 2024","designation":"area for growth","opportunity_area_context":"London Plan 2021 Opportunity Area"},"source_payload_sha256":"58a86c5d04309829aa5cda81b2e8970f134d2d4916d9c14849780a353c95115b","source_payload_sha256_basis":"canonicalized official RBKC Local Plan 2024 Policy SA1 evidence fields","evidence_slice_sha256":"57b8add976411b086236668a9781d20d3980efcecb68fc7c0fc310f7a23553c4","evidence_grade":"A","confidence_score_0_100":99,"evidence_scope":"exact_official_identifier_from_adopted_rbkc_local_plan_2024_site_allocation","fake_data":false,"spatial_binding_method":"official RBKC Local Plan 2024 Policy SA1 exact site-allocation identifier and Council Kensal Canalside policy context; canonical parcel spatial join and materialization delegated to local OpenCode","planned_building_count_contribution":0}}]}