{"type":"FeatureCollection","name":"building_type_9_batch_0008","features":[{"type":"Feature","id":"42186127","geometry":{"type":"MultiPolygon","coordinates":[[[[0.413285,51.192068],[0.413155,51.192047],[0.413185,51.191971],[0.413155,51.191966],[0.413164,51.191945],[0.413194,51.191949],[0.413204,51.191921],[0.413335,51.191942],[0.413285,51.192068]]]]},"properties":{"slot_id":"building_type_9","lineage_id":"building_type_9-20261001T200900Z-newstart","batch_id":"batch-0008","page_generation":1,"source_entity":42186127,"source_reference":"LB1644","source_dataset":"listed-building-outline","source_organisation":"Maidstone Borough Council","building_evidence_status":"BUILDING_PRESENT","parcel_status":"UNPROCESSED","canonical_parcel_id":null,"building_type":"listed_building","building_use":null,"poi_accepted":false,"field_evidence":{"footprint":"official listed-building-outline MULTIPOLYGON","type":"official dataset classification: listed-building-outline","name":"GREAT FOWLHALL","reference":"LB1644","use":"no use inferred"},"source_url":"https://www.planning.data.gov.uk/entity/42186127","final_url":"https://www.planning.data.gov.uk/entity/42186127","access_utc":"2026-10-02T00:52:00Z","data_date":"1987-10-14","licence":"Open Government Licence v3.0","evidence_slice_sha256":"eb06067992a41fa6b143e0eb0a3045d580109b46a2d338dd77d7c23b58ac4372","confidence_score_0_100":94,"evidence_grade":"A","fake_data":false,"local_spatial_join_required":true}},{"type":"Feature","id":"42184752","geometry":{"type":"MultiPolygon","coordinates":[[[[0.431121,51.225263],[0.431296,51.225457],[0.431235,51.225479],[0.431197,51.225437],[0.431169,51.225448],[0.431131,51.225407],[0.431159,51.225398],[0.431133,51.225369],[0.431113,51.225376],[0.431037,51.225292],[0.431121,51.225263]]]]},"properties":{"slot_id":"building_type_9","lineage_id":"building_type_9-20261001T200900Z-newstart","batch_id":"batch-0008","page_generation":1,"source_entity":42184752,"source_reference":"LB269","source_dataset":"listed-building-outline","source_organisation":"Maidstone Borough Council","building_evidence_status":"BUILDING_PRESENT","parcel_status":"UNPROCESSED","canonical_parcel_id":null,"building_type":"listed_building","building_use":"barn","poi_accepted":false,"field_evidence":{"footprint":"official listed-building-outline MULTIPOLYGON","type":"official dataset classification: listed-building-outline","name":"THE HOP BARN AND THE OLD BARN","reference":"LB269","use":"explicit official entity name: barn"},"source_url":"https://www.planning.data.gov.uk/entity/42184752","final_url":"https://www.planning.data.gov.uk/entity/42184752","access_utc":"2026-10-02T00:52:00Z","data_date":"1967-05-23","licence":"Open Government Licence v3.0","evidence_slice_sha256":"2afe531aff413dd2fc6a6ed75f8a8b463774db421cb33093d69fa74f11160bb3","confidence_score_0_100":96,"evidence_grade":"A","fake_data":false,"local_spatial_join_required":true}},{"type":"Feature","id":"42184944","geometry":{"type":"MultiPolygon","coordinates":[[[[0.522062,51.273005],[0.522003,51.273109],[0.521936,51.273192],[0.52182,51.273144],[0.521893,51.273057],[0.521961,51.272954],[0.522013,51.272967],[0.522022,51.272952],[0.522081,51.272966],[0.522062,51.273005]]]]},"properties":{"slot_id":"building_type_9","lineage_id":"building_type_9-20261001T200900Z-newstart","batch_id":"batch-0008","page_generation":1,"source_entity":42184944,"source_reference":"LB461","source_dataset":"listed-building-outline","source_organisation":"Maidstone Borough Council","building_evidence_status":"BUILDING_PRESENT","parcel_status":"UNPROCESSED","canonical_parcel_id":null,"building_type":"listed_building","building_use":null,"poi_accepted":false,"field_evidence":{"footprint":"official listed-building-outline MULTIPOLYGON","type":"official dataset classification: listed-building-outline","name":"83 AND 84, BANK STREET (See details for further address information)","reference":"LB461","use":"no use inferred"},"source_url":"https://www.planning.data.gov.uk/entity/42184944","final_url":"https://www.planning.data.gov.uk/entity/42184944","access_utc":"2026-10-02T00:52:00Z","data_date":"1951-07-30","licence":"Open Government Licence v3.0","evidence_slice_sha256":"0666711e4e64944cc51731e21fdbe8d5245b4843377c32f5a6d3748934cda620","confidence_score_0_100":94,"evidence_grade":"A","fake_data":false,"local_spatial_join_required":true}},{"type":"Feature","id":"42185327","geometry":{"type":"MultiPolygon","coordinates":[[[[0.590965,51.26546],[0.590912,51.265482],[0.590857,51.26542],[0.590802,51.26544],[0.590711,51.265343],[0.590852,51.26529],[0.590833,51.265269],[0.590889,51.265248],[0.590956,51.265319],[0.590894,51.265342],[0.590938,51.265391],[0.590965,51.265381],[0.59102,51.26544],[0.590965,51.26546]]]]},"properties":{"slot_id":"building_type_9","lineage_id":"building_type_9-20261001T200900Z-newstart","batch_id":"batch-0008","page_generation":1,"source_entity":42185327,"source_reference":"LB844","source_dataset":"listed-building-outline","source_organisation":"Maidstone Borough Council","building_evidence_status":"BUILDING_PRESENT","parcel_status":"UNPROCESSED","canonical_parcel_id":null,"building_type":"listed_building","building_use":null,"poi_accepted":false,"field_evidence":{"footprint":"official listed-building-outline MULTIPOLYGON","type":"official dataset classification: listed-building-outline","name":"NETHER MILGATE","reference":"LB844","use":"no use inferred"},"source_url":"https://www.planning.data.gov.uk/entity/42185327","final_url":"https://www.planning.data.gov.uk/entity/42185327","access_utc":"2026-10-02T00:52:00Z","data_date":"1984-07-20","licence":"Open Government Licence v3.0","evidence_slice_sha256":"08ee05ea057120e839e858e8b24cce9d33745477ff758bf01b263e89fe6ff1e3","confidence_score_0_100":94,"evidence_grade":"A","fake_data":false,"local_spatial_join_required":true}},{"type":"Feature","id":"42185736","geometry":{"type":"MultiPolygon","coordinates":[[[[0.579097,51.221852],[0.579167,51.221843],[0.579151,51.221799],[0.579186,51.221795],[0.579189,51.221805],[0.579212,51.221803],[0.579207,51.221792],[0.579254,51.221785],[0.579257,51.221796],[0.579276,51.221794],[0.579293,51.221842],[0.579318,51.221839],[0.579327,51.221864],[0.579301,51.221869],[0.57931,51.22189],[0.579203,51.221905],[0.579198,51.221887],[0.579174,51.22189],[0.579187,51.221931],[0.579128,51.22194],[0.579097,51.221852]]]]},"properties":{"slot_id":"building_type_9","lineage_id":"building_type_9-20261001T200900Z-newstart","batch_id":"batch-0008","page_generation":1,"source_entity":42185736,"source_reference":"LB1253","source_dataset":"listed-building-outline","source_organisation":"Maidstone Borough Council","building_evidence_status":"BUILDING_PRESENT","parcel_status":"UNPROCESSED","canonical_parcel_id":null,"building_type":"listed_building","building_use":null,"poi_accepted":false,"field_evidence":{"footprint":"official listed-building-outline MULTIPOLYGON","type":"official dataset classification: listed-building-outline","name":"NORTON COURT","reference":"LB1253","use":"no use inferred"},"source_url":"https://www.planning.data.gov.uk/entity/42185736","final_url":"https://www.planning.data.gov.uk/entity/42185736","access_utc":"2026-10-02T00:52:00Z","data_date":"1985-12-18","licence":"Open Government Licence v3.0","evidence_slice_sha256":"4fb7a1d9a4f6067f57a88d95365966a53a044ccf05a352a5d8cafc28ef57f2ad","confidence_score_0_100":94,"evidence_grade":"A","fake_data":false,"local_spatial_join_required":true}},{"type":"Feature","id":"42185268","geometry":{"type":"MultiPolygon","coordinates":[[[[0.624786,51.261425],[0.624844,51.261367],[0.625133,51.26148],[0.625144,51.261495],[0.625092,51.261545],[0.624786,51.261425]]]]},"properties":{"slot_id":"building_type_9","lineage_id":"building_type_9-20261001T200900Z-newstart","batch_id":"batch-0008","page_generation":1,"source_entity":42185268,"source_reference":"LB785","source_dataset":"listed-building-outline","source_organisation":"Maidstone Borough Council","building_evidence_status":"BUILDING_PRESENT","parcel_status":"UNPROCESSED","canonical_parcel_id":null,"building_type":"listed_building","building_use":null,"poi_accepted":false,"field_evidence":{"footprint":"official listed-building-outline MULTIPOLYGON","type":"official dataset classification: listed-building-outline","name":"6-16, EYHORNE STREET","reference":"LB785","use":"no use inferred"},"source_url":"https://www.planning.data.gov.uk/entity/42185268","final_url":"https://www.planning.data.gov.uk/entity/42185268","access_utc":"2026-10-02T00:52:00Z","data_date":"1986-11-21","licence":"Open Government Licence v3.0","evidence_slice_sha256":"0d7b3e93684a991f3089e73f29f620556702eeca5c4c3b510ca7763a189200c2","confidence_score_0_100":94,"evidence_grade":"A","fake_data":false,"local_spatial_join_required":true}},{"type":"Feature","id":"42185646","geometry":{"type":"MultiPolygon","coordinates":[[[[0.592198,51.223257],[0.592209,51.22326],[0.592215,51.223264],[0.592225,51.223275],[0.592224,51.223285],[0.59222,51.223291],[0.59221,51.223298],[0.592197,51.223302],[0.592185,51.223303],[0.592165,51.223298],[0.592159,51.223294],[0.592151,51.223285],[0.592151,51.223276],[0.592128,51.223289],[0.592109,51.22329],[0.592091,51.223286],[0.592083,51.223281],[0.592078,51.223276],[0.592075,51.22327],[0.592077,51.223257],[0.592082,51.223251],[0.592103,51.223242],[0.592118,51.223241],[0.592172,51.223133],[0.592255,51.223151],[0.592198,51.223257]]]]},"properties":{"slot_id":"building_type_9","lineage_id":"building_type_9-20261001T200900Z-newstart","batch_id":"batch-0008","page_generation":1,"source_entity":42185646,"source_reference":"LB1163","source_dataset":"listed-building-outline","source_organisation":"Maidstone Borough Council","building_evidence_status":"BUILDING_PRESENT","parcel_status":"UNPROCESSED","canonical_parcel_id":null,"building_type":"listed_building","building_use":"oast_house","poi_accepted":false,"field_evidence":{"footprint":"official listed-building-outline MULTIPOLYGON","type":"official dataset classification: listed-building-outline","name":"OAST HOUSE ABOUT 40 METRES NORTH OF WARMLAKE FARMHOUSE","reference":"LB1163","use":"explicit official entity name: oast_house"},"source_url":"https://www.planning.data.gov.uk/entity/42185646","final_url":"https://www.planning.data.gov.uk/entity/42185646","access_utc":"2026-10-02T00:52:00Z","data_date":"1982-04-05","licence":"Open Government Licence v3.0","evidence_slice_sha256":"f79d6616839cc78556d3884a41b99cbf21eec4fd5dccfe9610366dba522ae433","confidence_score_0_100":96,"evidence_grade":"A","fake_data":false,"local_spatial_join_required":true}},{"type":"Feature","id":"42186355","geometry":{"type":"MultiPolygon","coordinates":[[[[0.641848,51.154349],[0.641662,51.154369],[0.641646,51.154306],[0.641748,51.154294],[0.641741,51.154267],[0.641871,51.154254],[0.641891,51.154324],[0.641843,51.15433],[0.641848,51.154349]]]]},"properties":{"slot_id":"building_type_9","lineage_id":"building_type_9-20261001T200900Z-newstart","batch_id":"batch-0008","page_generation":1,"source_entity":42186355,"source_reference":"LB1872","source_dataset":"listed-building-outline","source_organisation":"Maidstone Borough Council","building_evidence_status":"BUILDING_PRESENT","parcel_status":"UNPROCESSED","canonical_parcel_id":null,"building_type":"listed_building","building_use":null,"poi_accepted":false,"field_evidence":{"footprint":"official listed-building-outline MULTIPOLYGON","type":"official dataset classification: listed-building-outline","name":"SHENLEY HOUSE","reference":"LB1872","use":"no use inferred"},"source_url":"https://www.planning.data.gov.uk/entity/42186355","final_url":"https://www.planning.data.gov.uk/entity/42186355","access_utc":"2026-10-02T00:52:00Z","data_date":"1968-04-26","licence":"Open Government Licence v3.0","evidence_slice_sha256":"1cd923937ea8c7df410fdce8327d60f3f0ff977358437e1b799e1991fc50838f","confidence_score_0_100":94,"evidence_grade":"A","fake_data":false,"local_spatial_join_required":true}}]}