{"type":"FeatureCollection","features":[{"type":"Feature","geometry":null,"properties":{"source_row":1,"uprn":"44010201","struprn":"str44010201","bduk_recognised_premises":true,"country":"England","postcode":"ME1 3HX","lot_id":29,"lot_name":"Kent","subsidy_control_status":"Gigabit Grey/Black","current_gigabit":true,"future_gigabit":false,"local_authority_district_ons_code":"E06000035","local_authority_district_ons":"Medway","region_ons_code":"E12000008","region_ons":"South East","official_identifier_type":"UPRN","data_date":"2026-05","publication_date":"2026-09-17","source_url":"https://www.gov.uk/government/publications/may-2026-omr-and-premises-in-bduk-plans-england-and-wales","final_url":"https://www.gov.uk/csv-preview/6aa9520b086ce7c57b8184e5/202605_BDUK_uprn_release_sample.csv","raw_download_url":"https://assets.publishing.service.gov.uk/media/6aa9520b086ce7c57b8184e5/202605_BDUK_uprn_release_sample.csv","accessed_at_utc":"2026-09-30T18:57:00Z","licence":"Open Government Licence v3.0","file_sha256":"59ed345073504d4434f9b2863aa0ca79d5858282200e44915e411fed4ffe61e1","file_sha256_scope":"normalized_exact_50_row_evidence_slice_from_official_govuk_preview","upstream_raw_csv_sha256":null,"upstream_raw_csv_sha256_status":"BINARY_BYTES_NOT_RETRIEVABLE_IN_RUNTIME","field_evidence":{"uprn":"Official GOV.UK CSV preview column 'uprn'; BDUK technical note defines UPRN as a unique identifier for every spatial address in Great Britain.","current_gigabit":"Official GOV.UK CSV preview column 'current_gigabit'; BDUK technical note describes current gigabit connectivity.","future_gigabit":"Official GOV.UK CSV preview column 'future_gigabit'; BDUK technical note describes future plans for a gigabit connection.","local_authority_district_ons_code":"Official CSV preview field."},"evidence_slice_sha256":"59ed345073504d4434f9b2863aa0ca79d5858282200e44915e411fed4ffe61e1","confidence_score_0_100":96,"evidence_grade":"A","fake_data":false,"canonical_status":"UNPROCESSED_LOCAL_OPENCODE_JOIN_REQUIRED"}},{"type":"Feature","geometry":null,"properties":{"source_row":2,"uprn":"44078721","struprn":"str44078721","bduk_recognised_premises":true,"country":"England","postcode":"ME7 1SR","lot_id":29,"lot_name":"Kent","subsidy_control_status":"Gigabit Grey/Black","current_gigabit":true,"future_gigabit":false,"local_authority_district_ons_code":"E06000035","local_authority_district_ons":"Medway","region_ons_code":"E12000008","region_ons":"South East","official_identifier_type":"UPRN","data_date":"2026-05","publication_date":"2026-09-17","source_url":"https://www.gov.uk/government/publications/may-2026-omr-and-premises-in-bduk-plans-england-and-wales","final_url":"https://www.gov.uk/csv-preview/6aa9520b086ce7c57b8184e5/202605_BDUK_uprn_release_sample.csv","raw_download_url":"https://assets.publishing.service.gov.uk/media/6aa9520b086ce7c57b8184e5/202605_BDUK_uprn_release_sample.csv","accessed_at_utc":"2026-09-30T18:57:00Z","licence":"Open Government Licence v3.0","file_sha256":"59ed345073504d4434f9b2863aa0ca79d5858282200e44915e411fed4ffe61e1","file_sha256_scope":"normalized_exact_50_row_evidence_slice_from_official_govuk_preview","upstream_raw_csv_sha256":null,"upstream_raw_csv_sha256_status":"BINARY_BYTES_NOT_RETRIEVABLE_IN_RUNTIME","field_evidence":{"uprn":"Official GOV.UK CSV preview column 'uprn'; BDUK technical note defines UPRN as a unique identifier for every spatial address in Great Britain.","current_gigabit":"Official GOV.UK CSV preview column 'current_gigabit'; BDUK technical note describes current gigabit connectivity.","future_gigabit":"Official GOV.UK CSV preview column 'future_gigabit'; BDUK technical note describes future plans for a gigabit connection.","local_authority_district_ons_code":"Official CSV preview field."},"evidence_slice_sha256":"59ed345073504d4434f9b2863aa0ca79d5858282200e44915e411fed4ffe61e1","confidence_score_0_100":96,"evidence_grade":"A","fake_data":false,"canonical_status":"UNPROCESSED_LOCAL_OPENCODE_JOIN_REQUIRED"}},{"type":"Feature","geometry":null,"properties":{"source_row":3,"uprn":"44067584","struprn":"str44067584","bduk_recognised_premises":true,"country":"England","postcode":"ME7 1DW","lot_id":29,"lot_name":"Kent","subsidy_control_status":"Gigabit Grey/Black","current_gigabit":true,"future_gigabit":false,"local_authority_district_ons_code":"E06000035","local_authority_district_ons":"Medway","region_ons_code":"E12000008","region_ons":"South East","official_identifier_type":"UPRN","data_date":"2026-05","publication_date":"2026-09-17","source_url":"https://www.gov.uk/government/publications/may-2026-omr-and-premises-in-bduk-plans-england-and-wales","final_url":"https://www.gov.uk/csv-preview/6aa9520b086ce7c57b8184e5/202605_BDUK_uprn_release_sample.csv","raw_download_url":"https://assets.publishing.service.gov.uk/media/6aa9520b086ce7c57b8184e5/202605_BDUK_uprn_release_sample.csv","accessed_at_utc":"2026-09-30T18:57:00Z","licence":"Open Government Licence v3.0","file_sha256":"59ed345073504d4434f9b2863aa0ca79d5858282200e44915e411fed4ffe61e1","file_sha256_scope":"normalized_exact_50_row_evidence_slice_from_official_govuk_preview","upstream_raw_csv_sha256":null,"upstream_raw_csv_sha256_status":"BINARY_BYTES_NOT_RETRIEVABLE_IN_RUNTIME","field_evidence":{"uprn":"Official GOV.UK CSV preview column 'uprn'; BDUK technical note defines UPRN as a unique identifier for every spatial address in Great Britain.","current_gigabit":"Official GOV.UK CSV preview column 'current_gigabit'; BDUK technical note describes current gigabit connectivity.","future_gigabit":"Official GOV.UK CSV preview column 'future_gigabit'; BDUK technical note describes future plans for a gigabit connection.","local_authority_district_ons_code":"Official CSV preview field."},"evidence_slice_sha256":"59ed345073504d4434f9b2863aa0ca79d5858282200e44915e411fed4ffe61e1","confidence_score_0_100":96,"evidence_grade":"A","fake_data":false,"canonical_status":"UNPROCESSED_LOCAL_OPENCODE_JOIN_REQUIRED"}},{"type":"Feature","geometry":null,"properties":{"source_row":4,"uprn":"44060150","struprn":"str44060150","bduk_recognised_premises":true,"country":"England","postcode":"ME5 0AP","lot_id":29,"lot_name":"Kent","subsidy_control_status":"Gigabit Grey/Black","current_gigabit":true,"future_gigabit":true,"local_authority_district_ons_code":"E06000035","local_authority_district_ons":"Medway","region_ons_code":"E12000008","region_ons":"South East","official_identifier_type":"UPRN","data_date":"2026-05","publication_date":"2026-09-17","source_url":"https://www.gov.uk/government/publications/may-2026-omr-and-premises-in-bduk-plans-england-and-wales","final_url":"https://www.gov.uk/csv-preview/6aa9520b086ce7c57b8184e5/202605_BDUK_uprn_release_sample.csv","raw_download_url":"https://assets.publishing.service.gov.uk/media/6aa9520b086ce7c57b8184e5/202605_BDUK_uprn_release_sample.csv","accessed_at_utc":"2026-09-30T18:57:00Z","licence":"Open Government Licence v3.0","file_sha256":"59ed345073504d4434f9b2863aa0ca79d5858282200e44915e411fed4ffe61e1","file_sha256_scope":"normalized_exact_50_row_evidence_slice_from_official_govuk_preview","upstream_raw_csv_sha256":null,"upstream_raw_csv_sha256_status":"BINARY_BYTES_NOT_RETRIEVABLE_IN_RUNTIME","field_evidence":{"uprn":"Official GOV.UK CSV preview column 'uprn'; BDUK technical note defines UPRN as a unique identifier for every spatial address in Great Britain.","current_gigabit":"Official GOV.UK CSV preview column 'current_gigabit'; BDUK technical note describes current gigabit connectivity.","future_gigabit":"Official GOV.UK CSV preview column 'future_gigabit'; BDUK technical note describes future plans for a gigabit connection.","local_authority_district_ons_code":"Official CSV preview field."},"evidence_slice_sha256":"59ed345073504d4434f9b2863aa0ca79d5858282200e44915e411fed4ffe61e1","confidence_score_0_100":96,"evidence_grade":"A","fake_data":false,"canonical_status":"UNPROCESSED_LOCAL_OPENCODE_JOIN_REQUIRED"}},{"type":"Feature","geometry":null,"properties":{"source_row":5,"uprn":"44058011","struprn":"str44058011","bduk_recognised_premises":true,"country":"England","postcode":"ME5 8UH","lot_id":29,"lot_name":"Kent","subsidy_control_status":"Gigabit Grey/Black","current_gigabit":true,"future_gigabit":false,"local_authority_district_ons_code":"E06000035","local_authority_district_ons":"Medway","region_ons_code":"E12000008","region_ons":"South East","official_identifier_type":"UPRN","data_date":"2026-05","publication_date":"2026-09-17","source_url":"https://www.gov.uk/government/publications/may-2026-omr-and-premises-in-bduk-plans-england-and-wales","final_url":"https://www.gov.uk/csv-preview/6aa9520b086ce7c57b8184e5/202605_BDUK_uprn_release_sample.csv","raw_download_url":"https://assets.publishing.service.gov.uk/media/6aa9520b086ce7c57b8184e5/202605_BDUK_uprn_release_sample.csv","accessed_at_utc":"2026-09-30T18:57:00Z","licence":"Open Government Licence v3.0","file_sha256":"59ed345073504d4434f9b2863aa0ca79d5858282200e44915e411fed4ffe61e1","file_sha256_scope":"normalized_exact_50_row_evidence_slice_from_official_govuk_preview","upstream_raw_csv_sha256":null,"upstream_raw_csv_sha256_status":"BINARY_BYTES_NOT_RETRIEVABLE_IN_RUNTIME","field_evidence":{"uprn":"Official GOV.UK CSV preview column 'uprn'; BDUK technical note defines UPRN as a unique identifier for every spatial address in Great Britain.","current_gigabit":"Official GOV.UK CSV preview column 'current_gigabit'; BDUK technical note describes current gigabit connectivity.","future_gigabit":"Official GOV.UK CSV preview column 'future_gigabit'; BDUK technical note describes future plans for a gigabit connection.","local_authority_district_ons_code":"Official CSV preview field."},"evidence_slice_sha256":"59ed345073504d4434f9b2863aa0ca79d5858282200e44915e411fed4ffe61e1","confidence_score_0_100":96,"evidence_grade":"A","fake_data":false,"canonical_status":"UNPROCESSED_LOCAL_OPENCODE_JOIN_REQUIRED"}},{"type":"Feature","geometry":null,"properties":{"source_row":6,"uprn":"44083451","struprn":"str44083451","bduk_recognised_premises":true,"country":"England","postcode":"ME3 8TW","lot_id":29,"lot_name":"Kent","subsidy_control_status":"Gigabit Grey/Black","current_gigabit":true,"future_gigabit":false,"local_authority_district_ons_code":"E06000035","local_authority_district_ons":"Medway","region_ons_code":"E12000008","region_ons":"South East","official_identifier_type":"UPRN","data_date":"2026-05","publication_date":"2026-09-17","source_url":"https://www.gov.uk/government/publications/may-2026-omr-and-premises-in-bduk-plans-england-and-wales","final_url":"https://www.gov.uk/csv-preview/6aa9520b086ce7c57b8184e5/202605_BDUK_uprn_release_sample.csv","raw_download_url":"https://assets.publishing.service.gov.uk/media/6aa9520b086ce7c57b8184e5/202605_BDUK_uprn_release_sample.csv","accessed_at_utc":"2026-09-30T18:57:00Z","licence":"Open Government Licence v3.0","file_sha256":"59ed345073504d4434f9b2863aa0ca79d5858282200e44915e411fed4ffe61e1","file_sha256_scope":"normalized_exact_50_row_evidence_slice_from_official_govuk_preview","upstream_raw_csv_sha256":null,"upstream_raw_csv_sha256_status":"BINARY_BYTES_NOT_RETRIEVABLE_IN_RUNTIME","field_evidence":{"uprn":"Official GOV.UK CSV preview column 'uprn'; BDUK technical note defines UPRN as a unique identifier for every spatial address in Great Britain.","current_gigabit":"Official GOV.UK CSV preview column 'current_gigabit'; BDUK technical note describes current gigabit connectivity.","future_gigabit":"Official GOV.UK CSV preview column 'future_gigabit'; BDUK technical note describes future plans for a gigabit connection.","local_authority_district_ons_code":"Official CSV preview field."},"evidence_slice_sha256":"59ed345073504d4434f9b2863aa0ca79d5858282200e44915e411fed4ffe61e1","confidence_score_0_100":96,"evidence_grade":"A","fake_data":false,"canonical_status":"UNPROCESSED_LOCAL_OPENCODE_JOIN_REQUIRED"}},{"type":"Feature","geometry":null,"properties":{"source_row":7,"uprn":"44031150","struprn":"str44031150","bduk_recognised_premises":true,"country":"England","postcode":"ME5 0QE","lot_id":29,"lot_name":"Kent","subsidy_control_status":"Gigabit Grey/Black","current_gigabit":true,"future_gigabit":false,"local_authority_district_ons_code":"E06000035","local_authority_district_ons":"Medway","region_ons_code":"E12000008","region_ons":"South East","official_identifier_type":"UPRN","data_date":"2026-05","publication_date":"2026-09-17","source_url":"https://www.gov.uk/government/publications/may-2026-omr-and-premises-in-bduk-plans-england-and-wales","final_url":"https://www.gov.uk/csv-preview/6aa9520b086ce7c57b8184e5/202605_BDUK_uprn_release_sample.csv","raw_download_url":"https://assets.publishing.service.gov.uk/media/6aa9520b086ce7c57b8184e5/202605_BDUK_uprn_release_sample.csv","accessed_at_utc":"2026-09-30T18:57:00Z","licence":"Open Government Licence v3.0","file_sha256":"59ed345073504d4434f9b2863aa0ca79d5858282200e44915e411fed4ffe61e1","file_sha256_scope":"normalized_exact_50_row_evidence_slice_from_official_govuk_preview","upstream_raw_csv_sha256":null,"upstream_raw_csv_sha256_status":"BINARY_BYTES_NOT_RETRIEVABLE_IN_RUNTIME","field_evidence":{"uprn":"Official GOV.UK CSV preview column 'uprn'; BDUK technical note defines UPRN as a unique identifier for every spatial address in Great Britain.","current_gigabit":"Official GOV.UK CSV preview column 'current_gigabit'; BDUK technical note describes current gigabit connectivity.","future_gigabit":"Official GOV.UK CSV preview column 'future_gigabit'; BDUK technical note describes future plans for a gigabit connection.","local_authority_district_ons_code":"Official CSV preview field."},"evidence_slice_sha256":"59ed345073504d4434f9b2863aa0ca79d5858282200e44915e411fed4ffe61e1","confidence_score_0_100":96,"evidence_grade":"A","fake_data":false,"canonical_status":"UNPROCESSED_LOCAL_OPENCODE_JOIN_REQUIRED"}},{"type":"Feature","geometry":null,"properties":{"source_row":8,"uprn":"100061263459","struprn":"str100061263459","bduk_recognised_premises":true,"country":"England","postcode":"ME8 0DT","lot_id":29,"lot_name":"Kent","subsidy_control_status":"Gigabit Grey/Black","current_gigabit":true,"future_gigabit":false,"local_authority_district_ons_code":"E06000035","local_authority_district_ons":"Medway","region_ons_code":"E12000008","region_ons":"South East","official_identifier_type":"UPRN","data_date":"2026-05","publication_date":"2026-09-17","source_url":"https://www.gov.uk/government/publications/may-2026-omr-and-premises-in-bduk-plans-england-and-wales","final_url":"https://www.gov.uk/csv-preview/6aa9520b086ce7c57b8184e5/202605_BDUK_uprn_release_sample.csv","raw_download_url":"https://assets.publishing.service.gov.uk/media/6aa9520b086ce7c57b8184e5/202605_BDUK_uprn_release_sample.csv","accessed_at_utc":"2026-09-30T18:57:00Z","licence":"Open Government Licence v3.0","file_sha256":"59ed345073504d4434f9b2863aa0ca79d5858282200e44915e411fed4ffe61e1","file_sha256_scope":"normalized_exact_50_row_evidence_slice_from_official_govuk_preview","upstream_raw_csv_sha256":null,"upstream_raw_csv_sha256_status":"BINARY_BYTES_NOT_RETRIEVABLE_IN_RUNTIME","field_evidence":{"uprn":"Official GOV.UK CSV preview column 'uprn'; BDUK technical note defines UPRN as a unique identifier for every spatial address in Great Britain.","current_gigabit":"Official GOV.UK CSV preview column 'current_gigabit'; BDUK technical note describes current gigabit connectivity.","future_gigabit":"Official GOV.UK CSV preview column 'future_gigabit'; BDUK technical note describes future plans for a gigabit connection.","local_authority_district_ons_code":"Official CSV preview field."},"evidence_slice_sha256":"59ed345073504d4434f9b2863aa0ca79d5858282200e44915e411fed4ffe61e1","confidence_score_0_100":96,"evidence_grade":"A","fake_data":false,"canonical_status":"UNPROCESSED_LOCAL_OPENCODE_JOIN_REQUIRED"}},{"type":"Feature","geometry":null,"properties":{"source_row":9,"uprn":"44085580","struprn":"str44085580","bduk_recognised_premises":true,"country":"England","postcode":"ME8 0QD","lot_id":29,"lot_name":"Kent","subsidy_control_status":"Gigabit Grey/Black","current_gigabit":true,"future_gigabit":false,"local_authority_district_ons_code":"E06000035","local_authority_district_ons":"Medway","region_ons_code":"E12000008","region_ons":"South East","official_identifier_type":"UPRN","data_date":"2026-05","publication_date":"2026-09-17","source_url":"https://www.gov.uk/government/publications/may-2026-omr-and-premises-in-bduk-plans-england-and-wales","final_url":"https://www.gov.uk/csv-preview/6aa9520b086ce7c57b8184e5/202605_BDUK_uprn_release_sample.csv","raw_download_url":"https://assets.publishing.service.gov.uk/media/6aa9520b086ce7c57b8184e5/202605_BDUK_uprn_release_sample.csv","accessed_at_utc":"2026-09-30T18:57:00Z","licence":"Open Government Licence v3.0","file_sha256":"59ed345073504d4434f9b2863aa0ca79d5858282200e44915e411fed4ffe61e1","file_sha256_scope":"normalized_exact_50_row_evidence_slice_from_official_govuk_preview","upstream_raw_csv_sha256":null,"upstream_raw_csv_sha256_status":"BINARY_BYTES_NOT_RETRIEVABLE_IN_RUNTIME","field_evidence":{"uprn":"Official GOV.UK CSV preview column 'uprn'; BDUK technical note defines UPRN as a unique identifier for every spatial address in Great Britain.","current_gigabit":"Official GOV.UK CSV preview column 'current_gigabit'; BDUK technical note describes current gigabit connectivity.","future_gigabit":"Official GOV.UK CSV preview column 'future_gigabit'; BDUK technical note describes future plans for a gigabit connection.","local_authority_district_ons_code":"Official CSV preview field."},"evidence_slice_sha256":"59ed345073504d4434f9b2863aa0ca79d5858282200e44915e411fed4ffe61e1","confidence_score_0_100":96,"evidence_grade":"A","fake_data":false,"canonical_status":"UNPROCESSED_LOCAL_OPENCODE_JOIN_REQUIRED"}},{"type":"Feature","geometry":null,"properties":{"source_row":10,"uprn":"100061256684","struprn":"str100061256684","bduk_recognised_premises":true,"country":"England","postcode":"ME8 9TG","lot_id":29,"lot_name":"Kent","subsidy_control_status":"Gigabit Grey/Black","current_gigabit":true,"future_gigabit":false,"local_authority_district_ons_code":"E06000035","local_authority_district_ons":"Medway","region_ons_code":"E12000008","region_ons":"South East","official_identifier_type":"UPRN","data_date":"2026-05","publication_date":"2026-09-17","source_url":"https://www.gov.uk/government/publications/may-2026-omr-and-premises-in-bduk-plans-england-and-wales","final_url":"https://www.gov.uk/csv-preview/6aa9520b086ce7c57b8184e5/202605_BDUK_uprn_release_sample.csv","raw_download_url":"https://assets.publishing.service.gov.uk/media/6aa9520b086ce7c57b8184e5/202605_BDUK_uprn_release_sample.csv","accessed_at_utc":"2026-09-30T18:57:00Z","licence":"Open Government Licence v3.0","file_sha256":"59ed345073504d4434f9b2863aa0ca79d5858282200e44915e411fed4ffe61e1","file_sha256_scope":"normalized_exact_50_row_evidence_slice_from_official_govuk_preview","upstream_raw_csv_sha256":null,"upstream_raw_csv_sha256_status":"BINARY_BYTES_NOT_RETRIEVABLE_IN_RUNTIME","field_evidence":{"uprn":"Official GOV.UK CSV preview column 'uprn'; BDUK technical note defines UPRN as a unique identifier for every spatial address in Great Britain.","current_gigabit":"Official GOV.UK CSV preview column 'current_gigabit'; BDUK technical note describes current gigabit connectivity.","future_gigabit":"Official GOV.UK CSV preview column 'future_gigabit'; BDUK technical note describes future plans for a gigabit connection.","local_authority_district_ons_code":"Official CSV preview field."},"evidence_slice_sha256":"59ed345073504d4434f9b2863aa0ca79d5858282200e44915e411fed4ffe61e1","confidence_score_0_100":96,"evidence_grade":"A","fake_data":false,"canonical_status":"UNPROCESSED_LOCAL_OPENCODE_JOIN_REQUIRED"}},{"type":"Feature","geometry":null,"properties":{"source_row":11,"uprn":"100061299783","struprn":"str100061299783","bduk_recognised_premises":true,"country":"England","postcode":"ME2 3TJ","lot_id":29,"lot_name":"Kent","subsidy_control_status":"Gigabit Grey/Black","current_gigabit":true,"future_gigabit":false,"local_authority_district_ons_code":"E06000035","local_authority_district_ons":"Medway","region_ons_code":"E12000008","region_ons":"South East","official_identifier_type":"UPRN","data_date":"2026-05","publication_date":"2026-09-17","source_url":"https://www.gov.uk/government/publications/may-2026-omr-and-premises-in-bduk-plans-england-and-wales","final_url":"https://www.gov.uk/csv-preview/6aa9520b086ce7c57b8184e5/202605_BDUK_uprn_release_sample.csv","raw_download_url":"https://assets.publishing.service.gov.uk/media/6aa9520b086ce7c57b8184e5/202605_BDUK_uprn_release_sample.csv","accessed_at_utc":"2026-09-30T18:57:00Z","licence":"Open Government Licence v3.0","file_sha256":"59ed345073504d4434f9b2863aa0ca79d5858282200e44915e411fed4ffe61e1","file_sha256_scope":"normalized_exact_50_row_evidence_slice_from_official_govuk_preview","upstream_raw_csv_sha256":null,"upstream_raw_csv_sha256_status":"BINARY_BYTES_NOT_RETRIEVABLE_IN_RUNTIME","field_evidence":{"uprn":"Official GOV.UK CSV preview column 'uprn'; BDUK technical note defines UPRN as a unique identifier for every spatial address in Great Britain.","current_gigabit":"Official GOV.UK CSV preview column 'current_gigabit'; BDUK technical note describes current gigabit connectivity.","future_gigabit":"Official GOV.UK CSV preview column 'future_gigabit'; BDUK technical note describes future plans for a gigabit connection.","local_authority_district_ons_code":"Official CSV preview field."},"evidence_slice_sha256":"59ed345073504d4434f9b2863aa0ca79d5858282200e44915e411fed4ffe61e1","confidence_score_0_100":96,"evidence_grade":"A","fake_data":false,"canonical_status":"UNPROCESSED_LOCAL_OPENCODE_JOIN_REQUIRED"}},{"type":"Feature","geometry":null,"properties":{"source_row":12,"uprn":"100061283741","struprn":"str100061283741","bduk_recognised_premises":true,"country":"England","postcode":"ME2 3PX","lot_id":29,"lot_name":"Kent","subsidy_control_status":"Gigabit Grey/Black","current_gigabit":true,"future_gigabit":false,"local_authority_district_ons_code":"E06000035","local_authority_district_ons":"Medway","region_ons_code":"E12000008","region_ons":"South East","official_identifier_type":"UPRN","data_date":"2026-05","publication_date":"2026-09-17","source_url":"https://www.gov.uk/government/publications/may-2026-omr-and-premises-in-bduk-plans-england-and-wales","final_url":"https://www.gov.uk/csv-preview/6aa9520b086ce7c57b8184e5/202605_BDUK_uprn_release_sample.csv","raw_download_url":"https://assets.publishing.service.gov.uk/media/6aa9520b086ce7c57b8184e5/202605_BDUK_uprn_release_sample.csv","accessed_at_utc":"2026-09-30T18:57:00Z","licence":"Open Government Licence v3.0","file_sha256":"59ed345073504d4434f9b2863aa0ca79d5858282200e44915e411fed4ffe61e1","file_sha256_scope":"normalized_exact_50_row_evidence_slice_from_official_govuk_preview","upstream_raw_csv_sha256":null,"upstream_raw_csv_sha256_status":"BINARY_BYTES_NOT_RETRIEVABLE_IN_RUNTIME","field_evidence":{"uprn":"Official GOV.UK CSV preview column 'uprn'; BDUK technical note defines UPRN as a unique identifier for every spatial address in Great Britain.","current_gigabit":"Official GOV.UK CSV preview column 'current_gigabit'; BDUK technical note describes current gigabit connectivity.","future_gigabit":"Official GOV.UK CSV preview column 'future_gigabit'; BDUK technical note describes future plans for a gigabit connection.","local_authority_district_ons_code":"Official CSV preview field."},"evidence_slice_sha256":"59ed345073504d4434f9b2863aa0ca79d5858282200e44915e411fed4ffe61e1","confidence_score_0_100":96,"evidence_grade":"A","fake_data":false,"canonical_status":"UNPROCESSED_LOCAL_OPENCODE_JOIN_REQUIRED"}},{"type":"Feature","geometry":null,"properties":{"source_row":13,"uprn":"44100793","struprn":"str44100793","bduk_recognised_premises":true,"country":"England","postcode":"ME8 8JT","lot_id":29,"lot_name":"Kent","subsidy_control_status":"Gigabit Grey/Black","current_gigabit":true,"future_gigabit":false,"local_authority_district_ons_code":"E06000035","local_authority_district_ons":"Medway","region_ons_code":"E12000008","region_ons":"South East","official_identifier_type":"UPRN","data_date":"2026-05","publication_date":"2026-09-17","source_url":"https://www.gov.uk/government/publications/may-2026-omr-and-premises-in-bduk-plans-england-and-wales","final_url":"https://www.gov.uk/csv-preview/6aa9520b086ce7c57b8184e5/202605_BDUK_uprn_release_sample.csv","raw_download_url":"https://assets.publishing.service.gov.uk/media/6aa9520b086ce7c57b8184e5/202605_BDUK_uprn_release_sample.csv","accessed_at_utc":"2026-09-30T18:57:00Z","licence":"Open Government Licence v3.0","file_sha256":"59ed345073504d4434f9b2863aa0ca79d5858282200e44915e411fed4ffe61e1","file_sha256_scope":"normalized_exact_50_row_evidence_slice_from_official_govuk_preview","upstream_raw_csv_sha256":null,"upstream_raw_csv_sha256_status":"BINARY_BYTES_NOT_RETRIEVABLE_IN_RUNTIME","field_evidence":{"uprn":"Official GOV.UK CSV preview column 'uprn'; BDUK technical note defines UPRN as a unique identifier for every spatial address in Great Britain.","current_gigabit":"Official GOV.UK CSV preview column 'current_gigabit'; BDUK technical note describes current gigabit connectivity.","future_gigabit":"Official GOV.UK CSV preview column 'future_gigabit'; BDUK technical note describes future plans for a gigabit connection.","local_authority_district_ons_code":"Official CSV preview field."},"evidence_slice_sha256":"59ed345073504d4434f9b2863aa0ca79d5858282200e44915e411fed4ffe61e1","confidence_score_0_100":96,"evidence_grade":"A","fake_data":false,"canonical_status":"UNPROCESSED_LOCAL_OPENCODE_JOIN_REQUIRED"}},{"type":"Feature","geometry":null,"properties":{"source_row":14,"uprn":"44079997","struprn":"str44079997","bduk_recognised_premises":true,"country":"England","postcode":"ME7 2PH","lot_id":29,"lot_name":"Kent","subsidy_control_status":"Gigabit Grey/Black","current_gigabit":true,"future_gigabit":false,"local_authority_district_ons_code":"E06000035","local_authority_district_ons":"Medway","region_ons_code":"E12000008","region_ons":"South East","official_identifier_type":"UPRN","data_date":"2026-05","publication_date":"2026-09-17","source_url":"https://www.gov.uk/government/publications/may-2026-omr-and-premises-in-bduk-plans-england-and-wales","final_url":"https://www.gov.uk/csv-preview/6aa9520b086ce7c57b8184e5/202605_BDUK_uprn_release_sample.csv","raw_download_url":"https://assets.publishing.service.gov.uk/media/6aa9520b086ce7c57b8184e5/202605_BDUK_uprn_release_sample.csv","accessed_at_utc":"2026-09-30T18:57:00Z","licence":"Open Government Licence v3.0","file_sha256":"59ed345073504d4434f9b2863aa0ca79d5858282200e44915e411fed4ffe61e1","file_sha256_scope":"normalized_exact_50_row_evidence_slice_from_official_govuk_preview","upstream_raw_csv_sha256":null,"upstream_raw_csv_sha256_status":"BINARY_BYTES_NOT_RETRIEVABLE_IN_RUNTIME","field_evidence":{"uprn":"Official GOV.UK CSV preview column 'uprn'; BDUK technical note defines UPRN as a unique identifier for every spatial address in Great Britain.","current_gigabit":"Official GOV.UK CSV preview column 'current_gigabit'; BDUK technical note describes current gigabit connectivity.","future_gigabit":"Official GOV.UK CSV preview column 'future_gigabit'; BDUK technical note describes future plans for a gigabit connection.","local_authority_district_ons_code":"Official CSV preview field."},"evidence_slice_sha256":"59ed345073504d4434f9b2863aa0ca79d5858282200e44915e411fed4ffe61e1","confidence_score_0_100":96,"evidence_grade":"A","fake_data":false,"canonical_status":"UNPROCESSED_LOCAL_OPENCODE_JOIN_REQUIRED"}},{"type":"Feature","geometry":null,"properties":{"source_row":15,"uprn":"100061294018","struprn":"str100061294018","bduk_recognised_premises":true,"country":"England","postcode":"ME2 2LE","lot_id":29,"lot_name":"Kent","subsidy_control_status":"Gigabit Grey/Black","current_gigabit":true,"future_gigabit":false,"local_authority_district_ons_code":"E06000035","local_authority_district_ons":"Medway","region_ons_code":"E12000008","region_ons":"South East","official_identifier_type":"UPRN","data_date":"2026-05","publication_date":"2026-09-17","source_url":"https://www.gov.uk/government/publications/may-2026-omr-and-premises-in-bduk-plans-england-and-wales","final_url":"https://www.gov.uk/csv-preview/6aa9520b086ce7c57b8184e5/202605_BDUK_uprn_release_sample.csv","raw_download_url":"https://assets.publishing.service.gov.uk/media/6aa9520b086ce7c57b8184e5/202605_BDUK_uprn_release_sample.csv","accessed_at_utc":"2026-09-30T18:57:00Z","licence":"Open Government Licence v3.0","file_sha256":"59ed345073504d4434f9b2863aa0ca79d5858282200e44915e411fed4ffe61e1","file_sha256_scope":"normalized_exact_50_row_evidence_slice_from_official_govuk_preview","upstream_raw_csv_sha256":null,"upstream_raw_csv_sha256_status":"BINARY_BYTES_NOT_RETRIEVABLE_IN_RUNTIME","field_evidence":{"uprn":"Official GOV.UK CSV preview column 'uprn'; BDUK technical note defines UPRN as a unique identifier for every spatial address in Great Britain.","current_gigabit":"Official GOV.UK CSV preview column 'current_gigabit'; BDUK technical note describes current gigabit connectivity.","future_gigabit":"Official GOV.UK CSV preview column 'future_gigabit'; BDUK technical note describes future plans for a gigabit connection.","local_authority_district_ons_code":"Official CSV preview field."},"evidence_slice_sha256":"59ed345073504d4434f9b2863aa0ca79d5858282200e44915e411fed4ffe61e1","confidence_score_0_100":96,"evidence_grade":"A","fake_data":false,"canonical_status":"UNPROCESSED_LOCAL_OPENCODE_JOIN_REQUIRED"}},{"type":"Feature","geometry":null,"properties":{"source_row":16,"uprn":"100061288023","struprn":"str100061288023","bduk_recognised_premises":true,"country":"England","postcode":"ME3 9JX","lot_id":29,"lot_name":"Kent","subsidy_control_status":"Gigabit Grey/Black","current_gigabit":true,"future_gigabit":false,"local_authority_district_ons_code":"E06000035","local_authority_district_ons":"Medway","region_ons_code":"E12000008","region_ons":"South East","official_identifier_type":"UPRN","data_date":"2026-05","publication_date":"2026-09-17","source_url":"https://www.gov.uk/government/publications/may-2026-omr-and-premises-in-bduk-plans-england-and-wales","final_url":"https://www.gov.uk/csv-preview/6aa9520b086ce7c57b8184e5/202605_BDUK_uprn_release_sample.csv","raw_download_url":"https://assets.publishing.service.gov.uk/media/6aa9520b086ce7c57b8184e5/202605_BDUK_uprn_release_sample.csv","accessed_at_utc":"2026-09-30T18:57:00Z","licence":"Open Government Licence v3.0","file_sha256":"59ed345073504d4434f9b2863aa0ca79d5858282200e44915e411fed4ffe61e1","file_sha256_scope":"normalized_exact_50_row_evidence_slice_from_official_govuk_preview","upstream_raw_csv_sha256":null,"upstream_raw_csv_sha256_status":"BINARY_BYTES_NOT_RETRIEVABLE_IN_RUNTIME","field_evidence":{"uprn":"Official GOV.UK CSV preview column 'uprn'; BDUK technical note defines UPRN as a unique identifier for every spatial address in Great Britain.","current_gigabit":"Official GOV.UK CSV preview column 'current_gigabit'; BDUK technical note describes current gigabit connectivity.","future_gigabit":"Official GOV.UK CSV preview column 'future_gigabit'; BDUK technical note describes future plans for a gigabit connection.","local_authority_district_ons_code":"Official CSV preview field."},"evidence_slice_sha256":"59ed345073504d4434f9b2863aa0ca79d5858282200e44915e411fed4ffe61e1","confidence_score_0_100":96,"evidence_grade":"A","fake_data":false,"canonical_status":"UNPROCESSED_LOCAL_OPENCODE_JOIN_REQUIRED"}},{"type":"Feature","geometry":null,"properties":{"source_row":17,"uprn":"44059846","struprn":"str44059846","bduk_recognised_premises":true,"country":"England","postcode":"ME5 8LH","lot_id":29,"lot_name":"Kent","subsidy_control_status":"Gigabit Grey/Black","current_gigabit":true,"future_gigabit":false,"local_authority_district_ons_code":"E06000035","local_authority_district_ons":"Medway","region_ons_code":"E12000008","region_ons":"South East","official_identifier_type":"UPRN","data_date":"2026-05","publication_date":"2026-09-17","source_url":"https://www.gov.uk/government/publications/may-2026-omr-and-premises-in-bduk-plans-england-and-wales","final_url":"https://www.gov.uk/csv-preview/6aa9520b086ce7c57b8184e5/202605_BDUK_uprn_release_sample.csv","raw_download_url":"https://assets.publishing.service.gov.uk/media/6aa9520b086ce7c57b8184e5/202605_BDUK_uprn_release_sample.csv","accessed_at_utc":"2026-09-30T18:57:00Z","licence":"Open Government Licence v3.0","file_sha256":"59ed345073504d4434f9b2863aa0ca79d5858282200e44915e411fed4ffe61e1","file_sha256_scope":"normalized_exact_50_row_evidence_slice_from_official_govuk_preview","upstream_raw_csv_sha256":null,"upstream_raw_csv_sha256_status":"BINARY_BYTES_NOT_RETRIEVABLE_IN_RUNTIME","field_evidence":{"uprn":"Official GOV.UK CSV preview column 'uprn'; BDUK technical note defines UPRN as a unique identifier for every spatial address in Great Britain.","current_gigabit":"Official GOV.UK CSV preview column 'current_gigabit'; BDUK technical note describes current gigabit connectivity.","future_gigabit":"Official GOV.UK CSV preview column 'future_gigabit'; BDUK technical note describes future plans for a gigabit connection.","local_authority_district_ons_code":"Official CSV preview field."},"evidence_slice_sha256":"59ed345073504d4434f9b2863aa0ca79d5858282200e44915e411fed4ffe61e1","confidence_score_0_100":96,"evidence_grade":"A","fake_data":false,"canonical_status":"UNPROCESSED_LOCAL_OPENCODE_JOIN_REQUIRED"}},{"type":"Feature","geometry":null,"properties":{"source_row":18,"uprn":"44072517","struprn":"str44072517","bduk_recognised_premises":true,"country":"England","postcode":"ME7 1RB","lot_id":29,"lot_name":"Kent","subsidy_control_status":"Gigabit Grey/Black","current_gigabit":true,"future_gigabit":false,"local_authority_district_ons_code":"E06000035","local_authority_district_ons":"Medway","region_ons_code":"E12000008","region_ons":"South East","official_identifier_type":"UPRN","data_date":"2026-05","publication_date":"2026-09-17","source_url":"https://www.gov.uk/government/publications/may-2026-omr-and-premises-in-bduk-plans-england-and-wales","final_url":"https://www.gov.uk/csv-preview/6aa9520b086ce7c57b8184e5/202605_BDUK_uprn_release_sample.csv","raw_download_url":"https://assets.publishing.service.gov.uk/media/6aa9520b086ce7c57b8184e5/202605_BDUK_uprn_release_sample.csv","accessed_at_utc":"2026-09-30T18:57:00Z","licence":"Open Government Licence v3.0","file_sha256":"59ed345073504d4434f9b2863aa0ca79d5858282200e44915e411fed4ffe61e1","file_sha256_scope":"normalized_exact_50_row_evidence_slice_from_official_govuk_preview","upstream_raw_csv_sha256":null,"upstream_raw_csv_sha256_status":"BINARY_BYTES_NOT_RETRIEVABLE_IN_RUNTIME","field_evidence":{"uprn":"Official GOV.UK CSV preview column 'uprn'; BDUK technical note defines UPRN as a unique identifier for every spatial address in Great Britain.","current_gigabit":"Official GOV.UK CSV preview column 'current_gigabit'; BDUK technical note describes current gigabit connectivity.","future_gigabit":"Official GOV.UK CSV preview column 'future_gigabit'; BDUK technical note describes future plans for a gigabit connection.","local_authority_district_ons_code":"Official CSV preview field."},"evidence_slice_sha256":"59ed345073504d4434f9b2863aa0ca79d5858282200e44915e411fed4ffe61e1","confidence_score_0_100":96,"evidence_grade":"A","fake_data":false,"canonical_status":"UNPROCESSED_LOCAL_OPENCODE_JOIN_REQUIRED"}},{"type":"Feature","geometry":null,"properties":{"source_row":19,"uprn":"44066763","struprn":"str44066763","bduk_recognised_premises":true,"country":"England","postcode":"ME7 5XX","lot_id":29,"lot_name":"Kent","subsidy_control_status":"Gigabit Grey/Black","current_gigabit":true,"future_gigabit":true,"local_authority_district_ons_code":"E06000035","local_authority_district_ons":"Medway","region_ons_code":"E12000008","region_ons":"South East","official_identifier_type":"UPRN","data_date":"2026-05","publication_date":"2026-09-17","source_url":"https://www.gov.uk/government/publications/may-2026-omr-and-premises-in-bduk-plans-england-and-wales","final_url":"https://www.gov.uk/csv-preview/6aa9520b086ce7c57b8184e5/202605_BDUK_uprn_release_sample.csv","raw_download_url":"https://assets.publishing.service.gov.uk/media/6aa9520b086ce7c57b8184e5/202605_BDUK_uprn_release_sample.csv","accessed_at_utc":"2026-09-30T18:57:00Z","licence":"Open Government Licence v3.0","file_sha256":"59ed345073504d4434f9b2863aa0ca79d5858282200e44915e411fed4ffe61e1","file_sha256_scope":"normalized_exact_50_row_evidence_slice_from_official_govuk_preview","upstream_raw_csv_sha256":null,"upstream_raw_csv_sha256_status":"BINARY_BYTES_NOT_RETRIEVABLE_IN_RUNTIME","field_evidence":{"uprn":"Official GOV.UK CSV preview column 'uprn'; BDUK technical note defines UPRN as a unique identifier for every spatial address in Great Britain.","current_gigabit":"Official GOV.UK CSV preview column 'current_gigabit'; BDUK technical note describes current gigabit connectivity.","future_gigabit":"Official GOV.UK CSV preview column 'future_gigabit'; BDUK technical note describes future plans for a gigabit connection.","local_authority_district_ons_code":"Official CSV preview field."},"evidence_slice_sha256":"59ed345073504d4434f9b2863aa0ca79d5858282200e44915e411fed4ffe61e1","confidence_score_0_100":96,"evidence_grade":"A","fake_data":false,"canonical_status":"UNPROCESSED_LOCAL_OPENCODE_JOIN_REQUIRED"}},{"type":"Feature","geometry":null,"properties":{"source_row":20,"uprn":"44089820","struprn":"str44089820","bduk_recognised_premises":true,"country":"England","postcode":"ME8 0LP","lot_id":29,"lot_name":"Kent","subsidy_control_status":"Gigabit Grey/Black","current_gigabit":true,"future_gigabit":false,"local_authority_district_ons_code":"E06000035","local_authority_district_ons":"Medway","region_ons_code":"E12000008","region_ons":"South East","official_identifier_type":"UPRN","data_date":"2026-05","publication_date":"2026-09-17","source_url":"https://www.gov.uk/government/publications/may-2026-omr-and-premises-in-bduk-plans-england-and-wales","final_url":"https://www.gov.uk/csv-preview/6aa9520b086ce7c57b8184e5/202605_BDUK_uprn_release_sample.csv","raw_download_url":"https://assets.publishing.service.gov.uk/media/6aa9520b086ce7c57b8184e5/202605_BDUK_uprn_release_sample.csv","accessed_at_utc":"2026-09-30T18:57:00Z","licence":"Open Government Licence v3.0","file_sha256":"59ed345073504d4434f9b2863aa0ca79d5858282200e44915e411fed4ffe61e1","file_sha256_scope":"normalized_exact_50_row_evidence_slice_from_official_govuk_preview","upstream_raw_csv_sha256":null,"upstream_raw_csv_sha256_status":"BINARY_BYTES_NOT_RETRIEVABLE_IN_RUNTIME","field_evidence":{"uprn":"Official GOV.UK CSV preview column 'uprn'; BDUK technical note defines UPRN as a unique identifier for every spatial address in Great Britain.","current_gigabit":"Official GOV.UK CSV preview column 'current_gigabit'; BDUK technical note describes current gigabit connectivity.","future_gigabit":"Official GOV.UK CSV preview column 'future_gigabit'; BDUK technical note describes future plans for a gigabit connection.","local_authority_district_ons_code":"Official CSV preview field."},"evidence_slice_sha256":"59ed345073504d4434f9b2863aa0ca79d5858282200e44915e411fed4ffe61e1","confidence_score_0_100":96,"evidence_grade":"A","fake_data":false,"canonical_status":"UNPROCESSED_LOCAL_OPENCODE_JOIN_REQUIRED"}},{"type":"Feature","geometry":null,"properties":{"source_row":21,"uprn":"100061280019","struprn":"str100061280019","bduk_recognised_premises":true,"country":"England","postcode":"ME3 9HT","lot_id":29,"lot_name":"Kent","subsidy_control_status":"Gigabit Grey/Black","current_gigabit":true,"future_gigabit":false,"local_authority_district_ons_code":"E06000035","local_authority_district_ons":"Medway","region_ons_code":"E12000008","region_ons":"South East","official_identifier_type":"UPRN","data_date":"2026-05","publication_date":"2026-09-17","source_url":"https://www.gov.uk/government/publications/may-2026-omr-and-premises-in-bduk-plans-england-and-wales","final_url":"https://www.gov.uk/csv-preview/6aa9520b086ce7c57b8184e5/202605_BDUK_uprn_release_sample.csv","raw_download_url":"https://assets.publishing.service.gov.uk/media/6aa9520b086ce7c57b8184e5/202605_BDUK_uprn_release_sample.csv","accessed_at_utc":"2026-09-30T18:57:00Z","licence":"Open Government Licence v3.0","file_sha256":"59ed345073504d4434f9b2863aa0ca79d5858282200e44915e411fed4ffe61e1","file_sha256_scope":"normalized_exact_50_row_evidence_slice_from_official_govuk_preview","upstream_raw_csv_sha256":null,"upstream_raw_csv_sha256_status":"BINARY_BYTES_NOT_RETRIEVABLE_IN_RUNTIME","field_evidence":{"uprn":"Official GOV.UK CSV preview column 'uprn'; BDUK technical note defines UPRN as a unique identifier for every spatial address in Great Britain.","current_gigabit":"Official GOV.UK CSV preview column 'current_gigabit'; BDUK technical note describes current gigabit connectivity.","future_gigabit":"Official GOV.UK CSV preview column 'future_gigabit'; BDUK technical note describes future plans for a gigabit connection.","local_authority_district_ons_code":"Official CSV preview field."},"evidence_slice_sha256":"59ed345073504d4434f9b2863aa0ca79d5858282200e44915e411fed4ffe61e1","confidence_score_0_100":96,"evidence_grade":"A","fake_data":false,"canonical_status":"UNPROCESSED_LOCAL_OPENCODE_JOIN_REQUIRED"}},{"type":"Feature","geometry":null,"properties":{"source_row":22,"uprn":"44097306","struprn":"str44097306","bduk_recognised_premises":true,"country":"England","postcode":"ME8 6RN","lot_id":29,"lot_name":"Kent","subsidy_control_status":"Gigabit Grey/Black","current_gigabit":true,"future_gigabit":false,"local_authority_district_ons_code":"E06000035","local_authority_district_ons":"Medway","region_ons_code":"E12000008","region_ons":"South East","official_identifier_type":"UPRN","data_date":"2026-05","publication_date":"2026-09-17","source_url":"https://www.gov.uk/government/publications/may-2026-omr-and-premises-in-bduk-plans-england-and-wales","final_url":"https://www.gov.uk/csv-preview/6aa9520b086ce7c57b8184e5/202605_BDUK_uprn_release_sample.csv","raw_download_url":"https://assets.publishing.service.gov.uk/media/6aa9520b086ce7c57b8184e5/202605_BDUK_uprn_release_sample.csv","accessed_at_utc":"2026-09-30T18:57:00Z","licence":"Open Government Licence v3.0","file_sha256":"59ed345073504d4434f9b2863aa0ca79d5858282200e44915e411fed4ffe61e1","file_sha256_scope":"normalized_exact_50_row_evidence_slice_from_official_govuk_preview","upstream_raw_csv_sha256":null,"upstream_raw_csv_sha256_status":"BINARY_BYTES_NOT_RETRIEVABLE_IN_RUNTIME","field_evidence":{"uprn":"Official GOV.UK CSV preview column 'uprn'; BDUK technical note defines UPRN as a unique identifier for every spatial address in Great Britain.","current_gigabit":"Official GOV.UK CSV preview column 'current_gigabit'; BDUK technical note describes current gigabit connectivity.","future_gigabit":"Official GOV.UK CSV preview column 'future_gigabit'; BDUK technical note describes future plans for a gigabit connection.","local_authority_district_ons_code":"Official CSV preview field."},"evidence_slice_sha256":"59ed345073504d4434f9b2863aa0ca79d5858282200e44915e411fed4ffe61e1","confidence_score_0_100":96,"evidence_grade":"A","fake_data":false,"canonical_status":"UNPROCESSED_LOCAL_OPENCODE_JOIN_REQUIRED"}},{"type":"Feature","geometry":null,"properties":{"source_row":23,"uprn":"44047620","struprn":"str44047620","bduk_recognised_premises":true,"country":"England","postcode":"ME5 0DQ","lot_id":29,"lot_name":"Kent","subsidy_control_status":"Gigabit Grey/Black","current_gigabit":true,"future_gigabit":false,"local_authority_district_ons_code":"E06000035","local_authority_district_ons":"Medway","region_ons_code":"E12000008","region_ons":"South East","official_identifier_type":"UPRN","data_date":"2026-05","publication_date":"2026-09-17","source_url":"https://www.gov.uk/government/publications/may-2026-omr-and-premises-in-bduk-plans-england-and-wales","final_url":"https://www.gov.uk/csv-preview/6aa9520b086ce7c57b8184e5/202605_BDUK_uprn_release_sample.csv","raw_download_url":"https://assets.publishing.service.gov.uk/media/6aa9520b086ce7c57b8184e5/202605_BDUK_uprn_release_sample.csv","accessed_at_utc":"2026-09-30T18:57:00Z","licence":"Open Government Licence v3.0","file_sha256":"59ed345073504d4434f9b2863aa0ca79d5858282200e44915e411fed4ffe61e1","file_sha256_scope":"normalized_exact_50_row_evidence_slice_from_official_govuk_preview","upstream_raw_csv_sha256":null,"upstream_raw_csv_sha256_status":"BINARY_BYTES_NOT_RETRIEVABLE_IN_RUNTIME","field_evidence":{"uprn":"Official GOV.UK CSV preview column 'uprn'; BDUK technical note defines UPRN as a unique identifier for every spatial address in Great Britain.","current_gigabit":"Official GOV.UK CSV preview column 'current_gigabit'; BDUK technical note describes current gigabit connectivity.","future_gigabit":"Official GOV.UK CSV preview column 'future_gigabit'; BDUK technical note describes future plans for a gigabit connection.","local_authority_district_ons_code":"Official CSV preview field."},"evidence_slice_sha256":"59ed345073504d4434f9b2863aa0ca79d5858282200e44915e411fed4ffe61e1","confidence_score_0_100":96,"evidence_grade":"A","fake_data":false,"canonical_status":"UNPROCESSED_LOCAL_OPENCODE_JOIN_REQUIRED"}},{"type":"Feature","geometry":null,"properties":{"source_row":24,"uprn":"100061271928","struprn":"str100061271928","bduk_recognised_premises":true,"country":"England","postcode":"ME8 8ER","lot_id":29,"lot_name":"Kent","subsidy_control_status":"Gigabit Grey/Black","current_gigabit":true,"future_gigabit":false,"local_authority_district_ons_code":"E06000035","local_authority_district_ons":"Medway","region_ons_code":"E12000008","region_ons":"South East","official_identifier_type":"UPRN","data_date":"2026-05","publication_date":"2026-09-17","source_url":"https://www.gov.uk/government/publications/may-2026-omr-and-premises-in-bduk-plans-england-and-wales","final_url":"https://www.gov.uk/csv-preview/6aa9520b086ce7c57b8184e5/202605_BDUK_uprn_release_sample.csv","raw_download_url":"https://assets.publishing.service.gov.uk/media/6aa9520b086ce7c57b8184e5/202605_BDUK_uprn_release_sample.csv","accessed_at_utc":"2026-09-30T18:57:00Z","licence":"Open Government Licence v3.0","file_sha256":"59ed345073504d4434f9b2863aa0ca79d5858282200e44915e411fed4ffe61e1","file_sha256_scope":"normalized_exact_50_row_evidence_slice_from_official_govuk_preview","upstream_raw_csv_sha256":null,"upstream_raw_csv_sha256_status":"BINARY_BYTES_NOT_RETRIEVABLE_IN_RUNTIME","field_evidence":{"uprn":"Official GOV.UK CSV preview column 'uprn'; BDUK technical note defines UPRN as a unique identifier for every spatial address in Great Britain.","current_gigabit":"Official GOV.UK CSV preview column 'current_gigabit'; BDUK technical note describes current gigabit connectivity.","future_gigabit":"Official GOV.UK CSV preview column 'future_gigabit'; BDUK technical note describes future plans for a gigabit connection.","local_authority_district_ons_code":"Official CSV preview field."},"evidence_slice_sha256":"59ed345073504d4434f9b2863aa0ca79d5858282200e44915e411fed4ffe61e1","confidence_score_0_100":96,"evidence_grade":"A","fake_data":false,"canonical_status":"UNPROCESSED_LOCAL_OPENCODE_JOIN_REQUIRED"}},{"type":"Feature","geometry":null,"properties":{"source_row":25,"uprn":"44014103","struprn":"str44014103","bduk_recognised_premises":true,"country":"England","postcode":"ME1 2FE","lot_id":29,"lot_name":"Kent","subsidy_control_status":"Gigabit Grey/Black","current_gigabit":true,"future_gigabit":false,"local_authority_district_ons_code":"E06000035","local_authority_district_ons":"Medway","region_ons_code":"E12000008","region_ons":"South East","official_identifier_type":"UPRN","data_date":"2026-05","publication_date":"2026-09-17","source_url":"https://www.gov.uk/government/publications/may-2026-omr-and-premises-in-bduk-plans-england-and-wales","final_url":"https://www.gov.uk/csv-preview/6aa9520b086ce7c57b8184e5/202605_BDUK_uprn_release_sample.csv","raw_download_url":"https://assets.publishing.service.gov.uk/media/6aa9520b086ce7c57b8184e5/202605_BDUK_uprn_release_sample.csv","accessed_at_utc":"2026-09-30T18:57:00Z","licence":"Open Government Licence v3.0","file_sha256":"59ed345073504d4434f9b2863aa0ca79d5858282200e44915e411fed4ffe61e1","file_sha256_scope":"normalized_exact_50_row_evidence_slice_from_official_govuk_preview","upstream_raw_csv_sha256":null,"upstream_raw_csv_sha256_status":"BINARY_BYTES_NOT_RETRIEVABLE_IN_RUNTIME","field_evidence":{"uprn":"Official GOV.UK CSV preview column 'uprn'; BDUK technical note defines UPRN as a unique identifier for every spatial address in Great Britain.","current_gigabit":"Official GOV.UK CSV preview column 'current_gigabit'; BDUK technical note describes current gigabit connectivity.","future_gigabit":"Official GOV.UK CSV preview column 'future_gigabit'; BDUK technical note describes future plans for a gigabit connection.","local_authority_district_ons_code":"Official CSV preview field."},"evidence_slice_sha256":"59ed345073504d4434f9b2863aa0ca79d5858282200e44915e411fed4ffe61e1","confidence_score_0_100":96,"evidence_grade":"A","fake_data":false,"canonical_status":"UNPROCESSED_LOCAL_OPENCODE_JOIN_REQUIRED"}},{"type":"Feature","geometry":null,"properties":{"source_row":26,"uprn":"44048582","struprn":"str44048582","bduk_recognised_premises":true,"country":"England","postcode":"ME5 0JY","lot_id":29,"lot_name":"Kent","subsidy_control_status":"Gigabit Grey/Black","current_gigabit":true,"future_gigabit":false,"local_authority_district_ons_code":"E06000035","local_authority_district_ons":"Medway","region_ons_code":"E12000008","region_ons":"South East","official_identifier_type":"UPRN","data_date":"2026-05","publication_date":"2026-09-17","source_url":"https://www.gov.uk/government/publications/may-2026-omr-and-premises-in-bduk-plans-england-and-wales","final_url":"https://www.gov.uk/csv-preview/6aa9520b086ce7c57b8184e5/202605_BDUK_uprn_release_sample.csv","raw_download_url":"https://assets.publishing.service.gov.uk/media/6aa9520b086ce7c57b8184e5/202605_BDUK_uprn_release_sample.csv","accessed_at_utc":"2026-09-30T18:57:00Z","licence":"Open Government Licence v3.0","file_sha256":"59ed345073504d4434f9b2863aa0ca79d5858282200e44915e411fed4ffe61e1","file_sha256_scope":"normalized_exact_50_row_evidence_slice_from_official_govuk_preview","upstream_raw_csv_sha256":null,"upstream_raw_csv_sha256_status":"BINARY_BYTES_NOT_RETRIEVABLE_IN_RUNTIME","field_evidence":{"uprn":"Official GOV.UK CSV preview column 'uprn'; BDUK technical note defines UPRN as a unique identifier for every spatial address in Great Britain.","current_gigabit":"Official GOV.UK CSV preview column 'current_gigabit'; BDUK technical note describes current gigabit connectivity.","future_gigabit":"Official GOV.UK CSV preview column 'future_gigabit'; BDUK technical note describes future plans for a gigabit connection.","local_authority_district_ons_code":"Official CSV preview field."},"evidence_slice_sha256":"59ed345073504d4434f9b2863aa0ca79d5858282200e44915e411fed4ffe61e1","confidence_score_0_100":96,"evidence_grade":"A","fake_data":false,"canonical_status":"UNPROCESSED_LOCAL_OPENCODE_JOIN_REQUIRED"}},{"type":"Feature","geometry":null,"properties":{"source_row":27,"uprn":"44097190","struprn":"str44097190","bduk_recognised_premises":true,"country":"England","postcode":"ME8 6QZ","lot_id":29,"lot_name":"Kent","subsidy_control_status":"Gigabit Grey/Black","current_gigabit":true,"future_gigabit":false,"local_authority_district_ons_code":"E06000035","local_authority_district_ons":"Medway","region_ons_code":"E12000008","region_ons":"South East","official_identifier_type":"UPRN","data_date":"2026-05","publication_date":"2026-09-17","source_url":"https://www.gov.uk/government/publications/may-2026-omr-and-premises-in-bduk-plans-england-and-wales","final_url":"https://www.gov.uk/csv-preview/6aa9520b086ce7c57b8184e5/202605_BDUK_uprn_release_sample.csv","raw_download_url":"https://assets.publishing.service.gov.uk/media/6aa9520b086ce7c57b8184e5/202605_BDUK_uprn_release_sample.csv","accessed_at_utc":"2026-09-30T18:57:00Z","licence":"Open Government Licence v3.0","file_sha256":"59ed345073504d4434f9b2863aa0ca79d5858282200e44915e411fed4ffe61e1","file_sha256_scope":"normalized_exact_50_row_evidence_slice_from_official_govuk_preview","upstream_raw_csv_sha256":null,"upstream_raw_csv_sha256_status":"BINARY_BYTES_NOT_RETRIEVABLE_IN_RUNTIME","field_evidence":{"uprn":"Official GOV.UK CSV preview column 'uprn'; BDUK technical note defines UPRN as a unique identifier for every spatial address in Great Britain.","current_gigabit":"Official GOV.UK CSV preview column 'current_gigabit'; BDUK technical note describes current gigabit connectivity.","future_gigabit":"Official GOV.UK CSV preview column 'future_gigabit'; BDUK technical note describes future plans for a gigabit connection.","local_authority_district_ons_code":"Official CSV preview field."},"evidence_slice_sha256":"59ed345073504d4434f9b2863aa0ca79d5858282200e44915e411fed4ffe61e1","confidence_score_0_100":96,"evidence_grade":"A","fake_data":false,"canonical_status":"UNPROCESSED_LOCAL_OPENCODE_JOIN_REQUIRED"}},{"type":"Feature","geometry":null,"properties":{"source_row":28,"uprn":"44036340","struprn":"str44036340","bduk_recognised_premises":true,"country":"England","postcode":"ME4 5UR","lot_id":29,"lot_name":"Kent","subsidy_control_status":"Gigabit Grey/Black","current_gigabit":true,"future_gigabit":false,"local_authority_district_ons_code":"E06000035","local_authority_district_ons":"Medway","region_ons_code":"E12000008","region_ons":"South East","official_identifier_type":"UPRN","data_date":"2026-05","publication_date":"2026-09-17","source_url":"https://www.gov.uk/government/publications/may-2026-omr-and-premises-in-bduk-plans-england-and-wales","final_url":"https://www.gov.uk/csv-preview/6aa9520b086ce7c57b8184e5/202605_BDUK_uprn_release_sample.csv","raw_download_url":"https://assets.publishing.service.gov.uk/media/6aa9520b086ce7c57b8184e5/202605_BDUK_uprn_release_sample.csv","accessed_at_utc":"2026-09-30T18:57:00Z","licence":"Open Government Licence v3.0","file_sha256":"59ed345073504d4434f9b2863aa0ca79d5858282200e44915e411fed4ffe61e1","file_sha256_scope":"normalized_exact_50_row_evidence_slice_from_official_govuk_preview","upstream_raw_csv_sha256":null,"upstream_raw_csv_sha256_status":"BINARY_BYTES_NOT_RETRIEVABLE_IN_RUNTIME","field_evidence":{"uprn":"Official GOV.UK CSV preview column 'uprn'; BDUK technical note defines UPRN as a unique identifier for every spatial address in Great Britain.","current_gigabit":"Official GOV.UK CSV preview column 'current_gigabit'; BDUK technical note describes current gigabit connectivity.","future_gigabit":"Official GOV.UK CSV preview column 'future_gigabit'; BDUK technical note describes future plans for a gigabit connection.","local_authority_district_ons_code":"Official CSV preview field."},"evidence_slice_sha256":"59ed345073504d4434f9b2863aa0ca79d5858282200e44915e411fed4ffe61e1","confidence_score_0_100":96,"evidence_grade":"A","fake_data":false,"canonical_status":"UNPROCESSED_LOCAL_OPENCODE_JOIN_REQUIRED"}},{"type":"Feature","geometry":null,"properties":{"source_row":29,"uprn":"44031844","struprn":"str44031844","bduk_recognised_premises":true,"country":"England","postcode":"ME5 0PT","lot_id":29,"lot_name":"Kent","subsidy_control_status":"Gigabit Grey/Black","current_gigabit":true,"future_gigabit":false,"local_authority_district_ons_code":"E06000035","local_authority_district_ons":"Medway","region_ons_code":"E12000008","region_ons":"South East","official_identifier_type":"UPRN","data_date":"2026-05","publication_date":"2026-09-17","source_url":"https://www.gov.uk/government/publications/may-2026-omr-and-premises-in-bduk-plans-england-and-wales","final_url":"https://www.gov.uk/csv-preview/6aa9520b086ce7c57b8184e5/202605_BDUK_uprn_release_sample.csv","raw_download_url":"https://assets.publishing.service.gov.uk/media/6aa9520b086ce7c57b8184e5/202605_BDUK_uprn_release_sample.csv","accessed_at_utc":"2026-09-30T18:57:00Z","licence":"Open Government Licence v3.0","file_sha256":"59ed345073504d4434f9b2863aa0ca79d5858282200e44915e411fed4ffe61e1","file_sha256_scope":"normalized_exact_50_row_evidence_slice_from_official_govuk_preview","upstream_raw_csv_sha256":null,"upstream_raw_csv_sha256_status":"BINARY_BYTES_NOT_RETRIEVABLE_IN_RUNTIME","field_evidence":{"uprn":"Official GOV.UK CSV preview column 'uprn'; BDUK technical note defines UPRN as a unique identifier for every spatial address in Great Britain.","current_gigabit":"Official GOV.UK CSV preview column 'current_gigabit'; BDUK technical note describes current gigabit connectivity.","future_gigabit":"Official GOV.UK CSV preview column 'future_gigabit'; BDUK technical note describes future plans for a gigabit connection.","local_authority_district_ons_code":"Official CSV preview field."},"evidence_slice_sha256":"59ed345073504d4434f9b2863aa0ca79d5858282200e44915e411fed4ffe61e1","confidence_score_0_100":96,"evidence_grade":"A","fake_data":false,"canonical_status":"UNPROCESSED_LOCAL_OPENCODE_JOIN_REQUIRED"}},{"type":"Feature","geometry":null,"properties":{"source_row":30,"uprn":"44096452","struprn":"str44096452","bduk_recognised_premises":true,"country":"England","postcode":"ME8 7AD","lot_id":29,"lot_name":"Kent","subsidy_control_status":"Gigabit Grey/Black","current_gigabit":true,"future_gigabit":false,"local_authority_district_ons_code":"E06000035","local_authority_district_ons":"Medway","region_ons_code":"E12000008","region_ons":"South East","official_identifier_type":"UPRN","data_date":"2026-05","publication_date":"2026-09-17","source_url":"https://www.gov.uk/government/publications/may-2026-omr-and-premises-in-bduk-plans-england-and-wales","final_url":"https://www.gov.uk/csv-preview/6aa9520b086ce7c57b8184e5/202605_BDUK_uprn_release_sample.csv","raw_download_url":"https://assets.publishing.service.gov.uk/media/6aa9520b086ce7c57b8184e5/202605_BDUK_uprn_release_sample.csv","accessed_at_utc":"2026-09-30T18:57:00Z","licence":"Open Government Licence v3.0","file_sha256":"59ed345073504d4434f9b2863aa0ca79d5858282200e44915e411fed4ffe61e1","file_sha256_scope":"normalized_exact_50_row_evidence_slice_from_official_govuk_preview","upstream_raw_csv_sha256":null,"upstream_raw_csv_sha256_status":"BINARY_BYTES_NOT_RETRIEVABLE_IN_RUNTIME","field_evidence":{"uprn":"Official GOV.UK CSV preview column 'uprn'; BDUK technical note defines UPRN as a unique identifier for every spatial address in Great Britain.","current_gigabit":"Official GOV.UK CSV preview column 'current_gigabit'; BDUK technical note describes current gigabit connectivity.","future_gigabit":"Official GOV.UK CSV preview column 'future_gigabit'; BDUK technical note describes future plans for a gigabit connection.","local_authority_district_ons_code":"Official CSV preview field."},"evidence_slice_sha256":"59ed345073504d4434f9b2863aa0ca79d5858282200e44915e411fed4ffe61e1","confidence_score_0_100":96,"evidence_grade":"A","fake_data":false,"canonical_status":"UNPROCESSED_LOCAL_OPENCODE_JOIN_REQUIRED"}},{"type":"Feature","geometry":null,"properties":{"source_row":31,"uprn":"100061262400","struprn":"str100061262400","bduk_recognised_premises":true,"country":"England","postcode":"ME8 9JW","lot_id":29,"lot_name":"Kent","subsidy_control_status":"Gigabit Grey/Black","current_gigabit":true,"future_gigabit":false,"local_authority_district_ons_code":"E06000035","local_authority_district_ons":"Medway","region_ons_code":"E12000008","region_ons":"South East","official_identifier_type":"UPRN","data_date":"2026-05","publication_date":"2026-09-17","source_url":"https://www.gov.uk/government/publications/may-2026-omr-and-premises-in-bduk-plans-england-and-wales","final_url":"https://www.gov.uk/csv-preview/6aa9520b086ce7c57b8184e5/202605_BDUK_uprn_release_sample.csv","raw_download_url":"https://assets.publishing.service.gov.uk/media/6aa9520b086ce7c57b8184e5/202605_BDUK_uprn_release_sample.csv","accessed_at_utc":"2026-09-30T18:57:00Z","licence":"Open Government Licence v3.0","file_sha256":"59ed345073504d4434f9b2863aa0ca79d5858282200e44915e411fed4ffe61e1","file_sha256_scope":"normalized_exact_50_row_evidence_slice_from_official_govuk_preview","upstream_raw_csv_sha256":null,"upstream_raw_csv_sha256_status":"BINARY_BYTES_NOT_RETRIEVABLE_IN_RUNTIME","field_evidence":{"uprn":"Official GOV.UK CSV preview column 'uprn'; BDUK technical note defines UPRN as a unique identifier for every spatial address in Great Britain.","current_gigabit":"Official GOV.UK CSV preview column 'current_gigabit'; BDUK technical note describes current gigabit connectivity.","future_gigabit":"Official GOV.UK CSV preview column 'future_gigabit'; BDUK technical note describes future plans for a gigabit connection.","local_authority_district_ons_code":"Official CSV preview field."},"evidence_slice_sha256":"59ed345073504d4434f9b2863aa0ca79d5858282200e44915e411fed4ffe61e1","confidence_score_0_100":96,"evidence_grade":"A","fake_data":false,"canonical_status":"UNPROCESSED_LOCAL_OPENCODE_JOIN_REQUIRED"}},{"type":"Feature","geometry":null,"properties":{"source_row":32,"uprn":"44024064","struprn":"str44024064","bduk_recognised_premises":true,"country":"England","postcode":"ME1 2DF","lot_id":29,"lot_name":"Kent","subsidy_control_status":"Gigabit Grey/Black","current_gigabit":true,"future_gigabit":false,"local_authority_district_ons_code":"E06000035","local_authority_district_ons":"Medway","region_ons_code":"E12000008","region_ons":"South East","official_identifier_type":"UPRN","data_date":"2026-05","publication_date":"2026-09-17","source_url":"https://www.gov.uk/government/publications/may-2026-omr-and-premises-in-bduk-plans-england-and-wales","final_url":"https://www.gov.uk/csv-preview/6aa9520b086ce7c57b8184e5/202605_BDUK_uprn_release_sample.csv","raw_download_url":"https://assets.publishing.service.gov.uk/media/6aa9520b086ce7c57b8184e5/202605_BDUK_uprn_release_sample.csv","accessed_at_utc":"2026-09-30T18:57:00Z","licence":"Open Government Licence v3.0","file_sha256":"59ed345073504d4434f9b2863aa0ca79d5858282200e44915e411fed4ffe61e1","file_sha256_scope":"normalized_exact_50_row_evidence_slice_from_official_govuk_preview","upstream_raw_csv_sha256":null,"upstream_raw_csv_sha256_status":"BINARY_BYTES_NOT_RETRIEVABLE_IN_RUNTIME","field_evidence":{"uprn":"Official GOV.UK CSV preview column 'uprn'; BDUK technical note defines UPRN as a unique identifier for every spatial address in Great Britain.","current_gigabit":"Official GOV.UK CSV preview column 'current_gigabit'; BDUK technical note describes current gigabit connectivity.","future_gigabit":"Official GOV.UK CSV preview column 'future_gigabit'; BDUK technical note describes future plans for a gigabit connection.","local_authority_district_ons_code":"Official CSV preview field."},"evidence_slice_sha256":"59ed345073504d4434f9b2863aa0ca79d5858282200e44915e411fed4ffe61e1","confidence_score_0_100":96,"evidence_grade":"A","fake_data":false,"canonical_status":"UNPROCESSED_LOCAL_OPENCODE_JOIN_REQUIRED"}},{"type":"Feature","geometry":null,"properties":{"source_row":33,"uprn":"44008299","struprn":"str44008299","bduk_recognised_premises":true,"country":"England","postcode":"ME1 1QD","lot_id":29,"lot_name":"Kent","subsidy_control_status":"Gigabit Grey/Black","current_gigabit":true,"future_gigabit":false,"local_authority_district_ons_code":"E06000035","local_authority_district_ons":"Medway","region_ons_code":"E12000008","region_ons":"South East","official_identifier_type":"UPRN","data_date":"2026-05","publication_date":"2026-09-17","source_url":"https://www.gov.uk/government/publications/may-2026-omr-and-premises-in-bduk-plans-england-and-wales","final_url":"https://www.gov.uk/csv-preview/6aa9520b086ce7c57b8184e5/202605_BDUK_uprn_release_sample.csv","raw_download_url":"https://assets.publishing.service.gov.uk/media/6aa9520b086ce7c57b8184e5/202605_BDUK_uprn_release_sample.csv","accessed_at_utc":"2026-09-30T18:57:00Z","licence":"Open Government Licence v3.0","file_sha256":"59ed345073504d4434f9b2863aa0ca79d5858282200e44915e411fed4ffe61e1","file_sha256_scope":"normalized_exact_50_row_evidence_slice_from_official_govuk_preview","upstream_raw_csv_sha256":null,"upstream_raw_csv_sha256_status":"BINARY_BYTES_NOT_RETRIEVABLE_IN_RUNTIME","field_evidence":{"uprn":"Official GOV.UK CSV preview column 'uprn'; BDUK technical note defines UPRN as a unique identifier for every spatial address in Great Britain.","current_gigabit":"Official GOV.UK CSV preview column 'current_gigabit'; BDUK technical note describes current gigabit connectivity.","future_gigabit":"Official GOV.UK CSV preview column 'future_gigabit'; BDUK technical note describes future plans for a gigabit connection.","local_authority_district_ons_code":"Official CSV preview field."},"evidence_slice_sha256":"59ed345073504d4434f9b2863aa0ca79d5858282200e44915e411fed4ffe61e1","confidence_score_0_100":96,"evidence_grade":"A","fake_data":false,"canonical_status":"UNPROCESSED_LOCAL_OPENCODE_JOIN_REQUIRED"}},{"type":"Feature","geometry":null,"properties":{"source_row":34,"uprn":"100061254295","struprn":"str100061254295","bduk_recognised_premises":true,"country":"England","postcode":"ME8 7PZ","lot_id":29,"lot_name":"Kent","subsidy_control_status":"Gigabit Grey/Black","current_gigabit":true,"future_gigabit":false,"local_authority_district_ons_code":"E06000035","local_authority_district_ons":"Medway","region_ons_code":"E12000008","region_ons":"South East","official_identifier_type":"UPRN","data_date":"2026-05","publication_date":"2026-09-17","source_url":"https://www.gov.uk/government/publications/may-2026-omr-and-premises-in-bduk-plans-england-and-wales","final_url":"https://www.gov.uk/csv-preview/6aa9520b086ce7c57b8184e5/202605_BDUK_uprn_release_sample.csv","raw_download_url":"https://assets.publishing.service.gov.uk/media/6aa9520b086ce7c57b8184e5/202605_BDUK_uprn_release_sample.csv","accessed_at_utc":"2026-09-30T18:57:00Z","licence":"Open Government Licence v3.0","file_sha256":"59ed345073504d4434f9b2863aa0ca79d5858282200e44915e411fed4ffe61e1","file_sha256_scope":"normalized_exact_50_row_evidence_slice_from_official_govuk_preview","upstream_raw_csv_sha256":null,"upstream_raw_csv_sha256_status":"BINARY_BYTES_NOT_RETRIEVABLE_IN_RUNTIME","field_evidence":{"uprn":"Official GOV.UK CSV preview column 'uprn'; BDUK technical note defines UPRN as a unique identifier for every spatial address in Great Britain.","current_gigabit":"Official GOV.UK CSV preview column 'current_gigabit'; BDUK technical note describes current gigabit connectivity.","future_gigabit":"Official GOV.UK CSV preview column 'future_gigabit'; BDUK technical note describes future plans for a gigabit connection.","local_authority_district_ons_code":"Official CSV preview field."},"evidence_slice_sha256":"59ed345073504d4434f9b2863aa0ca79d5858282200e44915e411fed4ffe61e1","confidence_score_0_100":96,"evidence_grade":"A","fake_data":false,"canonical_status":"UNPROCESSED_LOCAL_OPENCODE_JOIN_REQUIRED"}},{"type":"Feature","geometry":null,"properties":{"source_row":35,"uprn":"44023770","struprn":"str44023770","bduk_recognised_premises":true,"country":"England","postcode":"ME1 2AL","lot_id":29,"lot_name":"Kent","subsidy_control_status":"Gigabit Grey/Black","current_gigabit":true,"future_gigabit":false,"local_authority_district_ons_code":"E06000035","local_authority_district_ons":"Medway","region_ons_code":"E12000008","region_ons":"South East","official_identifier_type":"UPRN","data_date":"2026-05","publication_date":"2026-09-17","source_url":"https://www.gov.uk/government/publications/may-2026-omr-and-premises-in-bduk-plans-england-and-wales","final_url":"https://www.gov.uk/csv-preview/6aa9520b086ce7c57b8184e5/202605_BDUK_uprn_release_sample.csv","raw_download_url":"https://assets.publishing.service.gov.uk/media/6aa9520b086ce7c57b8184e5/202605_BDUK_uprn_release_sample.csv","accessed_at_utc":"2026-09-30T18:57:00Z","licence":"Open Government Licence v3.0","file_sha256":"59ed345073504d4434f9b2863aa0ca79d5858282200e44915e411fed4ffe61e1","file_sha256_scope":"normalized_exact_50_row_evidence_slice_from_official_govuk_preview","upstream_raw_csv_sha256":null,"upstream_raw_csv_sha256_status":"BINARY_BYTES_NOT_RETRIEVABLE_IN_RUNTIME","field_evidence":{"uprn":"Official GOV.UK CSV preview column 'uprn'; BDUK technical note defines UPRN as a unique identifier for every spatial address in Great Britain.","current_gigabit":"Official GOV.UK CSV preview column 'current_gigabit'; BDUK technical note describes current gigabit connectivity.","future_gigabit":"Official GOV.UK CSV preview column 'future_gigabit'; BDUK technical note describes future plans for a gigabit connection.","local_authority_district_ons_code":"Official CSV preview field."},"evidence_slice_sha256":"59ed345073504d4434f9b2863aa0ca79d5858282200e44915e411fed4ffe61e1","confidence_score_0_100":96,"evidence_grade":"A","fake_data":false,"canonical_status":"UNPROCESSED_LOCAL_OPENCODE_JOIN_REQUIRED"}},{"type":"Feature","geometry":null,"properties":{"source_row":36,"uprn":"44097085","struprn":"str44097085","bduk_recognised_premises":true,"country":"England","postcode":"ME8 6NF","lot_id":29,"lot_name":"Kent","subsidy_control_status":"Gigabit Grey/Black","current_gigabit":true,"future_gigabit":false,"local_authority_district_ons_code":"E06000035","local_authority_district_ons":"Medway","region_ons_code":"E12000008","region_ons":"South East","official_identifier_type":"UPRN","data_date":"2026-05","publication_date":"2026-09-17","source_url":"https://www.gov.uk/government/publications/may-2026-omr-and-premises-in-bduk-plans-england-and-wales","final_url":"https://www.gov.uk/csv-preview/6aa9520b086ce7c57b8184e5/202605_BDUK_uprn_release_sample.csv","raw_download_url":"https://assets.publishing.service.gov.uk/media/6aa9520b086ce7c57b8184e5/202605_BDUK_uprn_release_sample.csv","accessed_at_utc":"2026-09-30T18:57:00Z","licence":"Open Government Licence v3.0","file_sha256":"59ed345073504d4434f9b2863aa0ca79d5858282200e44915e411fed4ffe61e1","file_sha256_scope":"normalized_exact_50_row_evidence_slice_from_official_govuk_preview","upstream_raw_csv_sha256":null,"upstream_raw_csv_sha256_status":"BINARY_BYTES_NOT_RETRIEVABLE_IN_RUNTIME","field_evidence":{"uprn":"Official GOV.UK CSV preview column 'uprn'; BDUK technical note defines UPRN as a unique identifier for every spatial address in Great Britain.","current_gigabit":"Official GOV.UK CSV preview column 'current_gigabit'; BDUK technical note describes current gigabit connectivity.","future_gigabit":"Official GOV.UK CSV preview column 'future_gigabit'; BDUK technical note describes future plans for a gigabit connection.","local_authority_district_ons_code":"Official CSV preview field."},"evidence_slice_sha256":"59ed345073504d4434f9b2863aa0ca79d5858282200e44915e411fed4ffe61e1","confidence_score_0_100":96,"evidence_grade":"A","fake_data":false,"canonical_status":"UNPROCESSED_LOCAL_OPENCODE_JOIN_REQUIRED"}},{"type":"Feature","geometry":null,"properties":{"source_row":37,"uprn":"44053150","struprn":"str44053150","bduk_recognised_premises":true,"country":"England","postcode":"ME7 1GP","lot_id":29,"lot_name":"Kent","subsidy_control_status":"Gigabit Grey/Black","current_gigabit":true,"future_gigabit":false,"local_authority_district_ons_code":"E06000035","local_authority_district_ons":"Medway","region_ons_code":"E12000008","region_ons":"South East","official_identifier_type":"UPRN","data_date":"2026-05","publication_date":"2026-09-17","source_url":"https://www.gov.uk/government/publications/may-2026-omr-and-premises-in-bduk-plans-england-and-wales","final_url":"https://www.gov.uk/csv-preview/6aa9520b086ce7c57b8184e5/202605_BDUK_uprn_release_sample.csv","raw_download_url":"https://assets.publishing.service.gov.uk/media/6aa9520b086ce7c57b8184e5/202605_BDUK_uprn_release_sample.csv","accessed_at_utc":"2026-09-30T18:57:00Z","licence":"Open Government Licence v3.0","file_sha256":"59ed345073504d4434f9b2863aa0ca79d5858282200e44915e411fed4ffe61e1","file_sha256_scope":"normalized_exact_50_row_evidence_slice_from_official_govuk_preview","upstream_raw_csv_sha256":null,"upstream_raw_csv_sha256_status":"BINARY_BYTES_NOT_RETRIEVABLE_IN_RUNTIME","field_evidence":{"uprn":"Official GOV.UK CSV preview column 'uprn'; BDUK technical note defines UPRN as a unique identifier for every spatial address in Great Britain.","current_gigabit":"Official GOV.UK CSV preview column 'current_gigabit'; BDUK technical note describes current gigabit connectivity.","future_gigabit":"Official GOV.UK CSV preview column 'future_gigabit'; BDUK technical note describes future plans for a gigabit connection.","local_authority_district_ons_code":"Official CSV preview field."},"evidence_slice_sha256":"59ed345073504d4434f9b2863aa0ca79d5858282200e44915e411fed4ffe61e1","confidence_score_0_100":96,"evidence_grade":"A","fake_data":false,"canonical_status":"UNPROCESSED_LOCAL_OPENCODE_JOIN_REQUIRED"}},{"type":"Feature","geometry":null,"properties":{"source_row":38,"uprn":"44073421","struprn":"str44073421","bduk_recognised_premises":true,"country":"England","postcode":"ME8 7DD","lot_id":29,"lot_name":"Kent","subsidy_control_status":"Gigabit Grey/Black","current_gigabit":true,"future_gigabit":false,"local_authority_district_ons_code":"E06000035","local_authority_district_ons":"Medway","region_ons_code":"E12000008","region_ons":"South East","official_identifier_type":"UPRN","data_date":"2026-05","publication_date":"2026-09-17","source_url":"https://www.gov.uk/government/publications/may-2026-omr-and-premises-in-bduk-plans-england-and-wales","final_url":"https://www.gov.uk/csv-preview/6aa9520b086ce7c57b8184e5/202605_BDUK_uprn_release_sample.csv","raw_download_url":"https://assets.publishing.service.gov.uk/media/6aa9520b086ce7c57b8184e5/202605_BDUK_uprn_release_sample.csv","accessed_at_utc":"2026-09-30T18:57:00Z","licence":"Open Government Licence v3.0","file_sha256":"59ed345073504d4434f9b2863aa0ca79d5858282200e44915e411fed4ffe61e1","file_sha256_scope":"normalized_exact_50_row_evidence_slice_from_official_govuk_preview","upstream_raw_csv_sha256":null,"upstream_raw_csv_sha256_status":"BINARY_BYTES_NOT_RETRIEVABLE_IN_RUNTIME","field_evidence":{"uprn":"Official GOV.UK CSV preview column 'uprn'; BDUK technical note defines UPRN as a unique identifier for every spatial address in Great Britain.","current_gigabit":"Official GOV.UK CSV preview column 'current_gigabit'; BDUK technical note describes current gigabit connectivity.","future_gigabit":"Official GOV.UK CSV preview column 'future_gigabit'; BDUK technical note describes future plans for a gigabit connection.","local_authority_district_ons_code":"Official CSV preview field."},"evidence_slice_sha256":"59ed345073504d4434f9b2863aa0ca79d5858282200e44915e411fed4ffe61e1","confidence_score_0_100":96,"evidence_grade":"A","fake_data":false,"canonical_status":"UNPROCESSED_LOCAL_OPENCODE_JOIN_REQUIRED"}},{"type":"Feature","geometry":null,"properties":{"source_row":39,"uprn":"44057218","struprn":"str44057218","bduk_recognised_premises":true,"country":"England","postcode":"ME5 8PX","lot_id":29,"lot_name":"Kent","subsidy_control_status":"Gigabit Grey/Black","current_gigabit":true,"future_gigabit":false,"local_authority_district_ons_code":"E06000035","local_authority_district_ons":"Medway","region_ons_code":"E12000008","region_ons":"South East","official_identifier_type":"UPRN","data_date":"2026-05","publication_date":"2026-09-17","source_url":"https://www.gov.uk/government/publications/may-2026-omr-and-premises-in-bduk-plans-england-and-wales","final_url":"https://www.gov.uk/csv-preview/6aa9520b086ce7c57b8184e5/202605_BDUK_uprn_release_sample.csv","raw_download_url":"https://assets.publishing.service.gov.uk/media/6aa9520b086ce7c57b8184e5/202605_BDUK_uprn_release_sample.csv","accessed_at_utc":"2026-09-30T18:57:00Z","licence":"Open Government Licence v3.0","file_sha256":"59ed345073504d4434f9b2863aa0ca79d5858282200e44915e411fed4ffe61e1","file_sha256_scope":"normalized_exact_50_row_evidence_slice_from_official_govuk_preview","upstream_raw_csv_sha256":null,"upstream_raw_csv_sha256_status":"BINARY_BYTES_NOT_RETRIEVABLE_IN_RUNTIME","field_evidence":{"uprn":"Official GOV.UK CSV preview column 'uprn'; BDUK technical note defines UPRN as a unique identifier for every spatial address in Great Britain.","current_gigabit":"Official GOV.UK CSV preview column 'current_gigabit'; BDUK technical note describes current gigabit connectivity.","future_gigabit":"Official GOV.UK CSV preview column 'future_gigabit'; BDUK technical note describes future plans for a gigabit connection.","local_authority_district_ons_code":"Official CSV preview field."},"evidence_slice_sha256":"59ed345073504d4434f9b2863aa0ca79d5858282200e44915e411fed4ffe61e1","confidence_score_0_100":96,"evidence_grade":"A","fake_data":false,"canonical_status":"UNPROCESSED_LOCAL_OPENCODE_JOIN_REQUIRED"}},{"type":"Feature","geometry":null,"properties":{"source_row":40,"uprn":"44005557","struprn":"str44005557","bduk_recognised_premises":true,"country":"England","postcode":"ME4 5AA","lot_id":29,"lot_name":"Kent","subsidy_control_status":"Gigabit Grey/Black","current_gigabit":true,"future_gigabit":false,"local_authority_district_ons_code":"E06000035","local_authority_district_ons":"Medway","region_ons_code":"E12000008","region_ons":"South East","official_identifier_type":"UPRN","data_date":"2026-05","publication_date":"2026-09-17","source_url":"https://www.gov.uk/government/publications/may-2026-omr-and-premises-in-bduk-plans-england-and-wales","final_url":"https://www.gov.uk/csv-preview/6aa9520b086ce7c57b8184e5/202605_BDUK_uprn_release_sample.csv","raw_download_url":"https://assets.publishing.service.gov.uk/media/6aa9520b086ce7c57b8184e5/202605_BDUK_uprn_release_sample.csv","accessed_at_utc":"2026-09-30T18:57:00Z","licence":"Open Government Licence v3.0","file_sha256":"59ed345073504d4434f9b2863aa0ca79d5858282200e44915e411fed4ffe61e1","file_sha256_scope":"normalized_exact_50_row_evidence_slice_from_official_govuk_preview","upstream_raw_csv_sha256":null,"upstream_raw_csv_sha256_status":"BINARY_BYTES_NOT_RETRIEVABLE_IN_RUNTIME","field_evidence":{"uprn":"Official GOV.UK CSV preview column 'uprn'; BDUK technical note defines UPRN as a unique identifier for every spatial address in Great Britain.","current_gigabit":"Official GOV.UK CSV preview column 'current_gigabit'; BDUK technical note describes current gigabit connectivity.","future_gigabit":"Official GOV.UK CSV preview column 'future_gigabit'; BDUK technical note describes future plans for a gigabit connection.","local_authority_district_ons_code":"Official CSV preview field."},"evidence_slice_sha256":"59ed345073504d4434f9b2863aa0ca79d5858282200e44915e411fed4ffe61e1","confidence_score_0_100":96,"evidence_grade":"A","fake_data":false,"canonical_status":"UNPROCESSED_LOCAL_OPENCODE_JOIN_REQUIRED"}},{"type":"Feature","geometry":null,"properties":{"source_row":41,"uprn":"44053052","struprn":"str44053052","bduk_recognised_premises":true,"country":"England","postcode":"ME4 5LJ","lot_id":29,"lot_name":"Kent","subsidy_control_status":"Gigabit Grey/Black","current_gigabit":true,"future_gigabit":false,"local_authority_district_ons_code":"E06000035","local_authority_district_ons":"Medway","region_ons_code":"E12000008","region_ons":"South East","official_identifier_type":"UPRN","data_date":"2026-05","publication_date":"2026-09-17","source_url":"https://www.gov.uk/government/publications/may-2026-omr-and-premises-in-bduk-plans-england-and-wales","final_url":"https://www.gov.uk/csv-preview/6aa9520b086ce7c57b8184e5/202605_BDUK_uprn_release_sample.csv","raw_download_url":"https://assets.publishing.service.gov.uk/media/6aa9520b086ce7c57b8184e5/202605_BDUK_uprn_release_sample.csv","accessed_at_utc":"2026-09-30T18:57:00Z","licence":"Open Government Licence v3.0","file_sha256":"59ed345073504d4434f9b2863aa0ca79d5858282200e44915e411fed4ffe61e1","file_sha256_scope":"normalized_exact_50_row_evidence_slice_from_official_govuk_preview","upstream_raw_csv_sha256":null,"upstream_raw_csv_sha256_status":"BINARY_BYTES_NOT_RETRIEVABLE_IN_RUNTIME","field_evidence":{"uprn":"Official GOV.UK CSV preview column 'uprn'; BDUK technical note defines UPRN as a unique identifier for every spatial address in Great Britain.","current_gigabit":"Official GOV.UK CSV preview column 'current_gigabit'; BDUK technical note describes current gigabit connectivity.","future_gigabit":"Official GOV.UK CSV preview column 'future_gigabit'; BDUK technical note describes future plans for a gigabit connection.","local_authority_district_ons_code":"Official CSV preview field."},"evidence_slice_sha256":"59ed345073504d4434f9b2863aa0ca79d5858282200e44915e411fed4ffe61e1","confidence_score_0_100":96,"evidence_grade":"A","fake_data":false,"canonical_status":"UNPROCESSED_LOCAL_OPENCODE_JOIN_REQUIRED"}},{"type":"Feature","geometry":null,"properties":{"source_row":42,"uprn":"44058106","struprn":"str44058106","bduk_recognised_premises":true,"country":"England","postcode":"ME5 8UL","lot_id":29,"lot_name":"Kent","subsidy_control_status":"Gigabit Grey/Black","current_gigabit":true,"future_gigabit":false,"local_authority_district_ons_code":"E06000035","local_authority_district_ons":"Medway","region_ons_code":"E12000008","region_ons":"South East","official_identifier_type":"UPRN","data_date":"2026-05","publication_date":"2026-09-17","source_url":"https://www.gov.uk/government/publications/may-2026-omr-and-premises-in-bduk-plans-england-and-wales","final_url":"https://www.gov.uk/csv-preview/6aa9520b086ce7c57b8184e5/202605_BDUK_uprn_release_sample.csv","raw_download_url":"https://assets.publishing.service.gov.uk/media/6aa9520b086ce7c57b8184e5/202605_BDUK_uprn_release_sample.csv","accessed_at_utc":"2026-09-30T18:57:00Z","licence":"Open Government Licence v3.0","file_sha256":"59ed345073504d4434f9b2863aa0ca79d5858282200e44915e411fed4ffe61e1","file_sha256_scope":"normalized_exact_50_row_evidence_slice_from_official_govuk_preview","upstream_raw_csv_sha256":null,"upstream_raw_csv_sha256_status":"BINARY_BYTES_NOT_RETRIEVABLE_IN_RUNTIME","field_evidence":{"uprn":"Official GOV.UK CSV preview column 'uprn'; BDUK technical note defines UPRN as a unique identifier for every spatial address in Great Britain.","current_gigabit":"Official GOV.UK CSV preview column 'current_gigabit'; BDUK technical note describes current gigabit connectivity.","future_gigabit":"Official GOV.UK CSV preview column 'future_gigabit'; BDUK technical note describes future plans for a gigabit connection.","local_authority_district_ons_code":"Official CSV preview field."},"evidence_slice_sha256":"59ed345073504d4434f9b2863aa0ca79d5858282200e44915e411fed4ffe61e1","confidence_score_0_100":96,"evidence_grade":"A","fake_data":false,"canonical_status":"UNPROCESSED_LOCAL_OPENCODE_JOIN_REQUIRED"}},{"type":"Feature","geometry":null,"properties":{"source_row":43,"uprn":"100061272919","struprn":"str100061272919","bduk_recognised_premises":true,"country":"England","postcode":"ME8 0EP","lot_id":29,"lot_name":"Kent","subsidy_control_status":"Gigabit Grey/Black","current_gigabit":true,"future_gigabit":false,"local_authority_district_ons_code":"E06000035","local_authority_district_ons":"Medway","region_ons_code":"E12000008","region_ons":"South East","official_identifier_type":"UPRN","data_date":"2026-05","publication_date":"2026-09-17","source_url":"https://www.gov.uk/government/publications/may-2026-omr-and-premises-in-bduk-plans-england-and-wales","final_url":"https://www.gov.uk/csv-preview/6aa9520b086ce7c57b8184e5/202605_BDUK_uprn_release_sample.csv","raw_download_url":"https://assets.publishing.service.gov.uk/media/6aa9520b086ce7c57b8184e5/202605_BDUK_uprn_release_sample.csv","accessed_at_utc":"2026-09-30T18:57:00Z","licence":"Open Government Licence v3.0","file_sha256":"59ed345073504d4434f9b2863aa0ca79d5858282200e44915e411fed4ffe61e1","file_sha256_scope":"normalized_exact_50_row_evidence_slice_from_official_govuk_preview","upstream_raw_csv_sha256":null,"upstream_raw_csv_sha256_status":"BINARY_BYTES_NOT_RETRIEVABLE_IN_RUNTIME","field_evidence":{"uprn":"Official GOV.UK CSV preview column 'uprn'; BDUK technical note defines UPRN as a unique identifier for every spatial address in Great Britain.","current_gigabit":"Official GOV.UK CSV preview column 'current_gigabit'; BDUK technical note describes current gigabit connectivity.","future_gigabit":"Official GOV.UK CSV preview column 'future_gigabit'; BDUK technical note describes future plans for a gigabit connection.","local_authority_district_ons_code":"Official CSV preview field."},"evidence_slice_sha256":"59ed345073504d4434f9b2863aa0ca79d5858282200e44915e411fed4ffe61e1","confidence_score_0_100":96,"evidence_grade":"A","fake_data":false,"canonical_status":"UNPROCESSED_LOCAL_OPENCODE_JOIN_REQUIRED"}},{"type":"Feature","geometry":null,"properties":{"source_row":44,"uprn":"44066982","struprn":"str44066982","bduk_recognised_premises":true,"country":"England","postcode":"ME1 1GL","lot_id":29,"lot_name":"Kent","subsidy_control_status":"Gigabit Grey/Black","current_gigabit":true,"future_gigabit":false,"local_authority_district_ons_code":"E06000035","local_authority_district_ons":"Medway","region_ons_code":"E12000008","region_ons":"South East","official_identifier_type":"UPRN","data_date":"2026-05","publication_date":"2026-09-17","source_url":"https://www.gov.uk/government/publications/may-2026-omr-and-premises-in-bduk-plans-england-and-wales","final_url":"https://www.gov.uk/csv-preview/6aa9520b086ce7c57b8184e5/202605_BDUK_uprn_release_sample.csv","raw_download_url":"https://assets.publishing.service.gov.uk/media/6aa9520b086ce7c57b8184e5/202605_BDUK_uprn_release_sample.csv","accessed_at_utc":"2026-09-30T18:57:00Z","licence":"Open Government Licence v3.0","file_sha256":"59ed345073504d4434f9b2863aa0ca79d5858282200e44915e411fed4ffe61e1","file_sha256_scope":"normalized_exact_50_row_evidence_slice_from_official_govuk_preview","upstream_raw_csv_sha256":null,"upstream_raw_csv_sha256_status":"BINARY_BYTES_NOT_RETRIEVABLE_IN_RUNTIME","field_evidence":{"uprn":"Official GOV.UK CSV preview column 'uprn'; BDUK technical note defines UPRN as a unique identifier for every spatial address in Great Britain.","current_gigabit":"Official GOV.UK CSV preview column 'current_gigabit'; BDUK technical note describes current gigabit connectivity.","future_gigabit":"Official GOV.UK CSV preview column 'future_gigabit'; BDUK technical note describes future plans for a gigabit connection.","local_authority_district_ons_code":"Official CSV preview field."},"evidence_slice_sha256":"59ed345073504d4434f9b2863aa0ca79d5858282200e44915e411fed4ffe61e1","confidence_score_0_100":96,"evidence_grade":"A","fake_data":false,"canonical_status":"UNPROCESSED_LOCAL_OPENCODE_JOIN_REQUIRED"}},{"type":"Feature","geometry":null,"properties":{"source_row":45,"uprn":"44077534","struprn":"str44077534","bduk_recognised_premises":true,"country":"England","postcode":"ME7 2JE","lot_id":29,"lot_name":"Kent","subsidy_control_status":"Gigabit Grey/Black","current_gigabit":true,"future_gigabit":false,"local_authority_district_ons_code":"E06000035","local_authority_district_ons":"Medway","region_ons_code":"E12000008","region_ons":"South East","official_identifier_type":"UPRN","data_date":"2026-05","publication_date":"2026-09-17","source_url":"https://www.gov.uk/government/publications/may-2026-omr-and-premises-in-bduk-plans-england-and-wales","final_url":"https://www.gov.uk/csv-preview/6aa9520b086ce7c57b8184e5/202605_BDUK_uprn_release_sample.csv","raw_download_url":"https://assets.publishing.service.gov.uk/media/6aa9520b086ce7c57b8184e5/202605_BDUK_uprn_release_sample.csv","accessed_at_utc":"2026-09-30T18:57:00Z","licence":"Open Government Licence v3.0","file_sha256":"59ed345073504d4434f9b2863aa0ca79d5858282200e44915e411fed4ffe61e1","file_sha256_scope":"normalized_exact_50_row_evidence_slice_from_official_govuk_preview","upstream_raw_csv_sha256":null,"upstream_raw_csv_sha256_status":"BINARY_BYTES_NOT_RETRIEVABLE_IN_RUNTIME","field_evidence":{"uprn":"Official GOV.UK CSV preview column 'uprn'; BDUK technical note defines UPRN as a unique identifier for every spatial address in Great Britain.","current_gigabit":"Official GOV.UK CSV preview column 'current_gigabit'; BDUK technical note describes current gigabit connectivity.","future_gigabit":"Official GOV.UK CSV preview column 'future_gigabit'; BDUK technical note describes future plans for a gigabit connection.","local_authority_district_ons_code":"Official CSV preview field."},"evidence_slice_sha256":"59ed345073504d4434f9b2863aa0ca79d5858282200e44915e411fed4ffe61e1","confidence_score_0_100":96,"evidence_grade":"A","fake_data":false,"canonical_status":"UNPROCESSED_LOCAL_OPENCODE_JOIN_REQUIRED"}},{"type":"Feature","geometry":null,"properties":{"source_row":46,"uprn":"44080597","struprn":"str44080597","bduk_recognised_premises":true,"country":"England","postcode":"ME7 2QU","lot_id":29,"lot_name":"Kent","subsidy_control_status":"Gigabit Grey/Black","current_gigabit":true,"future_gigabit":false,"local_authority_district_ons_code":"E06000035","local_authority_district_ons":"Medway","region_ons_code":"E12000008","region_ons":"South East","official_identifier_type":"UPRN","data_date":"2026-05","publication_date":"2026-09-17","source_url":"https://www.gov.uk/government/publications/may-2026-omr-and-premises-in-bduk-plans-england-and-wales","final_url":"https://www.gov.uk/csv-preview/6aa9520b086ce7c57b8184e5/202605_BDUK_uprn_release_sample.csv","raw_download_url":"https://assets.publishing.service.gov.uk/media/6aa9520b086ce7c57b8184e5/202605_BDUK_uprn_release_sample.csv","accessed_at_utc":"2026-09-30T18:57:00Z","licence":"Open Government Licence v3.0","file_sha256":"59ed345073504d4434f9b2863aa0ca79d5858282200e44915e411fed4ffe61e1","file_sha256_scope":"normalized_exact_50_row_evidence_slice_from_official_govuk_preview","upstream_raw_csv_sha256":null,"upstream_raw_csv_sha256_status":"BINARY_BYTES_NOT_RETRIEVABLE_IN_RUNTIME","field_evidence":{"uprn":"Official GOV.UK CSV preview column 'uprn'; BDUK technical note defines UPRN as a unique identifier for every spatial address in Great Britain.","current_gigabit":"Official GOV.UK CSV preview column 'current_gigabit'; BDUK technical note describes current gigabit connectivity.","future_gigabit":"Official GOV.UK CSV preview column 'future_gigabit'; BDUK technical note describes future plans for a gigabit connection.","local_authority_district_ons_code":"Official CSV preview field."},"evidence_slice_sha256":"59ed345073504d4434f9b2863aa0ca79d5858282200e44915e411fed4ffe61e1","confidence_score_0_100":96,"evidence_grade":"A","fake_data":false,"canonical_status":"UNPROCESSED_LOCAL_OPENCODE_JOIN_REQUIRED"}},{"type":"Feature","geometry":null,"properties":{"source_row":47,"uprn":"100061270470","struprn":"str100061270470","bduk_recognised_premises":true,"country":"England","postcode":"ME8 8EH","lot_id":29,"lot_name":"Kent","subsidy_control_status":"Gigabit Grey/Black","current_gigabit":true,"future_gigabit":false,"local_authority_district_ons_code":"E06000035","local_authority_district_ons":"Medway","region_ons_code":"E12000008","region_ons":"South East","official_identifier_type":"UPRN","data_date":"2026-05","publication_date":"2026-09-17","source_url":"https://www.gov.uk/government/publications/may-2026-omr-and-premises-in-bduk-plans-england-and-wales","final_url":"https://www.gov.uk/csv-preview/6aa9520b086ce7c57b8184e5/202605_BDUK_uprn_release_sample.csv","raw_download_url":"https://assets.publishing.service.gov.uk/media/6aa9520b086ce7c57b8184e5/202605_BDUK_uprn_release_sample.csv","accessed_at_utc":"2026-09-30T18:57:00Z","licence":"Open Government Licence v3.0","file_sha256":"59ed345073504d4434f9b2863aa0ca79d5858282200e44915e411fed4ffe61e1","file_sha256_scope":"normalized_exact_50_row_evidence_slice_from_official_govuk_preview","upstream_raw_csv_sha256":null,"upstream_raw_csv_sha256_status":"BINARY_BYTES_NOT_RETRIEVABLE_IN_RUNTIME","field_evidence":{"uprn":"Official GOV.UK CSV preview column 'uprn'; BDUK technical note defines UPRN as a unique identifier for every spatial address in Great Britain.","current_gigabit":"Official GOV.UK CSV preview column 'current_gigabit'; BDUK technical note describes current gigabit connectivity.","future_gigabit":"Official GOV.UK CSV preview column 'future_gigabit'; BDUK technical note describes future plans for a gigabit connection.","local_authority_district_ons_code":"Official CSV preview field."},"evidence_slice_sha256":"59ed345073504d4434f9b2863aa0ca79d5858282200e44915e411fed4ffe61e1","confidence_score_0_100":96,"evidence_grade":"A","fake_data":false,"canonical_status":"UNPROCESSED_LOCAL_OPENCODE_JOIN_REQUIRED"}},{"type":"Feature","geometry":null,"properties":{"source_row":48,"uprn":"44083238","struprn":"str44083238","bduk_recognised_premises":true,"country":"England","postcode":"ME3 8SU","lot_id":29,"lot_name":"Kent","subsidy_control_status":"Gigabit Grey/Black","current_gigabit":true,"future_gigabit":false,"local_authority_district_ons_code":"E06000035","local_authority_district_ons":"Medway","region_ons_code":"E12000008","region_ons":"South East","official_identifier_type":"UPRN","data_date":"2026-05","publication_date":"2026-09-17","source_url":"https://www.gov.uk/government/publications/may-2026-omr-and-premises-in-bduk-plans-england-and-wales","final_url":"https://www.gov.uk/csv-preview/6aa9520b086ce7c57b8184e5/202605_BDUK_uprn_release_sample.csv","raw_download_url":"https://assets.publishing.service.gov.uk/media/6aa9520b086ce7c57b8184e5/202605_BDUK_uprn_release_sample.csv","accessed_at_utc":"2026-09-30T18:57:00Z","licence":"Open Government Licence v3.0","file_sha256":"59ed345073504d4434f9b2863aa0ca79d5858282200e44915e411fed4ffe61e1","file_sha256_scope":"normalized_exact_50_row_evidence_slice_from_official_govuk_preview","upstream_raw_csv_sha256":null,"upstream_raw_csv_sha256_status":"BINARY_BYTES_NOT_RETRIEVABLE_IN_RUNTIME","field_evidence":{"uprn":"Official GOV.UK CSV preview column 'uprn'; BDUK technical note defines UPRN as a unique identifier for every spatial address in Great Britain.","current_gigabit":"Official GOV.UK CSV preview column 'current_gigabit'; BDUK technical note describes current gigabit connectivity.","future_gigabit":"Official GOV.UK CSV preview column 'future_gigabit'; BDUK technical note describes future plans for a gigabit connection.","local_authority_district_ons_code":"Official CSV preview field."},"evidence_slice_sha256":"59ed345073504d4434f9b2863aa0ca79d5858282200e44915e411fed4ffe61e1","confidence_score_0_100":96,"evidence_grade":"A","fake_data":false,"canonical_status":"UNPROCESSED_LOCAL_OPENCODE_JOIN_REQUIRED"}},{"type":"Feature","geometry":null,"properties":{"source_row":49,"uprn":"100061281181","struprn":"str100061281181","bduk_recognised_premises":true,"country":"England","postcode":"ME1 2QL","lot_id":29,"lot_name":"Kent","subsidy_control_status":"Gigabit Grey/Black","current_gigabit":true,"future_gigabit":false,"local_authority_district_ons_code":"E06000035","local_authority_district_ons":"Medway","region_ons_code":"E12000008","region_ons":"South East","official_identifier_type":"UPRN","data_date":"2026-05","publication_date":"2026-09-17","source_url":"https://www.gov.uk/government/publications/may-2026-omr-and-premises-in-bduk-plans-england-and-wales","final_url":"https://www.gov.uk/csv-preview/6aa9520b086ce7c57b8184e5/202605_BDUK_uprn_release_sample.csv","raw_download_url":"https://assets.publishing.service.gov.uk/media/6aa9520b086ce7c57b8184e5/202605_BDUK_uprn_release_sample.csv","accessed_at_utc":"2026-09-30T18:57:00Z","licence":"Open Government Licence v3.0","file_sha256":"59ed345073504d4434f9b2863aa0ca79d5858282200e44915e411fed4ffe61e1","file_sha256_scope":"normalized_exact_50_row_evidence_slice_from_official_govuk_preview","upstream_raw_csv_sha256":null,"upstream_raw_csv_sha256_status":"BINARY_BYTES_NOT_RETRIEVABLE_IN_RUNTIME","field_evidence":{"uprn":"Official GOV.UK CSV preview column 'uprn'; BDUK technical note defines UPRN as a unique identifier for every spatial address in Great Britain.","current_gigabit":"Official GOV.UK CSV preview column 'current_gigabit'; BDUK technical note describes current gigabit connectivity.","future_gigabit":"Official GOV.UK CSV preview column 'future_gigabit'; BDUK technical note describes future plans for a gigabit connection.","local_authority_district_ons_code":"Official CSV preview field."},"evidence_slice_sha256":"59ed345073504d4434f9b2863aa0ca79d5858282200e44915e411fed4ffe61e1","confidence_score_0_100":96,"evidence_grade":"A","fake_data":false,"canonical_status":"UNPROCESSED_LOCAL_OPENCODE_JOIN_REQUIRED"}},{"type":"Feature","geometry":null,"properties":{"source_row":50,"uprn":"44021570","struprn":"str44021570","bduk_recognised_premises":true,"country":"England","postcode":"ME1 2QA","lot_id":29,"lot_name":"Kent","subsidy_control_status":"Gigabit Grey/Black","current_gigabit":true,"future_gigabit":false,"local_authority_district_ons_code":"E06000035","local_authority_district_ons":"Medway","region_ons_code":"E12000008","region_ons":"South East","official_identifier_type":"UPRN","data_date":"2026-05","publication_date":"2026-09-17","source_url":"https://www.gov.uk/government/publications/may-2026-omr-and-premises-in-bduk-plans-england-and-wales","final_url":"https://www.gov.uk/csv-preview/6aa9520b086ce7c57b8184e5/202605_BDUK_uprn_release_sample.csv","raw_download_url":"https://assets.publishing.service.gov.uk/media/6aa9520b086ce7c57b8184e5/202605_BDUK_uprn_release_sample.csv","accessed_at_utc":"2026-09-30T18:57:00Z","licence":"Open Government Licence v3.0","file_sha256":"59ed345073504d4434f9b2863aa0ca79d5858282200e44915e411fed4ffe61e1","file_sha256_scope":"normalized_exact_50_row_evidence_slice_from_official_govuk_preview","upstream_raw_csv_sha256":null,"upstream_raw_csv_sha256_status":"BINARY_BYTES_NOT_RETRIEVABLE_IN_RUNTIME","field_evidence":{"uprn":"Official GOV.UK CSV preview column 'uprn'; BDUK technical note defines UPRN as a unique identifier for every spatial address in Great Britain.","current_gigabit":"Official GOV.UK CSV preview column 'current_gigabit'; BDUK technical note describes current gigabit connectivity.","future_gigabit":"Official GOV.UK CSV preview column 'future_gigabit'; BDUK technical note describes future plans for a gigabit connection.","local_authority_district_ons_code":"Official CSV preview field."},"evidence_slice_sha256":"59ed345073504d4434f9b2863aa0ca79d5858282200e44915e411fed4ffe61e1","confidence_score_0_100":96,"evidence_grade":"A","fake_data":false,"canonical_status":"UNPROCESSED_LOCAL_OPENCODE_JOIN_REQUIRED"}}]}