{"type":"FeatureCollection","name":"height_difference_5","crs":{"type":"name","properties":{"name":"EPSG:27700"}},"metadata":{"slot_id":"height_difference_5","owner":"height_difference_5","lineage_id":"height_difference_5-eb56f92ed3f0514c","page_generation":1,"schema":"AAYS_LAYER24_EVIDENCE_V1","partition":"layer24","semantic_mode_state":"ABSENT_IN_PRIOR_PHYSICAL_STATE_PRESERVED_BY_OMISSION","batch_id":"20261001T011200Z_ea_nlp_geojson_full_download_transport_blocked","record_policy":"No official binary payload => no source feature synthesized.","fake_data":false},"features":[]}
