{"type":"FeatureCollection","name":"height_difference_5","metadata":{"slot_id":"height_difference_5","owner":"height_difference_5","lineage_id":"height_difference_5-eb56f92ed3f0514c","page_generation":1,"schema":"AAYS_LAYER24_EVIDENCE_V1","partition":"layer24","semantic_mode_state":"ABSENT_IN_PRIOR_PHYSICAL_STATE_PRESERVED_BY_OMISSION","batch_id":"20261005T101400Z_spatialni_data_supply_crs_guidance_generic","record_policy":"Official Spatial NI generic CRS guidance only; EPSG:29902 is not assigned to Belfast City 2006 without dataset-specific evidence; no tile/file, parcel binding or geometry synthesized.","fake_data":false},"features":[{"type":"Feature","geometry":null,"properties":{"slot_id":"height_difference_5","owner":"height_difference_5","lineage_id":"height_difference_5-eb56f92ed3f0514c","page_generation":1,"schema":"AAYS_LAYER24_EVIDENCE_V1","partition":"layer24","batch_id":"20261005T101400Z_spatialni_data_supply_crs_guidance_generic","source_record_id":"SPATIALNI:DATA_SUPPLY_METADATA_CRS_GUIDANCE","source_url":"https://support.spatialni.gov.uk/nima/DownloadDocs/Guidance/SpatialNI_Data_Supply_Metadata_Form.pdf","access_utc":"2026-10-05T10:14:00Z","required_building_state":"BUILDING_PRESENT","binding_status":"LOCAL_OPENCODE_BUILDING_PRESENT_EXACT_TILE_BIND_REQUIRED","generic_data_supply_crs_name":"Irish Grid (TM65)","generic_data_supply_crs_epsg":"EPSG:29902","dataset_specific_crs_confirmed":false,"screenshot_transport_status":"CACHE_MISS_NON_RETRYABLE","exact_tile_identifier":null,"crs":null,"evidence_slice_sha256":"fa126d391a3f280bb6458a3c25b3ef8108a8ff6fb462e36b3f2b9c0f55af3d1b","accepted_count_contribution":0,"source_area_count_contribution":0,"fake_data":false}}]}
