{"type":"FeatureCollection","name":"height_difference_5","metadata":{"slot_id":"height_difference_5","owner":"height_difference_5","lineage_id":"height_difference_5-eb56f92ed3f0514c","page_generation":1,"schema":"AAYS_LAYER24_EVIDENCE_V1","partition":"layer24","semantic_mode_state":"ABSENT_IN_PRIOR_PHYSICAL_STATE_PRESERVED_BY_OMISSION","batch_id":"20261005T053000Z_spatialni_nima_service_catalog_login_blocked","record_policy":"Official Spatial NI NIMA service-catalog access blocker evidence only; no service endpoint, tile/file, parcel binding, geometry or CRS synthesized.","fake_data":false},"features":[{"type":"Feature","geometry":null,"properties":{"slot_id":"height_difference_5","owner":"height_difference_5","lineage_id":"height_difference_5-eb56f92ed3f0514c","page_generation":1,"schema":"AAYS_LAYER24_EVIDENCE_V1","partition":"layer24","batch_id":"20261005T053000Z_spatialni_nima_service_catalog_login_blocked","source_record_id":"SPATIALNI_NIMA:BELFAST_2006_SERVICE_METADATA_ACCESS","source_url":"https://support.spatialni.gov.uk/nima/help-faq.html","access_utc":"2026-10-05T05:30:00Z","required_building_state":"BUILDING_PRESENT","binding_status":"LOCAL_OPENCODE_BUILDING_PRESENT_EXACT_TILE_BIND_REQUIRED","portal_access_status":"NIMA_LOGIN_REQUIRED","service_endpoint":null,"exact_tile_identifier":null,"crs":null,"evidence_slice_sha256":"eae694df9d43b3ce1f9f14c6926812758e7256a24330d98767bc903386a6f650","accepted_count_contribution":0,"source_area_count_contribution":0,"fake_data":false}}]}
