{"type":"FeatureCollection","features":[{"type":"Feature","id":"planned_buildings_2-planning-data-brownfield-ref-B051","geometry":null,"properties":{"entity":1737312,"reference":"B051","canonical_record_key":"planning-data:brownfield-land-ref:B051","planned_project_name":"Land at Lower Derby Road","planned_project_status":"not-permissioned","borough":"Watford Borough Council","official_hectares":0.27,"official_deliverable":true,"official_minimum_net_dwellings":59,"official_maximum_net_dwellings":59,"planned_building_value":null,"planned_building_probability":null,"planned_building_complete_month":null,"source_quality":"authoritative","source_url":"https://www.planning.data.gov.uk/entity/1737312","source_license":"Open Government Licence v3.0","fake_data":false}}],"metadata":{"slot_id":"planned_buildings_2","batch_index":244,"source_index":20,"source_window":{"resource_index":1,"limit":1},"feature_count_before":584,"feature_count_after":585,"unique_real_site_project_before":425,"unique_real_site_project_after":426,"duplicate_count_new":0,"nearest_match_used":false,"parcel_match_used":false,"geometry_inference_used":false,"mirror_only":true}}