{"type":"FeatureCollection","features":[{"type":"Feature","id":"planned_buildings_2-planning-data-brownfield-ref-B058","geometry":null,"properties":{"entity":1737319,"reference":"B058","canonical_record_key":"planning-data:brownfield-land-ref:B058","planned_project_name":"Land at Croxley View","planned_project_status":"not-permissioned","borough":"Watford Borough Council","official_hectares":3.2,"official_deliverable":true,"official_minimum_net_dwellings":240,"official_maximum_net_dwellings":null,"planned_building_value":null,"planned_building_probability":null,"planned_building_complete_month":null,"source_quality":"authoritative","source_url":"https://www.planning.data.gov.uk/entity/1737319","source_license":"Open Government Licence v3.0","fake_data":false}}],"metadata":{"slot_id":"planned_buildings_2","batch_index":247,"source_index":20,"source_window":{"resource_index":4,"limit":1},"feature_count_before":587,"feature_count_after":588,"unique_real_site_project_before":428,"unique_real_site_project_after":429,"duplicate_count_new":0,"nearest_match_used":false,"parcel_match_used":false,"geometry_inference_used":false,"mirror_only":true}}