{"type":"FeatureCollection","features":[{"type":"Feature","id":"planned_buildings_2-planning-data-brownfield-ref-B050","geometry":null,"properties":{"entity":1737311,"reference":"B050","canonical_record_key":"planning-data:brownfield-land-ref:B050","planned_project_name":"Crown Passage car park","planned_project_status":"not-permissioned","borough":"Watford Borough Council","official_hectares":0.1,"official_deliverable":true,"official_minimum_net_dwellings":18,"official_maximum_net_dwellings":18,"planned_building_value":null,"planned_building_probability":null,"planned_building_complete_month":null,"source_quality":"authoritative","source_url":"https://www.planning.data.gov.uk/entity/1737311","source_license":"Open Government Licence v3.0","fake_data":false}}],"metadata":{"slot_id":"planned_buildings_2","batch_index":243,"source_index":20,"source_window":{"resource_index":0,"limit":1},"feature_count_before":583,"feature_count_after":584,"unique_real_site_project_before":424,"unique_real_site_project_after":425,"duplicate_count_new":0,"nearest_match_used":false,"parcel_match_used":false,"geometry_inference_used":false,"mirror_only":true}}