{"type":"FeatureCollection","features":[{"type":"Feature","id":"planned_buildings_2-B050","geometry":null,"properties":{"reference":"B050","canonical_record_key":"planning-data:brownfield-land-ref:B050","planned_project_name":"Crown Passage car park","fake_data":false}},{"type":"Feature","id":"planned_buildings_2-B051","geometry":null,"properties":{"reference":"B051","canonical_record_key":"planning-data:brownfield-land-ref:B051","planned_project_name":"Land at Lower Derby Road","fake_data":false}},{"type":"Feature","id":"planned_buildings_2-B053","geometry":null,"properties":{"reference":"B053","canonical_record_key":"planning-data:brownfield-land-ref:B053","planned_project_name":"Land and buildings at 252-272 Lower High Street","fake_data":false}},{"type":"Feature","id":"planned_buildings_2-B056","geometry":null,"properties":{"reference":"B056","canonical_record_key":"planning-data:brownfield-land-ref:B056","planned_project_name":"Land and garages to the rear of 15-17 Liverpool Road","fake_data":false}},{"type":"Feature","id":"planned_buildings_2-B058","geometry":null,"properties":{"reference":"B058","canonical_record_key":"planning-data:brownfield-land-ref:B058","planned_project_name":"Land at Croxley View","fake_data":false}},{"type":"Feature","id":"planned_buildings_2-B064","geometry":null,"properties":{"reference":"B064","canonical_record_key":"planning-data:brownfield-land-ref:B064","planned_project_name":"Land at Woodside Community Centre","fake_data":false}},{"type":"Feature","id":"planned_buildings_2-B001","geometry":null,"properties":{"reference":"B001","canonical_record_key":"planning-data:brownfield-land-ref:B001","planned_project_name":"Pinner Road, Car Wash & Bushey Station Car Park & sub station (TFL)","fake_data":false}},{"type":"Feature","id":"planned_buildings_2-B002","geometry":null,"properties":{"reference":"B002","canonical_record_key":"planning-data:brownfield-land-ref:B002","planned_project_name":"Skate Park at Lower Derby Road, plus car wash, auto repair and retail","fake_data":false}},{"type":"Feature","id":"planned_buildings_2-B003","geometry":null,"properties":{"reference":"B003","canonical_record_key":"planning-data:brownfield-land-ref:B003","planned_project_name":"Vicarage Road, MOT Garage adjacent football stadium, Watford","fake_data":false}},{"type":"Feature","id":"planned_buildings_2-B004","geometry":null,"properties":{"reference":"B004","canonical_record_key":"planning-data:brownfield-land-ref:B004","planned_project_name":"Telephone Exchange, First Avenue, adjacent to Lea Farm Recreation Ground","fake_data":false}},{"type":"Feature","id":"planned_buildings_2-B008","geometry":null,"properties":{"reference":"B008","canonical_record_key":"planning-data:brownfield-land-ref:B008","planned_project_name":"Garages - York Way adjacent M1, Meriden","fake_data":false}}],"metadata":{"slot_id":"planned_buildings_2","batch_indices":[243,244,245,246,247,248,249,250,251,252,253],"feature_count_before":583,"features_added":11,"feature_count_after":594,"unique_real_site_project_before":424,"unique_real_site_project_added":11,"unique_real_site_project_after":435,"duplicate_count_new":0,"nearest_match_used":false,"parcel_match_used":false,"geometry_inference_used":false,"mirror_only":true,"preclose_corrected_duplicate":{"removed_reference":"B062","replacement_reference":"B064"}}}