{"type":"FeatureCollection","features":[{"type":"Feature","id":"planned_buildings_2-gla-hz-022-catford-town-centre","geometry":null,"properties":{"slot_id":"planned_buildings_2","source_dataset_id":"gla_city_hall_housing_zones_detail","source_index":3,"source_window_index":21,"published_zone_number":22,"official_site_key":"GLA-HZ-CITYHALL-022","canonical_record_key":"london-city-hall:housing-zones:22:catford-town-centre","planned_project_name":"Catford town centre","planned_project_type":"housing_zone_program_area","planned_project_status":"official_housing_zone_program_record","borough":"London Borough of Lewisham","official_total_homes":2500,"parcel_id":null,"planned_building_value":null,"planned_building_probability":null,"planned_building_complete_month":null,"planned_site_geometry":null,"matching_method":"direct_official_housing_zone_program_record_no_parcel_match","source_url":"https://www.london.gov.uk/programmes-strategies/housing-and-land/mayors-priorities-londons-housing-and-land/housing-zones","source_quality":"authoritative","demo_only":true,"fake_data":false,"final_ready":false,"production_merge":false,"generated_at":"2026-08-18T03:59:11Z"}}],"metadata":{"slot_id":"planned_buildings_2","batch_index":78,"source_index":3,"source_window":{"resource_index":21,"limit":1},"feature_count_before":437,"feature_count_after":438,"unique_real_site_project_before":278,"unique_real_site_project_after":279,"duplicate_count_new":0,"nearest_match_used":false,"parcel_match_used":false,"fake_data":false,"mirror_only":true}}