{"type":"FeatureCollection","features":[],"metadata":{"slot_id":"planned_buildings_2","batch_index":75,"source_index":3,"source_window":{"resource_index":18,"limit":1},"published_zone_number":19,"source_entity":"Canada Water","source_result":"SKIPPED_EXISTING_REAL_SITE","existing_real_site_match":{"normalized_official_title":"canada water","existing_source_family":"gla_opportunity_area_pen_portraits","existing_canonical_record_key":"london-datastore:opportunity-area-pen-portraits-2025:canada-water"},"feature_count_before":436,"feature_count_after":436,"unique_real_site_project_before":277,"unique_real_site_project_after":277,"new_feature_count":0,"duplicate_count_new":0,"duplicate_added":false,"nearest_match_used":false,"parcel_match_used":false,"geometry_inference_used":false,"fake_data":false,"mirror_only":true}}