{"type":"FeatureCollection","features":[{"type":"Feature","id":"planned_buildings_2-gla-hz-016-sutton-one","geometry":null,"properties":{"slot_id":"planned_buildings_2","source_dataset_id":"gla_city_hall_housing_zones_detail","source_index":3,"source_window_index":15,"published_zone_number":16,"official_site_key":"GLA-HZ-CITYHALL-016","canonical_record_key":"london-city-hall:housing-zones:16:sutton-one","planned_project_name":"Sutton One","planned_project_type":"housing_zone_program_area","planned_project_status":"official_housing_zone_program_record","borough":"London Borough of Sutton","official_total_homes":1672,"parcel_id":null,"planned_building_value":null,"planned_building_probability":null,"planned_building_complete_month":null,"planned_site_geometry":null,"matching_method":"direct_official_housing_zone_program_record_no_parcel_match","source_url":"https://www.london.gov.uk/programmes-strategies/housing-and-land/mayors-priorities-londons-housing-and-land/housing-zones","source_quality":"authoritative","demo_only":true,"fake_data":false,"final_ready":false,"production_merge":false,"generated_at":"2026-08-18T03:59:05Z"}}],"metadata":{"slot_id":"planned_buildings_2","batch_index":72,"source_index":3,"source_window":{"resource_index":15,"limit":1},"feature_count_before":434,"feature_count_after":435,"unique_real_site_project_before":275,"unique_real_site_project_after":276,"duplicate_count_new":0,"nearest_match_used":false,"parcel_match_used":false,"fake_data":false,"mirror_only":true}}