{"type":"FeatureCollection","features":[{"type":"Feature","geometry":null,"properties":{"slot_id":"future_growth_3","lineage_id":"future_growth_3-newstart-20261001T203100Z","page_generation":null,"accepted_as_parcel":false,"source_area_count_contribution":1,"exact_identifier":"SHL00001","exact_identifier_provided":true,"coverage_polygon_provided":false,"identifier_namespace":"Planning Data brownfield-land reference","secondary_exact_identifier":"entity:1700885","source_entity":"SHL00001 - 3 Monk Bridge Road Meanwood Leeds","access_utc":"2026-10-03T06:04:27Z","data_date":"2016-11-07","source_url":"https://www.planning.data.gov.uk/entity/1700885","final_url":"https://www.planning.data.gov.uk/entity/1700885","license":"Open Government Licence v3.0; attribution © Crown copyright and database right 2026.","authority":"Leeds City Council","site_address":"3 Monk Bridge Road Meanwood Leeds","field_evidence":{"reference":"SHL00001","entity":1700885,"dataset":"brownfield-land","organisation":"Leeds City Council","entry_date":"2016-11-07","site_address":"3 Monk Bridge Road Meanwood Leeds","point":"POINT (-1.57375 53.826734)","hectares":0.51,"deliverable":"yes","site_plan_url":"https://leedscc.maps.arcgis.com/apps/webappviewer/index.html?id=612532561dc547fa93e683a5fca73079&find=SHL00001","ownership_status":"not-owned-by-a-public-authority","maximum_net_dwellings":9,"minimum_net_dwellings":9,"planning_permission_status":"not-permissioned"},"source_payload_sha256":"ae68865e314a5c8d85fd34180471fe51a4d269230a2b430bb8b9030f533ed0c5","source_payload_sha256_basis":"canonicalized official Planning Data Leeds brownfield-land SHL00001 evidence fields","evidence_slice_sha256":"7558e8d0821a96731424a22087a342046ccc530b3d991abc4825b67e7a7172b0","evidence_grade":"A","confidence_score_0_100":99,"evidence_scope":"exact_official_identifier_from_authoritative_planning_data_brownfield_entity","fake_data":false,"spatial_binding_method":"official Planning Data brownfield reference SHL00001 / entity 1700885 and Leeds City Council site-plan URL; canonical parcel spatial join and materialization delegated to local OpenCode","planned_building_count_contribution":0}}]}