{"type":"FeatureCollection","features":[{"type":"Feature","id":"CHERWELL_24_01889_F_REAR_ANNEXE_GARDEN_ROOM_01","geometry":null,"properties":{"slot_id":"planned_buildings_4","owner":"planned_buildings_4","lineage_id":"pb4-8debc7c8ddf348a2","page_generation":1,"partition":"layer24","schema":"AAYS_LAYER24_EVIDENCE_V1","semantic_mode":"PLANNED_BUILDINGS_OFFICIAL_REFERENCE_DISTINCT_STRUCTURE","batch_id":"20261004T145225Z-cherwell-24-01889-f-window-001","publisher":"Cherwell District Council","source_family":"CHERWELL_PLANNING_REGISTER","source_url":"https://planningregister.cherwell.gov.uk/Planning/Display/24/01889/F","final_url":"https://planningregister.cherwell.gov.uk/Planning/Display/24/01889/F","access_utc":"2026-10-04T14:52:25Z","data_date":"2024-07-17","license":"Public planning register; document copyright/usage remains governed by council register terms","planning_reference":"24/01889/F","location":"39 Easington Road Banbury OX16 9HH","proposal":"Single storey rear annexe/outdoor garden room/shelter seating area","status":"Application Permitted","geometry_status":"NOT_MATERIALIZED_LOCAL_OPENCODE","field_evidence":"Official Cherwell District Council Planning Register application 24/01889/F. Application Type: Full Development. Status: Application Permitted. Valid date: 17/07/2024. Location: 39 Easington Road Banbury OX16 9HH. Proposal: Single storey rear annexe/outdoor garden room/shelter seating area. Decision: Permitted. Decision Issued Date: 11/09/2024. Official documents include 00-ST-01-SITE & LOCATION PLAN-P02.pdf (00-ST-01-P02, Site Location Plan/Block Plan), 00-PR-EL-01-PROPOSED ELEVATIONS-P03.pdf (00-PR-EL-01-P03, Proposed elevations), and 00-PR-FP-01-PROPOSED FLOOR PLANS-P03.pdf (00-PR-FP-01-P03, Proposed floor plans). The delegated officer report states that the amended plans reduce the overall height of both proposed buildings, and separately refers to the roof of the annexe; this supports two distinct planned structures: the rear annexe/outdoor garden room and the separate shelter seating area. Geometry/materialization is deferred to local OpenCode.","evidence_slice_sha256":"4659f4b2228a81016d2779b4679a887248e52842a967964bf0f46f1fef2eefe1","confidence":0.99,"evidence_grade":"A_OFFICIAL_LOCAL_AUTHORITY_PLANNING_REGISTER_TWO_DISTINCT_BUILDINGS_PERMITTED","fake_data":false,"official_plan_reference":"00-ST-01 - P02; 00-PR-EL-01 - P03; 00-PR-FP-01 - P03","official_plan_description":"Site Location Plan/Block Plan; Proposed elevations; Proposed floor plans","source_record_id":"CHERWELL_24_01889_F_REAR_ANNEXE_GARDEN_ROOM_01","planned_building":"rear annexe/outdoor garden room"}},{"type":"Feature","id":"CHERWELL_24_01889_F_SHELTER_SEATING_AREA_02","geometry":null,"properties":{"slot_id":"planned_buildings_4","owner":"planned_buildings_4","lineage_id":"pb4-8debc7c8ddf348a2","page_generation":1,"partition":"layer24","schema":"AAYS_LAYER24_EVIDENCE_V1","semantic_mode":"PLANNED_BUILDINGS_OFFICIAL_REFERENCE_DISTINCT_STRUCTURE","batch_id":"20261004T145225Z-cherwell-24-01889-f-window-001","publisher":"Cherwell District Council","source_family":"CHERWELL_PLANNING_REGISTER","source_url":"https://planningregister.cherwell.gov.uk/Planning/Display/24/01889/F","final_url":"https://planningregister.cherwell.gov.uk/Planning/Display/24/01889/F","access_utc":"2026-10-04T14:52:25Z","data_date":"2024-07-17","license":"Public planning register; document copyright/usage remains governed by council register terms","planning_reference":"24/01889/F","location":"39 Easington Road Banbury OX16 9HH","proposal":"Single storey rear annexe/outdoor garden room/shelter seating area","status":"Application Permitted","geometry_status":"NOT_MATERIALIZED_LOCAL_OPENCODE","field_evidence":"Official Cherwell District Council Planning Register application 24/01889/F. Application Type: Full Development. Status: Application Permitted. Valid date: 17/07/2024. Location: 39 Easington Road Banbury OX16 9HH. Proposal: Single storey rear annexe/outdoor garden room/shelter seating area. Decision: Permitted. Decision Issued Date: 11/09/2024. Official documents include 00-ST-01-SITE & LOCATION PLAN-P02.pdf (00-ST-01-P02, Site Location Plan/Block Plan), 00-PR-EL-01-PROPOSED ELEVATIONS-P03.pdf (00-PR-EL-01-P03, Proposed elevations), and 00-PR-FP-01-PROPOSED FLOOR PLANS-P03.pdf (00-PR-FP-01-P03, Proposed floor plans). The delegated officer report states that the amended plans reduce the overall height of both proposed buildings, and separately refers to the roof of the annexe; this supports two distinct planned structures: the rear annexe/outdoor garden room and the separate shelter seating area. Geometry/materialization is deferred to local OpenCode.","evidence_slice_sha256":"4659f4b2228a81016d2779b4679a887248e52842a967964bf0f46f1fef2eefe1","confidence":0.99,"evidence_grade":"A_OFFICIAL_LOCAL_AUTHORITY_PLANNING_REGISTER_TWO_DISTINCT_BUILDINGS_PERMITTED","fake_data":false,"official_plan_reference":"00-ST-01 - P02; 00-PR-EL-01 - P03; 00-PR-FP-01 - P03","official_plan_description":"Site Location Plan/Block Plan; Proposed elevations; Proposed floor plans","source_record_id":"CHERWELL_24_01889_F_SHELTER_SEATING_AREA_02","planned_building":"shelter seating area"}}]}
