{"type":"FeatureCollection","features":[{"type":"Feature","geometry":null,"properties":{"slot_id":"future_growth_1","lineage_id":"future_growth_1-newstart-20260927T153100+0300","page_generation":null,"accepted_as_parcel":false,"source_area_count_contribution":1,"exact_identifier":"BLR1","exact_identifier_provided":true,"coverage_polygon_provided":false,"identifier_namespace":"London Borough of Bromley Brownfield Land Register","site_name":"Gas Holder Site, Homesdale Road, Bromley, BR1 2UE","access_utc":"2026-10-07T01:52:00Z","data_date":"2024-01-03","source_url":"https://www.bromley.gov.uk/downloads/file/668/brownfield-land-register","final_url":"https://www.bromley.gov.uk/downloads/file/668/brownfield-land-register","local_plan_url":"https://www.bromley.gov.uk/localplan","gis_url":"https://services.arcgis.com/drifeOPKLpgnJ8Qa/ArcGIS/rest/services/planning_local_plan_data_06/FeatureServer/45","license":"Publicly accessible Bromley Council planning-policy and brownfield-register data plus GLA-hosted local-plan GIS; dataset-specific reuse licence not stated on the source pages","authority":"London Borough of Bromley","site_area_hectares":1,"deliverable":"Yes","planning_status":"Not permissioned","min_net_dwellings":60,"local_plan_site_reference":"Site 4","gis_layer_id":45,"gis_geometry_type":"esriGeometryPolygon","evidence_grade":"A","confidence_score_0_100":99,"evidence_scope":"exact Bromley BLR1 brownfield-register record cross-walked to adopted Local Plan Site 4 and public Site Allocations polygon-layer metadata","evidence_slice_sha256":"0eaa897d7c7783341d1de73fffdc389154c1337c27af99f8d5e026de941a7d7b","fake_data":false,"spatial_binding_method":"official BLR1 register identifier plus Local Plan Site 4 crosswalk and polygon-layer metadata; exact feature resolution, canonical parcel spatial join and materialization delegated to local OpenCode","planned_building_count_contribution":0}}]}