{"type":"FeatureCollection","features":[{"type":"Feature","id":"planning-data-brownfield-land:1729440","geometry":null,"properties":{"slot_id":"future_growth_4","lineage_id":"fg4-e4c9076d6f554f00","page_generation":1,"owner":"future_growth_4","partition":"future_growth","semantic_mode":"SOURCE_AREA_EXACT_IDENTIFIER","dataset":"planning-data-brownfield-land","entity":1729440,"reference":"BR00244","quality":"authoritative","organisation":"London Borough of Brent","name":"Elm Road","site_address":"Elm Road","source_url":"https://www.planning.data.gov.uk/entity/1729440","final_url":"https://www.planning.data.gov.uk/entity/1729440","access_utc":"2026-10-04T15:31:00Z","data_date":"2026-04-10","license":"Open Government Licence v3.0","field_evidence":{"reference":"BR00244","entity":1729440,"organisation":"London Borough of Brent","start_date":"2022-03-04","entry_date":"2026-04-10","point_wkt":"POINT (-0.296538 51.553992)","notes":"21/4155 to be determined. Brent Local Plan 2019-2041 site allocation BSWSA10","hectares":2.98,"site_address":"Elm Road","site_plan_url":"https://maps.london.gov.uk/brownfield-site-register","ownership_status":"mixed-ownership","maximum_net_dwellings":400,"minimum_net_dwellings":400,"planning_permission_status":"not-permissioned","planning_permission_history":"https://pa.brent.gov.uk/online-applications/simpleSearchResults.do?action=firstPage","allocation_reference":"BSWSA10"},"evidence_slice_sha256":"be8b547b4d6839b1f2f8ff465b262610deac3d5730e4e755f9884aec77a92d6c","confidence_score_0_100":99,"confidence":0.99,"evidence_grade":"A","exact_identifier_provided":true,"coverage_polygon_provided":false,"fake_data":false,"join_mode":"LOCAL_OPENCODE_SPATIAL_JOIN_PENDING","direct_parcel":false,"source_area_count_contribution":1,"planned_building_count_contribution":0}}]}