{"type":"FeatureCollection","name":"height_difference_5","metadata":{"slot_id":"height_difference_5","owner":"height_difference_5","lineage_id":"height_difference_5-eb56f92ed3f0514c","page_generation":1,"schema":"AAYS_LAYER24_EVIDENCE_V1","partition":"layer24","semantic_mode_state":"ABSENT_IN_PRIOR_PHYSICAL_STATE_PRESERVED_BY_OMISSION","batch_id":"20261003T141800Z_belfast_2006_data_gov_uk_ckan_v3_package_show_blocked","record_policy":"Official data.gov.uk CKAN v3 package_show blocker evidence only; no prior source fingerprint retry, tile/file, parcel binding, geometry or CRS synthesized.","fake_data":false},"features":[{"type":"Feature","geometry":null,"properties":{"slot_id":"height_difference_5","owner":"height_difference_5","lineage_id":"height_difference_5-eb56f92ed3f0514c","page_generation":1,"schema":"AAYS_LAYER24_EVIDENCE_V1","partition":"layer24","batch_id":"20261003T141800Z_belfast_2006_data_gov_uk_ckan_v3_package_show_blocked","source_record_id":"DFI_BELFAST_LIDAR_2006:DATA_GOV_UK_CKAN_V3_PACKAGE_SHOW","source_url":"https://www.data.gov.uk/dataset/1af1f042-2934-4912-8548-9186303ddb5f/lidar-belfast-city-2006","api_url":"https://www.data.gov.uk/api/3/action/package_show?id=1af1f042-2934-4912-8548-9186303ddb5f","dataset_id":"1af1f042-2934-4912-8548-9186303ddb5f","access_utc":"2026-10-03T14:18:00Z","required_building_state":"BUILDING_PRESENT","binding_status":"LOCAL_OPENCODE_BUILDING_PRESENT_EXACT_TILE_BIND_REQUIRED","metadata_transport_status":"ENDPOINT_INACCESSIBLE_NON_RETRYABLE","payload_url":null,"exact_tile_identifier":null,"crs":null,"evidence_slice_sha256":"b98ad1a5b1745290228fc43d66b15a33c9c0074015e7e4267e1e50fdcd6bad16","accepted_count_contribution":0,"source_area_count_contribution":0,"fake_data":false}}]}
