{"type":"FeatureCollection","features":[{"type":"Feature","geometry":null,"properties":{"slot_id":"future_growth_1","lineage_id":"future_growth_1-newstart-20260927T153100+0300","page_generation":null,"accepted_as_parcel":false,"source_area_count_contribution":1,"exact_identifier":"245","entity_id":1730726,"exact_identifier_provided":true,"coverage_polygon_provided":false,"identifier_namespace":"Planning Data brownfield-land / Dartford Brownfield Land Register reference","site_name":"Bluewater Chestnut Avenue East (Site C)","access_utc":"2026-10-01T21:58:00Z","data_date":"2025-12-18","source_url":"https://www.planning.data.gov.uk/entity/1730726","final_url":"https://www.planning.data.gov.uk/entity/1730726","geojson_download_url":"https://www.planning.data.gov.uk/entity/1730726.geojson","site_plan_url":"https://www.dartford.gov.uk/downloads/file/2520/245-bluewater-chestnut-avenue-east","license":"Open Government Licence v3.0","authority":"Dartford Borough Council","quality":"authoritative","hectares":1.53,"policy_allocation":"M21","minimum_net_dwellings":114,"maximum_net_dwellings":114,"planning_permission_status":"not-permissioned","point_wkt":"POINT (0.271724 51.438153)","evidence_grade":"A","confidence_score_0_100":99,"evidence_scope":"exact_official_register_identifier_plus_official_geographical_area_and_site_plan_links","evidence_slice_sha256":"bf9eb0ad17b20ed3cb9182163ae25c26d12f53fff2f1dac4c00b33c7edbe3db3","fake_data":false,"spatial_binding_method":"official Planning Data exact entity/reference with geographical-area GeoJSON and Dartford site-plan links; canonical parcel spatial join and materialization delegated to local OpenCode","planned_building_count_contribution":0}}]}