{"type":"FeatureCollection","name":"height_difference_2","features":[],"metadata":{"slot_id":"height_difference_2","lineage_id":"height_difference_2_20260930T001051Z","page_generation":1,"partition":"source_area","schema":"AAYS_LAYER24_EVIDENCE_V1","fake_data":false,"owner":"cagdas aydin","batch_id":"batch_0078_post_batch0077_current_head_dependency_delta_blocker_20261005T231000+0300","cursor":"BLOCKED_POST_BATCH_0077_CURRENT_HEAD_DEPENDENCY_DELTA_NO_HD2_CANONICAL_OR_TILE_BINDING","source_area_count":0,"accepted_count":0,"unmatched_count":1,"scan_head_sha":"25fcceac21a70578dbeb2286c52d6d6a0ebc0646","reason":"EXACT_BLOCKER: after repeated zero-acceptance rounds, the method was materially changed from direct official BUILDING_PRESENT producer admissibility review to a current-head dependency-delta audit from immutable batch_0077 commit 44e97a0d28f5a373dd654eb45bbda4d50cab66e2 through main head 25fcceac21a70578dbeb2286c52d6d6a0ebc0646. The 7 intervening commits add only unrelated security/internet-access artifacts and no height_difference_2 path, slot-bound canonical_parcel_id materialization, parcel geometry/bbox binding, or exact official DEM/LIDAR tile selector. The family start criterion therefore remains unsatisfied; no external DEM/LIDAR window was opened. Local OpenCode must publish a non-null height_difference_2 canonical_parcel_id with BUILDING_PRESENT plus parcel geometry/bbox or an exact official DEM/LIDAR tile selector."}}
