{"type":"FeatureCollection","features":[{"type":"Feature","geometry":null,"properties":{"slot_id":"future_growth_3","lineage_id":"future_growth_3-newstart-20261001T203100Z","page_generation":null,"accepted_as_parcel":false,"source_area_count_contribution":1,"exact_identifier":"E60000014","exact_identifier_provided":true,"coverage_polygon_provided":false,"identifier_namespace":"Planning Data local-plan boundary","secondary_exact_identifier":"local-plan:blackpool-borough-council-local-plan-2045","source_entity":4220194,"access_utc":"2026-10-01T21:29:25Z","data_date":"2026-03-30","source_url":"https://www.planning.data.gov.uk/entity/4220194","final_url":"https://www.planning.data.gov.uk/entity/4220194","license":"Open Government Licence v3.0","authority":"Blackpool Borough Council / Ministry of Housing, Communities & Local Government Planning Data","plan_name":"New Local Plan to 2045","period_end_date":"2045-01-01","local_plan_process":"draft","field_evidence":{"curie":"local-plan:blackpool-borough-council-local-plan-2045","reference":"blackpool-borough-council-local-plan-2045","name":"New Local Plan to 2045","organisation":"Blackpool Borough Council","entry_date":"2026-03-30","period_end_date":"2045-01-01","local_plan_process":"draft","local_plan_boundary":"E60000014","local_planning_authorities":"E60000014"},"source_payload_sha256":"89f5c04f5c7ea3fbb01737690ccc0d6be4a7212bcb124c9cd6ca428336df9106","source_payload_sha256_basis":"canonicalized official entity JSON fields exposed by Planning Data","evidence_slice_sha256":"683388960aa6cf2078a922c7e952b6a9456d36234b57389cb859469d35355662","evidence_grade":"A","confidence_score_0_100":98,"evidence_scope":"exact_official_identifier","fake_data":false,"spatial_binding_method":"official exact local-plan-boundary identifier; canonical geometry resolution, parcel spatial join and materialization delegated to local OpenCode","planned_building_count_contribution":0}}]}