{"type":"FeatureCollection","features":[{"type":"Feature","geometry":null,"properties":{"slot_id":"future_growth_3","lineage_id":"future_growth_3-newstart-20261001T203100Z","page_generation":null,"accepted_as_parcel":false,"source_area_count_contribution":1,"exact_identifier":"NSP02","exact_identifier_provided":true,"coverage_polygon_provided":false,"identifier_namespace":"Southwark Plan 2022 site allocation number","secondary_exact_identifier":"Borough and the Bankside","source_entity":"NSP02 - Borough and the Bankside site allocation","access_utc":"2026-10-03T21:59:32Z","data_date":"2024-09-24","source_url":"https://www.southwark.gov.uk/planning-environment-and-building-control/planning/planning-policy-and-guidance/monitoring-4/site","final_url":"https://www.southwark.gov.uk/planning-environment-and-building-control/planning/planning-policy-and-guidance/monitoring-4/site","license":"Southwark Council copyright; no explicit open-data licence is stated on the source page.","authority":"Southwark Council","site_address":"Borough and the Bankside, London","field_evidence":{"reference":"NSP02","dataset":"Southwark Plan 2022 site allocations monitoring","organisation":"Southwark Council","area":"Borough and the Bankside","indicative_net_open_space_provision_sqm":1968,"page_last_updated":"2024-09-24"},"source_payload_sha256":"b7a9007ba8485dd87b9a143f79998067a1b8a838b4fa254919f5d9d4d08eb711","source_payload_sha256_basis":"canonicalized official Southwark Council NSP02 monitoring fields","evidence_slice_sha256":"d7470eb01e253d0e30e1198f282ef73e6d8e458108b836a6ce4fcd870408bab2","evidence_grade":"A","confidence_score_0_100":99,"evidence_scope":"exact_official_identifier_from_southwark_council_site_allocations_monitoring","fake_data":false,"spatial_binding_method":"official Southwark Plan 2022 site-allocation reference NSP02; canonical polygon resolution, parcel spatial join, and materialization delegated to local OpenCode","planned_building_count_contribution":0}}]}