{"type":"FeatureCollection","features":[{"type":"Feature","geometry":null,"properties":{"slot_id":"future_growth_3","lineage_id":"future_growth_3-newstart-20261001T203100Z","page_generation":null,"accepted_as_parcel":false,"source_area_count_contribution":1,"exact_identifier":"HS18","exact_identifier_provided":true,"coverage_polygon_provided":false,"identifier_namespace":"Hastings Local Plan Draft Local Plan Preferred Options (Regulation 18) site allocation policy reference","secondary_exact_identifier":"SHELAA:HL148","source_entity":"HS18 - Land at Tilekiln Farm","access_utc":"2026-10-04T22:31:00Z","data_date":"2026-02","source_url":"https://hastings.oc2.uk/document/190/29856","final_url":"https://hastings.oc2.uk/document/190/29856","license":"Hastings Borough Council plan content; Crown copyright and database rights 2026 OS AC0000815183; re-use subject to stated Council and Ordnance Survey rights.","authority":"Hastings Borough Council","site_address":"Land at Tilekiln Farm, Hastings","field_evidence":{"reference":"HS18","shelaa_reference":"HL148","dataset":"Hastings Local Plan Draft Local Plan Preferred Options (Regulation 18)","organisation":"Hastings Borough Council","site_name":"Land at Tilekiln Farm","plan_date":"2026-02","consultation_end_date":"2026-04-07","use":"Residential","minimum_indicative_capacity_net_additional_dwellings":"70-100","site_area_gross_ha":6.29,"site_area_net_developable_ha":4.19},"source_payload_sha256":"2680a9264716c9d49762360ab3c004fb0ef40923b2715e883ae49b7771fc9b33","source_payload_sha256_basis":"canonicalized official Hastings Borough Council HS18 evidence fields","evidence_slice_sha256":"04fff8618065c8899f477714f746f3cacb39069d5bfa8a7dbc286484e61b8368","evidence_grade":"A","confidence_score_0_100":99,"evidence_scope":"exact_official_identifier_from_council_regulation18_local_plan_site_allocation_with_shelaa_cross_reference","fake_data":false,"spatial_binding_method":"official Hastings Borough Council Policy HS18 / SHELAA HL148 and Council policies map; canonical parcel spatial join and materialization delegated to local OpenCode","planned_building_count_contribution":0}}]}