{"type":"FeatureCollection","features":[{"type":"Feature","geometry":null,"properties":{"slot_id":"future_growth_ 2","lineage_id":"future_growth_ 2-newstart-20261001T203100Z","page_generation":1,"owner":"future_growth_ 2","partition":"future_growth","semantic_mode":"SOURCE_AREA_EXACT_IDENTIFIER","accepted_as_parcel":false,"source_area_count_contribution":1,"exact_identifier":"CD0466","exact_identifier_provided":true,"coverage_polygon_provided":false,"identifier_namespace":"brownfield-land reference","entity_id":1729598,"access_utc":"2026-10-01T20:31:00Z","data_date":"2022-12-12","source_url":"https://www.planning.data.gov.uk/entity/1729598","final_url":"https://www.planning.data.gov.uk/entity/1729598","dataset_url":"https://www.planning.data.gov.uk/dataset/brownfield-land","license":"Open Government Licence v3.0","authority":"Buckinghamshire Council","site_address":"Land at Old Amersham Farm","hectares":0.58,"point":"POINT (-0.5938 51.66143)","maximum_net_dwellings":9,"minimum_net_dwellings":9,"planning_permission_status":"not-permissioned","confidence_score_0_100":99,"confidence":0.99,"evidence_grade":"A","evidence_scope":"exact_official_identifier","field_evidence":{"reference":"CD0466","curie":"brownfield-land:CD0466","organisation":"Buckinghamshire Council","start_date":"2017-12-08","entry_date":"2022-12-12","point":"POINT (-0.5938 51.66143)","notes":"Any future development proposals should consider that the site is within the Green Belt. Green Belt policies will apply to any future development proposals.","hectares":0.58,"site_address":"Land at Old Amersham Farm","ownership_status":"not-owned-by-a-public-authority","maximum_net_dwellings":9,"minimum_net_dwellings":9,"planning_permission_status":"not-permissioned","organisation_curie":"local-authority:BUC"},"evidence_slice_sha256":"f6ab850ebc8eb6d07ceb08bd2f22525a71e917bb16f272506dfe0b68fb6fd5b2","fake_data":false,"spatial_binding_method":"official exact identifier; no polygon inferred from point; canonical parcel spatial join/materialization delegated to local OpenCode","planned_building_count_contribution":0}}]}