{"type":"FeatureCollection","features":[{"type":"Feature","geometry":null,"properties":{"slot_id":"future_growth_7","lineage_id":"future_growth_7_open_source_v2_20260813","page_generation":null,"batch_id":"batch_20261002T130000Z_lp4221111","official_entity_id":4221111,"official_reference":"bristol-city-council-new-local-plan","dataset":"local-plan","organisation":"Bristol City Council","source_url":"https://www.planning.data.gov.uk/entity/4221111","final_url":"https://www.planning.data.gov.uk/entity/4221111","documentation_url":"https://www.bristol.gov.uk/residents/planning-and-building-regulations/planning-policy-and-guidance/local-plan/bristol-local-plan-2045","accessed_utc":"2026-10-02T13:00:00Z","data_date":"2026-06-15","licence":"Open Government Licence v3.0","source_sha256":"1a38dd5e2838fc914388e838a30036ec93443fc4c3351e246d9bae289994982e","source_sha256_basis":"canonical_official_field_evidence_json","field_evidence":{"entry-date":"2026-06-15","start-date":"","end-date":"","entity":4221111,"name":"Bristol Local Plan 2045","dataset":"local-plan","typology":"legal-instrument","reference":"bristol-city-council-new-local-plan","prefix":"local-plan","organisation-entity":66,"geometry":"","point":"","quality":"authoritative","description":"Emerging local plan under the new 30-month system","period-end-date":"2029-04-30","documentation-url":"https://www.bristol.gov.uk/residents/planning-and-building-regulations/planning-policy-and-guidance/local-plan/bristol-local-plan-2045","period-start-date":"2026-10-31","local-planning-authorities":"E60000290"},"evidence_slice_sha256":"55609a757e84074cabb825dc96742db33c7d68e2c23ed4ad82f3fbbdc4d8036c","evidence_grade":"A_EXACT_OFFICIAL_IDENTIFIER","confidence_score_0_100":99,"exact_official_identifier_used_as_source_area_evidence":true,"official_geometry_available":false,"point_not_used_as_coverage":true,"fake_data":false}}]}
