{"type":"FeatureCollection","features":[{"type":"Feature","geometry":{"type":"MultiPolygon","coordinates":[[[[-0.098966,51.504587],[-0.098975,51.504586],[-0.09905,51.505083],[-0.099111,51.505078],[-0.100038,51.505028],[-0.100481,51.505085],[-0.100565,51.505087],[-0.100634,51.505095],[-0.100711,51.504754],[-0.100741,51.504608],[-0.100752,51.504608],[-0.100754,51.504605],[-0.100898,51.504617],[-0.100927,51.504623],[-0.101083,51.504647],[-0.101276,51.504682],[-0.101427,51.504707],[-0.101458,51.504643],[-0.101441,51.504521],[-0.10143,51.504423],[-0.101402,51.504328],[-0.101301,51.504303],[-0.101207,51.504283],[-0.101057,51.504255],[-0.101059,51.504247],[-0.100988,51.504256],[-0.100961,51.504256],[-0.100911,51.504249],[-0.100715,51.504255],[-0.100653,51.504246],[-0.100543,51.504244],[-0.100125,51.504231],[-0.099831,51.504227],[-0.098825,51.504243],[-0.098836,51.504268],[-0.098851,51.50432],[-0.098906,51.50442],[-0.098966,51.504587]]]]},"properties":{"slot_id":"future_growth_7","lineage_id":"future_growth_7_open_source_v2_20260813","page_generation":null,"batch_id":"batch_20261005T005700Z_a4da7010003563","official_entity_id":7010003563,"official_reference":"147","dataset":"article-4-direction-area","organisation":"London Borough of Southwark","source_url":"https://www.planning.data.gov.uk/entity/7010003563","final_url":"https://www.planning.data.gov.uk/entity/7010003563","geojson_download_url":"https://www.planning.data.gov.uk/entity/7010003563.geojson","accessed_utc":"2026-10-05T00:57:00Z","data_date":"2025-05-21","licence":"Open Government Licence v3.0","source_sha256":"380f3c4c45917bc019f87231afcb982c24a00f90c0f1b476a1e6c20e85476c58","source_sha256_basis":"canonical_official_field_evidence_json","field_evidence":{"entry-date":"2025-05-21","start-date":"","end-date":"","entity":7010003563,"name":"Site allocation NSP02: Site Bordering Great Suffolk Street and Ewer Street","dataset":"article-4-direction-area","typology":"geography","reference":"147","prefix":"article-4-direction-area","organisation-entity":329,"geometry":"MULTIPOLYGON (((-0.098966 51.504587, -0.098975 51.504586, -0.09905 51.505083, -0.099111 51.505078, -0.100038 51.505028, -0.100481 51.505085, -0.100565 51.505087, -0.100634 51.505095, -0.100711 51.504754, -0.100741 51.504608, -0.100752 51.504608, -0.100754 51.504605, -0.100898 51.504617, -0.100927 51.504623, -0.101083 51.504647, -0.101276 51.504682, -0.101427 51.504707, -0.101458 51.504643, -0.101441 51.504521, -0.10143 51.504423, -0.101402 51.504328, -0.101301 51.504303, -0.101207 51.504283, -0.101057 51.504255, -0.101059 51.504247, -0.100988 51.504256, -0.100961 51.504256, -0.100911 51.504249, -0.100715 51.504255, -0.100653 51.504246, -0.100543 51.504244, -0.100125 51.504231, -0.099831 51.504227, -0.098825 51.504243, -0.098836 51.504268, -0.098851 51.50432, -0.098906 51.50442, -0.098966 51.504587)))","point":"POINT (-0.10003 51.504609)","quality":"authoritative","notes":"Change of use from Class E to residential is restricted","description":"147","article-4-direction":"147","permitted-development-rights":"None given","organisation-curie":"local-authority:SWK"},"evidence_slice_sha256":"3bdf4c0440521037551dad8751038a783c29599cc4e0b5aff2999d6ec6aad699","evidence_grade":"A_OFFICIAL_MULTIPOLYGON","confidence_score_0_100":99,"official_geometry_available":true,"official_geometry_type":"MULTIPOLYGON","source_geometry_materialized_here":true,"point_not_used_as_coverage":true,"source_area_only":true,"fake_data":false}}]}
