{"type":"FeatureCollection","features":[{"type":"Feature","id":"CHERWELL_23_01996_F_SINGLE_STOREY_OUTBUILDING_01","geometry":null,"properties":{"slot_id":"planned_buildings_4","owner":"planned_buildings_4","lineage_id":"pb4-8debc7c8ddf348a2","page_generation":1,"partition":"layer24","schema":"AAYS_LAYER24_EVIDENCE_V1","semantic_mode":"PLANNED_BUILDINGS_OFFICIAL_REFERENCE_DISTINCT_STRUCTURE","batch_id":"20261004T082439Z-cherwell-23-01996-f-window-001","publisher":"Cherwell District Council","source_family":"CHERWELL_PLANNING_REGISTER","source_url":"https://planningregister.cherwell.gov.uk/Planning/Display/23/01996/F","final_url":"https://planningregister.cherwell.gov.uk/Planning/Display/23/01996/F","access_utc":"2026-10-04T08:24:39Z","data_date":"2023-09-08","license":"Public planning register; document copyright/usage remains governed by council register terms","planning_reference":"23/01996/F","location":"85 Cherwell Avenue Kidlington OX5 2JN","proposal":"Demolition of existing garage and shed - Erection of a single storey outbuilding","status":"Application Permitted","geometry_status":"NOT_MATERIALIZED_LOCAL_OPENCODE","field_evidence":"Official Cherwell District Council Planning Register application 23/01996/F. Application Type: Full Development. Status: Application Permitted. Valid date: 08/09/2023. Location: 85 Cherwell Avenue Kidlington OX5 2JN. Proposal: Demolition of existing garage and shed - Erection of a single storey outbuilding. Decision: Permitted. Decision Issued Date: 09/11/2023. Official documents include Existing & Proposed Site Plans drawing Cherwell/Site/01 - A and Proposed Floor Plans & Elevations drawing Cherwell/Site/02 - C. The official proposal and proposed drawing set identify one new single-storey outbuilding after demolition of the existing garage and shed. The demolished garage and shed are existing structures and are not counted as planned new structures. Geometry/materialization is deferred to local OpenCode.","evidence_slice_sha256":"a5c0261f3a47bc488a3e687606e286c7d390ddc0ac82b443dcfce8f91b2deb1e","confidence":0.99,"evidence_grade":"A_OFFICIAL_LOCAL_AUTHORITY_PLANNING_REGISTER_SINGLE_STOREY_OUTBUILDING_PERMITTED","fake_data":false,"source_record_id":"CHERWELL_23_01996_F_SINGLE_STOREY_OUTBUILDING_01","planned_building":"single-storey outbuilding","official_plan_reference":"Cherwell/Site/01 - A; Cherwell/Site/02 - C","official_plan_description":"Existing & Proposed Site Plans; Proposed Floor Plans & Elevations"}}]}
