{"features":[{"geometry":{"coordinates":[[[[-1.132284,52.634585],[-1.132252,52.634592],[-1.132261,52.634606],[-1.132239,52.634612],[-1.132269,52.634651],[-1.132417,52.634613],[-1.132371,52.634563],[-1.132284,52.634585]]]],"type":"MultiPolygon"},"id":"42162485","properties":{"access_utc":"2026-10-04T01:15:00Z","batch_id":"batch-0036","building_evidence_status":"BUILDING_PRESENT","building_type":"listed_building","building_use":null,"canonical_parcel_id":null,"confidence_score_0_100":94,"data_date":"1975-03-14","evidence_grade":"A","evidence_slice_sha256":"c20d8b125174ce20be7e7be863b4803f1e511fbf9d7026d44e24574df7b1393e","fake_data":false,"field_evidence":{"footprint":"official listed-building-outline MULTIPOLYGON","name":"47, MARKET PLACE, LEICESTER","reference":"DLC238_v1","type":"official dataset classification: listed-building-outline","use":"no use inferred"},"final_url":"https://www.planning.data.gov.uk/entity/42162485","licence":"Open Government Licence v3.0","lineage_id":"building_type_9-20261001T200900Z-newstart","local_spatial_join_required":true,"page_generation":1,"parcel_status":"UNPROCESSED","poi_accepted":false,"slot_id":"building_type_9","source_dataset":"listed-building-outline","source_entity":42162485,"source_organisation":"Leicester City Council","source_reference":"DLC238_v1","source_url":"https://www.planning.data.gov.uk/entity/42162485"},"type":"Feature"},{"geometry":{"coordinates":[[[[-1.115408,52.619612],[-1.115187,52.619217],[-1.115008,52.619258],[-1.114991,52.619266],[-1.11498,52.619274],[-1.114973,52.61928],[-1.114967,52.61929],[-1.114958,52.619332],[-1.114946,52.619363],[-1.11493,52.619388],[-1.114914,52.619407],[-1.114894,52.619426],[-1.114876,52.619438],[-1.114799,52.619481],[-1.114772,52.619501],[-1.11475,52.619524],[-1.114738,52.619544],[-1.114733,52.619566],[-1.114736,52.6196],[-1.114742,52.619613],[-1.114749,52.619624],[-1.114795,52.619682],[-1.114829,52.619728],[-1.115408,52.619612]]]],"type":"MultiPolygon"},"id":"42162451","properties":{"access_utc":"2026-10-04T01:15:00Z","batch_id":"batch-0036","building_evidence_status":"BUILDING_PRESENT","building_type":"listed_building","building_use":null,"canonical_parcel_id":null,"confidence_score_0_100":94,"data_date":"1975-03-14","evidence_grade":"A","evidence_slice_sha256":"5c16fde14c32039ea35fc6477106b8b2f8b98eee92d951e3b6f0b65148530ada","fake_data":false,"field_evidence":{"footprint":"official listed-building-outline MULTIPOLYGON","name":"WHITE HOUSE","reference":"DLC270_v1","type":"official dataset classification: listed-building-outline","use":"no use inferred"},"final_url":"https://www.planning.data.gov.uk/entity/42162451","licence":"Open Government Licence v3.0","lineage_id":"building_type_9-20261001T200900Z-newstart","local_spatial_join_required":true,"page_generation":1,"parcel_status":"UNPROCESSED","poi_accepted":false,"slot_id":"building_type_9","source_dataset":"listed-building-outline","source_entity":42162451,"source_organisation":"Leicester City Council","source_reference":"DLC270_v1","source_url":"https://www.planning.data.gov.uk/entity/42162451"},"type":"Feature"},{"geometry":{"coordinates":[[[[-1.111813,52.620375],[-1.112585,52.620219],[-1.11256,52.620179],[-1.11299,52.620095],[-1.112869,52.61985],[-1.11162,52.620099],[-1.111628,52.620112],[-1.111679,52.620113],[-1.111713,52.620107],[-1.111733,52.620137],[-1.111683,52.620148],[-1.111669,52.620169],[-1.111745,52.620275],[-1.111823,52.620258],[-1.111844,52.620288],[-1.111801,52.6203],[-1.111776,52.620322],[-1.111813,52.620375]]]],"type":"MultiPolygon"},"id":"42162489","properties":{"access_utc":"2026-10-04T01:15:00Z","batch_id":"batch-0036","building_evidence_status":"BUILDING_PRESENT","building_type":"listed_building","building_use":null,"canonical_parcel_id":null,"confidence_score_0_100":94,"data_date":"1950-01-05","evidence_grade":"A","evidence_slice_sha256":"490573f20e3377380b75bb32ea9599cfa189d3d8f857749f72270135da381fee","fake_data":false,"field_evidence":{"footprint":"official listed-building-outline MULTIPOLYGON","name":"THE FIRS","reference":"DLC224_v1","type":"official dataset classification: listed-building-outline","use":"no use inferred"},"final_url":"https://www.planning.data.gov.uk/entity/42162489","licence":"Open Government Licence v3.0","lineage_id":"building_type_9-20261001T200900Z-newstart","local_spatial_join_required":true,"page_generation":1,"parcel_status":"UNPROCESSED","poi_accepted":false,"slot_id":"building_type_9","source_dataset":"listed-building-outline","source_entity":42162489,"source_organisation":"Leicester City Council","source_reference":"DLC224_v1","source_url":"https://www.planning.data.gov.uk/entity/42162489"},"type":"Feature"},{"geometry":{"coordinates":[[[[-1.125518,52.629032],[-1.125686,52.628798],[-1.125122,52.628656],[-1.124953,52.628952],[-1.125049,52.628976],[-1.125057,52.628964],[-1.12523,52.62901],[-1.12529,52.62901],[-1.125397,52.629038],[-1.125426,52.629006],[-1.125518,52.629032]]]],"type":"MultiPolygon"},"id":"42162432","properties":{"access_utc":"2026-10-04T01:15:00Z","batch_id":"batch-0036","building_evidence_status":"BUILDING_PRESENT","building_type":"listed_building","building_use":null,"canonical_parcel_id":null,"confidence_score_0_100":94,"data_date":"1975-03-14","evidence_grade":"A","evidence_slice_sha256":"28b11578957e7092fe74e87a6c68d3f0f910b76a6287c457057cffdd062a2763","fake_data":false,"field_evidence":{"footprint":"official listed-building-outline MULTIPOLYGON","name":"98-104, NEW WALK","reference":"DLC268_v1","type":"official dataset classification: listed-building-outline","use":"no use inferred"},"final_url":"https://www.planning.data.gov.uk/entity/42162432","licence":"Open Government Licence v3.0","lineage_id":"building_type_9-20261001T200900Z-newstart","local_spatial_join_required":true,"page_generation":1,"parcel_status":"UNPROCESSED","poi_accepted":false,"slot_id":"building_type_9","source_dataset":"listed-building-outline","source_entity":42162432,"source_organisation":"Leicester City Council","source_reference":"DLC268_v1","source_url":"https://www.planning.data.gov.uk/entity/42162432"},"type":"Feature"},{"geometry":{"coordinates":[[[[-1.098919,52.630955],[-1.098885,52.630993],[-1.098907,52.631],[-1.098876,52.631035],[-1.098854,52.631029],[-1.09883,52.631055],[-1.098813,52.631077],[-1.099071,52.631163],[-1.099085,52.631144],[-1.099107,52.631109],[-1.099295,52.6309],[-1.09937,52.630814],[-1.099115,52.630731],[-1.099083,52.630768],[-1.099105,52.630776],[-1.099072,52.630813],[-1.09905,52.630806],[-1.099028,52.630831],[-1.099017,52.630841],[-1.099009,52.630853],[-1.098985,52.63088],[-1.099007,52.630887],[-1.098973,52.630925],[-1.098952,52.630918],[-1.098919,52.630955]]]],"type":"MultiPolygon"},"id":"42162607","properties":{"access_utc":"2026-10-04T01:15:00Z","batch_id":"batch-0036","building_evidence_status":"BUILDING_PRESENT","building_type":"listed_building","building_use":null,"canonical_parcel_id":null,"confidence_score_0_100":94,"data_date":"2001-09-10","evidence_grade":"A","evidence_slice_sha256":"c48b3415a4032827910cdf10acfa1f49b1b6354a9b2a24849be26f86381b6aa3","fake_data":false,"field_evidence":{"footprint":"official listed-building-outline MULTIPOLYGON","name":"NUMBERS 65-75","reference":"DLC412_v1","type":"official dataset classification: listed-building-outline","use":"no use inferred"},"final_url":"https://www.planning.data.gov.uk/entity/42162607","licence":"Open Government Licence v3.0","lineage_id":"building_type_9-20261001T200900Z-newstart","local_spatial_join_required":true,"page_generation":1,"parcel_status":"UNPROCESSED","poi_accepted":false,"slot_id":"building_type_9","source_dataset":"listed-building-outline","source_entity":42162607,"source_organisation":"Leicester City Council","source_reference":"DLC412_v1","source_url":"https://www.planning.data.gov.uk/entity/42162607"},"type":"Feature"},{"geometry":{"coordinates":[[[[-1.13257,52.634778],[-1.13248,52.634681],[-1.132266,52.634754],[-1.132291,52.634781],[-1.132315,52.634773],[-1.132338,52.634798],[-1.13235,52.634794],[-1.132387,52.634834],[-1.132439,52.634821],[-1.13257,52.634778]]]],"type":"MultiPolygon"},"id":"42162487","properties":{"access_utc":"2026-10-04T01:15:00Z","batch_id":"batch-0036","building_evidence_status":"BUILDING_PRESENT","building_type":"listed_building","building_use":null,"canonical_parcel_id":null,"confidence_score_0_100":94,"data_date":"1975-03-14","evidence_grade":"A","evidence_slice_sha256":"019db8bbe45123ced7631d3f3e7190fe0a6fe3ab2757bb96ecb93191530bc666","fake_data":false,"field_evidence":{"footprint":"official listed-building-outline MULTIPOLYGON","name":"53 AND 55, MARKET PLACE","reference":"DLC240_v1","type":"official dataset classification: listed-building-outline","use":"no use inferred"},"final_url":"https://www.planning.data.gov.uk/entity/42162487","licence":"Open Government Licence v3.0","lineage_id":"building_type_9-20261001T200900Z-newstart","local_spatial_join_required":true,"page_generation":1,"parcel_status":"UNPROCESSED","poi_accepted":false,"slot_id":"building_type_9","source_dataset":"listed-building-outline","source_entity":42162487,"source_organisation":"Leicester City Council","source_reference":"DLC240_v1","source_url":"https://www.planning.data.gov.uk/entity/42162487"},"type":"Feature"},{"geometry":{"coordinates":[[[[-1.133452,52.633264],[-1.133498,52.633307],[-1.133607,52.633265],[-1.133664,52.63332],[-1.133855,52.633247],[-1.133754,52.633149],[-1.133452,52.633264]]]],"type":"MultiPolygon"},"id":"42162418","properties":{"access_utc":"2026-10-04T01:15:00Z","batch_id":"batch-0036","building_evidence_status":"BUILDING_PRESENT","building_type":"listed_building","building_use":null,"canonical_parcel_id":null,"confidence_score_0_100":94,"data_date":"1975-03-14","evidence_grade":"A","evidence_slice_sha256":"5b29fe09f62b52956a31bce54904d6852dc293ac3dfaf00fba1b1472ab13692b","fake_data":false,"field_evidence":{"footprint":"official listed-building-outline MULTIPOLYGON","name":"6 AND 8, MARKET STREET","reference":"DLC244_v1","type":"official dataset classification: listed-building-outline","use":"no use inferred"},"final_url":"https://www.planning.data.gov.uk/entity/42162418","licence":"Open Government Licence v3.0","lineage_id":"building_type_9-20261001T200900Z-newstart","local_spatial_join_required":true,"page_generation":1,"parcel_status":"UNPROCESSED","poi_accepted":false,"slot_id":"building_type_9","source_dataset":"listed-building-outline","source_entity":42162418,"source_organisation":"Leicester City Council","source_reference":"DLC244_v1","source_url":"https://www.planning.data.gov.uk/entity/42162418"},"type":"Feature"},{"geometry":{"coordinates":[[[[-1.133024,52.635501],[-1.133001,52.635475],[-1.13314,52.63543],[-1.133099,52.635386],[-1.13296,52.635436],[-1.132984,52.635461],[-1.132908,52.635488],[-1.132975,52.63556],[-1.13299,52.635555],[-1.133002,52.635567],[-1.133049,52.635551],[-1.133007,52.635506],[-1.133024,52.635501]]]],"type":"MultiPolygon"},"id":"42162532","properties":{"access_utc":"2026-10-04T01:15:00Z","batch_id":"batch-0036","building_evidence_status":"BUILDING_PRESENT","building_type":"listed_building","building_use":null,"canonical_parcel_id":null,"confidence_score_0_100":94,"data_date":"1975-03-14","evidence_grade":"A","evidence_slice_sha256":"e5dfd74829a138d270600d376eec264325c61276d69e6113cca0c49381cc8d6a","fake_data":false,"field_evidence":{"footprint":"official listed-building-outline MULTIPOLYGON","name":"75, MARKET PLACE","reference":"DLC81_v1","type":"official dataset classification: listed-building-outline","use":"no use inferred"},"final_url":"https://www.planning.data.gov.uk/entity/42162532","licence":"Open Government Licence v3.0","lineage_id":"building_type_9-20261001T200900Z-newstart","local_spatial_join_required":true,"page_generation":1,"parcel_status":"UNPROCESSED","poi_accepted":false,"slot_id":"building_type_9","source_dataset":"listed-building-outline","source_entity":42162532,"source_organisation":"Leicester City Council","source_reference":"DLC81_v1","source_url":"https://www.planning.data.gov.uk/entity/42162532"},"type":"Feature"}],"name":"building_type_9_batch_0036","type":"FeatureCollection"}