{
  "type": "FeatureCollection",
  "name": "security_public_safety_2_cumulative_exact_identifiers",
  "features": [
    {
      "type": "Feature",
      "geometry": null,
      "properties": {
        "slot_id": "security_public_safety_2",
        "evidence_scope": "coverage_exact_identifier",
        "coverage_area_id": "city-of-london",
        "exact_identifier": "city-of-london",
        "exact_identifier_type": "data.police.uk.force.id",
        "coverage_area_name": "City of London Police",
        "fake_data": false,
        "spatial_binding_method": "DEFERRED_TO_LOCAL_OPENCODE"
      }
    },
    {
      "type": "Feature",
      "geometry": null,
      "properties": {
        "slot_id": "security_public_safety_2",
        "evidence_scope": "coverage_exact_identifier",
        "coverage_area_id": "metropolitan",
        "exact_identifier": "metropolitan",
        "exact_identifier_type": "data.police.uk.force.id",
        "coverage_area_name": "Metropolitan Police Service",
        "fake_data": false,
        "spatial_binding_method": "DEFERRED_TO_LOCAL_OPENCODE"
      }
    },
    {
      "type": "Feature",
      "geometry": null,
      "properties": {
        "slot_id": "security_public_safety_2",
        "evidence_scope": "coverage_exact_identifier",
        "coverage_area_id": "metropolitan:E05009317",
        "exact_identifier": "E05009317",
        "exact_identifier_type": "data.police.uk.metropolitan.neighbourhood.id",
        "coverage_area_name": "Bethnal Green East",
        "parent_force_id": "metropolitan",
        "source_url": "https://data.police.uk/api/metropolitan/neighbourhoods",
        "final_url": "https://data.police.uk/api/metropolitan/neighbourhoods",
        "access_utc": "2026-10-01T22:03:00Z",
        "data_date": "2026-10-01",
        "license": "Open Government Licence v3.0",
        "file_sha256": "5a5f1e0fda1f29affe3be4c582dd55b5935483c657f3737c966b8987f1efbff7",
        "evidence_slice_sha256": "a8ff5824c776c52dad0592bb0f151af5bc86dd20df253c6ad3b1bb6e82d8ae88",
        "field_evidence": {
          "id": "E05009317",
          "name": "Bethnal Green East"
        },
        "confidence_score_0_100": 100,
        "evidence_grade": "A_OFFICIAL_EXACT_IDENTIFIER",
        "fake_data": false,
        "spatial_binding_method": "DEFERRED_TO_LOCAL_OPENCODE",
        "materialized_parcel_count": 0,
        "direct_parcel_count": 0
      }
    },
    {
      "type": "Feature",
      "geometry": null,
      "properties": {
        "slot_id": "security_public_safety_2",
        "evidence_scope": "coverage_exact_identifier",
        "coverage_area_id": "metropolitan:E05009318",
        "exact_identifier": "E05009318",
        "exact_identifier_type": "data.police.uk.metropolitan.neighbourhood.id",
        "coverage_area_name": "Blackwall and Cubitt Town",
        "parent_force_id": "metropolitan",
        "source_url": "https://data.police.uk/api/metropolitan/neighbourhoods",
        "final_url": "https://data.police.uk/api/metropolitan/neighbourhoods",
        "access_utc": "2026-10-01T22:03:00Z",
        "data_date": "2026-10-01",
        "license": "Open Government Licence v3.0",
        "file_sha256": "5a5f1e0fda1f29affe3be4c582dd55b5935483c657f3737c966b8987f1efbff7",
        "evidence_slice_sha256": "a8ff5824c776c52dad0592bb0f151af5bc86dd20df253c6ad3b1bb6e82d8ae88",
        "field_evidence": {
          "id": "E05009318",
          "name": "Blackwall and Cubitt Town"
        },
        "confidence_score_0_100": 100,
        "evidence_grade": "A_OFFICIAL_EXACT_IDENTIFIER",
        "fake_data": false,
        "spatial_binding_method": "DEFERRED_TO_LOCAL_OPENCODE",
        "materialized_parcel_count": 0,
        "direct_parcel_count": 0
      }
    },
    {
      "type": "Feature",
      "geometry": null,
      "properties": {
        "slot_id": "security_public_safety_2",
        "evidence_scope": "coverage_exact_identifier",
        "coverage_area_id": "metropolitan:E05009319",
        "exact_identifier": "E05009319",
        "exact_identifier_type": "data.police.uk.metropolitan.neighbourhood.id",
        "coverage_area_name": "Bow East",
        "parent_force_id": "metropolitan",
        "source_url": "https://data.police.uk/api/metropolitan/neighbourhoods",
        "final_url": "https://data.police.uk/api/metropolitan/neighbourhoods",
        "access_utc": "2026-10-01T22:03:00Z",
        "data_date": "2026-10-01",
        "license": "Open Government Licence v3.0",
        "file_sha256": "5a5f1e0fda1f29affe3be4c582dd55b5935483c657f3737c966b8987f1efbff7",
        "evidence_slice_sha256": "a8ff5824c776c52dad0592bb0f151af5bc86dd20df253c6ad3b1bb6e82d8ae88",
        "field_evidence": {
          "id": "E05009319",
          "name": "Bow East"
        },
        "confidence_score_0_100": 100,
        "evidence_grade": "A_OFFICIAL_EXACT_IDENTIFIER",
        "fake_data": false,
        "spatial_binding_method": "DEFERRED_TO_LOCAL_OPENCODE",
        "materialized_parcel_count": 0,
        "direct_parcel_count": 0
      }
    },
    {
      "type": "Feature",
      "geometry": null,
      "properties": {
        "slot_id": "security_public_safety_2",
        "evidence_scope": "coverage_exact_identifier",
        "coverage_area_id": "metropolitan:E05009320",
        "exact_identifier": "E05009320",
        "exact_identifier_type": "data.police.uk.metropolitan.neighbourhood.id",
        "coverage_area_name": "Bow West",
        "parent_force_id": "metropolitan",
        "source_url": "https://data.police.uk/api/metropolitan/neighbourhoods",
        "final_url": "https://data.police.uk/api/metropolitan/neighbourhoods",
        "access_utc": "2026-10-01T22:03:00Z",
        "data_date": "2026-10-01",
        "license": "Open Government Licence v3.0",
        "file_sha256": "5a5f1e0fda1f29affe3be4c582dd55b5935483c657f3737c966b8987f1efbff7",
        "evidence_slice_sha256": "a8ff5824c776c52dad0592bb0f151af5bc86dd20df253c6ad3b1bb6e82d8ae88",
        "field_evidence": {
          "id": "E05009320",
          "name": "Bow West"
        },
        "confidence_score_0_100": 100,
        "evidence_grade": "A_OFFICIAL_EXACT_IDENTIFIER",
        "fake_data": false,
        "spatial_binding_method": "DEFERRED_TO_LOCAL_OPENCODE",
        "materialized_parcel_count": 0,
        "direct_parcel_count": 0
      }
    },
    {
      "type": "Feature",
      "geometry": null,
      "properties": {
        "slot_id": "security_public_safety_2",
        "evidence_scope": "coverage_exact_identifier",
        "coverage_area_id": "metropolitan:E05009321",
        "exact_identifier": "E05009321",
        "exact_identifier_type": "data.police.uk.metropolitan.neighbourhood.id",
        "coverage_area_name": "Bromley North",
        "parent_force_id": "metropolitan",
        "source_url": "https://data.police.uk/api/metropolitan/neighbourhoods",
        "final_url": "https://data.police.uk/api/metropolitan/neighbourhoods",
        "access_utc": "2026-10-01T22:03:00Z",
        "data_date": "2026-10-01",
        "license": "Open Government Licence v3.0",
        "file_sha256": "5a5f1e0fda1f29affe3be4c582dd55b5935483c657f3737c966b8987f1efbff7",
        "evidence_slice_sha256": "a8ff5824c776c52dad0592bb0f151af5bc86dd20df253c6ad3b1bb6e82d8ae88",
        "field_evidence": {
          "id": "E05009321",
          "name": "Bromley North"
        },
        "confidence_score_0_100": 100,
        "evidence_grade": "A_OFFICIAL_EXACT_IDENTIFIER",
        "fake_data": false,
        "spatial_binding_method": "DEFERRED_TO_LOCAL_OPENCODE",
        "materialized_parcel_count": 0,
        "direct_parcel_count": 0
      }
    },
    {
      "type": "Feature",
      "geometry": null,
      "properties": {
        "slot_id": "security_public_safety_2",
        "evidence_scope": "coverage_exact_identifier",
        "coverage_area_id": "metropolitan:E05009322",
        "exact_identifier": "E05009322",
        "exact_identifier_type": "data.police.uk.metropolitan.neighbourhood.id",
        "coverage_area_name": "Bromley South",
        "parent_force_id": "metropolitan",
        "source_url": "https://data.police.uk/api/metropolitan/neighbourhoods",
        "final_url": "https://data.police.uk/api/metropolitan/neighbourhoods",
        "access_utc": "2026-10-01T22:03:00Z",
        "data_date": "2026-10-01",
        "license": "Open Government Licence v3.0",
        "file_sha256": "5a5f1e0fda1f29affe3be4c582dd55b5935483c657f3737c966b8987f1efbff7",
        "evidence_slice_sha256": "a8ff5824c776c52dad0592bb0f151af5bc86dd20df253c6ad3b1bb6e82d8ae88",
        "field_evidence": {
          "id": "E05009322",
          "name": "Bromley South"
        },
        "confidence_score_0_100": 100,
        "evidence_grade": "A_OFFICIAL_EXACT_IDENTIFIER",
        "fake_data": false,
        "spatial_binding_method": "DEFERRED_TO_LOCAL_OPENCODE",
        "materialized_parcel_count": 0,
        "direct_parcel_count": 0
      }
    },
    {
      "type": "Feature",
      "geometry": null,
      "properties": {
        "slot_id": "security_public_safety_2",
        "evidence_scope": "coverage_exact_identifier",
        "coverage_area_id": "metropolitan:E05009323",
        "exact_identifier": "E05009323",
        "exact_identifier_type": "data.police.uk.metropolitan.neighbourhood.id",
        "coverage_area_name": "Canary Wharf",
        "parent_force_id": "metropolitan",
        "source_url": "https://data.police.uk/api/metropolitan/neighbourhoods",
        "final_url": "https://data.police.uk/api/metropolitan/neighbourhoods",
        "access_utc": "2026-10-01T22:03:00Z",
        "data_date": "2026-10-01",
        "license": "Open Government Licence v3.0",
        "file_sha256": "5a5f1e0fda1f29affe3be4c582dd55b5935483c657f3737c966b8987f1efbff7",
        "evidence_slice_sha256": "a8ff5824c776c52dad0592bb0f151af5bc86dd20df253c6ad3b1bb6e82d8ae88",
        "field_evidence": {
          "id": "E05009323",
          "name": "Canary Wharf"
        },
        "confidence_score_0_100": 100,
        "evidence_grade": "A_OFFICIAL_EXACT_IDENTIFIER",
        "fake_data": false,
        "spatial_binding_method": "DEFERRED_TO_LOCAL_OPENCODE",
        "materialized_parcel_count": 0,
        "direct_parcel_count": 0
      }
    },
    {
      "type": "Feature",
      "geometry": null,
      "properties": {
        "slot_id": "security_public_safety_2",
        "evidence_scope": "coverage_exact_identifier",
        "coverage_area_id": "metropolitan:E05009324",
        "exact_identifier": "E05009324",
        "exact_identifier_type": "data.police.uk.metropolitan.neighbourhood.id",
        "coverage_area_name": "Island Gardens",
        "parent_force_id": "metropolitan",
        "source_url": "https://data.police.uk/api/metropolitan/neighbourhoods",
        "final_url": "https://data.police.uk/api/metropolitan/neighbourhoods",
        "access_utc": "2026-10-01T22:03:00Z",
        "data_date": "2026-10-01",
        "license": "Open Government Licence v3.0",
        "file_sha256": "5a5f1e0fda1f29affe3be4c582dd55b5935483c657f3737c966b8987f1efbff7",
        "evidence_slice_sha256": "a8ff5824c776c52dad0592bb0f151af5bc86dd20df253c6ad3b1bb6e82d8ae88",
        "field_evidence": {
          "id": "E05009324",
          "name": "Island Gardens"
        },
        "confidence_score_0_100": 100,
        "evidence_grade": "A_OFFICIAL_EXACT_IDENTIFIER",
        "fake_data": false,
        "spatial_binding_method": "DEFERRED_TO_LOCAL_OPENCODE",
        "materialized_parcel_count": 0,
        "direct_parcel_count": 0
      }
    },
    {
      "type": "Feature",
      "geometry": null,
      "properties": {
        "slot_id": "security_public_safety_2",
        "evidence_scope": "coverage_exact_identifier",
        "coverage_area_id": "metropolitan:E05009325",
        "exact_identifier": "E05009325",
        "exact_identifier_type": "data.police.uk.metropolitan.neighbourhood.id",
        "coverage_area_name": "Lansbury",
        "parent_force_id": "metropolitan",
        "source_url": "https://data.police.uk/api/metropolitan/neighbourhoods",
        "final_url": "https://data.police.uk/api/metropolitan/neighbourhoods",
        "access_utc": "2026-10-01T22:03:00Z",
        "data_date": "2026-10-01",
        "license": "Open Government Licence v3.0",
        "file_sha256": "5a5f1e0fda1f29affe3be4c582dd55b5935483c657f3737c966b8987f1efbff7",
        "evidence_slice_sha256": "a8ff5824c776c52dad0592bb0f151af5bc86dd20df253c6ad3b1bb6e82d8ae88",
        "field_evidence": {
          "id": "E05009325",
          "name": "Lansbury"
        },
        "confidence_score_0_100": 100,
        "evidence_grade": "A_OFFICIAL_EXACT_IDENTIFIER",
        "fake_data": false,
        "spatial_binding_method": "DEFERRED_TO_LOCAL_OPENCODE",
        "materialized_parcel_count": 0,
        "direct_parcel_count": 0
      }
    },
    {
      "type": "Feature",
      "geometry": null,
      "properties": {
        "slot_id": "security_public_safety_2",
        "evidence_scope": "coverage_exact_identifier",
        "coverage_area_id": "metropolitan:E05009326",
        "exact_identifier": "E05009326",
        "exact_identifier_type": "data.police.uk.metropolitan.neighbourhood.id",
        "coverage_area_name": "Limehouse",
        "parent_force_id": "metropolitan",
        "source_url": "https://data.police.uk/api/metropolitan/neighbourhoods",
        "final_url": "https://data.police.uk/api/metropolitan/neighbourhoods",
        "access_utc": "2026-10-01T22:03:00Z",
        "data_date": "2026-10-01",
        "license": "Open Government Licence v3.0",
        "file_sha256": "5a5f1e0fda1f29affe3be4c582dd55b5935483c657f3737c966b8987f1efbff7",
        "evidence_slice_sha256": "a8ff5824c776c52dad0592bb0f151af5bc86dd20df253c6ad3b1bb6e82d8ae88",
        "field_evidence": {
          "id": "E05009326",
          "name": "Limehouse"
        },
        "confidence_score_0_100": 100,
        "evidence_grade": "A_OFFICIAL_EXACT_IDENTIFIER",
        "fake_data": false,
        "spatial_binding_method": "DEFERRED_TO_LOCAL_OPENCODE",
        "materialized_parcel_count": 0,
        "direct_parcel_count": 0
      }
    },
    {
      "type": "Feature",
      "geometry": null,
      "properties": {
        "slot_id": "security_public_safety_2",
        "evidence_scope": "coverage_exact_identifier",
        "coverage_area_id": "metropolitan:E05009327",
        "exact_identifier": "E05009327",
        "exact_identifier_type": "data.police.uk.metropolitan.neighbourhood.id",
        "coverage_area_name": "Mile End",
        "parent_force_id": "metropolitan",
        "source_url": "https://data.police.uk/api/metropolitan/neighbourhoods",
        "final_url": "https://data.police.uk/api/metropolitan/neighbourhoods",
        "access_utc": "2026-10-01T22:03:00Z",
        "data_date": "2026-10-01",
        "license": "Open Government Licence v3.0",
        "file_sha256": "5a5f1e0fda1f29affe3be4c582dd55b5935483c657f3737c966b8987f1efbff7",
        "evidence_slice_sha256": "a8ff5824c776c52dad0592bb0f151af5bc86dd20df253c6ad3b1bb6e82d8ae88",
        "field_evidence": {
          "id": "E05009327",
          "name": "Mile End"
        },
        "confidence_score_0_100": 100,
        "evidence_grade": "A_OFFICIAL_EXACT_IDENTIFIER",
        "fake_data": false,
        "spatial_binding_method": "DEFERRED_TO_LOCAL_OPENCODE",
        "materialized_parcel_count": 0,
        "direct_parcel_count": 0
      }
    },
    {
      "type": "Feature",
      "geometry": null,
      "properties": {
        "slot_id": "security_public_safety_2",
        "evidence_scope": "coverage_exact_identifier",
        "coverage_area_id": "metropolitan:E05009328",
        "exact_identifier": "E05009328",
        "exact_identifier_type": "data.police.uk.metropolitan.neighbourhood.id",
        "coverage_area_name": "Poplar",
        "parent_force_id": "metropolitan",
        "source_url": "https://data.police.uk/api/metropolitan/neighbourhoods",
        "final_url": "https://data.police.uk/api/metropolitan/neighbourhoods",
        "access_utc": "2026-10-01T22:03:00Z",
        "data_date": "2026-10-01",
        "license": "Open Government Licence v3.0",
        "file_sha256": "5a5f1e0fda1f29affe3be4c582dd55b5935483c657f3737c966b8987f1efbff7",
        "evidence_slice_sha256": "a8ff5824c776c52dad0592bb0f151af5bc86dd20df253c6ad3b1bb6e82d8ae88",
        "field_evidence": {
          "id": "E05009328",
          "name": "Poplar"
        },
        "confidence_score_0_100": 100,
        "evidence_grade": "A_OFFICIAL_EXACT_IDENTIFIER",
        "fake_data": false,
        "spatial_binding_method": "DEFERRED_TO_LOCAL_OPENCODE",
        "materialized_parcel_count": 0,
        "direct_parcel_count": 0
      }
    },
    {
      "type": "Feature",
      "geometry": null,
      "properties": {
        "slot_id": "security_public_safety_2",
        "evidence_scope": "coverage_exact_identifier",
        "coverage_area_id": "metropolitan:E05009329",
        "exact_identifier": "E05009329",
        "exact_identifier_type": "data.police.uk.metropolitan.neighbourhood.id",
        "coverage_area_name": "St Dunstan's",
        "parent_force_id": "metropolitan",
        "source_url": "https://data.police.uk/api/metropolitan/neighbourhoods",
        "final_url": "https://data.police.uk/api/metropolitan/neighbourhoods",
        "access_utc": "2026-10-01T22:03:00Z",
        "data_date": "2026-10-01",
        "license": "Open Government Licence v3.0",
        "file_sha256": "5a5f1e0fda1f29affe3be4c582dd55b5935483c657f3737c966b8987f1efbff7",
        "evidence_slice_sha256": "a8ff5824c776c52dad0592bb0f151af5bc86dd20df253c6ad3b1bb6e82d8ae88",
        "field_evidence": {
          "id": "E05009329",
          "name": "St Dunstan's"
        },
        "confidence_score_0_100": 100,
        "evidence_grade": "A_OFFICIAL_EXACT_IDENTIFIER",
        "fake_data": false,
        "spatial_binding_method": "DEFERRED_TO_LOCAL_OPENCODE",
        "materialized_parcel_count": 0,
        "direct_parcel_count": 0
      }
    },
    {
      "type": "Feature",
      "geometry": null,
      "properties": {
        "slot_id": "security_public_safety_2",
        "evidence_scope": "coverage_exact_identifier",
        "coverage_area_id": "metropolitan:E05009330",
        "exact_identifier": "E05009330",
        "exact_identifier_type": "data.police.uk.metropolitan.neighbourhood.id",
        "coverage_area_name": "St Katharine's and Wapping",
        "parent_force_id": "metropolitan",
        "source_url": "https://data.police.uk/api/metropolitan/neighbourhoods",
        "final_url": "https://data.police.uk/api/metropolitan/neighbourhoods",
        "access_utc": "2026-10-01T22:03:00Z",
        "data_date": "2026-10-01",
        "license": "Open Government Licence v3.0",
        "file_sha256": "5a5f1e0fda1f29affe3be4c582dd55b5935483c657f3737c966b8987f1efbff7",
        "evidence_slice_sha256": "a8ff5824c776c52dad0592bb0f151af5bc86dd20df253c6ad3b1bb6e82d8ae88",
        "field_evidence": {
          "id": "E05009330",
          "name": "St Katharine's and Wapping"
        },
        "confidence_score_0_100": 100,
        "evidence_grade": "A_OFFICIAL_EXACT_IDENTIFIER",
        "fake_data": false,
        "spatial_binding_method": "DEFERRED_TO_LOCAL_OPENCODE",
        "materialized_parcel_count": 0,
        "direct_parcel_count": 0
      }
    },
    {
      "type": "Feature",
      "geometry": null,
      "properties": {
        "slot_id": "security_public_safety_2",
        "evidence_scope": "coverage_exact_identifier",
        "coverage_area_id": "metropolitan:E05009331",
        "exact_identifier": "E05009331",
        "exact_identifier_type": "data.police.uk.metropolitan.neighbourhood.id",
        "coverage_area_name": "Bethnal Green West",
        "parent_force_id": "metropolitan",
        "source_url": "https://data.police.uk/api/metropolitan/neighbourhoods",
        "final_url": "https://data.police.uk/api/metropolitan/neighbourhoods",
        "access_utc": "2026-10-01T22:03:00Z",
        "data_date": "2026-10-01",
        "license": "Open Government Licence v3.0",
        "file_sha256": "5a5f1e0fda1f29affe3be4c582dd55b5935483c657f3737c966b8987f1efbff7",
        "evidence_slice_sha256": "a8ff5824c776c52dad0592bb0f151af5bc86dd20df253c6ad3b1bb6e82d8ae88",
        "field_evidence": {
          "id": "E05009331",
          "name": "Bethnal Green West"
        },
        "confidence_score_0_100": 100,
        "evidence_grade": "A_OFFICIAL_EXACT_IDENTIFIER",
        "fake_data": false,
        "spatial_binding_method": "DEFERRED_TO_LOCAL_OPENCODE",
        "materialized_parcel_count": 0,
        "direct_parcel_count": 0
      }
    },
    {
      "type": "Feature",
      "geometry": null,
      "properties": {
        "slot_id": "security_public_safety_2",
        "evidence_scope": "coverage_exact_identifier",
        "coverage_area_id": "metropolitan:E05009332",
        "exact_identifier": "E05009332",
        "exact_identifier_type": "data.police.uk.metropolitan.neighbourhood.id",
        "coverage_area_name": "Shadwell",
        "parent_force_id": "metropolitan",
        "source_url": "https://data.police.uk/api/metropolitan/neighbourhoods",
        "final_url": "https://data.police.uk/api/metropolitan/neighbourhoods",
        "access_utc": "2026-10-01T22:03:00Z",
        "data_date": "2026-10-01",
        "license": "Open Government Licence v3.0",
        "file_sha256": "5a5f1e0fda1f29affe3be4c582dd55b5935483c657f3737c966b8987f1efbff7",
        "evidence_slice_sha256": "a8ff5824c776c52dad0592bb0f151af5bc86dd20df253c6ad3b1bb6e82d8ae88",
        "field_evidence": {
          "id": "E05009332",
          "name": "Shadwell"
        },
        "confidence_score_0_100": 100,
        "evidence_grade": "A_OFFICIAL_EXACT_IDENTIFIER",
        "fake_data": false,
        "spatial_binding_method": "DEFERRED_TO_LOCAL_OPENCODE",
        "materialized_parcel_count": 0,
        "direct_parcel_count": 0
      }
    },
    {
      "type": "Feature",
      "geometry": null,
      "properties": {
        "slot_id": "security_public_safety_2",
        "evidence_scope": "coverage_exact_identifier",
        "coverage_area_id": "metropolitan:E05009333",
        "exact_identifier": "E05009333",
        "exact_identifier_type": "data.police.uk.metropolitan.neighbourhood.id",
        "coverage_area_name": "Spitalfields and Banglatown",
        "parent_force_id": "metropolitan",
        "source_url": "https://data.police.uk/api/metropolitan/neighbourhoods",
        "final_url": "https://data.police.uk/api/metropolitan/neighbourhoods",
        "access_utc": "2026-10-01T22:03:00Z",
        "data_date": "2026-10-01",
        "license": "Open Government Licence v3.0",
        "file_sha256": "5a5f1e0fda1f29affe3be4c582dd55b5935483c657f3737c966b8987f1efbff7",
        "evidence_slice_sha256": "a8ff5824c776c52dad0592bb0f151af5bc86dd20df253c6ad3b1bb6e82d8ae88",
        "field_evidence": {
          "id": "E05009333",
          "name": "Spitalfields and Banglatown"
        },
        "confidence_score_0_100": 100,
        "evidence_grade": "A_OFFICIAL_EXACT_IDENTIFIER",
        "fake_data": false,
        "spatial_binding_method": "DEFERRED_TO_LOCAL_OPENCODE",
        "materialized_parcel_count": 0,
        "direct_parcel_count": 0
      }
    },
    {
      "type": "Feature",
      "geometry": null,
      "properties": {
        "slot_id": "security_public_safety_2",
        "evidence_scope": "coverage_exact_identifier",
        "coverage_area_id": "metropolitan:E05009334",
        "exact_identifier": "E05009334",
        "exact_identifier_type": "data.police.uk.metropolitan.neighbourhood.id",
        "coverage_area_name": "Stepney Green",
        "parent_force_id": "metropolitan",
        "source_url": "https://data.police.uk/api/metropolitan/neighbourhoods",
        "final_url": "https://data.police.uk/api/metropolitan/neighbourhoods",
        "access_utc": "2026-10-01T22:03:00Z",
        "data_date": "2026-10-01",
        "license": "Open Government Licence v3.0",
        "file_sha256": "5a5f1e0fda1f29affe3be4c582dd55b5935483c657f3737c966b8987f1efbff7",
        "evidence_slice_sha256": "a8ff5824c776c52dad0592bb0f151af5bc86dd20df253c6ad3b1bb6e82d8ae88",
        "field_evidence": {
          "id": "E05009334",
          "name": "Stepney Green"
        },
        "confidence_score_0_100": 100,
        "evidence_grade": "A_OFFICIAL_EXACT_IDENTIFIER",
        "fake_data": false,
        "spatial_binding_method": "DEFERRED_TO_LOCAL_OPENCODE",
        "materialized_parcel_count": 0,
        "direct_parcel_count": 0
      }
    },
    {
      "type": "Feature",
      "geometry": null,
      "properties": {
        "slot_id": "security_public_safety_2",
        "evidence_scope": "coverage_exact_identifier",
        "coverage_area_id": "metropolitan:E05009335",
        "exact_identifier": "E05009335",
        "exact_identifier_type": "data.police.uk.metropolitan.neighbourhood.id",
        "coverage_area_name": "Weavers",
        "parent_force_id": "metropolitan",
        "source_url": "https://data.police.uk/api/metropolitan/neighbourhoods",
        "final_url": "https://data.police.uk/api/metropolitan/neighbourhoods",
        "access_utc": "2026-10-01T22:03:00Z",
        "data_date": "2026-10-01",
        "license": "Open Government Licence v3.0",
        "file_sha256": "5a5f1e0fda1f29affe3be4c582dd55b5935483c657f3737c966b8987f1efbff7",
        "evidence_slice_sha256": "a8ff5824c776c52dad0592bb0f151af5bc86dd20df253c6ad3b1bb6e82d8ae88",
        "field_evidence": {
          "id": "E05009335",
          "name": "Weavers"
        },
        "confidence_score_0_100": 100,
        "evidence_grade": "A_OFFICIAL_EXACT_IDENTIFIER",
        "fake_data": false,
        "spatial_binding_method": "DEFERRED_TO_LOCAL_OPENCODE",
        "materialized_parcel_count": 0,
        "direct_parcel_count": 0
      }
    },
    {
      "type": "Feature",
      "geometry": null,
      "properties": {
        "slot_id": "security_public_safety_2",
        "evidence_scope": "coverage_exact_identifier",
        "coverage_area_id": "metropolitan:E05009336",
        "exact_identifier": "E05009336",
        "exact_identifier_type": "data.police.uk.metropolitan.neighbourhood.id",
        "coverage_area_name": "Whitechapel",
        "parent_force_id": "metropolitan",
        "source_url": "https://data.police.uk/api/metropolitan/neighbourhoods",
        "final_url": "https://data.police.uk/api/metropolitan/neighbourhoods",
        "access_utc": "2026-10-01T22:03:00Z",
        "data_date": "2026-10-01",
        "license": "Open Government Licence v3.0",
        "file_sha256": "5a5f1e0fda1f29affe3be4c582dd55b5935483c657f3737c966b8987f1efbff7",
        "evidence_slice_sha256": "a8ff5824c776c52dad0592bb0f151af5bc86dd20df253c6ad3b1bb6e82d8ae88",
        "field_evidence": {
          "id": "E05009336",
          "name": "Whitechapel"
        },
        "confidence_score_0_100": 100,
        "evidence_grade": "A_OFFICIAL_EXACT_IDENTIFIER",
        "fake_data": false,
        "spatial_binding_method": "DEFERRED_TO_LOCAL_OPENCODE",
        "materialized_parcel_count": 0,
        "direct_parcel_count": 0
      }
    },
    {
      "type": "Feature",
      "geometry": null,
      "properties": {
        "slot_id": "security_public_safety_2",
        "evidence_scope": "coverage_exact_identifier",
        "coverage_area_id": "metropolitan:E05009367",
        "exact_identifier": "E05009367",
        "exact_identifier_type": "data.police.uk.metropolitan.neighbourhood.id",
        "coverage_area_name": "Brownswood",
        "parent_force_id": "metropolitan",
        "source_url": "https://data.police.uk/api/metropolitan/neighbourhoods",
        "final_url": "https://data.police.uk/api/metropolitan/neighbourhoods",
        "access_utc": "2026-10-01T22:03:00Z",
        "data_date": "2026-10-01",
        "license": "Open Government Licence v3.0",
        "file_sha256": "5a5f1e0fda1f29affe3be4c582dd55b5935483c657f3737c966b8987f1efbff7",
        "evidence_slice_sha256": "a8ff5824c776c52dad0592bb0f151af5bc86dd20df253c6ad3b1bb6e82d8ae88",
        "field_evidence": {
          "id": "E05009367",
          "name": "Brownswood"
        },
        "confidence_score_0_100": 100,
        "evidence_grade": "A_OFFICIAL_EXACT_IDENTIFIER",
        "fake_data": false,
        "spatial_binding_method": "DEFERRED_TO_LOCAL_OPENCODE",
        "materialized_parcel_count": 0,
        "direct_parcel_count": 0
      }
    },
    {
      "type": "Feature",
      "geometry": null,
      "properties": {
        "slot_id": "security_public_safety_2",
        "evidence_scope": "coverage_exact_identifier",
        "coverage_area_id": "metropolitan:E05009368",
        "exact_identifier": "E05009368",
        "exact_identifier_type": "data.police.uk.metropolitan.neighbourhood.id",
        "coverage_area_name": "Cazenove",
        "parent_force_id": "metropolitan",
        "source_url": "https://data.police.uk/api/metropolitan/neighbourhoods",
        "final_url": "https://data.police.uk/api/metropolitan/neighbourhoods",
        "access_utc": "2026-10-01T22:03:00Z",
        "data_date": "2026-10-01",
        "license": "Open Government Licence v3.0",
        "file_sha256": "5a5f1e0fda1f29affe3be4c582dd55b5935483c657f3737c966b8987f1efbff7",
        "evidence_slice_sha256": "a8ff5824c776c52dad0592bb0f151af5bc86dd20df253c6ad3b1bb6e82d8ae88",
        "field_evidence": {
          "id": "E05009368",
          "name": "Cazenove"
        },
        "confidence_score_0_100": 100,
        "evidence_grade": "A_OFFICIAL_EXACT_IDENTIFIER",
        "fake_data": false,
        "spatial_binding_method": "DEFERRED_TO_LOCAL_OPENCODE",
        "materialized_parcel_count": 0,
        "direct_parcel_count": 0
      }
    },
    {
      "type": "Feature",
      "geometry": null,
      "properties": {
        "slot_id": "security_public_safety_2",
        "evidence_scope": "coverage_exact_identifier",
        "coverage_area_id": "metropolitan:E05009369",
        "exact_identifier": "E05009369",
        "exact_identifier_type": "data.police.uk.metropolitan.neighbourhood.id",
        "coverage_area_name": "Clissold",
        "parent_force_id": "metropolitan",
        "source_url": "https://data.police.uk/api/metropolitan/neighbourhoods",
        "final_url": "https://data.police.uk/api/metropolitan/neighbourhoods",
        "access_utc": "2026-10-01T22:03:00Z",
        "data_date": "2026-10-01",
        "license": "Open Government Licence v3.0",
        "file_sha256": "5a5f1e0fda1f29affe3be4c582dd55b5935483c657f3737c966b8987f1efbff7",
        "evidence_slice_sha256": "a8ff5824c776c52dad0592bb0f151af5bc86dd20df253c6ad3b1bb6e82d8ae88",
        "field_evidence": {
          "id": "E05009369",
          "name": "Clissold"
        },
        "confidence_score_0_100": 100,
        "evidence_grade": "A_OFFICIAL_EXACT_IDENTIFIER",
        "fake_data": false,
        "spatial_binding_method": "DEFERRED_TO_LOCAL_OPENCODE",
        "materialized_parcel_count": 0,
        "direct_parcel_count": 0
      }
    },
    {
      "type": "Feature",
      "geometry": null,
      "properties": {
        "slot_id": "security_public_safety_2",
        "evidence_scope": "coverage_exact_identifier",
        "coverage_area_id": "metropolitan:E05009370",
        "exact_identifier": "E05009370",
        "exact_identifier_type": "data.police.uk.metropolitan.neighbourhood.id",
        "coverage_area_name": "Dalston",
        "parent_force_id": "metropolitan",
        "source_url": "https://data.police.uk/api/metropolitan/neighbourhoods",
        "final_url": "https://data.police.uk/api/metropolitan/neighbourhoods",
        "access_utc": "2026-10-01T22:03:00Z",
        "data_date": "2026-10-01",
        "license": "Open Government Licence v3.0",
        "file_sha256": "5a5f1e0fda1f29affe3be4c582dd55b5935483c657f3737c966b8987f1efbff7",
        "evidence_slice_sha256": "a8ff5824c776c52dad0592bb0f151af5bc86dd20df253c6ad3b1bb6e82d8ae88",
        "field_evidence": {
          "id": "E05009370",
          "name": "Dalston"
        },
        "confidence_score_0_100": 100,
        "evidence_grade": "A_OFFICIAL_EXACT_IDENTIFIER",
        "fake_data": false,
        "spatial_binding_method": "DEFERRED_TO_LOCAL_OPENCODE",
        "materialized_parcel_count": 0,
        "direct_parcel_count": 0
      }
    },
    {
      "type": "Feature",
      "geometry": null,
      "properties": {
        "slot_id": "security_public_safety_2",
        "evidence_scope": "coverage_exact_identifier",
        "coverage_area_id": "metropolitan:E05009371",
        "exact_identifier": "E05009371",
        "exact_identifier_type": "data.police.uk.metropolitan.neighbourhood.id",
        "coverage_area_name": "De Beauvoir",
        "parent_force_id": "metropolitan",
        "source_url": "https://data.police.uk/api/metropolitan/neighbourhoods",
        "final_url": "https://data.police.uk/api/metropolitan/neighbourhoods",
        "access_utc": "2026-10-01T22:03:00Z",
        "data_date": "2026-10-01",
        "license": "Open Government Licence v3.0",
        "file_sha256": "5a5f1e0fda1f29affe3be4c582dd55b5935483c657f3737c966b8987f1efbff7",
        "evidence_slice_sha256": "a8ff5824c776c52dad0592bb0f151af5bc86dd20df253c6ad3b1bb6e82d8ae88",
        "field_evidence": {
          "id": "E05009371",
          "name": "De Beauvoir"
        },
        "confidence_score_0_100": 100,
        "evidence_grade": "A_OFFICIAL_EXACT_IDENTIFIER",
        "fake_data": false,
        "spatial_binding_method": "DEFERRED_TO_LOCAL_OPENCODE",
        "materialized_parcel_count": 0,
        "direct_parcel_count": 0
      }
    },
    {
      "type": "Feature",
      "geometry": null,
      "properties": {
        "slot_id": "security_public_safety_2",
        "evidence_scope": "coverage_exact_identifier",
        "coverage_area_id": "metropolitan:E05009372",
        "exact_identifier": "E05009372",
        "exact_identifier_type": "data.police.uk.metropolitan.neighbourhood.id",
        "coverage_area_name": "Hackney Central",
        "parent_force_id": "metropolitan",
        "source_url": "https://data.police.uk/api/metropolitan/neighbourhoods",
        "final_url": "https://data.police.uk/api/metropolitan/neighbourhoods",
        "access_utc": "2026-10-01T22:03:00Z",
        "data_date": "2026-10-01",
        "license": "Open Government Licence v3.0",
        "file_sha256": "5a5f1e0fda1f29affe3be4c582dd55b5935483c657f3737c966b8987f1efbff7",
        "evidence_slice_sha256": "a8ff5824c776c52dad0592bb0f151af5bc86dd20df253c6ad3b1bb6e82d8ae88",
        "field_evidence": {
          "id": "E05009372",
          "name": "Hackney Central"
        },
        "confidence_score_0_100": 100,
        "evidence_grade": "A_OFFICIAL_EXACT_IDENTIFIER",
        "fake_data": false,
        "spatial_binding_method": "DEFERRED_TO_LOCAL_OPENCODE",
        "materialized_parcel_count": 0,
        "direct_parcel_count": 0
      }
    },
    {
      "type": "Feature",
      "geometry": null,
      "properties": {
        "slot_id": "security_public_safety_2",
        "evidence_scope": "coverage_exact_identifier",
        "coverage_area_id": "metropolitan:E05009373",
        "exact_identifier": "E05009373",
        "exact_identifier_type": "data.police.uk.metropolitan.neighbourhood.id",
        "coverage_area_name": "Hackney Downs",
        "parent_force_id": "metropolitan",
        "source_url": "https://data.police.uk/api/metropolitan/neighbourhoods",
        "final_url": "https://data.police.uk/api/metropolitan/neighbourhoods",
        "access_utc": "2026-10-01T22:03:00Z",
        "data_date": "2026-10-01",
        "license": "Open Government Licence v3.0",
        "file_sha256": "5a5f1e0fda1f29affe3be4c582dd55b5935483c657f3737c966b8987f1efbff7",
        "evidence_slice_sha256": "a8ff5824c776c52dad0592bb0f151af5bc86dd20df253c6ad3b1bb6e82d8ae88",
        "field_evidence": {
          "id": "E05009373",
          "name": "Hackney Downs"
        },
        "confidence_score_0_100": 100,
        "evidence_grade": "A_OFFICIAL_EXACT_IDENTIFIER",
        "fake_data": false,
        "spatial_binding_method": "DEFERRED_TO_LOCAL_OPENCODE",
        "materialized_parcel_count": 0,
        "direct_parcel_count": 0
      }
    },
    {
      "type": "Feature",
      "geometry": null,
      "properties": {
        "slot_id": "security_public_safety_2",
        "evidence_scope": "coverage_exact_identifier",
        "coverage_area_id": "metropolitan:E05009374",
        "exact_identifier": "E05009374",
        "exact_identifier_type": "data.police.uk.metropolitan.neighbourhood.id",
        "coverage_area_name": "Hackney Wick",
        "parent_force_id": "metropolitan",
        "source_url": "https://data.police.uk/api/metropolitan/neighbourhoods",
        "final_url": "https://data.police.uk/api/metropolitan/neighbourhoods",
        "access_utc": "2026-10-01T22:03:00Z",
        "data_date": "2026-10-01",
        "license": "Open Government Licence v3.0",
        "file_sha256": "5a5f1e0fda1f29affe3be4c582dd55b5935483c657f3737c966b8987f1efbff7",
        "evidence_slice_sha256": "a8ff5824c776c52dad0592bb0f151af5bc86dd20df253c6ad3b1bb6e82d8ae88",
        "field_evidence": {
          "id": "E05009374",
          "name": "Hackney Wick"
        },
        "confidence_score_0_100": 100,
        "evidence_grade": "A_OFFICIAL_EXACT_IDENTIFIER",
        "fake_data": false,
        "spatial_binding_method": "DEFERRED_TO_LOCAL_OPENCODE",
        "materialized_parcel_count": 0,
        "direct_parcel_count": 0
      }
    },
    {
      "type": "Feature",
      "geometry": null,
      "properties": {
        "slot_id": "security_public_safety_2",
        "evidence_scope": "coverage_exact_identifier",
        "coverage_area_id": "metropolitan:E05009375N",
        "exact_identifier": "E05009375N",
        "exact_identifier_type": "data.police.uk.metropolitan.neighbourhood.id",
        "coverage_area_name": "Haggerston",
        "parent_force_id": "metropolitan",
        "source_url": "https://data.police.uk/api/metropolitan/neighbourhoods",
        "final_url": "https://data.police.uk/api/metropolitan/neighbourhoods",
        "access_utc": "2026-10-01T22:03:00Z",
        "data_date": "2026-10-01",
        "license": "Open Government Licence v3.0",
        "file_sha256": "5a5f1e0fda1f29affe3be4c582dd55b5935483c657f3737c966b8987f1efbff7",
        "evidence_slice_sha256": "a8ff5824c776c52dad0592bb0f151af5bc86dd20df253c6ad3b1bb6e82d8ae88",
        "field_evidence": {
          "id": "E05009375N",
          "name": "Haggerston"
        },
        "confidence_score_0_100": 100,
        "evidence_grade": "A_OFFICIAL_EXACT_IDENTIFIER",
        "fake_data": false,
        "spatial_binding_method": "DEFERRED_TO_LOCAL_OPENCODE",
        "materialized_parcel_count": 0,
        "direct_parcel_count": 0
      }
    },
    {
      "type": "Feature",
      "geometry": null,
      "properties": {
        "slot_id": "security_public_safety_2",
        "evidence_scope": "coverage_exact_identifier",
        "coverage_area_id": "metropolitan:E05009376",
        "exact_identifier": "E05009376",
        "exact_identifier_type": "data.police.uk.metropolitan.neighbourhood.id",
        "coverage_area_name": "Homerton",
        "parent_force_id": "metropolitan",
        "source_url": "https://data.police.uk/api/metropolitan/neighbourhoods",
        "final_url": "https://data.police.uk/api/metropolitan/neighbourhoods",
        "access_utc": "2026-10-01T22:03:00Z",
        "data_date": "2026-10-01",
        "license": "Open Government Licence v3.0",
        "file_sha256": "5a5f1e0fda1f29affe3be4c582dd55b5935483c657f3737c966b8987f1efbff7",
        "evidence_slice_sha256": "a8ff5824c776c52dad0592bb0f151af5bc86dd20df253c6ad3b1bb6e82d8ae88",
        "field_evidence": {
          "id": "E05009376",
          "name": "Homerton"
        },
        "confidence_score_0_100": 100,
        "evidence_grade": "A_OFFICIAL_EXACT_IDENTIFIER",
        "fake_data": false,
        "spatial_binding_method": "DEFERRED_TO_LOCAL_OPENCODE",
        "materialized_parcel_count": 0,
        "direct_parcel_count": 0
      }
    },
    {
      "type": "Feature",
      "geometry": null,
      "properties": {
        "slot_id": "security_public_safety_2",
        "evidence_scope": "coverage_exact_identifier",
        "coverage_area_id": "metropolitan:E05009377N",
        "exact_identifier": "E05009377N",
        "exact_identifier_type": "data.police.uk.metropolitan.neighbourhood.id",
        "coverage_area_name": "Hoxton East and Shoreditch",
        "parent_force_id": "metropolitan",
        "source_url": "https://data.police.uk/api/metropolitan/neighbourhoods",
        "final_url": "https://data.police.uk/api/metropolitan/neighbourhoods",
        "access_utc": "2026-10-01T22:03:00Z",
        "data_date": "2026-10-01",
        "license": "Open Government Licence v3.0",
        "file_sha256": "5a5f1e0fda1f29affe3be4c582dd55b5935483c657f3737c966b8987f1efbff7",
        "evidence_slice_sha256": "a8ff5824c776c52dad0592bb0f151af5bc86dd20df253c6ad3b1bb6e82d8ae88",
        "field_evidence": {
          "id": "E05009377N",
          "name": "Hoxton East and Shoreditch"
        },
        "confidence_score_0_100": 100,
        "evidence_grade": "A_OFFICIAL_EXACT_IDENTIFIER",
        "fake_data": false,
        "spatial_binding_method": "DEFERRED_TO_LOCAL_OPENCODE",
        "materialized_parcel_count": 0,
        "direct_parcel_count": 0
      }
    },
    {
      "type": "Feature",
      "geometry": null,
      "properties": {
        "slot_id": "security_public_safety_2",
        "evidence_scope": "coverage_exact_identifier",
        "coverage_area_id": "metropolitan:E05009378",
        "exact_identifier": "E05009378",
        "exact_identifier_type": "data.police.uk.metropolitan.neighbourhood.id",
        "coverage_area_name": "Hoxton West",
        "parent_force_id": "metropolitan",
        "source_url": "https://data.police.uk/api/metropolitan/neighbourhoods",
        "final_url": "https://data.police.uk/api/metropolitan/neighbourhoods",
        "access_utc": "2026-10-01T22:03:00Z",
        "data_date": "2026-10-01",
        "license": "Open Government Licence v3.0",
        "file_sha256": "5a5f1e0fda1f29affe3be4c582dd55b5935483c657f3737c966b8987f1efbff7",
        "evidence_slice_sha256": "a8ff5824c776c52dad0592bb0f151af5bc86dd20df253c6ad3b1bb6e82d8ae88",
        "field_evidence": {
          "id": "E05009378",
          "name": "Hoxton West"
        },
        "confidence_score_0_100": 100,
        "evidence_grade": "A_OFFICIAL_EXACT_IDENTIFIER",
        "fake_data": false,
        "spatial_binding_method": "DEFERRED_TO_LOCAL_OPENCODE",
        "materialized_parcel_count": 0,
        "direct_parcel_count": 0
      }
    },
    {
      "type": "Feature",
      "geometry": null,
      "properties": {
        "slot_id": "security_public_safety_2",
        "evidence_scope": "coverage_exact_identifier",
        "coverage_area_id": "metropolitan:E05009379",
        "exact_identifier": "E05009379",
        "exact_identifier_type": "data.police.uk.metropolitan.neighbourhood.id",
        "coverage_area_name": "King's Park",
        "parent_force_id": "metropolitan",
        "source_url": "https://data.police.uk/api/metropolitan/neighbourhoods",
        "final_url": "https://data.police.uk/api/metropolitan/neighbourhoods",
        "access_utc": "2026-10-01T22:03:00Z",
        "data_date": "2026-10-01",
        "license": "Open Government Licence v3.0",
        "file_sha256": "5a5f1e0fda1f29affe3be4c582dd55b5935483c657f3737c966b8987f1efbff7",
        "evidence_slice_sha256": "a8ff5824c776c52dad0592bb0f151af5bc86dd20df253c6ad3b1bb6e82d8ae88",
        "field_evidence": {
          "id": "E05009379",
          "name": "King's Park"
        },
        "confidence_score_0_100": 100,
        "evidence_grade": "A_OFFICIAL_EXACT_IDENTIFIER",
        "fake_data": false,
        "spatial_binding_method": "DEFERRED_TO_LOCAL_OPENCODE",
        "materialized_parcel_count": 0,
        "direct_parcel_count": 0
      }
    },
    {
      "type": "Feature",
      "geometry": null,
      "properties": {
        "slot_id": "security_public_safety_2",
        "evidence_scope": "coverage_exact_identifier",
        "coverage_area_id": "metropolitan:E05009380",
        "exact_identifier": "E05009380",
        "exact_identifier_type": "data.police.uk.metropolitan.neighbourhood.id",
        "coverage_area_name": "Lea Bridge",
        "parent_force_id": "metropolitan",
        "source_url": "https://data.police.uk/api/metropolitan/neighbourhoods",
        "final_url": "https://data.police.uk/api/metropolitan/neighbourhoods",
        "access_utc": "2026-10-01T22:03:00Z",
        "data_date": "2026-10-01",
        "license": "Open Government Licence v3.0",
        "file_sha256": "5a5f1e0fda1f29affe3be4c582dd55b5935483c657f3737c966b8987f1efbff7",
        "evidence_slice_sha256": "a8ff5824c776c52dad0592bb0f151af5bc86dd20df253c6ad3b1bb6e82d8ae88",
        "field_evidence": {
          "id": "E05009380",
          "name": "Lea Bridge"
        },
        "confidence_score_0_100": 100,
        "evidence_grade": "A_OFFICIAL_EXACT_IDENTIFIER",
        "fake_data": false,
        "spatial_binding_method": "DEFERRED_TO_LOCAL_OPENCODE",
        "materialized_parcel_count": 0,
        "direct_parcel_count": 0
      }
    },
    {
      "type": "Feature",
      "geometry": null,
      "properties": {
        "slot_id": "security_public_safety_2",
        "evidence_scope": "coverage_exact_identifier",
        "coverage_area_id": "metropolitan:E05009381",
        "exact_identifier": "E05009381",
        "exact_identifier_type": "data.police.uk.metropolitan.neighbourhood.id",
        "coverage_area_name": "London Fields",
        "parent_force_id": "metropolitan",
        "source_url": "https://data.police.uk/api/metropolitan/neighbourhoods",
        "final_url": "https://data.police.uk/api/metropolitan/neighbourhoods",
        "access_utc": "2026-10-01T22:03:00Z",
        "data_date": "2026-10-01",
        "license": "Open Government Licence v3.0",
        "file_sha256": "5a5f1e0fda1f29affe3be4c582dd55b5935483c657f3737c966b8987f1efbff7",
        "evidence_slice_sha256": "a8ff5824c776c52dad0592bb0f151af5bc86dd20df253c6ad3b1bb6e82d8ae88",
        "field_evidence": {
          "id": "E05009381",
          "name": "London Fields"
        },
        "confidence_score_0_100": 100,
        "evidence_grade": "A_OFFICIAL_EXACT_IDENTIFIER",
        "fake_data": false,
        "spatial_binding_method": "DEFERRED_TO_LOCAL_OPENCODE",
        "materialized_parcel_count": 0,
        "direct_parcel_count": 0
      }
    },
    {
      "type": "Feature",
      "geometry": null,
      "properties": {
        "slot_id": "security_public_safety_2",
        "evidence_scope": "coverage_exact_identifier",
        "coverage_area_id": "metropolitan:E05009382",
        "exact_identifier": "E05009382",
        "exact_identifier_type": "data.police.uk.metropolitan.neighbourhood.id",
        "coverage_area_name": "Shacklewell",
        "parent_force_id": "metropolitan",
        "source_url": "https://data.police.uk/api/metropolitan/neighbourhoods",
        "final_url": "https://data.police.uk/api/metropolitan/neighbourhoods",
        "access_utc": "2026-10-01T22:03:00Z",
        "data_date": "2026-10-01",
        "license": "Open Government Licence v3.0",
        "file_sha256": "5a5f1e0fda1f29affe3be4c582dd55b5935483c657f3737c966b8987f1efbff7",
        "evidence_slice_sha256": "a8ff5824c776c52dad0592bb0f151af5bc86dd20df253c6ad3b1bb6e82d8ae88",
        "field_evidence": {
          "id": "E05009382",
          "name": "Shacklewell"
        },
        "confidence_score_0_100": 100,
        "evidence_grade": "A_OFFICIAL_EXACT_IDENTIFIER",
        "fake_data": false,
        "spatial_binding_method": "DEFERRED_TO_LOCAL_OPENCODE",
        "materialized_parcel_count": 0,
        "direct_parcel_count": 0
      }
    },
    {
      "type": "Feature",
      "geometry": null,
      "properties": {
        "slot_id": "security_public_safety_2",
        "evidence_scope": "coverage_exact_identifier",
        "coverage_area_id": "metropolitan:E05009383",
        "exact_identifier": "E05009383",
        "exact_identifier_type": "data.police.uk.metropolitan.neighbourhood.id",
        "coverage_area_name": "Springfield",
        "parent_force_id": "metropolitan",
        "source_url": "https://data.police.uk/api/metropolitan/neighbourhoods",
        "final_url": "https://data.police.uk/api/metropolitan/neighbourhoods",
        "access_utc": "2026-10-01T22:03:00Z",
        "data_date": "2026-10-01",
        "license": "Open Government Licence v3.0",
        "file_sha256": "5a5f1e0fda1f29affe3be4c582dd55b5935483c657f3737c966b8987f1efbff7",
        "evidence_slice_sha256": "a8ff5824c776c52dad0592bb0f151af5bc86dd20df253c6ad3b1bb6e82d8ae88",
        "field_evidence": {
          "id": "E05009383",
          "name": "Springfield"
        },
        "confidence_score_0_100": 100,
        "evidence_grade": "A_OFFICIAL_EXACT_IDENTIFIER",
        "fake_data": false,
        "spatial_binding_method": "DEFERRED_TO_LOCAL_OPENCODE",
        "materialized_parcel_count": 0,
        "direct_parcel_count": 0
      }
    },
    {
      "type": "Feature",
      "geometry": null,
      "properties": {
        "slot_id": "security_public_safety_2",
        "evidence_scope": "coverage_exact_identifier",
        "coverage_area_id": "metropolitan:E05009384",
        "exact_identifier": "E05009384",
        "exact_identifier_type": "data.police.uk.metropolitan.neighbourhood.id",
        "coverage_area_name": "Stamford Hill West",
        "parent_force_id": "metropolitan",
        "source_url": "https://data.police.uk/api/metropolitan/neighbourhoods",
        "final_url": "https://data.police.uk/api/metropolitan/neighbourhoods",
        "access_utc": "2026-10-01T22:03:00Z",
        "data_date": "2026-10-01",
        "license": "Open Government Licence v3.0",
        "file_sha256": "5a5f1e0fda1f29affe3be4c582dd55b5935483c657f3737c966b8987f1efbff7",
        "evidence_slice_sha256": "a8ff5824c776c52dad0592bb0f151af5bc86dd20df253c6ad3b1bb6e82d8ae88",
        "field_evidence": {
          "id": "E05009384",
          "name": "Stamford Hill West"
        },
        "confidence_score_0_100": 100,
        "evidence_grade": "A_OFFICIAL_EXACT_IDENTIFIER",
        "fake_data": false,
        "spatial_binding_method": "DEFERRED_TO_LOCAL_OPENCODE",
        "materialized_parcel_count": 0,
        "direct_parcel_count": 0
      }
    },
    {
      "type": "Feature",
      "geometry": null,
      "properties": {
        "slot_id": "security_public_safety_2",
        "evidence_scope": "coverage_exact_identifier",
        "coverage_area_id": "metropolitan:E05009385",
        "exact_identifier": "E05009385",
        "exact_identifier_type": "data.police.uk.metropolitan.neighbourhood.id",
        "coverage_area_name": "Stoke Newington",
        "parent_force_id": "metropolitan",
        "source_url": "https://data.police.uk/api/metropolitan/neighbourhoods",
        "final_url": "https://data.police.uk/api/metropolitan/neighbourhoods",
        "access_utc": "2026-10-01T22:03:00Z",
        "data_date": "2026-10-01",
        "license": "Open Government Licence v3.0",
        "file_sha256": "5a5f1e0fda1f29affe3be4c582dd55b5935483c657f3737c966b8987f1efbff7",
        "evidence_slice_sha256": "a8ff5824c776c52dad0592bb0f151af5bc86dd20df253c6ad3b1bb6e82d8ae88",
        "field_evidence": {
          "id": "E05009385",
          "name": "Stoke Newington"
        },
        "confidence_score_0_100": 100,
        "evidence_grade": "A_OFFICIAL_EXACT_IDENTIFIER",
        "fake_data": false,
        "spatial_binding_method": "DEFERRED_TO_LOCAL_OPENCODE",
        "materialized_parcel_count": 0,
        "direct_parcel_count": 0
      }
    },
    {
      "type": "Feature",
      "geometry": null,
      "properties": {
        "slot_id": "security_public_safety_2",
        "evidence_scope": "coverage_exact_identifier",
        "coverage_area_id": "metropolitan:E05009386",
        "exact_identifier": "E05009386",
        "exact_identifier_type": "data.police.uk.metropolitan.neighbourhood.id",
        "coverage_area_name": "Victoria",
        "parent_force_id": "metropolitan",
        "source_url": "https://data.police.uk/api/metropolitan/neighbourhoods",
        "final_url": "https://data.police.uk/api/metropolitan/neighbourhoods",
        "access_utc": "2026-10-01T22:03:00Z",
        "data_date": "2026-10-01",
        "license": "Open Government Licence v3.0",
        "file_sha256": "5a5f1e0fda1f29affe3be4c582dd55b5935483c657f3737c966b8987f1efbff7",
        "evidence_slice_sha256": "a8ff5824c776c52dad0592bb0f151af5bc86dd20df253c6ad3b1bb6e82d8ae88",
        "field_evidence": {
          "id": "E05009386",
          "name": "Victoria"
        },
        "confidence_score_0_100": 100,
        "evidence_grade": "A_OFFICIAL_EXACT_IDENTIFIER",
        "fake_data": false,
        "spatial_binding_method": "DEFERRED_TO_LOCAL_OPENCODE",
        "materialized_parcel_count": 0,
        "direct_parcel_count": 0
      }
    },
    {
      "type": "Feature",
      "geometry": null,
      "properties": {
        "slot_id": "security_public_safety_2",
        "evidence_scope": "coverage_exact_identifier",
        "coverage_area_id": "metropolitan:E05009387",
        "exact_identifier": "E05009387",
        "exact_identifier_type": "data.police.uk.metropolitan.neighbourhood.id",
        "coverage_area_name": "Woodberry Down",
        "parent_force_id": "metropolitan",
        "source_url": "https://data.police.uk/api/metropolitan/neighbourhoods",
        "final_url": "https://data.police.uk/api/metropolitan/neighbourhoods",
        "access_utc": "2026-10-01T22:03:00Z",
        "data_date": "2026-10-01",
        "license": "Open Government Licence v3.0",
        "file_sha256": "5a5f1e0fda1f29affe3be4c582dd55b5935483c657f3737c966b8987f1efbff7",
        "evidence_slice_sha256": "a8ff5824c776c52dad0592bb0f151af5bc86dd20df253c6ad3b1bb6e82d8ae88",
        "field_evidence": {
          "id": "E05009387",
          "name": "Woodberry Down"
        },
        "confidence_score_0_100": 100,
        "evidence_grade": "A_OFFICIAL_EXACT_IDENTIFIER",
        "fake_data": false,
        "spatial_binding_method": "DEFERRED_TO_LOCAL_OPENCODE",
        "materialized_parcel_count": 0,
        "direct_parcel_count": 0
      }
    },
    {
      "type": "Feature",
      "geometry": null,
      "properties": {
        "slot_id": "security_public_safety_2",
        "evidence_scope": "coverage_exact_identifier",
        "coverage_area_id": "metropolitan:E05009388",
        "exact_identifier": "E05009388",
        "exact_identifier_type": "data.police.uk.metropolitan.neighbourhood.id",
        "coverage_area_name": "Abingdon",
        "parent_force_id": "metropolitan",
        "source_url": "https://data.police.uk/api/metropolitan/neighbourhoods",
        "final_url": "https://data.police.uk/api/metropolitan/neighbourhoods",
        "access_utc": "2026-10-01T22:03:00Z",
        "data_date": "2026-10-01",
        "license": "Open Government Licence v3.0",
        "file_sha256": "5a5f1e0fda1f29affe3be4c582dd55b5935483c657f3737c966b8987f1efbff7",
        "evidence_slice_sha256": "a8ff5824c776c52dad0592bb0f151af5bc86dd20df253c6ad3b1bb6e82d8ae88",
        "field_evidence": {
          "id": "E05009388",
          "name": "Abingdon"
        },
        "confidence_score_0_100": 100,
        "evidence_grade": "A_OFFICIAL_EXACT_IDENTIFIER",
        "fake_data": false,
        "spatial_binding_method": "DEFERRED_TO_LOCAL_OPENCODE",
        "materialized_parcel_count": 0,
        "direct_parcel_count": 0
      }
    },
    {
      "type": "Feature",
      "geometry": null,
      "properties": {
        "slot_id": "security_public_safety_2",
        "evidence_scope": "coverage_exact_identifier",
        "coverage_area_id": "metropolitan:E05009389",
        "exact_identifier": "E05009389",
        "exact_identifier_type": "data.police.uk.metropolitan.neighbourhood.id",
        "coverage_area_name": "Brompton and Hans Town",
        "parent_force_id": "metropolitan",
        "source_url": "https://data.police.uk/api/metropolitan/neighbourhoods",
        "final_url": "https://data.police.uk/api/metropolitan/neighbourhoods",
        "access_utc": "2026-10-01T22:03:00Z",
        "data_date": "2026-10-01",
        "license": "Open Government Licence v3.0",
        "file_sha256": "5a5f1e0fda1f29affe3be4c582dd55b5935483c657f3737c966b8987f1efbff7",
        "evidence_slice_sha256": "a8ff5824c776c52dad0592bb0f151af5bc86dd20df253c6ad3b1bb6e82d8ae88",
        "field_evidence": {
          "id": "E05009389",
          "name": "Brompton and Hans Town"
        },
        "confidence_score_0_100": 100,
        "evidence_grade": "A_OFFICIAL_EXACT_IDENTIFIER",
        "fake_data": false,
        "spatial_binding_method": "DEFERRED_TO_LOCAL_OPENCODE",
        "materialized_parcel_count": 0,
        "direct_parcel_count": 0
      }
    },
    {
      "type": "Feature",
      "geometry": null,
      "properties": {
        "slot_id": "security_public_safety_2",
        "evidence_scope": "coverage_exact_identifier",
        "coverage_area_id": "metropolitan:E05009390N",
        "exact_identifier": "E05009390N",
        "exact_identifier_type": "data.police.uk.metropolitan.neighbourhood.id",
        "coverage_area_name": "Campden",
        "parent_force_id": "metropolitan",
        "source_url": "https://data.police.uk/api/metropolitan/neighbourhoods",
        "final_url": "https://data.police.uk/api/metropolitan/neighbourhoods",
        "access_utc": "2026-10-01T22:03:00Z",
        "data_date": "2026-10-01",
        "license": "Open Government Licence v3.0",
        "file_sha256": "5a5f1e0fda1f29affe3be4c582dd55b5935483c657f3737c966b8987f1efbff7",
        "evidence_slice_sha256": "a8ff5824c776c52dad0592bb0f151af5bc86dd20df253c6ad3b1bb6e82d8ae88",
        "field_evidence": {
          "id": "E05009390N",
          "name": "Campden"
        },
        "confidence_score_0_100": 100,
        "evidence_grade": "A_OFFICIAL_EXACT_IDENTIFIER",
        "fake_data": false,
        "spatial_binding_method": "DEFERRED_TO_LOCAL_OPENCODE",
        "materialized_parcel_count": 0,
        "direct_parcel_count": 0
      }
    },
    {
      "type": "Feature",
      "geometry": null,
      "properties": {
        "slot_id": "security_public_safety_2",
        "evidence_scope": "coverage_exact_identifier",
        "coverage_area_id": "metropolitan:E05009391",
        "exact_identifier": "E05009391",
        "exact_identifier_type": "data.police.uk.metropolitan.neighbourhood.id",
        "coverage_area_name": "Chelsea Riverside",
        "parent_force_id": "metropolitan",
        "source_url": "https://data.police.uk/api/metropolitan/neighbourhoods",
        "final_url": "https://data.police.uk/api/metropolitan/neighbourhoods",
        "access_utc": "2026-10-01T22:03:00Z",
        "data_date": "2026-10-01",
        "license": "Open Government Licence v3.0",
        "file_sha256": "5a5f1e0fda1f29affe3be4c582dd55b5935483c657f3737c966b8987f1efbff7",
        "evidence_slice_sha256": "a8ff5824c776c52dad0592bb0f151af5bc86dd20df253c6ad3b1bb6e82d8ae88",
        "field_evidence": {
          "id": "E05009391",
          "name": "Chelsea Riverside"
        },
        "confidence_score_0_100": 100,
        "evidence_grade": "A_OFFICIAL_EXACT_IDENTIFIER",
        "fake_data": false,
        "spatial_binding_method": "DEFERRED_TO_LOCAL_OPENCODE",
        "materialized_parcel_count": 0,
        "direct_parcel_count": 0
      }
    },
    {
      "type": "Feature",
      "geometry": null,
      "properties": {
        "slot_id": "security_public_safety_2",
        "evidence_scope": "coverage_exact_identifier",
        "coverage_area_id": "metropolitan:E05009392",
        "exact_identifier": "E05009392",
        "exact_identifier_type": "data.police.uk.metropolitan.neighbourhood.id",
        "coverage_area_name": "Colville",
        "parent_force_id": "metropolitan",
        "source_url": "https://data.police.uk/api/metropolitan/neighbourhoods",
        "final_url": "https://data.police.uk/api/metropolitan/neighbourhoods",
        "access_utc": "2026-10-01T22:03:00Z",
        "data_date": "2026-10-01",
        "license": "Open Government Licence v3.0",
        "file_sha256": "5a5f1e0fda1f29affe3be4c582dd55b5935483c657f3737c966b8987f1efbff7",
        "evidence_slice_sha256": "a8ff5824c776c52dad0592bb0f151af5bc86dd20df253c6ad3b1bb6e82d8ae88",
        "field_evidence": {
          "id": "E05009392",
          "name": "Colville"
        },
        "confidence_score_0_100": 100,
        "evidence_grade": "A_OFFICIAL_EXACT_IDENTIFIER",
        "fake_data": false,
        "spatial_binding_method": "DEFERRED_TO_LOCAL_OPENCODE",
        "materialized_parcel_count": 0,
        "direct_parcel_count": 0
      }
    },
    {
      "type": "Feature",
      "geometry": null,
      "properties": {
        "slot_id": "security_public_safety_2",
        "evidence_scope": "coverage_exact_identifier",
        "coverage_area_id": "metropolitan:E05009393",
        "exact_identifier": "E05009393",
        "exact_identifier_type": "data.police.uk.metropolitan.neighbourhood.id",
        "coverage_area_name": "Courtfield",
        "parent_force_id": "metropolitan",
        "source_url": "https://data.police.uk/api/metropolitan/neighbourhoods",
        "final_url": "https://data.police.uk/api/metropolitan/neighbourhoods",
        "access_utc": "2026-10-01T22:03:00Z",
        "data_date": "2026-10-01",
        "license": "Open Government Licence v3.0",
        "file_sha256": "5a5f1e0fda1f29affe3be4c582dd55b5935483c657f3737c966b8987f1efbff7",
        "evidence_slice_sha256": "a8ff5824c776c52dad0592bb0f151af5bc86dd20df253c6ad3b1bb6e82d8ae88",
        "field_evidence": {
          "id": "E05009393",
          "name": "Courtfield"
        },
        "confidence_score_0_100": 100,
        "evidence_grade": "A_OFFICIAL_EXACT_IDENTIFIER",
        "fake_data": false,
        "spatial_binding_method": "DEFERRED_TO_LOCAL_OPENCODE",
        "materialized_parcel_count": 0,
        "direct_parcel_count": 0
      }
    },
    {
      "type": "Feature",
      "geometry": null,
      "properties": {
        "slot_id": "security_public_safety_2",
        "evidence_scope": "coverage_exact_identifier",
        "coverage_area_id": "metropolitan:E05009394",
        "exact_identifier": "E05009394",
        "exact_identifier_type": "data.police.uk.metropolitan.neighbourhood.id",
        "coverage_area_name": "Dalgarno",
        "parent_force_id": "metropolitan",
        "source_url": "https://data.police.uk/api/metropolitan/neighbourhoods",
        "final_url": "https://data.police.uk/api/metropolitan/neighbourhoods",
        "access_utc": "2026-10-01T22:03:00Z",
        "data_date": "2026-10-01",
        "license": "Open Government Licence v3.0",
        "file_sha256": "5a5f1e0fda1f29affe3be4c582dd55b5935483c657f3737c966b8987f1efbff7",
        "evidence_slice_sha256": "a8ff5824c776c52dad0592bb0f151af5bc86dd20df253c6ad3b1bb6e82d8ae88",
        "field_evidence": {
          "id": "E05009394",
          "name": "Dalgarno"
        },
        "confidence_score_0_100": 100,
        "evidence_grade": "A_OFFICIAL_EXACT_IDENTIFIER",
        "fake_data": false,
        "spatial_binding_method": "DEFERRED_TO_LOCAL_OPENCODE",
        "materialized_parcel_count": 0,
        "direct_parcel_count": 0
      }
    },
    {
      "type": "Feature",
      "geometry": null,
      "properties": {
        "slot_id": "security_public_safety_2",
        "evidence_scope": "coverage_exact_identifier",
        "coverage_area_id": "metropolitan:E05009395",
        "exact_identifier": "E05009395",
        "exact_identifier_type": "data.police.uk.metropolitan.neighbourhood.id",
        "coverage_area_name": "Earl's Court",
        "parent_force_id": "metropolitan",
        "source_url": "https://data.police.uk/api/metropolitan/neighbourhoods",
        "final_url": "https://data.police.uk/api/metropolitan/neighbourhoods",
        "access_utc": "2026-10-01T22:03:00Z",
        "data_date": "2026-10-01",
        "license": "Open Government Licence v3.0",
        "file_sha256": "5a5f1e0fda1f29affe3be4c582dd55b5935483c657f3737c966b8987f1efbff7",
        "evidence_slice_sha256": "a8ff5824c776c52dad0592bb0f151af5bc86dd20df253c6ad3b1bb6e82d8ae88",
        "field_evidence": {
          "id": "E05009395",
          "name": "Earl's Court"
        },
        "confidence_score_0_100": 100,
        "evidence_grade": "A_OFFICIAL_EXACT_IDENTIFIER",
        "fake_data": false,
        "spatial_binding_method": "DEFERRED_TO_LOCAL_OPENCODE",
        "materialized_parcel_count": 0,
        "direct_parcel_count": 0
      }
    },
    {
      "type": "Feature",
      "geometry": null,
      "properties": {
        "slot_id": "security_public_safety_2",
        "evidence_scope": "coverage_exact_identifier",
        "coverage_area_id": "metropolitan:E05009396",
        "exact_identifier": "E05009396",
        "exact_identifier_type": "data.police.uk.metropolitan.neighbourhood.id",
        "coverage_area_name": "Golborne",
        "parent_force_id": "metropolitan",
        "source_url": "https://data.police.uk/api/metropolitan/neighbourhoods",
        "final_url": "https://data.police.uk/api/metropolitan/neighbourhoods",
        "access_utc": "2026-10-01T22:03:00Z",
        "data_date": "2026-10-01",
        "license": "Open Government Licence v3.0",
        "file_sha256": "5a5f1e0fda1f29affe3be4c582dd55b5935483c657f3737c966b8987f1efbff7",
        "evidence_slice_sha256": "a8ff5824c776c52dad0592bb0f151af5bc86dd20df253c6ad3b1bb6e82d8ae88",
        "field_evidence": {
          "id": "E05009396",
          "name": "Golborne"
        },
        "confidence_score_0_100": 100,
        "evidence_grade": "A_OFFICIAL_EXACT_IDENTIFIER",
        "fake_data": false,
        "spatial_binding_method": "DEFERRED_TO_LOCAL_OPENCODE",
        "materialized_parcel_count": 0,
        "direct_parcel_count": 0
      }
    },
    {
      "type": "Feature",
      "geometry": null,
      "properties": {
        "slot_id": "security_public_safety_2",
        "evidence_scope": "coverage_exact_identifier",
        "coverage_area_id": "metropolitan:E05009397",
        "exact_identifier": "E05009397",
        "exact_identifier_type": "data.police.uk.metropolitan.neighbourhood.id",
        "coverage_area_name": "Holland",
        "parent_force_id": "metropolitan",
        "source_url": "https://data.police.uk/api/metropolitan/neighbourhoods",
        "final_url": "https://data.police.uk/api/metropolitan/neighbourhoods",
        "access_utc": "2026-10-02T08:07:00Z",
        "data_date": "2026-10-02",
        "data_date_basis": "API current snapshot observed on access date; endpoint exposes no separate version date",
        "license": "Open Government Licence v3.0",
        "file_sha256": "f81fe21951216ef820fd9e11585336b8dd961f490526954460cf74270c7a0b58",
        "evidence_slice_sha256": "2e9fadecb7ff06f695549146005a2375dfafeaff4fdeb9bbef27af2bb1d9da1c",
        "field_evidence": {
          "id": "E05009397",
          "name": "Holland"
        },
        "confidence_score_0_100": 100,
        "evidence_grade": "A_OFFICIAL_EXACT_IDENTIFIER",
        "fake_data": false,
        "spatial_binding_method": "DEFERRED_TO_LOCAL_OPENCODE",
        "canonical_parcel_id": null,
        "materialized_parcel_count": 0,
        "direct_parcel_count": 0
      }
    }
  ],
  "metadata": {
    "source_area_count": 53,
    "source_area_delta_this_turn": 0,
    "latest_evidence_window": "POLICEUK_NPT_BOUNDARIES_2026_07_ARCHIVE_METADATA",
    "latest_status": "EXACT_BLOCKER_ARCHIVE_PAYLOAD_PENDING_LOCAL_BINDING",
    "exact_blocker": "OFFICIAL_JULY_2026_NPT_BOUNDARY_ARCHIVE_BYTES_NOT_RETRIEVED_IN_RUNTIME; LOCAL_OPENCODE_ARCHIVE_DOWNLOAD_GEOMETRY_BINDING_REQUIRED",
    "first_missing_criterion": "LOCAL_OPENCODE_EXACT_IDENTIFIER_TO_CANONICAL_SPATIAL_BINDING"
  }
}
