{"type":"FeatureCollection","features":[{"type":"Feature","id":"broxtowe-brownfield:SHLAA/00150/AVA","geometry":null,"properties":{"slot_id":"future_growth_4","lineage_id":"fg4-e4c9076d6f554f00","page_generation":1,"owner":"future_growth_4","partition":"future_growth","semantic_mode":"SOURCE_AREA_EXACT_IDENTIFIER","dataset":"broxtowe-brownfield-land-register-csv","entity":"SHLAA/00150/AVA","reference":"SHLAA/00150/AVA","quality":"authoritative","organisation":"Broxtowe Borough Council","name":"Beeston Maltings, Dovecote Lane, Beeston","source_url":"https://www.data.gov.uk/dataset/731f307b-3903-4f43-bff5-0a3f511aa49d/brownfield-land-register30/datafile/d59a587b-17eb-4f38-a35c-96827646b2fd/preview","final_url":"https://www.data.gov.uk/dataset/731f307b-3903-4f43-bff5-0a3f511aa49d/brownfield-land-register30/datafile/d59a587b-17eb-4f38-a35c-96827646b2fd/preview","access_utc":"2026-10-02T04:54:18Z","data_date":"2017-12-13","license":"Open Government Licence v3","field_evidence":{"reference":"SHLAA/00150/AVA","organisation_label":"Broxtowe","site_name":"Beeston Maltings, Dovecote Lane, Beeston","site_plan_url":"http://www.arcgis.com/apps/webappviewer/index.html?id=08f516e5e14b48cfa555e52edb7e58f6&query=External_Layes_1366%2CSITEREFERENCE%2CSHLAA%2F00150%2FAVA","coordinate_reference_system":"ETRS89","geo_x":-1.210551,"geo_y":52.919487,"hectares":1.32,"ownership_status":"not owned by a public authority","deliverable":"","planning_status":"not permissioned","min_net_dwellings":56,"development_description":"Residential allocation in the emerging Local Plan (not yet allocated).","first_added_date":"2017-12-13","last_updated_date":"2017-12-13","easting":453178,"northing":336076,"licence":"OGL","licence_url":"http://www.nationalarchives.gov.uk/doc/open-government-licence/version/3/"},"evidence_slice_sha256":"78130bee538878efc27a4492d532ee6690697601e87acaf16ed12d3bf6c4dc4e","confidence_score_0_100":99,"confidence":0.99,"evidence_grade":"A","exact_identifier_provided":true,"coverage_polygon_provided":false,"point":"POINT (-1.210551 52.919487)","fake_data":false,"join_mode":"LOCAL_OPENCODE_SPATIAL_JOIN_PENDING","direct_parcel":false,"source_area_count_contribution":1,"planned_building_count_contribution":0}}]}