{"type":"FeatureCollection","features":[{"type":"Feature","geometry":null,"properties":{"slot_id":"planned_buildings_1","lineage_id":"planned_buildings_1-0ffc4ebd6c6e4e41","semantic_mode":"DISTINCT_BUILDINGS","planned_building_id":"planning-application:W/26/01949/FUL::DWELLING_01","building_status":"PLANNED","building_name":"Dwelling 1, Land Off Green Lane Adjacent To Firs Farm Ombersley Road Worcester","planning_reference":"W/26/01949/FUL","authority":"Wychavon District Council","source_url":"https://plan.wychavon.gov.uk/Planning/Display/W/26/01949/FUL","final_url":"https://plan.wychavon.gov.uk/Planning/Display/W/26/01949/FUL","access_utc":"2026-10-05T11:52:00Z","source_data_date":"2026-08-28","license":"Council planning-register copyright/consultation terms; no separate data licence stated on page","geometry_role":"null; no geometry inferred","field_evidence":"Valid; Pending Decision; decision Pending; proposal explicitly identifies erection of 4 dwellings and associated access.","identity_limitation":"Exactly four dwellings are counted from explicit source cardinality; associated access is not a building.","confidence_score_0_100":99,"evidence_grade":"A","fake_data":false}},{"type":"Feature","geometry":null,"properties":{"slot_id":"planned_buildings_1","lineage_id":"planned_buildings_1-0ffc4ebd6c6e4e41","semantic_mode":"DISTINCT_BUILDINGS","planned_building_id":"planning-application:W/26/01949/FUL::DWELLING_02","building_status":"PLANNED","building_name":"Dwelling 2, Land Off Green Lane Adjacent To Firs Farm Ombersley Road Worcester","planning_reference":"W/26/01949/FUL","authority":"Wychavon District Council","source_url":"https://plan.wychavon.gov.uk/Planning/Display/W/26/01949/FUL","final_url":"https://plan.wychavon.gov.uk/Planning/Display/W/26/01949/FUL","access_utc":"2026-10-05T11:52:00Z","source_data_date":"2026-08-28","license":"Council planning-register copyright/consultation terms; no separate data licence stated on page","geometry_role":"null; no geometry inferred","field_evidence":"Valid; Pending Decision; decision Pending; proposal explicitly identifies erection of 4 dwellings and associated access.","identity_limitation":"Exactly four dwellings are counted from explicit source cardinality; associated access is not a building.","confidence_score_0_100":99,"evidence_grade":"A","fake_data":false}},{"type":"Feature","geometry":null,"properties":{"slot_id":"planned_buildings_1","lineage_id":"planned_buildings_1-0ffc4ebd6c6e4e41","semantic_mode":"DISTINCT_BUILDINGS","planned_building_id":"planning-application:W/26/01949/FUL::DWELLING_03","building_status":"PLANNED","building_name":"Dwelling 3, Land Off Green Lane Adjacent To Firs Farm Ombersley Road Worcester","planning_reference":"W/26/01949/FUL","authority":"Wychavon District Council","source_url":"https://plan.wychavon.gov.uk/Planning/Display/W/26/01949/FUL","final_url":"https://plan.wychavon.gov.uk/Planning/Display/W/26/01949/FUL","access_utc":"2026-10-05T11:52:00Z","source_data_date":"2026-08-28","license":"Council planning-register copyright/consultation terms; no separate data licence stated on page","geometry_role":"null; no geometry inferred","field_evidence":"Valid; Pending Decision; decision Pending; proposal explicitly identifies erection of 4 dwellings and associated access.","identity_limitation":"Exactly four dwellings are counted from explicit source cardinality; associated access is not a building.","confidence_score_0_100":99,"evidence_grade":"A","fake_data":false}},{"type":"Feature","geometry":null,"properties":{"slot_id":"planned_buildings_1","lineage_id":"planned_buildings_1-0ffc4ebd6c6e4e41","semantic_mode":"DISTINCT_BUILDINGS","planned_building_id":"planning-application:W/26/01949/FUL::DWELLING_04","building_status":"PLANNED","building_name":"Dwelling 4, Land Off Green Lane Adjacent To Firs Farm Ombersley Road Worcester","planning_reference":"W/26/01949/FUL","authority":"Wychavon District Council","source_url":"https://plan.wychavon.gov.uk/Planning/Display/W/26/01949/FUL","final_url":"https://plan.wychavon.gov.uk/Planning/Display/W/26/01949/FUL","access_utc":"2026-10-05T11:52:00Z","source_data_date":"2026-08-28","license":"Council planning-register copyright/consultation terms; no separate data licence stated on page","geometry_role":"null; no geometry inferred","field_evidence":"Valid; Pending Decision; decision Pending; proposal explicitly identifies erection of 4 dwellings and associated access.","identity_limitation":"Exactly four dwellings are counted from explicit source cardinality; associated access is not a building.","confidence_score_0_100":99,"evidence_grade":"A","fake_data":false}}]}