{"type":"FeatureCollection","features":[{"type":"Feature","id":"planned_buildings_1-planning-data-brownfield-1736044","geometry":{"type":"Point","coordinates":[-0.106591,51.457168]},"properties":{"slot_id":"planned_buildings_1","source_entity":1736044,"official_site_key":"BLR136","canonical_record_key":"planning-data:brownfield-land:1736044","planned_project_name":"141 - 149 Railton Road","source_record_temporal_status":"historical_register_record","source_quality":"authoritative","fake_data":false}},{"type":"Feature","id":"planned_buildings_1-planning-data-brownfield-1736045","geometry":{"type":"Point","coordinates":[-0.125266,51.4479]},"properties":{"slot_id":"planned_buildings_1","source_entity":1736045,"official_site_key":"BLR137","canonical_record_key":"planning-data:brownfield-land:1736045","planned_project_name":"1 - 4 Brixton Hill Place","source_record_temporal_status":"current_register_record","source_quality":"authoritative","fake_data":false}},{"type":"Feature","id":"planned_buildings_1-planning-data-brownfield-1736046","geometry":{"type":"Point","coordinates":[-0.128563,51.436613]},"properties":{"slot_id":"planned_buildings_1","source_entity":1736046,"official_site_key":"BLR138","canonical_record_key":"planning-data:brownfield-land:1736046","planned_project_name":"Land To The Rear Of 60-62 Streatham High Road","source_record_temporal_status":"historical_register_record","source_quality":"authoritative","fake_data":false}},{"type":"Feature","id":"planned_buildings_1-planning-data-brownfield-1736047","geometry":{"type":"Point","coordinates":[-0.122249,51.465315]},"properties":{"slot_id":"planned_buildings_1","source_entity":1736047,"official_site_key":"BLR139","canonical_record_key":"planning-data:brownfield-land:1736047","planned_project_name":"Lambeth Hospital 108 Landor Road","source_record_temporal_status":"current_register_record","source_quality":"authoritative","fake_data":false}},{"type":"Feature","id":"planned_buildings_1-planning-data-brownfield-1736048","geometry":{"type":"Point","coordinates":[-0.106316,51.462424]},"properties":{"slot_id":"planned_buildings_1","source_entity":1736048,"official_site_key":"BLR140","canonical_record_key":"planning-data:brownfield-land:1736048","planned_project_name":"7 Moorland Road","source_record_temporal_status":"historical_register_record","source_quality":"authoritative","fake_data":false}},{"type":"Feature","id":"planned_buildings_1-planning-data-brownfield-1736049","geometry":{"type":"Point","coordinates":[-0.101911,51.466247]},"properties":{"slot_id":"planned_buildings_1","source_entity":1736049,"official_site_key":"BLR141","canonical_record_key":"planning-data:brownfield-land:1736049","planned_project_name":"206 - 208 Coldharbour Lane","source_record_temporal_status":"current_register_record","source_quality":"authoritative","fake_data":false}},{"type":"Feature","id":"planned_buildings_1-planning-data-brownfield-1736050","geometry":{"type":"Point","coordinates":[-0.113074,51.438891]},"properties":{"slot_id":"planned_buildings_1","source_entity":1736050,"official_site_key":"BLR142","canonical_record_key":"planning-data:brownfield-land:1736050","planned_project_name":"Garages by 78 Kingsmead Road And 64 Palace Road","source_record_temporal_status":"historical_register_record","source_quality":"authoritative","fake_data":false}},{"type":"Feature","id":"planned_buildings_1-planning-data-brownfield-1736051","geometry":{"type":"Point","coordinates":[-0.129065,51.472555]},"properties":{"slot_id":"planned_buildings_1","source_entity":1736051,"official_site_key":"BLR143","canonical_record_key":"planning-data:brownfield-land:1736051","planned_project_name":"94A And 94B Larkhall Lane","source_record_temporal_status":"current_register_record","source_quality":"authoritative","fake_data":false}},{"type":"Feature","id":"planned_buildings_1-planning-data-brownfield-1737625","geometry":{"type":"Point","coordinates":[-0.101743,51.447737]},"properties":{"slot_id":"planned_buildings_1","source_entity":1737625,"official_site_key":"BLR144","canonical_record_key":"planning-data:brownfield-land:1737625","planned_project_name":"279 Rosendale Road London SE24 9EJ","source_record_temporal_status":"current_register_record","source_quality":"authoritative","fake_data":false}},{"type":"Feature","id":"planned_buildings_1-planning-data-brownfield-1737626","geometry":{"type":"Point","coordinates":[-0.11607,51.498929]},"properties":{"slot_id":"planned_buildings_1","source_entity":1737626,"official_site_key":"BLR145","canonical_record_key":"planning-data:brownfield-land:1737626","planned_project_name":"Royal Street Site, South Bank London SE1 7LW","source_record_temporal_status":"current_register_record","source_quality":"authoritative","fake_data":false}}],"metadata":{"slot_id":"planned_buildings_1","run_id":"20260818T064300Z","source_family":"planning_data_brownfield_land","processed_offsets":[132,133,134,135,136,137,138,139,140,141,142,143],"promoted_offsets":[134,135,136,137,138,139,140,141,142,143],"no_add_evidence_insufficient_offsets":[132,133],"reference_collision_rejected_offsets":[133],"next_unused_window":{"geometry_entity":626195,"geometry_relation":"within","limit":1,"offset":144},"bounded_batch_count":12,"zero_result_windows":0,"evidence_insufficient_windows":2,"feature_count_before":141,"feature_count_added":10,"feature_count_after_logical":151,"unique_real_site_project_before":92,"unique_real_site_project_added":10,"unique_real_site_project_after":102,"historical_register_records_promoted":4,"current_register_records_promoted":6,"duplicate_count_new":0,"reprocessed_window_count":0,"nearest_match_used":false,"parcel_match_used":false,"fake_data":false,"demo_only":true,"final_ready":false,"production_merge":false,"mirror_only":true,"canonical_latest_overwritten":false}}