{
  "type": "FeatureCollection",
  "features": [
    {
      "type": "Feature",
      "geometry": null,
      "properties": {
        "schema": "AAYS_LAYER24_EVIDENCE_V1",
        "slot_id": "security_public_safety_4",
        "lineage_id": "L24-SPS4-57de1ed0eaf0f860383f",
        "page_generation": 10,
        "criterion": "security_public_safety_official_coverage_identifier",
        "record_role": "source_area_identifier",
        "source_record_index": 37,
        "area_name": "Stamford Hill West",
        "major_text": "force=metropolitan",
        "minor_text": "neighbourhood_id=E05009384",
        "series_start": null,
        "series_end": null,
        "series_month_count": 0,
        "visible_nonzero_evidence": true,
        "source_url": "https://data.police.uk/api/metropolitan/neighbourhoods",
        "final_url": "https://data.police.uk/api/metropolitan/neighbourhoods",
        "access_utc": "2026-10-05T00:37:11Z",
        "data_date": "current official neighbourhood listing observed 2026-10-05; endpoint carries no intrinsic effective date",
        "license": "Open Government Licence v3.0",
        "source_payload_sha256": "37544445ddda8389e54a8f63ad80de5e2fa06b21052dca717b845bf791dcf38a",
        "field_evidence": {
          "id": "official API response field id; documentation defines it as a police-force-specific team identifier",
          "name": "official API response field name; documentation defines it as the neighbourhood name",
          "force_context": "endpoint path metropolitan/neighbourhoods fixes the police-force context",
          "window": "non-overlapping response record 37; prior processed windows were records 0-36",
          "authentication": "data.police.uk API authentication is not required",
          "license": "data.police.uk publishes the relevant data under Open Government Licence v3.0"
        },
        "evidence_slice_sha256": "f98d760159276fb865470cf958a41f59e493bd2256fbcfb9e93d7aeba48ede2e",
        "confidence_score_0_100": 100,
        "evidence_grade": "A_OFFICIAL_API_EXACT_IDENTIFIER",
        "join_state": "UNPROCESSED",
        "fake_data": false
      }
    }
  ]
}
