{"type":"FeatureCollection","features":[{"type":"Feature","geometry":null,"properties":{"slot_id":"planned_buildings_1","lineage_id":"planned_buildings_1-0ffc4ebd6c6e4e41","semantic_mode":"DISTINCT_BUILDINGS","planned_building_id":"planning-application:2026/0393/FPA::DETACHED_SELF_BUILD_DWELLING","building_status":"PLANNED","building_name":"Proposed self-build detached dwelling, Beach Arbour Arnside","planning_reference":"2026/0393/FPA","authority":"Westmorland & Furness Council","source_url":"https://planningregister.westmorlandandfurness.gov.uk/planning/display/2026/0393/FPA","final_url":"https://planningregister.westmorlandandfurness.gov.uk/planning/display/2026/0393/FPA","access_utc":"2026-10-03T11:25:42Z","source_data_date":"2026-03-24","license":"Open Government Licence v3.0","geometry_role":"official planning register exposes no machine-readable application point or building footprint in the retrieved record; geometry null; no geometry inferred","field_evidence":"Official Valid Full Application explicitly states erection of a new self build detached dwelling; status Officer Consideration and decision Pending.","identity_limitation":"Exactly one newly erected detached self-build dwelling is explicitly stated by the source; this record represents that one distinct planned building.","confidence_score_0_100":96,"evidence_grade":"A","fake_data":false}}]}