{"type":"FeatureCollection","features":[{"type":"Feature","geometry":null,"properties":{"slot_id":"future_growth_1","lineage_id":"future_growth_1-newstart-20260927T153100+0300","page_generation":null,"accepted_as_parcel":false,"source_area_count_contribution":1,"exact_identifier":"40","exact_identifier_provided":true,"coverage_polygon_provided":false,"identifier_namespace":"OPDC Local Plan 2022 Site Allocation","site_name":"North Pole East Depot South","access_utc":"2026-10-05T03:08:00Z","data_date":"2022-06-22","source_url":"https://www.london.gov.uk/who-we-are/city-halls-partners/old-oak-and-park-royal-development-corporation-opdc/planning-policy/opdc-planning-policy/local-plan/opdcs-local-plan-2022-adoption","final_url":"https://www.london.gov.uk/who-we-are/city-halls-partners/old-oak-and-park-royal-development-corporation-opdc/planning-policy/opdc-planning-policy/local-plan/opdcs-local-plan-2022-adoption","viability_assessment_url":"https://www.london.gov.uk/sites/default/files/opdc_strategic_site_allocations_viability_assessment_2021.pdf","gis_url":"https://gis.london.gov.uk/arcgis/rest/services/apps/OPDC_public_policies_map/FeatureServer/25","license":"Publicly accessible OPDC/London City Hall planning-policy pages and GIS service; layer-specific reuse licence not stated in the retrieved FeatureServer metadata","authority":"Old Oak and Park Royal Development Corporation","site_area_hectares":2.26,"allocation":"Residential mixed use","plan_period_homes_capacity":750,"homes_0_10_year_london_plan_period":750,"economic_floorspace_sqm_nia":500,"feature_service_layer_id":25,"feature_service_layer_name":"Site Allocations","feature_service_geometry_type":"esriGeometryPolygon","feature_service_spatial_reference_epsg":27700,"evidence_grade":"A","confidence_score_0_100":99,"evidence_scope":"adopted OPDC Local Plan Site Allocation 40 plus official OPDC strategic-site viability evidence and OPDC Site Allocations polygon FeatureServer layer metadata","evidence_slice_sha256":"dac234568620a34b6c80de32ed56bbd00d184512848af167fc7014acc650dcf8","fake_data":false,"spatial_binding_method":"official adopted Site Allocation 40 identifier plus OPDC polygon FeatureServer layer 25; exact feature resolution, canonical parcel spatial join and materialization delegated to local OpenCode","planned_building_count_contribution":0}}]}
