{"type":"FeatureCollection","features":[{"type":"Feature","geometry":null,"properties":{"slot_id":"future_growth_1","lineage_id":"future_growth_1-newstart-20260927T153100+0300","page_generation":null,"accepted_as_parcel":false,"source_area_count_contribution":1,"exact_identifier":"Gateway 14 Tax Site","exact_identifier_provided":true,"coverage_polygon_provided":false,"identifier_namespace":"UKSI 2021/1389 regulation 2(1)(b) / Tax Site 2","site_name":"Gateway 14, Mid-Suffolk","access_utc":"2026-10-05T08:25:00Z","data_date":"2021-11-25","source_url":"https://www.gov.uk/government/publications/maps-of-freeport-east-tax-sites","final_url":"https://www.gov.uk/government/publications/maps-of-freeport-east-tax-sites","legislation_url":"https://www.legislation.gov.uk/uksi/2021/1389/made","license":"Open Government Licence v3.0 / Crown copyright, except where otherwise stated","authority":"HM Revenue & Customs / HM Treasury","legal_instrument":"UKSI 2021/1389","regulation":"2(1)(b)","map_title":"Tax Site 2: Gateway 14, Mid-Suffolk","designation_effective_date":"2021-12-30","designation_class":"Freeport tax site / special area","evidence_grade":"A","confidence_score_0_100":99,"evidence_scope":"exact statutory Gateway 14 tax-site designation plus official HMRC legal boundary map reference","evidence_slice_sha256":"5d852eb9256e1cdc11d6ebea0ae2c77bb269ef91b3264e23b7375a5d30635f17","fake_data":false,"spatial_binding_method":"statutory exact tax-site identifier plus official legal boundary map referenced by UKSI 2021/1389; boundary extraction, canonical parcel spatial join and materialization delegated to local OpenCode","planned_building_count_contribution":0}}]}
