{"type":"FeatureCollection","features":[{"type":"Feature","geometry":null,"properties":{"slot_id":"future_growth_3","lineage_id":"future_growth_3-newstart-20261001T203100Z","page_generation":null,"accepted_as_parcel":false,"source_area_count_contribution":1,"exact_identifier":"SH1","exact_identifier_provided":true,"coverage_polygon_provided":false,"identifier_namespace":"Cannock Chase Local Plan 2018-2040 strategic residential site reference","secondary_exact_identifier":"Land south of Lichfield Road, Cannock","source_entity":"SH1","access_utc":"2026-10-02T02:59:38Z","data_date":"2026-04-16","source_url":"https://www.cannockchasedc.gov.uk/sites/default/files/document-library/Cannock%20Chase%20Local%20Plan%202018%20-%202040%20-%20Adoption%20Version.pdf","final_url":"https://ccs.maps.xmap.cloud/ccs_public/ccc_lp2018_2040_residentialstrategicsites/wfs","license":"UK Open Government Licence (OGL) v3.0","authority":"Cannock Chase District Council","site_address":"South of A5190, Lichfield Road, Cannock","field_evidence":{"reference":"SH1","dataset":"CCC Local Plan 2018-2040 Strategic Residential Site Allocations","organisation":"Cannock Chase District Council","adopted_plan":"Cannock Chase District Local Plan 2018-2040","adoption_date":"2026-03-23","site_name":"Land south of Lichfield Road, Cannock","address":"South of A5190, Lichfield Road, Cannock","proposed_use":"Residential development, primary school and Community Parkland","indicative_dwelling_yield":700,"site_area_ha":47.2,"net_developable_area_ha":20,"northern_parcel_shlaa_reference":"C116(a)","official_spatial_service":"CCC Local Plan 2018-2040 Strategic Residential Site Allocations WFS","wfs_dataset_updated":"2026-04-16","publication_note":"The adopted plan identifies SH1 as a strategic residential site allocation; data.gov.uk publishes the Council's corresponding Strategic Residential Site Allocations WFS."},"source_payload_sha256":"681b2031d4fc7a7cfaff8b228a83e4e9be7dd3ba99be69d2be558138061ea19f","source_payload_sha256_basis":"canonicalized official Cannock Chase adopted Local Plan SH1 and Strategic Residential Site Allocations WFS evidence fields","evidence_slice_sha256":"c98101e2b884cdd083623f5aafdc7fba539c31053c13f3b84fd8cf5660981e57","evidence_grade":"A","confidence_score_0_100":99,"evidence_scope":"exact_official_identifier_cross_bound_to_council_strategic_residential_wfs","fake_data":false,"spatial_binding_method":"official adopted SH1 site reference cross-bound to Cannock Chase District Council Strategic Residential Site Allocations WFS; polygon retrieval, canonical parcel spatial join and materialization delegated to local OpenCode","planned_building_count_contribution":0}}]}