{"type":"FeatureCollection","features":[{"type":"Feature","id":"CHERWELL_24_02212_F_BLOCK_A_01","geometry":null,"properties":{"slot_id":"planned_buildings_4","owner":"planned_buildings_4","lineage_id":"pb4-8debc7c8ddf348a2","page_generation":1,"partition":"layer24","schema":"AAYS_LAYER24_EVIDENCE_V1","semantic_mode":"PLANNED_BUILDINGS_OFFICIAL_REFERENCE_DISTINCT_STRUCTURE","batch_id":"20261003T041442Z-cherwell-24-02212-f-window-001","publisher":"Cherwell District Council","source_family":"CHERWELL_PLANNING_REGISTER","source_url":"https://planningregister.cherwell.gov.uk/Planning/Display/24/02212/F","final_url":"https://planningregister.cherwell.gov.uk/Planning/Display/24/02212/F","access_utc":"2026-10-03T04:14:42Z","data_date":"2024-08-13","license":"Public planning register; document copyright/usage remains governed by council register terms","planning_reference":"24/02212/F","location":"Kidlington Garage 1 Bicester Road Kidlington OX5 2LA","proposal":"Erection of two buildings, forming eighteen apartments, and associated works","status":"Application Permitted","geometry_status":"NOT_MATERIALIZED_LOCAL_OPENCODE","field_evidence":"Official Cherwell District Council Planning Register application 24/02212/F. Application Type: Full Development. Status: Application Permitted. Valid date: 13/08/2024. Location: Kidlington Garage 1 Bicester Road Kidlington OX5 2LA. Proposal: Erection of two buildings, forming eighteen apartments, and associated works. Decision: Permitted. Decision Issued Date: 04/12/2025. Official documents include Site Layout drawing 18112 PP0011-C; Block Plan drawing 18112 PP0010-B; Block A Proposed Floor Plans drawing 18112 PP1030-A; Block A Proposed Elevations drawing 18112 PE1011-A; Block B Proposed Floor Plans drawing 18112 PP2031-B; and Block B Proposed Elevations drawing 18112 PE2012-B. The official proposal explicitly identifies two buildings, and the proposed drawing set independently identifies them as Block A and Block B. Therefore exactly two distinct planned structures are accepted. Apartment count is an occupancy/use detail and is not used as a structure count. Geometry/materialization is deferred to local OpenCode.","evidence_slice_sha256":"4352aa80b3c2fdc53c93fb53a49df4b6d23222273aec3c8f34b5904689639d6a","confidence":0.99,"evidence_grade":"A_OFFICIAL_LOCAL_AUTHORITY_PLANNING_REGISTER_TWO_APARTMENT_BLOCKS_PERMITTED","fake_data":false,"source_record_id":"CHERWELL_24_02212_F_BLOCK_A_01","planned_building":"Block A","official_plan_reference":"18112 PP0011-C; 18112 PP0010-B; 18112 PP1030-A; 18112 PE1011-A","official_plan_description":"Site Layout; Block Plan; Block A - Proposed Floor Plans; Block A - Proposed Elevations"}},{"type":"Feature","id":"CHERWELL_24_02212_F_BLOCK_B_02","geometry":null,"properties":{"slot_id":"planned_buildings_4","owner":"planned_buildings_4","lineage_id":"pb4-8debc7c8ddf348a2","page_generation":1,"partition":"layer24","schema":"AAYS_LAYER24_EVIDENCE_V1","semantic_mode":"PLANNED_BUILDINGS_OFFICIAL_REFERENCE_DISTINCT_STRUCTURE","batch_id":"20261003T041442Z-cherwell-24-02212-f-window-001","publisher":"Cherwell District Council","source_family":"CHERWELL_PLANNING_REGISTER","source_url":"https://planningregister.cherwell.gov.uk/Planning/Display/24/02212/F","final_url":"https://planningregister.cherwell.gov.uk/Planning/Display/24/02212/F","access_utc":"2026-10-03T04:14:42Z","data_date":"2024-08-13","license":"Public planning register; document copyright/usage remains governed by council register terms","planning_reference":"24/02212/F","location":"Kidlington Garage 1 Bicester Road Kidlington OX5 2LA","proposal":"Erection of two buildings, forming eighteen apartments, and associated works","status":"Application Permitted","geometry_status":"NOT_MATERIALIZED_LOCAL_OPENCODE","field_evidence":"Official Cherwell District Council Planning Register application 24/02212/F. Application Type: Full Development. Status: Application Permitted. Valid date: 13/08/2024. Location: Kidlington Garage 1 Bicester Road Kidlington OX5 2LA. Proposal: Erection of two buildings, forming eighteen apartments, and associated works. Decision: Permitted. Decision Issued Date: 04/12/2025. Official documents include Site Layout drawing 18112 PP0011-C; Block Plan drawing 18112 PP0010-B; Block A Proposed Floor Plans drawing 18112 PP1030-A; Block A Proposed Elevations drawing 18112 PE1011-A; Block B Proposed Floor Plans drawing 18112 PP2031-B; and Block B Proposed Elevations drawing 18112 PE2012-B. The official proposal explicitly identifies two buildings, and the proposed drawing set independently identifies them as Block A and Block B. Therefore exactly two distinct planned structures are accepted. Apartment count is an occupancy/use detail and is not used as a structure count. Geometry/materialization is deferred to local OpenCode.","evidence_slice_sha256":"4352aa80b3c2fdc53c93fb53a49df4b6d23222273aec3c8f34b5904689639d6a","confidence":0.99,"evidence_grade":"A_OFFICIAL_LOCAL_AUTHORITY_PLANNING_REGISTER_TWO_APARTMENT_BLOCKS_PERMITTED","fake_data":false,"source_record_id":"CHERWELL_24_02212_F_BLOCK_B_02","planned_building":"Block B","official_plan_reference":"18112 PP0011-C; 18112 PP0010-B; 18112 PP2031-B; 18112 PE2012-B","official_plan_description":"Site Layout; Block Plan; Block B - Proposed Floor Plans; Block B - Proposed Elevations"}}]}
