{"type":"FeatureCollection","name":"height_difference_5","metadata":{"slot_id":"height_difference_5","owner":"height_difference_5","lineage_id":"height_difference_5-eb56f92ed3f0514c","page_generation":1,"schema":"AAYS_LAYER24_EVIDENCE_V1","partition":"layer24","semantic_mode_state":"ABSENT_IN_PRIOR_PHYSICAL_STATE_PRESERVED_BY_OMISSION","batch_id":"20261002T153401Z_osni_river_basin_lidar_2014_resources_blocked","record_policy":"Five official ZIP resource records; no archive-internal tile/file, geometry or CRS synthesized.","fake_data":false},"features":[{"type":"Feature","geometry":null,"properties":{"slot_id":"height_difference_5","owner":"height_difference_5","lineage_id":"height_difference_5-eb56f92ed3f0514c","page_generation":1,"schema":"AAYS_LAYER24_EVIDENCE_V1","partition":"layer24","batch_id":"20261002T153401Z_osni_river_basin_lidar_2014_resources_blocked","source_record_id":"OSNI_RIVER_BASIN_LIDAR_2014:1188b5b0-e063-49cb-8f76-42c8c491d4d1","source_url":"https://www.data.gov.uk/dataset/082db34c-878b-4f5c-8a2a-c9547d8f6674/osni-open-data-river-basin-lidar-2014-dtms-and-dsms1","resource_name":"Stonyford_16_06_2014","resource_id":"1188b5b0-e063-49cb-8f76-42c8c491d4d1","payload_url":"https://admin.opendatani.gov.uk/dataset/082db34c-878b-4f5c-8a2a-c9547d8f6674/resource/1188b5b0-e063-49cb-8f76-42c8c491d4d1/download/stonyford_16_06_2014.zip","access_utc":"2026-10-02T15:34:01Z","publisher":"OpenDataNI / Land & Property Services – Ordnance Survey of Northern Ireland","dataset":"OSNI Open Data: River Basin LIDAR 2014 - DTMs and DSMs","format":"ZIP","tile_size_m":[1000,1000],"native_resolution_m":1,"crs":null,"crs_status":"ARCHIVE_TILE_CRS_NOT_EXPOSED_DO_NOT_INFER","payload_transport_status":"SIGNED_OBJECT_REDIRECT_NOT_ACCESSIBLE","canonical_parcel_id":null,"required_building_state":"BUILDING_PRESENT","binding_status":"LOCAL_OPENCODE_BUILDING_PRESENT_EXACT_TILE_BIND_REQUIRED","source_area_count_contribution":0,"accepted_count_contribution":0,"evidence_slice_sha256":"ac983b4cf10d659cee8b9ea97816be189e59111fe020f6a776f8d9cb90c0edc5","confidence_score_0_100":99,"evidence_grade":"A_OFFICIAL_LIDAR_DTM_RESOURCE_UUIDS_B_BINARY_TRANSPORT_BLOCKED_EXACT_TILE_CRS_REQUIRED","fake_data":false}},{"type":"Feature","geometry":null,"properties":{"slot_id":"height_difference_5","owner":"height_difference_5","lineage_id":"height_difference_5-eb56f92ed3f0514c","page_generation":1,"schema":"AAYS_LAYER24_EVIDENCE_V1","partition":"layer24","batch_id":"20261002T153401Z_osni_river_basin_lidar_2014_resources_blocked","source_record_id":"OSNI_RIVER_BASIN_LIDAR_2014:37a9d0e1-380f-4f01-bb13-94b9d5639a57","source_url":"https://www.data.gov.uk/dataset/082db34c-878b-4f5c-8a2a-c9547d8f6674/osni-open-data-river-basin-lidar-2014-dtms-and-dsms1","resource_name":"LowerBann_16_06_2014","resource_id":"37a9d0e1-380f-4f01-bb13-94b9d5639a57","payload_url":"https://admin.opendatani.gov.uk/dataset/082db34c-878b-4f5c-8a2a-c9547d8f6674/resource/37a9d0e1-380f-4f01-bb13-94b9d5639a57/download/lowerbann_16_06_2014.zip","access_utc":"2026-10-02T15:34:01Z","publisher":"OpenDataNI / Land & Property Services – Ordnance Survey of Northern Ireland","dataset":"OSNI Open Data: River Basin LIDAR 2014 - DTMs and DSMs","format":"ZIP","tile_size_m":[1000,1000],"native_resolution_m":1,"crs":null,"crs_status":"ARCHIVE_TILE_CRS_NOT_EXPOSED_DO_NOT_INFER","payload_transport_status":"CACHE_MISS","canonical_parcel_id":null,"required_building_state":"BUILDING_PRESENT","binding_status":"LOCAL_OPENCODE_BUILDING_PRESENT_EXACT_TILE_BIND_REQUIRED","source_area_count_contribution":0,"accepted_count_contribution":0,"evidence_slice_sha256":"ac983b4cf10d659cee8b9ea97816be189e59111fe020f6a776f8d9cb90c0edc5","confidence_score_0_100":99,"evidence_grade":"A_OFFICIAL_LIDAR_DTM_RESOURCE_UUIDS_B_BINARY_TRANSPORT_BLOCKED_EXACT_TILE_CRS_REQUIRED","fake_data":false}},{"type":"Feature","geometry":null,"properties":{"slot_id":"height_difference_5","owner":"height_difference_5","lineage_id":"height_difference_5-eb56f92ed3f0514c","page_generation":1,"schema":"AAYS_LAYER24_EVIDENCE_V1","partition":"layer24","batch_id":"20261002T153401Z_osni_river_basin_lidar_2014_resources_blocked","source_record_id":"OSNI_RIVER_BASIN_LIDAR_2014:5a34c475-821e-4d6e-a307-8aa7197d2401","source_url":"https://www.data.gov.uk/dataset/082db34c-878b-4f5c-8a2a-c9547d8f6674/osni-open-data-river-basin-lidar-2014-dtms-and-dsms1","resource_name":"Cloghmills_16_06_2014","resource_id":"5a34c475-821e-4d6e-a307-8aa7197d2401","payload_url":"https://admin.opendatani.gov.uk/dataset/082db34c-878b-4f5c-8a2a-c9547d8f6674/resource/5a34c475-821e-4d6e-a307-8aa7197d2401/download/cloghmills_16_06_2014.zip","access_utc":"2026-10-02T15:34:01Z","publisher":"OpenDataNI / Land & Property Services – Ordnance Survey of Northern Ireland","dataset":"OSNI Open Data: River Basin LIDAR 2014 - DTMs and DSMs","format":"ZIP","tile_size_m":[1000,1000],"native_resolution_m":1,"crs":null,"crs_status":"ARCHIVE_TILE_CRS_NOT_EXPOSED_DO_NOT_INFER","payload_transport_status":"CACHE_MISS","canonical_parcel_id":null,"required_building_state":"BUILDING_PRESENT","binding_status":"LOCAL_OPENCODE_BUILDING_PRESENT_EXACT_TILE_BIND_REQUIRED","source_area_count_contribution":0,"accepted_count_contribution":0,"evidence_slice_sha256":"ac983b4cf10d659cee8b9ea97816be189e59111fe020f6a776f8d9cb90c0edc5","confidence_score_0_100":99,"evidence_grade":"A_OFFICIAL_LIDAR_DTM_RESOURCE_UUIDS_B_BINARY_TRANSPORT_BLOCKED_EXACT_TILE_CRS_REQUIRED","fake_data":false}},{"type":"Feature","geometry":null,"properties":{"slot_id":"height_difference_5","owner":"height_difference_5","lineage_id":"height_difference_5-eb56f92ed3f0514c","page_generation":1,"schema":"AAYS_LAYER24_EVIDENCE_V1","partition":"layer24","batch_id":"20261002T153401Z_osni_river_basin_lidar_2014_resources_blocked","source_record_id":"OSNI_RIVER_BASIN_LIDAR_2014:e0694da4-02dc-4405-a8bc-21bd0b8ddc5c","source_url":"https://www.data.gov.uk/dataset/082db34c-878b-4f5c-8a2a-c9547d8f6674/osni-open-data-river-basin-lidar-2014-dtms-and-dsms1","resource_name":"Camowen_16_06_2014","resource_id":"e0694da4-02dc-4405-a8bc-21bd0b8ddc5c","payload_url":"https://admin.opendatani.gov.uk/dataset/082db34c-878b-4f5c-8a2a-c9547d8f6674/resource/e0694da4-02dc-4405-a8bc-21bd0b8ddc5c/download/camowen_16_06_2014.zip","access_utc":"2026-10-02T15:34:01Z","publisher":"OpenDataNI / Land & Property Services – Ordnance Survey of Northern Ireland","dataset":"OSNI Open Data: River Basin LIDAR 2014 - DTMs and DSMs","format":"ZIP","tile_size_m":[1000,1000],"native_resolution_m":1,"crs":null,"crs_status":"ARCHIVE_TILE_CRS_NOT_EXPOSED_DO_NOT_INFER","payload_transport_status":"CACHE_MISS","canonical_parcel_id":null,"required_building_state":"BUILDING_PRESENT","binding_status":"LOCAL_OPENCODE_BUILDING_PRESENT_EXACT_TILE_BIND_REQUIRED","source_area_count_contribution":0,"accepted_count_contribution":0,"evidence_slice_sha256":"ac983b4cf10d659cee8b9ea97816be189e59111fe020f6a776f8d9cb90c0edc5","confidence_score_0_100":99,"evidence_grade":"A_OFFICIAL_LIDAR_DTM_RESOURCE_UUIDS_B_BINARY_TRANSPORT_BLOCKED_EXACT_TILE_CRS_REQUIRED","fake_data":false}},{"type":"Feature","geometry":null,"properties":{"slot_id":"height_difference_5","owner":"height_difference_5","lineage_id":"height_difference_5-eb56f92ed3f0514c","page_generation":1,"schema":"AAYS_LAYER24_EVIDENCE_V1","partition":"layer24","batch_id":"20261002T153401Z_osni_river_basin_lidar_2014_resources_blocked","source_record_id":"OSNI_RIVER_BASIN_LIDAR_2014:2d498897-4ea9-4abb-afed-e63e53f8e0b5","source_url":"https://www.data.gov.uk/dataset/082db34c-878b-4f5c-8a2a-c9547d8f6674/osni-open-data-river-basin-lidar-2014-dtms-and-dsms1","resource_name":"Blackwater_16_06_2014","resource_id":"2d498897-4ea9-4abb-afed-e63e53f8e0b5","payload_url":"https://admin.opendatani.gov.uk/dataset/082db34c-878b-4f5c-8a2a-c9547d8f6674/resource/2d498897-4ea9-4abb-afed-e63e53f8e0b5/download/blackwater_16_06_2014.zip","access_utc":"2026-10-02T15:34:01Z","publisher":"OpenDataNI / Land & Property Services – Ordnance Survey of Northern Ireland","dataset":"OSNI Open Data: River Basin LIDAR 2014 - DTMs and DSMs","format":"ZIP","tile_size_m":[1000,1000],"native_resolution_m":1,"crs":null,"crs_status":"ARCHIVE_TILE_CRS_NOT_EXPOSED_DO_NOT_INFER","payload_transport_status":"CACHE_MISS","canonical_parcel_id":null,"required_building_state":"BUILDING_PRESENT","binding_status":"LOCAL_OPENCODE_BUILDING_PRESENT_EXACT_TILE_BIND_REQUIRED","source_area_count_contribution":0,"accepted_count_contribution":0,"evidence_slice_sha256":"ac983b4cf10d659cee8b9ea97816be189e59111fe020f6a776f8d9cb90c0edc5","confidence_score_0_100":99,"evidence_grade":"A_OFFICIAL_LIDAR_DTM_RESOURCE_UUIDS_B_BINARY_TRANSPORT_BLOCKED_EXACT_TILE_CRS_REQUIRED","fake_data":false}}]}
