{"type":"FeatureCollection","schema_family":"AAYS_LAYER24_EVIDENCE_V1","category":"AAYS_SOURCE_AREA_V1","slot_id":"gas_emissions_5","lineage_id":"gas_emissions_5__new_start__20260927T104100Z","features":[{"type":"Feature","geometry":null,"properties":{"source_id":"ONS_LAD24_BFC_HARTLEPOOL_E06000001_WINDOW_001","coverage_area_id":"E06000001","coverage_area_name":"Hartlepool","coverage_binding":"EXACT_OFFICIAL_IDENTIFIER_FROM_OFFICIAL_POLYGON_DATASET","identifier_source":"ONS Local Authority Districts December 2024 Boundaries UK BFC","boundary_geometry_type":"Polygon","boundary_crs":"EPSG:27700","canonical_parcel_id":null,"match_status":"UNPROCESSED_LOCAL_OPENCODE_SPATIAL_JOIN_REQUIRED","fake_data":false}}],"metadata":{"source_area_count":30,"new_source_record_count":1,"accepted_count":0,"duplicate_count":0,"rejected_count":0,"unmatched_count":1,"materialized_parcel_count":0,"direct_parcel_count":0,"verified_no_building_count":0,"unprocessed_count":1,"planned_building_count":0,"cursor":"ONS_LAD24_BFC_HARTLEPOOL_E06000001_WINDOW_001"}}
