{
  "features": [
    {
      "geometry": null,
      "id": "src-area-002",
      "properties": {
        "accepted_parcel_record": false,
        "authority": "Ofcom",
        "confidence": 0.99,
        "confidence_basis": "Direct Ofcom PND2026 key findings and footnote; existing coverage baseline explicitly tied to Spring 2026 premise base.",
        "data_snapshot": "2026-01",
        "dataset_title": "Connected Nations - Planned Network Deployments 2026",
        "evidence_role": "independent_official_crosscheck_of_same_january_2026_existing_coverage_baseline_expected_in_missing_archive",
        "exact_identifier": "UK",
        "exact_identifier_type": "official_area_name",
        "full_fibre_residential_homes_millions": 24.9,
        "full_fibre_residential_pct": 82,
        "geometry_status": "NO_GEOMETRY_ON_REPORT_PAGE_EXACT_IDENTIFIER_ONLY",
        "gigabit_capable_residential_homes_millions": 27.1,
        "gigabit_capable_residential_pct": 89,
        "local_spatial_join": "DEFERRED_TO_LOCAL_OPENCODE",
        "parcel_record": false,
        "premise_base_residential_millions": 30.5,
        "publication_date": "2026-05-13",
        "record_class": "official_source_area_exact_identifier",
        "source_area_record": true
      },
      "type": "Feature"
    }
  ],
  "name": "internet_access_2",
  "properties": {
    "accepted_count": 0,
    "lineage_id": null,
    "lineage_path_literal": "null",
    "note": "Preserved prior official Ofcom PND2026 exact-area source evidence; current Spring-2026 summary-table XLSX window failed binary acquisition and adds no accepted source-area record or parcel progress.",
    "partition": {
      "canonical_count": 92283,
      "count": 30761,
      "end": 61522,
      "start": 30762
    },
    "receipt_category": "AAYS_SOURCE_AREA_V1",
    "slot_id": "internet_access_2",
    "source_area_count": 1
  },
  "type": "FeatureCollection"
}
