{"type":"FeatureCollection","features":[{"type":"Feature","id":"planned_buildings_2-planning-data-brownfield-1730849","geometry":null,"properties":{"entity":1730849,"reference":"BR078","canonical_record_key":"planning-data:brownfield-land:1730849","planned_project_name":"Sunnybank / Park referral unit, Field View Road, Potters Bar","planned_project_status":"not-permissioned","borough":"Hertsmere Borough Council","official_hectares":2.483508,"planned_building_value":null,"planned_building_probability":null,"planned_building_complete_month":null,"source_quality":"authoritative","fake_data":false}}],"metadata":{"slot_id":"planned_buildings_2","batch_index":202,"source_index":14,"source_window":{"resource_index":1,"limit":1},"feature_count_before":548,"feature_count_after":549,"unique_real_site_project_before":389,"unique_real_site_project_after":390,"duplicate_count_new":0,"nearest_match_used":false,"parcel_match_used":false,"geometry_inference_used":false,"mirror_only":true}}