{"type":"FeatureCollection","features":[{"type":"Feature","id":"planned_buildings_2-planning-data-brownfield-1730852","geometry":null,"properties":{"entity":1730852,"reference":"BR081","canonical_record_key":"planning-data:brownfield-land:1730852","planned_project_name":"Former Cat & Fiddle, Cobden Hill, Radlett, WD7 7JL","planned_project_status":"not-permissioned","borough":"Hertsmere Borough Council","official_hectares":0.154884,"planned_building_value":null,"planned_building_probability":null,"planned_building_complete_month":null,"source_quality":"authoritative","fake_data":false}}],"metadata":{"slot_id":"planned_buildings_2","batch_index":204,"source_index":14,"source_window":{"resource_index":3,"limit":1},"feature_count_before":550,"feature_count_after":551,"unique_real_site_project_before":391,"unique_real_site_project_after":392,"duplicate_count_new":0,"nearest_match_used":false,"parcel_match_used":false,"geometry_inference_used":false,"mirror_only":true}}