{"type":"FeatureCollection","features":[{"type":"Feature","id":"planned_buildings_2-planning-data-brownfield-1730859","geometry":null,"properties":{"entity":1730859,"reference":"BR088","canonical_record_key":"planning-data:brownfield-land:1730859","planned_project_name":"The Point","fake_data":false}},{"type":"Feature","id":"planned_buildings_2-planning-data-brownfield-1730849","geometry":null,"properties":{"entity":1730849,"reference":"BR078","canonical_record_key":"planning-data:brownfield-land:1730849","planned_project_name":"Sunnybank / Park referral unit, Field View Road, Potters Bar","fake_data":false}},{"type":"Feature","id":"planned_buildings_2-planning-data-brownfield-1730850","geometry":null,"properties":{"entity":1730850,"reference":"BR079","canonical_record_key":"planning-data:brownfield-land:1730850","planned_project_name":"Lister Cottages, Bioproducts Laboratory, Dagger Lane, Elstree","fake_data":false}},{"type":"Feature","id":"planned_buildings_2-planning-data-brownfield-1730852","geometry":null,"properties":{"entity":1730852,"reference":"BR081","canonical_record_key":"planning-data:brownfield-land:1730852","planned_project_name":"Former Cat & Fiddle, Cobden Hill, Radlett, WD7 7JL","fake_data":false}},{"type":"Feature","id":"planned_buildings_2-planning-data-brownfield-1730840","geometry":null,"properties":{"entity":1730840,"reference":"BR069","canonical_record_key":"planning-data:brownfield-land:1730840","planned_project_name":"55 Richfield Road, Bushey, WD23 4JY","fake_data":false}},{"type":"Feature","id":"planned_buildings_2-planning-data-brownfield-1730841","geometry":null,"properties":{"entity":1730841,"reference":"BR070","canonical_record_key":"planning-data:brownfield-land:1730841","planned_project_name":"22 - 24 Wayside Avenue, Bushey, WD23 4SQ","fake_data":false}},{"type":"Feature","id":"planned_buildings_2-planning-data-brownfield-1730842","geometry":null,"properties":{"entity":1730842,"reference":"BR071","canonical_record_key":"planning-data:brownfield-land:1730842","planned_project_name":"Land rear of County End, Magpie Hall Road, Bushey Heath, WD23 1NY","fake_data":false}},{"type":"Feature","id":"planned_buildings_2-planning-data-brownfield-1730844","geometry":null,"properties":{"entity":1730844,"reference":"BR073","canonical_record_key":"planning-data:brownfield-land:1730844","planned_project_name":"28 New Road, Radlett, WD7 8LZ","fake_data":false}},{"type":"Feature","id":"planned_buildings_2-planning-data-brownfield-1730835","geometry":null,"properties":{"entity":1730835,"reference":"BR064","canonical_record_key":"planning-data:brownfield-land:1730835","planned_project_name":"171A Mutton Lane, Potters Bar","fake_data":false}},{"type":"Feature","id":"planned_buildings_2-planning-data-brownfield-1730834","geometry":null,"properties":{"entity":1730834,"reference":"BR063","canonical_record_key":"planning-data:brownfield-land:1730834","planned_project_name":"Dancers Hill House, Dancers Lane, Barnet, EN5 4RX","fake_data":false}},{"type":"Feature","id":"planned_buildings_2-planning-data-brownfield-1730836","geometry":null,"properties":{"entity":1730836,"reference":"BR065","canonical_record_key":"planning-data:brownfield-land:1730836","planned_project_name":"The Meadows, Castleford Close, Borehamwood, WD6 4AL","fake_data":false}}],"metadata":{"schema_version":1,"slot_id":"planned_buildings_2","continuation_key":"planned_buildings_2_open_source_v2_20260813","run_id":"20260818T092700Z","batch_indices":[200,201,202,203,204,205,206,207,208,209,210,211],"source_13_processed_window_indices":[11],"source_13_zero_result_windows":[11],"source_13_queue_exhausted":true,"source_14_processed_window_indices":[0,1,2,3,4,5,6,7,8,9,10],"source_14_added_window_indices":[0,1,2,3,4,5,6,7,8,9,10],"logical_feature_count_before":547,"features_added":11,"logical_feature_count_after":558,"unique_real_site_project_before":388,"unique_real_site_project_added":11,"unique_real_site_project_after":399,"duplicate_count_new":0,"duplicate_features_written":0,"reprocessed_window_count":0,"nearest_match_used":false,"parcel_match_used":false,"geometry_inference_used":false,"planned_building_value_write_count":0,"planned_building_probability_write_count":0,"planned_building_complete_month_write_count":0,"next_source_index":14,"next_source_family":"planning_data_brownfield_land","next_source_window_index":11,"next_batch_index":212,"canonical_latest_overwritten":false,"mirror_only":true,"demo_only":true,"fake_data":false,"final_ready":false,"production_merge":false}}