{"type":"FeatureCollection","features":[{"type":"Feature","id":"CHERWELL_26_00289_F_DETACHED_REPLACEMENT_GARAGE_STORE_01","geometry":null,"properties":{"access_utc":"2026-10-07T08:41:27Z","batch_id":"20261007T084127Z-cherwell-26-00289-f-window-001","confidence":0.99,"data_date":"2026-02-04","evidence_grade":"A_OFFICIAL_LOCAL_AUTHORITY_PLANNING_REGISTER_SINGLE_DETACHED_REPLACEMENT_GARAGE_STORE_PERMITTED","evidence_slice_sha256":"96e32ebd07af7a786f36bb4398878cc6bb38517e2a51c56ee066252053a10050","fake_data":false,"field_evidence":"Official Cherwell District Council Planning Register application 26/00289/F. Application Type: Full Development. Status: Application Permitted. Valid date: 04/02/2026. Location: Moor End North Street Islip OX5 2SQ. Proposal: Proposed detached garage/store to replace existing. Decision: Permitted. Decision Issued Date: 27/03/2026. Official documents include Location Site and Block Plans drawing L01 and dedicated Proposed Replacement Garage drawing PB 001330. The official proposal identifies one detached replacement garage/store; replacement of the existing garage does not create any additional distinct planned structure beyond that one replacement building. The dedicated proposed drawing supports the same single planned structure. Geometry/materialization is deferred to local OpenCode.","final_url":"https://planningregister.cherwell.gov.uk/Planning/Display/26/00289/F","geometry_status":"NOT_MATERIALIZED_LOCAL_OPENCODE","license":"Public planning register; document copyright/usage remains governed by council register terms","lineage_id":"pb4-8debc7c8ddf348a2","location":"Moor End North Street Islip OX5 2SQ","official_plan_description":"Location Site and Block Plans; Proposed Replacement Garage","official_plan_reference":"L01; PB 001330","owner":"planned_buildings_4","page_generation":1,"partition":"layer24","planned_building":"detached replacement garage/store","planning_reference":"26/00289/F","proposal":"Proposed detached garage/store to replace existing","publisher":"Cherwell District Council","schema":"AAYS_LAYER24_EVIDENCE_V1","semantic_mode":"PLANNED_BUILDINGS_OFFICIAL_REFERENCE_DISTINCT_STRUCTURE","slot_id":"planned_buildings_4","source_family":"CHERWELL_PLANNING_REGISTER","source_record_id":"CHERWELL_26_00289_F_DETACHED_REPLACEMENT_GARAGE_STORE_01","source_url":"https://planningregister.cherwell.gov.uk/Planning/Display/26/00289/F","status":"Application Permitted"}}]}
