{"type":"FeatureCollection","features":[{"type":"Feature","geometry":null,"properties":{"slot_id":"future_growth_3","lineage_id":"future_growth_3-newstart-20261001T203100Z","page_generation":null,"accepted_as_parcel":false,"source_area_count_contribution":1,"exact_identifier":"LSA SA1","exact_identifier_provided":true,"coverage_polygon_provided":false,"identifier_namespace":"Lewisham Local Plan site allocation policy reference","secondary_exact_identifier":"MM266","source_entity":"LSA SA1 - Former Bell Green Gas Holders and Livesey Memorial Hall","access_utc":"2026-10-04T02:42:00Z","data_date":"2025-01","source_url":"https://lewisham.gov.uk/-/media/0-services/0-planning/planning-policy/local-plan/a-proposed-main-modifications-final-tableaccessible.pdf","final_url":"https://lewisham.gov.uk/-/media/0-services/0-planning/planning-policy/local-plan/a-proposed-main-modifications-final-tableaccessible.pdf","license":"No explicit reuse licence stated in the source PDF; official Council publication, copyright remains with the stated rights holders.","authority":"London Borough of Lewisham","site_address":"Sydenham Gas Holders, Alan Pegg Place, SE26 4PX","field_evidence":{"reference":"LSA SA1","main_modification_reference":"MM266","dataset":"Lewisham Local Plan Examination Main Modifications","organisation":"London Borough of Lewisham – Strategic Planning Team","document_date":"2025-01","site_name":"Former Bell Green Gas Holders and Livesey Memorial Hall","site_address":"Sydenham Gas Holders, Alan Pegg Place, SE26 4PX"},"source_payload_sha256":"0252e44117910ca6ac2418f9aadb80cdff7d2ca1d1c9d163055b7ae261b74c09","source_payload_sha256_basis":"canonicalized official Lewisham Council LSA SA1 evidence fields","evidence_slice_sha256":"fa1251e6e4d409d3fb6b899b52b55101166cef74f65279d356297874915322db","evidence_grade":"A","confidence_score_0_100":99,"evidence_scope":"exact_official_identifier_from_council_local_plan_examination_main_modifications","fake_data":false,"spatial_binding_method":"official Lewisham Council Policy LSA SA1 / MM266; canonical parcel spatial join and materialization delegated to local OpenCode","planned_building_count_contribution":0}}]}