{"features":[],"metadata":{"accepted_count":0,"batch_id":"batch_0002_20260930T183852Z","cursor":null,"fake_data":false,"geometry_status":"NO_ACCEPTED_TILE_FEATURES","lineage_id":"height_difference_2_20260930T001051Z","page_generation":1,"partition":"source_area","reason":"BUILDING_PRESENT canonical parcel binding is required before selecting and accepting DEM/LIDAR tiles.","slot_id":"height_difference_2","source_area_count":0,"source_window_url":"https://environment.data.gov.uk/KB6uNVj5ZcJr7jUP/ArcGIS/rest/services/National_LIDAR_Programme_Catalogues/FeatureServer/0"},"type":"FeatureCollection"}
