{"type":"FeatureCollection","name":"security_public_safety_1_batch_exact_identifiers","features":[{"type":"Feature","geometry":null,"properties":{"exact_identifier":"Abbey Road","coverage_area_name":"Abbey Road","exact_identifier_type":"met.police.uk.safer_neighbourhood_team.official_name"}},{"type":"Feature","geometry":null,"properties":{"exact_identifier":"Bayswater","coverage_area_name":"Bayswater","exact_identifier_type":"met.police.uk.safer_neighbourhood_team.official_name"}},{"type":"Feature","geometry":null,"properties":{"exact_identifier":"Church Street","coverage_area_name":"Church Street","exact_identifier_type":"met.police.uk.safer_neighbourhood_team.official_name"}},{"type":"Feature","geometry":null,"properties":{"exact_identifier":"Harrow Road","coverage_area_name":"Harrow Road","exact_identifier_type":"met.police.uk.safer_neighbourhood_team.official_name"}},{"type":"Feature","geometry":null,"properties":{"exact_identifier":"Hyde Park","coverage_area_name":"Hyde Park","exact_identifier_type":"met.police.uk.safer_neighbourhood_team.official_name"}},{"type":"Feature","geometry":null,"properties":{"exact_identifier":"Knightsbridge and Belgravia","coverage_area_name":"Knightsbridge and Belgravia","exact_identifier_type":"met.police.uk.safer_neighbourhood_team.official_name"}},{"type":"Feature","geometry":null,"properties":{"exact_identifier":"Lancaster Gate","coverage_area_name":"Lancaster Gate","exact_identifier_type":"met.police.uk.safer_neighbourhood_team.official_name"}},{"type":"Feature","geometry":null,"properties":{"exact_identifier":"Little Venice","coverage_area_name":"Little Venice","exact_identifier_type":"met.police.uk.safer_neighbourhood_team.official_name"}},{"type":"Feature","geometry":null,"properties":{"exact_identifier":"Maida Vale","coverage_area_name":"Maida Vale","exact_identifier_type":"met.police.uk.safer_neighbourhood_team.official_name"}},{"type":"Feature","geometry":null,"properties":{"exact_identifier":"Marylebone","coverage_area_name":"Marylebone","exact_identifier_type":"met.police.uk.safer_neighbourhood_team.official_name"}},{"type":"Feature","geometry":null,"properties":{"exact_identifier":"Pimlico North","coverage_area_name":"Pimlico North","exact_identifier_type":"met.police.uk.safer_neighbourhood_team.official_name"}},{"type":"Feature","geometry":null,"properties":{"exact_identifier":"Pimlico South","coverage_area_name":"Pimlico South","exact_identifier_type":"met.police.uk.safer_neighbourhood_team.official_name"}},{"type":"Feature","geometry":null,"properties":{"exact_identifier":"Queen's Park","coverage_area_name":"Queen's Park","exact_identifier_type":"met.police.uk.safer_neighbourhood_team.official_name"}},{"type":"Feature","geometry":null,"properties":{"exact_identifier":"Regent's Park","coverage_area_name":"Regent's Park","exact_identifier_type":"met.police.uk.safer_neighbourhood_team.official_name"}},{"type":"Feature","geometry":null,"properties":{"exact_identifier":"St James's","coverage_area_name":"St James's","exact_identifier_type":"met.police.uk.safer_neighbourhood_team.official_name"}},{"type":"Feature","geometry":null,"properties":{"exact_identifier":"Vincent Square","coverage_area_name":"Vincent Square","exact_identifier_type":"met.police.uk.safer_neighbourhood_team.official_name"}},{"type":"Feature","geometry":null,"properties":{"exact_identifier":"West End","coverage_area_name":"West End","exact_identifier_type":"met.police.uk.safer_neighbourhood_team.official_name"}},{"type":"Feature","geometry":null,"properties":{"exact_identifier":"Westbourne","coverage_area_name":"Westbourne","exact_identifier_type":"met.police.uk.safer_neighbourhood_team.official_name"}}],"metadata":{"source_area_count":267,"source_area_delta_this_turn":18,"latest_evidence_window":"MET_POLICE_WESTMINSTER_SNT_CURRENT_20261006T032600Z","exact_blocker":"LOCAL_OPENCODE_EXACT_IDENTIFIER_TO_CANONICAL_SPATIAL_BINDING_REQUIRED","first_missing_criterion":"LOCAL_OPENCODE_EXACT_IDENTIFIER_TO_CANONICAL_SPATIAL_BINDING","prior_cumulative_records_sha":"c7e5d97b91bdb89a60e3dbc3d33948f7512d9944","record_scope":"CURRENT_BATCH_DELTA"}}
