{"features":[{"geometry":{"coordinates":[[-1.1458618876,52.6394052587],[-1.1457057759,52.6389452755],[-1.1455755443,52.6383706746]],"type":"LineString"},"id":"leicestershire:NC04:boundary-window-000-002","properties":{"accepted_as_parcel":false,"access_utc":"2026-10-05T11:31:00Z","canonical_binding":"LOCAL_OPENCODE_PENDING_NOT_CLAIMED","confidence_score_0_100":100,"data_date":"2026-10-05 access snapshot","direct_parcel":false,"duplicate":false,"evidence_grade":"A_OFFICIAL_PUBLIC_API_BOUNDARY_COORDINATE_WINDOW","fake_data":false,"force_id":"leicestershire","identifier":"NC04","identifier_field":"neighbourhood_id","identifier_version":"data.police.uk neighbourhood boundary API","name":"City Centre","record_type":"SOURCE_AREA_BOUNDARY_GEOMETRY_WINDOW","source_area_counted":true,"source_url":"https://data.police.uk/api/leicestershire/NC04/boundary","window_complete_boundary":false},"type":"Feature"}],"name":"security_public_safety_3","properties":{"accepted_count":0,"batch_id":"20261005T113100Z-data-police-leicestershire-nc04-boundary-000-002","fake_data":false,"lineage_id":"L24-SPS3-57442c9c2a0f429be2d2","page_generation":1,"partition":{"count":30761,"end":92283,"start":61523},"schema":"AAYS_LAYER24_EVIDENCE_V1","slot_id":"security_public_safety_3","source_area_count":1},"type":"FeatureCollection"}
