{"type":"FeatureCollection","features":[{"type":"Feature","id":"hastings-borough-council-brownfield-register-2025:BL1","geometry":null,"properties":{"slot_id":"future_growth_4","lineage_id":"fg4-e4c9076d6f554f00","page_generation":1,"owner":"future_growth_4","partition":"future_growth","semantic_mode":"SOURCE_AREA_EXACT_IDENTIFIER","dataset":"hastings-borough-council-brownfield-register-2025","entity":"BL1","reference":"BL1","quality":"authoritative","organisation":"Hastings Borough Council","name":"Site of Mount Pleasant Hospital, Frederick Road, St Leonards","site_address":"Site of Mount Pleasant Hospital, Frederick Road, St Leonards","source_url":"https://www.data.gov.uk/dataset/9360a0e7-b609-4bf4-964b-c52a053b7a38/hastings-borough-council-brownfield-register-csv/datafile/29b715e8-f463-4807-b209-433f2305e642/preview","final_url":"https://www.data.gov.uk/dataset/9360a0e7-b609-4bf4-964b-c52a053b7a38/hastings-borough-council-brownfield-register-csv/datafile/29b715e8-f463-4807-b209-433f2305e642/preview","access_utc":"2026-10-06T04:16:00Z","data_date":"2025-04-01","license":"Open Government Licence v3.0","field_evidence":{"reference":"BL1","site_name_address":"Site of Mount Pleasant Hospital, Frederick Road, St Leonards","siteplan_url":"https://www.hastings.gov.uk/content/BLRsiteplans/BL1.pdf","geo_x":583028.1739,"geo_y":111013.5395,"hectares":1.84,"ownership_status":"Not owned by a public authority","planning_status":"Permissioned","permission_type":"Full planning permission","permission_date":"31/03/2021","deliverable":"Y","net_dwellings_range_from":40,"net_dwellings_range_to":56,"first_added_date":"15/12/2017","last_updated_date":"10/12/2021","end_date":"03/01/2025"},"evidence_slice_sha256":"42fd38cc06e12355e622fa146b4affeecf833a078006f2c91607775b4c76de5d","confidence_score_0_100":99,"confidence":0.99,"evidence_grade":"A","exact_identifier_provided":true,"coverage_polygon_provided":false,"fake_data":false,"join_mode":"LOCAL_OPENCODE_SPATIAL_JOIN_PENDING","direct_parcel":false,"source_area_count_contribution":1,"planned_building_count_contribution":0}}]}