{"type":"FeatureCollection","features":[{"type":"Feature","id":"CHERWELL_24_03056_F_REPLACEMENT_DWELLING_01","geometry":null,"properties":{"slot_id":"planned_buildings_4","owner":"planned_buildings_4","lineage_id":"pb4-8debc7c8ddf348a2","page_generation":1,"partition":"layer24","schema":"AAYS_LAYER24_EVIDENCE_V1","semantic_mode":"PLANNED_BUILDINGS_OFFICIAL_REFERENCE_DISTINCT_STRUCTURE","batch_id":"20261004T223509Z-cherwell-24-03056-f-window-001","publisher":"Cherwell District Council","source_family":"CHERWELL_PLANNING_REGISTER","source_url":"https://planningregister.cherwell.gov.uk/Planning/Display/24/03056/F","final_url":"https://planningregister.cherwell.gov.uk/Planning/Display/24/03056/F","access_utc":"2026-10-04T22:35:09Z","data_date":"2024-11-13","license":"Public planning register; document copyright/usage remains governed by council register terms","planning_reference":"24/03056/F","location":"6 Park Close Kirtlington Kidlington OX5 3HR","proposal":"Erection of replacement dwelling (self-build)","status":"Application Permitted","geometry_status":"NOT_MATERIALIZED_LOCAL_OPENCODE","field_evidence":"Official Cherwell District Council Planning Register application 24/03056/F. Application Type: Full Development. Status: Application Permitted. Valid date: 13/11/2024. Location: 6 Park Close Kirtlington Kidlington OX5 3HR. Proposal: Erection of replacement dwelling (self-build). Decision: Permitted. Decision Issued Date: 23/04/2025. Official documents include Site/Block/Street Scene drawing 24.021.100 - E; Proposed elevations/floor plans drawing 24 021 01 - F; Proposed front/rear elevations 24 021 E1 - G; Proposed first floor plan 24 021 FF - G; Roof Plan 24 021 R - G; Proposed ground floor plan 24 021 GF - G; Proposed side elevations 24 021 E2 - G; and Basic Sections 24 021 SEC - G. The official proposal and proposed drawing set support one distinct replacement self-build dwelling. The planning register's associated Building Control entry describes a new two-storey detached house with integral garage; the integral garage is part of the same building and is not counted as a separate structure. Geometry/materialization is deferred to local OpenCode.","evidence_slice_sha256":"ccb71a38f7d22845a121808c0b5283eb8798e322a4be9284bc82b9c7c9c4374d","confidence":0.99,"evidence_grade":"A_OFFICIAL_LOCAL_AUTHORITY_PLANNING_REGISTER_REPLACEMENT_SELF_BUILD_DWELLING_PERMITTED","fake_data":false,"source_record_id":"CHERWELL_24_03056_F_REPLACEMENT_DWELLING_01","planned_building":"replacement self-build dwelling","official_plan_reference":"24.021.100; 24 021 01 - F; 24 021 E1 - G; 24 021 FF - G; 24 021 R - G; 24 021 GF - G; 24 021 E2 - G; 24 021 SEC - G","official_plan_description":"SLP/Block/street scene; Proposed elevations/floor plans; Proposed front/rear elevations; Proposed first floor plan; Roof Plan; Proposed ground floor plan; Proposed side elevations; Basic Sections"}}]}
