{
  "type": "FeatureCollection",
  "features": [
    {
      "type": "Feature",
      "id": "brownfield-site:1802761:94",
      "geometry": {
        "type": "MultiPolygon",
        "coordinates": [
          [
            [
              [
                -1.166383,
                53.535156
              ],
              [
                -1.166133,
                53.535297
              ],
              [
                -1.166187,
                53.535403
              ],
              [
                -1.167773,
                53.535283
              ],
              [
                -1.167624,
                53.534941
              ],
              [
                -1.167502,
                53.534708
              ],
              [
                -1.167226,
                53.534349
              ],
              [
                -1.166211,
                53.534927
              ],
              [
                -1.165722,
                53.534603
              ],
              [
                -1.165615,
                53.534657
              ],
              [
                -1.166383,
                53.535156
              ]
            ]
          ]
        ]
      },
      "properties": {
        "slot_id": "future_growth_7",
        "lineage_id": "future_growth_7_open_source_v2_20260813",
        "page_generation": null,
        "batch_id": "batch_20261009T074223Z_bfs1802761",
        "semantic_mode": "AREA_JOIN",
        "semantic_identity": "brownfield-site:1802761:94",
        "official_entity_id": 1802761,
        "official_reference": "94",
        "organisation": "Doncaster Metropolitan Borough Council",
        "source_url": "https://www.planning.data.gov.uk/entity/1802761",
        "final_url": "https://www.planning.data.gov.uk/entity/1802761",
        "http_status": null,
        "http_status_evidence": "Public official HTML verified; direct GeoJSON returned browser cache miss; no HTTP status inferred",
        "accessed_utc": "2026-10-09T07:42:23Z",
        "data_date": "2025-12-03",
        "data_version": "official entity entry 2025-12-03",
        "licence": "Open Government Licence v3.0",
        "licence_url": "https://www.nationalarchives.gov.uk/doc/open-government-licence/version/3/",
        "source_window": "brownfield-site:entity:1802761:entry-2025-12-03",
        "dataset": "brownfield-site",
        "entity": 1802761,
        "reference": "94",
        "official_geojson_url": "https://www.planning.data.gov.uk/entity/1802761.geojson",
        "official_geojson_download_status": "cache miss; official HTML field WKT used",
        "source_sha256": "86bd2b443ab8ea6c7dd753b80c32a871f779afed05a09ae65e2853c33841c135",
        "source_sha256_basis": "canonical official field_evidence JSON, not external source bytes",
        "field_evidence": {
          "entry-date": "2025-12-03",
          "start-date": "",
          "end-date": "",
          "entity": 1802761,
          "name": "Cusworth Centre, Cusworth Lane, Scawsby, Doncaster, DN5 8JL",
          "dataset": "brownfield-site",
          "typology": "geography",
          "reference": "94",
          "prefix": "brownfield-site",
          "organisation-entity": "109",
          "geometry": "MULTIPOLYGON (((-1.166383 53.535156, -1.166133 53.535297, -1.166187 53.535403, -1.167773 53.535283, -1.167624 53.534941, -1.167502 53.534708, -1.167226 53.534349, -1.166211 53.534927, -1.165722 53.534603, -1.165615 53.534657, -1.166383 53.535156)))",
          "point": "POINT (-1.166908 53.534966)",
          "quality": "authoritative",
          "brownfield-site": "94",
          "organisation-curie": "local-authority:DNC"
        },
        "evidence_slice_sha256": "3be04f1fadab1c289d8fda4c0764167443963be6c7d0e63cc86c9f8f59b4916f",
        "evidence_grade": "OFFICIAL_PUBLISHED_MULTIPOLYGON_AUTHORITATIVE",
        "confidence_score_0_100": 95,
        "official_geometry_available": true,
        "official_geometry_type": "MULTIPOLYGON",
        "source_geometry_materialized_here": true,
        "point_not_used_as_coverage": true,
        "source_area_only": true,
        "fake_data": false
      }
    }
  ]
}
