{"type":"FeatureCollection","features":[{"type":"Feature","id":"ons-ogp-wd-dec-2024-bfc:E05009390","geometry":null,"properties":{"evidence_scope":"coverage_area","coverage_area_id":"E05009390","coverage_area_name":"Campden","identifier_scheme":"ONS_OGP_WD24CD","exact_official_identifier":"E05009390","source_resolution":"ONS_OGP_DEC_2024_BFC_FULL_RESOLUTION_COASTLINE_CLIPPED","time_window":"2024-12","measurement_date":"2024-12","measurement_method":"official ONS December 2024 full-resolution coastline-clipped ward boundary dataset binding","spatial_binding_method":"FEATURE_EXTRACTION_AND_PARCEL_JOIN_DEFERRED_TO_LOCAL_OPENCODE","source_url":"https://www.data.gov.uk/dataset/0a5aeb24-27a7-47d4-ac61-0bb98b5fb301/wards-december-2024-boundaries-uk-bfc","final_url":"https://www.data.gov.uk/dataset/0a5aeb24-27a7-47d4-ac61-0bb98b5fb301/wards-december-2024-boundaries-uk-bfc","accessed_at_utc":"2026-10-07T05:15:00Z","data_date":"2024-12","licence":"Contains Ordnance Survey and ONS Intellectual Property Rights","sha256":"5992d9cf60bd42cabc9ae382b79eb7fe98135cecb17c40e9bb22cfaefc589448","field_evidence":{"dataset_title":"Wards (December 2024) Boundaries UK BFC","publisher":"Office for National Statistics","updated":"2025-01-12","boundary_resolution":"BFC full resolution - clipped to the coastline (Mean High Water mark)","feature_access_service":"https://services1.arcgis.com/ESMARspQHYMw9BZ9/arcgis/rest/services/Wards_December_2024_Boundaries_UK_BFC/FeatureServer","mapserver_url":"https://services1.arcgis.com/ESMARspQHYMw9BZ9/arcgis/rest/services/Wards_December_2024_Boundaries_UK_BFC/MapServer","target_ward_code":"E05009390","target_ward_name":"Campden","code_field":"WD24CD","name_field":"WD24NM","csv_preview_fields":["FID","WD24CD","WD24NM","WD24NMW","LAD24CD","LAD24NM","LAD24NMW","BNG_E","BNG_N","LONG","LAT","Shape__Area","Shape__Length","GlobalID"],"direct_feature_extraction_status":"NOT_PERFORMED_IN_CURRENT_TRANSPORT","geometry_materialized":false,"source_url":"https://www.data.gov.uk/dataset/0a5aeb24-27a7-47d4-ac61-0bb98b5fb301/wards-december-2024-boundaries-uk-bfc","accessed_at_utc":"2026-10-07T05:15:00Z"},"evidence_slice_sha256":"e30296e04887a05803cc59f36ddce39980e683b884f2cd3542955ac881ef0042","confidence_score_0_100":99,"evidence_grade":"A","fake_data":false,"source_window_id":"ons_ogp_WD_DEC_2024_UK_BFC_E05009390_sps5_20261007_v1","cursor":"ons_ogp_WD_DEC_2024_UK_BFC_E05009390_sps5_20261007_v1:record=1"}}]}
