{
  "type": "FeatureCollection",
  "name": "gas_emissions_2_ons_lad24_bfc_identifier_window",
  "metadata": {
    "schema_family": "AAYS_LAYER24_EVIDENCE_V1",
    "package_category": "AAYS_SOURCE_AREA_V1",
    "slot_id": "gas_emissions_2",
    "lineage_id": "L24-GE2-600c3339868ccb329689",
    "page_generation": 4,
    "owner": "gas_emissions_2",
    "partition": {
      "start": 15382,
      "end": 30762
    },
    "batch_id": "20261001T014300Z_ONS_LAD24_BFC_PREVIEW_0001_0004",
    "semantic_mode_state": "ABSENT_IN_VERIFIED_PREDECESSOR_PRESERVED_NO_NEW_VALUE_ASSERTED",
    "source_family": "ONS_OPEN_GEOGRAPHY_LAD24_BOUNDARY_BFC_EXACT_IDENTIFIER",
    "source_window_id": "ONS_LAD_DEC_2024_UK_BFC_NDL_PREVIEW_ROWS_0001_0004",
    "url": "https://www.data.gov.uk/dataset/02fd4563-a97b-47c3-9c06-8e7379d25b06/local-authority-districts-december-2024-boundaries-uk-bfc/datafile/4bc7a157-3680-498b-8601-f52d49279db9/preview",
    "final_url": "https://www.data.gov.uk/dataset/02fd4563-a97b-47c3-9c06-8e7379d25b06/local-authority-districts-december-2024-boundaries-uk-bfc/datafile/4bc7a157-3680-498b-8601-f52d49279db9/preview",
    "dataset_url": "https://www.data.gov.uk/dataset/02fd4563-a97b-47c3-9c06-8e7379d25b06/local-authority-districts-december-2024-boundaries-uk-bfc",
    "feature_layer_url": "https://services1.arcgis.com/ESMARspQHYMw9BZ9/arcgis/rest/services/Local_Authority_Districts_December_2024_Boundaries_UK_BFC/FeatureServer",
    "accessed_at_utc": "2026-10-01T01:43:00Z",
    "data_date": "2024-12",
    "resource_updated_date": "2025-01-12",
    "publisher": "Office for National Statistics",
    "license": "NOT_STATED_ON_DATA_GOV_UK_RESOURCE",
    "rights_note": "Contains both Ordnance Survey and ONS Intellectual Property Rights.",
    "boundary_product": "BFC Full resolution - clipped to coastline (Mean High Water mark)",
    "field_evidence": {
      "LAD24CD": "ONS Local Authority District December 2024 exact identifier",
      "LAD24NM": "ONS Local Authority District name",
      "GlobalID": "ArcGIS feature GlobalID",
      "Shape__Area": "published full-resolution boundary feature area metadata",
      "Shape__Length": "published full-resolution boundary feature perimeter metadata",
      "LONG": "published representative longitude",
      "LAT": "published representative latitude"
    },
    "confidence_score_0_100": 96,
    "evidence_grade": "A_OFFICIAL_ONS_EXACT_IDENTIFIER_FULL_RESOLUTION_BOUNDARY_METADATA",
    "fake_data": false,
    "geometry_materialization_status": "FULL_RESOLUTION_POLYGON_PRODUCT_CONFIRMED; POLYGON_COORDINATES_NOT_MATERIALIZED_IN_THIS_RUNTIME",
    "canonical_binding_status": "LOCAL_OPENCODE_SPATIAL_JOIN_REQUIRED"
  },
  "features": [
    {
      "type": "Feature",
      "geometry": null,
      "properties": {
        "FID": 1,
        "LAD24CD": "E06000001",
        "LAD24NM": "Hartlepool",
        "LAD24NMW": "",
        "BNG_E": 447161,
        "BNG_N": 531473,
        "LONG": -1.27017,
        "LAT": 54.67613,
        "Shape__Area": 93887000.9500732,
        "Shape__Length": 73982.4086461893,
        "GlobalID": "360c992d-5b53-4286-a891-21085a50ab7e",
        "source_record_ordinal": 1,
        "official_identifier": "E06000001",
        "identifier_already_present_in_source_area_ledger": true
      }
    },
    {
      "type": "Feature",
      "geometry": null,
      "properties": {
        "FID": 2,
        "LAD24CD": "E06000002",
        "LAD24NM": "Middlesbrough",
        "LAD24NMW": "",
        "BNG_E": 451141,
        "BNG_N": 516887,
        "LONG": -1.211,
        "LAT": 54.54468,
        "Shape__Area": 53881564.2714233,
        "Shape__Length": 44481.6912420956,
        "GlobalID": "57e29036-0011-4f2c-91c9-c6519866a7fb",
        "source_record_ordinal": 2,
        "official_identifier": "E06000002",
        "identifier_already_present_in_source_area_ledger": true
      }
    },
    {
      "type": "Feature",
      "geometry": null,
      "properties": {
        "FID": 3,
        "LAD24CD": "E06000003",
        "LAD24NM": "Redcar and Cleveland",
        "LAD24NMW": "",
        "BNG_E": 464330,
        "BNG_N": 519596,
        "LONG": -1.00657,
        "LAT": 54.56752,
        "Shape__Area": 245107098.176788,
        "Shape__Length": 97674.1770850586,
        "GlobalID": "f0039556-1c53-409c-8d3f-4ae11a008e66",
        "source_record_ordinal": 3,
        "official_identifier": "E06000003",
        "identifier_already_present_in_source_area_ledger": true
      }
    },
    {
      "type": "Feature",
      "geometry": null,
      "properties": {
        "FID": 4,
        "LAD24CD": "E06000004",
        "LAD24NM": "Stockton-on-Tees",
        "LAD24NMW": "",
        "BNG_E": 444940,
        "BNG_N": 518179,
        "LONG": -1.30665,
        "LAT": 54.55688,
        "Shape__Area": 204943280.156723,
        "Shape__Length": 123628.292300529,
        "GlobalID": "9e2c43d3-1ff5-4c15-a27d-000fe3e72776",
        "source_record_ordinal": 4,
        "official_identifier": "E06000004",
        "identifier_already_present_in_source_area_ledger": true
      }
    }
  ]
}
