{"type":"FeatureCollection","features":[{"type":"Feature","id":"nottingham-local-plan-site-allocations-2020-mapserver:OpenData/OpenData:MapServer/62","geometry":null,"properties":{"slot_id":"future_growth_4","lineage_id":"fg4-e4c9076d6f554f00","page_generation":1,"owner":"future_growth_4","partition":"future_growth","semantic_mode":"SOURCE_AREA_EXACT_IDENTIFIER","dataset":"nottingham-local-plan-site-allocations-2020-mapserver","entity":"OpenData/OpenData:MapServer/62","reference":"OpenData/OpenData:MapServer/62","quality":"authoritative","organisation":"Nottingham City Council","name":"Local Plan Site Allocations 2020 layer 62","source_url":"https://maps164.nottinghamcity.gov.uk/server/rest/services/OpenData/OpenData/MapServer/62","final_url":"https://maps164.nottinghamcity.gov.uk/server/rest/services/OpenData/OpenData/MapServer/62","access_utc":"2026-10-05T03:53:36Z","data_date":"2020","license":"Nottingham City Council; layer metadata states Contains OS data © Crown copyright [and database right] [year]","field_evidence":{"reference":"OpenData/OpenData:MapServer/62","layer_name":"Local Plan Site Allocations 2020","layer_id":62,"display_field":"SITE_NAME","geometry_type":"esriGeometryPolygon","supported_query_formats":["JSON","geoJSON","PBF"],"spatial_reference":27700,"extent":{"xmin":451593.32409999985,"ymin":332974.9625000004,"xmax":459227.3700000001,"ymax":347089.80000000075},"max_record_count":2000},"evidence_slice_sha256":"59351b46616f59f3224b77c44b7cfc4c427e64be8713b64120c6131b8eaa8d47","confidence_score_0_100":99,"confidence":0.99,"evidence_grade":"A","exact_identifier_provided":true,"coverage_polygon_provided":false,"source_layer_geometry_type":"esriGeometryPolygon","fake_data":false,"join_mode":"LOCAL_OPENCODE_SPATIAL_JOIN_PENDING","direct_parcel":false,"source_area_count_contribution":1,"planned_building_count_contribution":0}}]}