{"type":"FeatureCollection","name":"height_difference_5","metadata":{"slot_id":"height_difference_5","owner":"height_difference_5","lineage_id":"height_difference_5-eb56f92ed3f0514c","page_generation":1,"schema":"AAYS_LAYER24_EVIDENCE_V1","partition":"layer24","semantic_mode_state":"ABSENT_IN_PRIOR_PHYSICAL_STATE_PRESERVED_BY_OMISSION","batch_id":"20261005T231100Z_spatialni_data_supply_srs_metadata","record_policy":"Official SpatialNI generic SRS metadata evidence only; no Belfast 2006 dataset-specific CRS, tile/file, parcel binding or geometry synthesized.","fake_data":false},"features":[{"type":"Feature","geometry":null,"properties":{"slot_id":"height_difference_5","owner":"height_difference_5","lineage_id":"height_difference_5-eb56f92ed3f0514c","page_generation":1,"schema":"AAYS_LAYER24_EVIDENCE_V1","partition":"layer24","batch_id":"20261005T231100Z_spatialni_data_supply_srs_metadata","source_record_id":"SPATIALNI:DATA_SUPPLY_METADATA:SRS_OPTION","source_url":"https://support.spatialni.gov.uk/nima/DownloadDocs/Guidance/SpatialNI_Data_Supply_Metadata_Form.pdf","access_utc":"2026-10-05T23:11:00Z","required_building_state":"BUILDING_PRESENT","binding_status":"LOCAL_OPENCODE_BUILDING_PRESENT_EXACT_TILE_BIND_REQUIRED","official_spatial_reference_option":"Irish Grid (TM65) [EPSG:29902]","dataset_specific_binding":"ABSENT","exact_tile_identifier":null,"crs":null,"evidence_slice_sha256":"de10024108839f045d2c9487df1683d077dec552467dfcf22da3629e1ac9e0be","accepted_count_contribution":0,"source_area_count_contribution":0,"fake_data":false}}]}
