{"type":"FeatureCollection","name":"ONSDIGITAL_GEOSCRIPTS_CAUTH24_EXACTID_ROW_001","features":[{"type":"Feature","id":"E47000001","geometry":null,"properties":{"slot_id":"gas_emissions_6","lineage_id":"LOCAL-NEW-92271296-1318-4c0c-a293-d0d4ebc2d06b","page_generation":1,"semantic_mode":"AREA_JOIN","partition":{"start":76904,"end":92283,"count":15380},"evidence_scope":"coverage_area","coverage_area_id":"E47000001","coverage_area_name":"Greater Manchester","coverage_area_identifier_scheme":"ONS_GSS_COMBINED_AUTHORITY_2024","source_area_record":true,"accepted_parcel_record":false,"spatial_binding_method":"EXACT_OFFICIAL_IDENTIFIER","source_row_cursor":1,"source_url":"https://raw.githubusercontent.com/ONSdigital/geo-scripts/7ee374970b457a0e7d2228f96c63f078ab1825f3/output/lists/cauth24.csv","final_url":"https://raw.githubusercontent.com/ONSdigital/geo-scripts/7ee374970b457a0e7d2228f96c63f078ab1825f3/output/lists/cauth24.csv","source_access_utc":"2026-10-05T03:26:30Z","source_blob_sha":"d5e258bd571d6e93a897fb2d48a1f22ea940da39","source_file_sha256":"9683592c979237a9575c73382b969ceb78eb8124a023343e97d9c2745d94242e","field_evidence":{"areacd":"E47000001","areanm":"Greater Manchester"},"evidence_slice_sha256":"c4c5f6febce5977eca330318dc4b236986bf18105a33b103aa3c7e6a0a1f28d3","confidence_score_0_100":96,"evidence_grade":"A","licence":"Open Government Licence v3.0","licence_evidence_url":"https://www.ons.gov.uk/methodology/geography/licences","fake_data":false,"local_spatial_join_status":"DEFERRED_TO_LOCAL_OPENCODE"}}]}
