{"crs":{"properties":{"name":"EPSG:27700"},"type":"name"},"features":[],"metadata":{"batch_id":"20260930T183700Z_ea_nlp_wfs_start50_blocked","fake_data":false,"lineage_id":"height_difference_5-eb56f92ed3f0514c","owner":"height_difference_5","page_generation":1,"partition":"layer24","record_policy":"No official feature payload => no tile feature synthesized.","schema":"AAYS_LAYER24_EVIDENCE_V1","semantic_mode_state":"ABSENT_IN_PRIOR_PHYSICAL_STATE_PRESERVED_BY_OMISSION","slot_id":"height_difference_5"},"name":"height_difference_5","type":"FeatureCollection"}
