{"type":"FeatureCollection","features":[{"type":"Feature","id":"rbkc-your-council-campden-holland:2026-03-11","geometry":null,"properties":{"evidence_scope":"coverage_area","coverage_area_id":"RBKC_EVENT_CAMPDEN_HOLLAND_20260311","coverage_area_name":"Campden and Holland Ward","target_ward_name":"Campden","identifier_scheme":"RBKC_OFFICIAL_WARD_EVENT_PAGE","exact_official_identifier":"your-council-comes-you-campden-and-holland-ward","source_resolution":"RBKC_OFFICIAL_WARD_EVENT_PAGE","time_window":"2026-03-11","measurement_date":"2026-03-11","measurement_method":"official RBKC ward-area engagement event page with explicit community-safety topic","spatial_binding_method":"DEFERRED_TO_LOCAL_OPENCODE","source_url":"https://www.rbkc.gov.uk/events/your-council-comes-you-campden-and-holland-ward","final_url":"https://www.rbkc.gov.uk/events/your-council-comes-you-campden-and-holland-ward","accessed_at_utc":"2026-10-07T05:50:00Z","data_date":"2026-03-11","licence":"NOT_STATED_ON_CAPTURED_PAGE","sha256":"a2e7dffce092e596249d072a3492045ae3f866d754232beecf29944006473aa2","field_evidence":{"page_title":"Your council comes to you: Campden and Holland Ward","publisher":"Royal Borough of Kensington and Chelsea","event_date":"2026-03-11","start_time_local":"18:30","end_time_local":"20:00","venue":"Saint John Southworth Catholic Academy Trust c/o The Cardinal Vaughan Memorial School, 89 Addison Road, London W14 8BZ","booking":"Just come along","price":"Free","ward_area_label":"Campden and Holland Ward","target_ward":"Campden","published_topics":["local services","community safety","housing","the environment"],"programme_context":"Your council comes to you; opportunity to meet council leadership and senior officers and raise local concerns.","source_url":"https://www.rbkc.gov.uk/events/your-council-comes-you-campden-and-holland-ward","accessed_at_utc":"2026-10-07T05:50:00Z"},"evidence_slice_sha256":"c5ba656bb31988d8e26c4e646cbf31144b57cb8d417da3a5db0bad36725b9823","confidence_score_0_100":98,"evidence_grade":"A","fake_data":false,"source_window_id":"rbkc_your_council_campden_holland_20260311_sps5_20261007_v1","cursor":"rbkc_your_council_campden_holland_20260311_sps5_20261007_v1:record=1"}}]}
