{"type":"FeatureCollection","features":[{"type":"Feature","id":"barnet-brownfield-land-register-2026-csv:W01731JS/04","geometry":null,"properties":{"slot_id":"future_growth_4","lineage_id":"fg4-e4c9076d6f554f00","page_generation":1,"owner":"future_growth_4","partition":"future_growth","semantic_mode":"SOURCE_AREA_EXACT_IDENTIFIER","dataset":"barnet-brownfield-land-register-2026-csv","entity":"W01731JS/04","reference":"W01731JS/04","quality":"authoritative","organisation":"London Borough of Barnet","name":"Grahame Park Estate - Bounded By Lanacre Avenue To The West, Grahame Park Way To The South And Field Mead To The North London NW9","site_address":"Grahame Park Estate - Bounded By Lanacre Avenue To The West, Grahame Park Way To The South And Field Mead To The North London NW9","source_url":"https://www.data.gov.uk/dataset/b2077666-5bf4-4b1f-9c22-410b34fa563c/brownfield-land-register21/datafile/39c6ac90-d2da-4c07-9a8c-64e592f53a69/preview","final_url":"https://www.data.gov.uk/dataset/b2077666-5bf4-4b1f-9c22-410b34fa563c/brownfield-land-register21/datafile/39c6ac90-d2da-4c07-9a8c-64e592f53a69/preview","access_utc":"2026-10-04T11:58:00Z","data_date":"2024-12-31","license":"Open Government Licence (OGL) v3","field_evidence":{"reference":"W01731JS/04","site_name_address":"Grahame Park Estate - Bounded By Lanacre Avenue To The West, Grahame Park Way To The South And Field Mead To The North London NW9","geo_y":51.60302047,"geo_x":-0.244837117,"siteplan_url":"https://publicaccess.barnet.gov.uk/online-applications/applicationDetails.do?activeTab=map&keyVal=ZZZY6NJIXE131","hectares":34.28432,"ownership_status":"not owned by a public authority","planning_status":"permissioned","permission_type":"outline planning permission","permission_date":"2007-01-17","planning_history":"https://publicaccess.barnet.gov.uk/online-applications/applicationDetails.do?activeTab=map&keyVal=ZZZY6NJIXE131","deliverable":"yes","net_dwellings_range_from":2215,"net_dwellings_range_to":null,"hazardous_substances":"no","first_added_date":"2019-11-26","last_updated_date":"2024-12-31"},"evidence_slice_sha256":"1ca2459a9ee71206b9cb3742a4548f8e6bdd41563e05408f787f065d123912a3","confidence_score_0_100":99,"confidence":0.99,"evidence_grade":"A","exact_identifier_provided":true,"coverage_polygon_provided":false,"point_provided":true,"fake_data":false,"join_mode":"LOCAL_OPENCODE_SPATIAL_JOIN_PENDING","direct_parcel":false,"source_area_count_contribution":1,"planned_building_count_contribution":0}}]}