{"type":"FeatureCollection","features":[{"type":"Feature","geometry":null,"properties":{"slot_id":"future_growth_3","lineage_id":"future_growth_3-newstart-20261001T203100Z","page_generation":null,"accepted_as_parcel":false,"source_area_count_contribution":1,"exact_identifier":"MC646","exact_identifier_provided":true,"coverage_polygon_provided":false,"identifier_namespace":"Planning Data brownfield-land reference","secondary_exact_identifier":"entity:1735241","source_entity":"MC646 - 70-76 High Street, Strood","access_utc":"2026-10-05T09:42:40Z","data_date":"2024-12-01","source_url":"https://www.planning.data.gov.uk/entity/1735241","final_url":"https://www.planning.data.gov.uk/entity/1735241","license":"Open Government Licence v3.0; attribution © Crown copyright and database right 2026.","authority":"Medway Council","site_address":"70-76 High Street, Strood","field_evidence":{"reference":"MC646","entity":1735241,"dataset":"Brownfield land","organisation":"Medway Council","start_date":"2023-12-01","entry_date":"2024-12-01","site_address":"70-76 High Street, Strood","point":"POINT (0.49625 51.395264)","notes":"NEW LAA ref SNF31.","hectares":0.03,"deliverable":"yes","ownership_status":"not-owned-by-a-public-authority","minimum_net_dwellings":8,"maximum_net_dwellings":8,"planning_permission_date":"2022-08-15","planning_permission_type":"full-planning-permission","planning_permission_status":"permissioned","site_plan_url":"https://maps.medway.gov.uk/webmaplayersext/map.aspx","planning_permission_history":"https://publicaccess1.medway.gov.uk/online-applications/applicationDetails.do?activeTab=documents&keyVal=R5X0RMKNKU100"},"source_payload_sha256":"60846d14ac0cea031182fd7cd70622f94110e97262ae9a3d3aabe09f5cc05e70","source_payload_sha256_basis":"canonicalized official Planning Data entity 1735241 / reference MC646 evidence fields","evidence_slice_sha256":"d7fdaf7cbb1240a38475c4f638fc09e25d73ca3388147ac969f2db2f5a850ab3","evidence_grade":"A","confidence_score_0_100":99,"evidence_scope":"exact_official_identifier_from_authoritative_planning_data_brownfield_entity","fake_data":false,"spatial_binding_method":"official Planning Data brownfield reference MC646 / entity 1735241 and Medway Council site-plan URL; canonical parcel spatial join and materialization delegated to local OpenCode","planned_building_count_contribution":0}}]}