{"type":"FeatureCollection","name":"security_public_safety_3","properties":{"accepted_count":0,"batch_id":"20261006T183900Z-staffordshire-baddeley-milton-norton-slug-000","fake_data":false,"lineage_id":"L24-SPS3-57442c9c2a0f429be2d2","page_generation":1,"partition":{"start":61523,"end":92283,"count":30761},"schema":"AAYS_LAYER24_EVIDENCE_V1","slot_id":"security_public_safety_3","source_area_count":1},"features":[{"type":"Feature","id":"staffordshire:stoke-on-trent-north:baddeley-milton-and-norton","geometry":null,"properties":{"accepted_as_parcel":false,"access_utc":"2026-10-06T18:39:00Z","canonical_binding":"LOCAL_OPENCODE_PENDING_NOT_CLAIMED","canonical_url":"https://www.staffordshire.police.uk/area/your-area/staffordshire/stoke-on-trent-north/baddeley-milton-and-norton/","confidence_score_0_100":100,"data_date":"2026-10-06 access snapshot","direct_parcel":false,"duplicate":false,"evidence_grade":"A_OFFICIAL_FORCE_WEBSITE_EXACT_AREA_SLUG","fake_data":false,"force_id":"staffordshire","identifier":"baddeley-milton-and-norton","identifier_field":"canonical_area_slug","identifier_version":"Staffordshire Police canonical area URL slug","name":"Baddeley, Milton and Norton","parent_area":"Stoke-on-Trent North","record_type":"SOURCE_AREA_EXACT_IDENTIFIER","source_area_counted":true,"source_url":"https://www.staffordshire.police.uk/area/your-area/staffordshire/stoke-on-trent-north/baddeley-milton-and-norton/about-us/our-priorities"}}]}