{
  "type": "FeatureCollection",
  "features": [
    {
      "type": "Feature",
      "geometry": null,
      "properties": {
        "schema": "AAYS_LAYER24_EVIDENCE_V1",
        "slot_id": "security_public_safety_4",
        "lineage_id": "L24-SPS4-57de1ed0eaf0f860383f",
        "page_generation": 10,
        "criterion": "security_public_safety_official_coverage_identifier",
        "record_role": "source_area_identifier",
        "source_record_index": 6,
        "area_name": "Oadby",
        "major_text": "force=leicestershire",
        "minor_text": "neighbourhood_id=NA55",
        "series_start": null,
        "series_end": null,
        "series_month_count": 0,
        "visible_nonzero_evidence": true,
        "source_url": "https://data.police.uk/api/leicestershire/neighbourhoods",
        "final_url": "https://data.police.uk/api/leicestershire/neighbourhoods",
        "access_utc": "2026-10-07T07:03:28Z",
        "data_date": "current official neighbourhood listing observed 2026-10-07; endpoint carries no intrinsic effective date",
        "license": "Open Government Licence v3.0",
        "source_payload_sha256": "4ed48136de66c04976c308f6acef941e4f1cec784ee319504212e5d6ebc600c8",
        "field_evidence": {
          "id": "official API response field id; documentation defines it as a police-force-specific team identifier",
          "name": "official API response field name; documentation defines it as the neighbourhood name",
          "force_context": "endpoint path leicestershire/neighbourhoods fixes the police-force context",
          "window": "non-overlapping response record 6; Leicestershire records 0-5, Metropolitan records 0-60 and prior NC04 exact record were already processed",
          "authentication": "data.police.uk API authentication is not required",
          "license": "data.police.uk publishes the relevant data under Open Government Licence v3.0"
        },
        "evidence_slice_sha256": "0ebb20e58dc65483f18f69cef195dc77400ca2ef281ba730f22816607944e446",
        "confidence_score_0_100": 100,
        "evidence_grade": "A_OFFICIAL_API_EXACT_IDENTIFIER",
        "join_state": "UNPROCESSED",
        "fake_data": false
      }
    }
  ]
}
