{"type":"FeatureCollection","features":[{"type":"Feature","id":"PLANNINGDATA_LBO_42120765","geometry":{"type":"MultiPolygon","coordinates":[[[[-0.204514,51.658556],[-0.204457,51.658568],[-0.204444,51.658545],[-0.20441,51.658552],[-0.204423,51.658576],[-0.204144,51.658645],[-0.204177,51.658704],[-0.204156,51.658708],[-0.204204,51.658791],[-0.204596,51.658699],[-0.204546,51.65861],[-0.204589,51.658601],[-0.204577,51.65858],[-0.204561,51.658583],[-0.204553,51.65857],[-0.204525,51.658576],[-0.204514,51.658556]]]]},"properties":{"slot_id":"building_type_3","lineage_id":"building_type_3-new-20260927T1328+0300","batch_id":"BT3-P90-20261004-PLANNINGDATA-LBO42120765","cursor":"BT3-P90-20261004-PLANNINGDATA-LBO42120765-p90","building_state":"BUILDING_PRESENT","source_record_id":"reference=1064856;outline_entity=42120765","entity":42120765,"reference":"1064856","name":"CHRIST CHURCH","building_type_use":"church","type_use_evidence":"official_outline_name_contains_church","dataset":"listed-building-outline","quality":"authoritative","start_date":"1982-11-02","entry_date":"2026-05-01","organisation":"London Borough of Barnet","source_url":"https://www.planning.data.gov.uk/entity/42120765","final_url":"https://www.planning.data.gov.uk/entity/42120765","source_version":"Planning Data listed-building-outline entity 42120765 reference 1064856; authoritative London Borough of Barnet record","access_utc":"2026-10-04T04:44:47Z","data_date":"1982-11-02","license":"Open Government Licence v3.0; © Crown copyright and database right 2026","source_file_sha256":"bcf615539a03548c0a18ea7ae6a8080127356603f9ca67617634e06957be451e","evidence_slice_sha256":"920c362b0e2f130bfc7d105a0b966d9df6a4e3a1224c07bc908f729444d6b465","field_evidence":["entity","reference","name","quality","dataset","organisation","start-date","entry-date","geometry"],"confidence_score_0_100":99,"evidence_grade":"A_OFFICIAL_GOVERNMENT_BUILDING_OUTLINE_AND_NAMED_TYPE_USE","fake_data":false}}]}
