{"type":"FeatureCollection","features":[{"type":"Feature","id":"sefton-brownfield-land-register-july-2026:B0128","geometry":null,"properties":{"slot_id":"future_growth_4","lineage_id":"fg4-e4c9076d6f554f00","page_generation":1,"owner":"future_growth_4","partition":"future_growth","semantic_mode":"SOURCE_AREA_EXACT_IDENTIFIER","dataset":"sefton-brownfield-land-register-july-2026","entity":"B0128","reference":"B0128","quality":"authoritative","organisation":"Sefton Council","name":"2 Well Lane, Bootle","source_url":"https://www.sefton.gov.uk/planning-building-control/planning-policy-including-local-plan-and-neighbourhood-planning/brownfield-land-register/","final_url":"https://www.sefton.gov.uk/planning-building-control/planning-policy-including-local-plan-and-neighbourhood-planning/brownfield-land-register/","access_utc":"2026-10-04T04:57:00Z","data_date":"2026-07-01","license":"Open Government Licence","field_evidence":{"reference":"B0128","name":"2","street_name":"Well Lane","settlement":"Bootle","site_name_address":"2 Well Lane, Bootle","register_last_updated":"2026-07-01","part":1},"evidence_slice_sha256":"be32b668a73b6fb5a835b1ee26dd8f6ae55a729be8966f3027b03ca1a5c58f70","confidence_score_0_100":99,"confidence":0.99,"evidence_grade":"A","exact_identifier_provided":true,"coverage_polygon_provided":false,"fake_data":false,"join_mode":"LOCAL_OPENCODE_SPATIAL_JOIN_PENDING","direct_parcel":false,"source_area_count_contribution":1,"planned_building_count_contribution":0}}]}