{"type":"FeatureCollection","schema":"AAYS_SOURCE_AREA_V1","slot_id":"internet_access_1","lineage_id":"d59e0209-0d99-45c3-a2fb-a49551aa549e","page_generation":28,"features":[{"type":"Feature","geometry":{"type":"MultiPolygon","coordinates":[[[[-1.522988,50.917233],[-1.522976,50.917221],[-1.522959,50.917214],[-1.522942,50.917211],[-1.52292,50.917212],[-1.522906,50.917216],[-1.522889,50.917226],[-1.522884,50.917231],[-1.52288,50.917239],[-1.522879,50.917252],[-1.522885,50.917264],[-1.522897,50.917274],[-1.522905,50.917278],[-1.522926,50.917283],[-1.522951,50.917282],[-1.522963,50.917279],[-1.522979,50.917271],[-1.522987,50.917263],[-1.522992,50.917254],[-1.522992,50.917241],[-1.522988,50.917233]]]]},"properties":{"slot_id":"internet_access_1","schema":"AAYS_SOURCE_AREA_V1","source_window_id":"planning_data_uprn_linked_tree_7002115392","evidence_scope":"coverage_area","coverage_area_id":"tree:1136/1/T18","source_resolution":"authoritative Planning Data tree geography MultiPolygon linked to a published UPRN and address; WGS84 coordinates to ~6 decimal degrees","time_window":"1980-10-28..open","source_url":"https://www.planning.data.gov.uk/entity/7002115392","measurement_date":"1980-10-28","measurement_method":"official Planning Data entity record materializing authoritative tree geography geometry with exact reference, UPRN and address","spatial_binding_method":"use published UPRN as an exact property identifier candidate and intersect the official MultiPolygon with local canonical parcel Polygon/MultiPolygon; canonical parcel identity readback remains required","confidence_score_0_100":100,"evidence_grade":"A_OFFICIAL_AUTHORITATIVE_GEOMETRY_WITH_UPRN","field_evidence":{"entity":7002115392,"curie":"tree:1136/1/T18","reference":"1136/1/T18","name":"T18","dataset":"tree","typology":"geography","quality":"authoritative","organisation_entity":"229","organisation_curie":"local-authority:NEW","uprn":"100060505003","address_text":"51 DICKENS DELL, TOTTON, SOUTHAMPTON, SO40 8FJ","tree_preservation_order":"1136/1","point_wkt":"POINT (-1.522936 50.917247)","start_date":"1980-10-28","entry_date":"1980-10-28","internet_access_field_status":"NOT_MEASURED_THIS_WINDOW_CROSSWALK_ONLY","crosswalk_purpose":"UPRN-linked official polygon evidence for first_missing_criterion local canonical parcel crosswalk"},"canonical_parcel_id":null,"match_status":"LOCAL_CANONICAL_PARCEL_IDENTIFIER_AND_SPATIAL_CROSSWALK_REQUIRED"}}]}
