{"type":"FeatureCollection","features":[{"type":"Feature","geometry":null,"properties":{"slot_id":"planned_buildings_1","lineage_id":"planned_buildings_1-0ffc4ebd6c6e4e41","semantic_mode":"DISTINCT_BUILDINGS","planned_building_id":"planning-application:RB2026/1338::DETACHED_GARAGE","building_status":"PLANNED","building_name":"Detached single-storey garage, 11 Richard Road Moorgate","planning_reference":"RB2026/1338","authority":"Rotherham Metropolitan Borough Council","source_url":"https://planning.rotherham.gov.uk/FastWEBLive/detail.asp?AltRef=RB2026%2F1338","final_url":"https://planning.rotherham.gov.uk/FastWEBLive/detail.asp?AltRef=RB2026%2F1338","access_utc":"2026-10-02T02:07:00Z","source_data_date":"2026-09-22","license":"Open Government Licence v3.0","geometry_role":"official planning page exposes no machine-readable point or building footprint; geometry null; no geometry inferred","field_evidence":"Official Registered application explicitly includes erection of one detached single-storey garage and the official page states no decision.","identity_limitation":"Only the explicitly detached garage is counted; dwelling conversion, extensions, dormer, retaining wall, access, driveway, gates and covered patio are not counted as separate buildings.","confidence_score_0_100":98,"evidence_grade":"A","fake_data":false}}]}
