{"type":"FeatureCollection","features":[{"type":"Feature","id":"planned_buildings_2-planning-data-brownfield-1722280","geometry":null,"properties":{"entity":1722280,"reference":"UBLR/19/003","canonical_record_key":"planning-data:brownfield-land:1722280","planned_project_name":"Start Hill, Stane Street, Great Hallingbury, Hertfordshire CM22 7TA","planned_project_status":"permissioned","borough":"Uttlesford District Council","official_hectares":0.439,"official_deliverable":true,"official_minimum_net_dwellings":9,"official_maximum_net_dwellings":9,"planned_building_value":null,"planned_building_probability":null,"planned_building_complete_month":null,"source_quality":"authoritative","source_url":"https://www.planning.data.gov.uk/entity/1722280","source_license":"Open Government Licence v3.0","fake_data":false}}],"metadata":{"slot_id":"planned_buildings_2","batch_index":296,"source_index":25,"source_window":{"resource_index":5,"limit":1},"feature_count_before":631,"feature_count_after":632,"unique_real_site_project_before":472,"unique_real_site_project_after":473,"duplicate_count_new":0,"nearest_match_used":false,"parcel_match_used":false,"geometry_inference_used":false,"mirror_only":true}}