{"type":"FeatureCollection","features":[{"type":"Feature","id":"planned_buildings_2-1722275","geometry":null,"properties":{"entity":1722275,"reference":"UBLR/17/013","canonical_record_key":"planning-data:brownfield-land:1722275","planned_project_name":"Chelmsford Road White Roding CM6 1RF","fake_data":false}},{"type":"Feature","id":"planned_buildings_2-1722266","geometry":null,"properties":{"entity":1722266,"reference":"UBLR/17/001","canonical_record_key":"planning-data:brownfield-land:1722266","planned_project_name":"56 High Street Saffron Walden CB10 1EE","fake_data":false}},{"type":"Feature","id":"planned_buildings_2-1722267","geometry":null,"properties":{"entity":1722267,"reference":"UBLR/17/002","canonical_record_key":"planning-data:brownfield-land:1722267","planned_project_name":"Rear of 10-12 Bridge Street Saffron Walden CB10 1BU","fake_data":false}},{"type":"Feature","id":"planned_buildings_2-1722284","geometry":null,"properties":{"entity":1722284,"reference":"UBLR/19/007","canonical_record_key":"planning-data:brownfield-land:1722284","planned_project_name":"Copthall Lane, Thaxted, CM6 2LG","fake_data":false}},{"type":"Feature","id":"planned_buildings_2-1722278","geometry":null,"properties":{"entity":1722278,"reference":"UBLR/19/001","canonical_record_key":"planning-data:brownfield-land:1722278","planned_project_name":"Stortford Road, Great Dunmow, Essex","fake_data":false}},{"type":"Feature","id":"planned_buildings_2-1722280","geometry":null,"properties":{"entity":1722280,"reference":"UBLR/19/003","canonical_record_key":"planning-data:brownfield-land:1722280","planned_project_name":"Start Hill, Stane Street, Great Hallingbury, Hertfordshire CM22 7TA","fake_data":false}},{"type":"Feature","id":"planned_buildings_2-1722269","geometry":null,"properties":{"entity":1722269,"reference":"UBLR/17/004","canonical_record_key":"planning-data:brownfield-land:1722269","planned_project_name":"Bardfield Road Thaxted CM6 2LW","fake_data":false}},{"type":"Feature","id":"planned_buildings_2-1722282","geometry":null,"properties":{"entity":1722282,"reference":"UBLR/19/005","canonical_record_key":"planning-data:brownfield-land:1722282","planned_project_name":"Station Road, Little Dunmow, CM6 3HF","fake_data":false}},{"type":"Feature","id":"planned_buildings_2-1722270","geometry":null,"properties":{"entity":1722270,"reference":"UBLR/17/005","canonical_record_key":"planning-data:brownfield-land:1722270","planned_project_name":"Thaxted Road Saffron Walden CB11 3AA","fake_data":false}},{"type":"Feature","id":"planned_buildings_2-1722268","geometry":null,"properties":{"entity":1722268,"reference":"UBLR/17/003","canonical_record_key":"planning-data:brownfield-land:1722268","planned_project_name":"Parsonage Downs, Great Dunmow CM6 2AU","fake_data":false}},{"type":"Feature","id":"planned_buildings_2-1722272","geometry":null,"properties":{"entity":1722272,"reference":"UBLR/17/008","canonical_record_key":"planning-data:brownfield-land:1722272","planned_project_name":"New Street Great Dunmow CM6 1BH","fake_data":false}}],"metadata":{"slot_id":"planned_buildings_2","batch_indices":[291,292,293,294,295,296,297,298,299,300,301],"feature_count_before":626,"features_added":11,"feature_count_after":637,"unique_real_site_project_before":467,"unique_real_site_project_added":11,"unique_real_site_project_after":478,"duplicate_count_new":0,"nearest_match_used":false,"parcel_match_used":false,"geometry_inference_used":false,"entity_inference_used":false,"mirror_only":true}}