{"type":"FeatureCollection","features":[{"type":"Feature","id":"gateshead-brownfield-land-register-july-2025:SiteSummary/298","geometry":null,"properties":{"slot_id":"future_growth_4","lineage_id":"fg4-e4c9076d6f554f00","page_generation":1,"owner":"future_growth_4","partition":"future_growth","semantic_mode":"SOURCE_AREA_EXACT_IDENTIFIER","dataset":"gateshead-brownfield-land-register-july-2025","entity":"SiteSummary/298","reference":"SiteSummary/298","quality":"authoritative","organisation":"Gateshead Council","name":"MetroGreen - Derwent West Bank, Derwenthaugh Rd, Blaydon","site_address":"MetroGreen - Derwent West Bank, Derwenthaugh Rd, Blaydon","source_url":"https://online.gateshead.gov.uk/BrownfieldSites/BrownfieldSites/SiteSummary/298","final_url":"https://online.gateshead.gov.uk/BrownfieldSites/BrownfieldSites/SiteSummary/298","access_utc":"2026-10-06T03:40:00Z","data_date":"2025-07-08","license":"Creative Commons Attribution","field_evidence":{"reference":"SiteSummary/298","site_name_address":"MetroGreen - Derwent West Bank, Derwenthaugh Rd, Blaydon","site_area_ha":8.65,"housing_capacity_from":173,"housing_capacity_to":200,"planning_status":"not permissioned","allocated_site_status":"Proposed for allocation in Consultation Draft Metrogreen Area Action Plan","non_housing_development":"Proposed by Consultation Draft Metrogreen Area Action Plan","green_belt":false,"flood_zone":3,"wildlife_corridor_overlap":true,"soil_groundwater_risk_band":"III","geotechnical_ground_risk_band":"III"},"evidence_slice_sha256":"911e34a5ff71fe35f52f95f442bd4a3134b25f770d21cc5a7a2ec1e8faea0697","confidence_score_0_100":99,"confidence":0.99,"evidence_grade":"A","exact_identifier_provided":true,"coverage_polygon_provided":false,"fake_data":false,"join_mode":"LOCAL_OPENCODE_SPATIAL_JOIN_PENDING","direct_parcel":false,"source_area_count_contribution":1,"planned_building_count_contribution":0}}]}