{"type":"FeatureCollection","features":[{"type":"Feature","geometry":null,"properties":{"slot_id":"future_growth_3","lineage_id":"future_growth_3-newstart-20261001T203100Z","page_generation":null,"accepted_as_parcel":false,"source_area_count_contribution":1,"exact_identifier":"SD8","exact_identifier_provided":true,"coverage_polygon_provided":false,"identifier_namespace":"Arun Local Plan strategic allocation reference","secondary_exact_identifier":"Policy H SP2c","source_entity":"SD8 / Policy H SP2c - Ford Strategic Allocation","access_utc":"2026-10-03T13:48:39Z","data_date":"2018-07-18","source_url":"https://www.arun.gov.uk/ford-strategic-site/","final_url":"https://www.arun.gov.uk/ford-strategic-site/","license":"Arun District Council © 2026; website content reproduction or republication is subject to the Council terms of use and written permission requirements.","authority":"Arun District Council","site_address":"Ford Strategic Allocation, Arun District, West Sussex","field_evidence":{"reference":"SD8","policy":"H SP2c","dataset":"Arun Local Plan 2011-2031 / Ford strategic allocation","organisation":"Arun District Council","site_name":"Ford Strategic Allocation","local_plan_adopted_date":"2018-07-18","minimum_dwellings":1500,"required_infrastructure":["new secondary school","community hub with retail, commercial and community facilities","new healthcare facilities or expansion of existing facilities","two new sports pitches and changing facilities"]},"source_payload_sha256":"d61b0b2536285755a16a9e85c067b72e3ba47cf472eb5ed66e98cc809a953120","source_payload_sha256_basis":"canonicalized official Arun District Council Ford strategic allocation evidence fields","evidence_slice_sha256":"275b9473e4ffa772dcd4c7c89fe536daca81b098370e7c2142b81119f5c8ecaa","evidence_grade":"A","confidence_score_0_100":99,"evidence_scope":"exact_official_identifier_from_council_adopted_local_plan_strategic_allocation","fake_data":false,"spatial_binding_method":"official Arun District Council Ford strategic development site page, Policy H SP2c and strategic allocation SD8; canonical parcel spatial join and materialization delegated to local OpenCode","planned_building_count_contribution":0}}]}