{
  "type": "FeatureCollection",
  "name": "Future Growth official brownfield-site polygon",
  "features": [
    {
      "type": "Feature",
      "id": "brownfield-site:BR164",
      "geometry": {
        "type": "MultiPolygon",
        "coordinates": [
          [
            [
              [
                -4.307059,
                50.499512
              ],
              [
                -4.309099,
                50.500031
              ],
              [
                -4.308217,
                50.49976
              ],
              [
                -4.3085,
                50.499186
              ],
              [
                -4.309118,
                50.499206
              ],
              [
                -4.30912,
                50.499078
              ],
              [
                -4.308598,
                50.499073
              ],
              [
                -4.308598,
                50.499102
              ],
              [
                -4.308388,
                50.499099
              ],
              [
                -4.308217,
                50.499107
              ],
              [
                -4.308187,
                50.499092
              ],
              [
                -4.308084,
                50.499084
              ],
              [
                -4.307736,
                50.49908
              ],
              [
                -4.307738,
                50.49906
              ],
              [
                -4.307488,
                50.499056
              ],
              [
                -4.307481,
                50.49916
              ],
              [
                -4.307214,
                50.499156
              ],
              [
                -4.307027,
                50.499162
              ],
              [
                -4.306968,
                50.499263
              ],
              [
                -4.306898,
                50.499357
              ],
              [
                -4.306881,
                50.499406
              ],
              [
                -4.30688,
                50.49944
              ],
              [
                -4.306047,
                50.499223
              ],
              [
                -4.306588,
                50.499384
              ],
              [
                -4.307059,
                50.499512
              ]
            ]
          ]
        ]
      },
      "properties": {
        "slot_id": "future_growth_2",
        "lineage_id": "d409404e-c2b6-4d79-b904-d05e944a949e",
        "page_generation": 4,
        "batch_id": "batch-20261008T043528Z_cornwall_BR164_official_wkt",
        "schema": "AAYS_LAYER24_EVIDENCE_V1",
        "source_dataset": "brownfield-site",
        "source_provider": "MHCLG Planning Data / Cornwall Council",
        "source_exact_identifier": "brownfield-site:BR164",
        "category": "brownfield-site",
        "source_url": "https://www.planning.data.gov.uk/entity/1800101",
        "final_url": "https://www.planning.data.gov.uk/entity/1800101",
        "accessed_utc": "2026-10-08T04:35:28.476Z",
        "http_status": null,
        "data_date": "2023-07-31",
        "data_version": "entry-date:2023-07-31; entity:1800101; web snapshot 2026-10-08",
        "license": "Open Government Licence v3.0",
        "source_file_sha256": "6848ac3d06e911e0f859dfc6fef10101083009b31cc285c7ef90cc5469c42488",
        "source_file_sha256_scope": "normalized_official_page_evidence_slice_not_raw_HTTP_bytes",
        "evidence_slice_sha256": "6848ac3d06e911e0f859dfc6fef10101083009b31cc285c7ef90cc5469c42488",
        "field_evidence": {
          "dataset": "brownfield-site",
          "entity": 1800101,
          "curie": "brownfield-site:BR164",
          "reference": "BR164",
          "name": "Little Court, 56 Saltash Road, Callington, Cornwall, PL17 7EQ",
          "organisation": "Cornwall Council",
          "start_date": "2019-12-12",
          "end_date": "",
          "entry_date": "2023-07-31",
          "notes": "supersedes outline PA18/02300",
          "geometry_source_field": "geometry",
          "geometry_wkt": "MULTIPOLYGON (((-4.307059 50.499512, -4.309099 50.500031, -4.308217 50.49976, -4.3085 50.499186, -4.309118 50.499206, -4.30912 50.499078, -4.308598 50.499073, -4.308598 50.499102, -4.308388 50.499099, -4.308217 50.499107, -4.308187 50.499092, -4.308084 50.499084, -4.307736 50.49908, -4.307738 50.49906, -4.307488 50.499056, -4.307481 50.49916, -4.307214 50.499156, -4.307027 50.499162, -4.306968 50.499263, -4.306898 50.499357, -4.306881 50.499406, -4.30688 50.49944, -4.306047 50.499223, -4.306588 50.499384, -4.307059 50.499512)))",
          "geometry_type": "MultiPolygon",
          "point": "POINT (-4.30784 50.499369)"
        },
        "confidence_score_0_100": 90,
        "evidence_grade": "B_OFFICIAL_WEB_WKT_VERIFIED",
        "geometry_crs": "EPSG:4326",
        "direct_parcel": false,
        "canonical_join_status": "PENDING_LOCAL_SPATIAL_JOIN",
        "fake_data": false
      }
    }
  ]
}
