{"features":[{"geometry":{"coordinates":[[[[-1.012064,53.489347],[-1.011939,53.489353],[-1.012088,53.489649],[-1.012209,53.489829],[-1.012313,53.489942],[-1.012641,53.49009],[-1.013285,53.490095],[-1.013183,53.489334],[-1.012064,53.489347]]]],"type":"MultiPolygon"},"properties":{"accepted_as_parcel":false,"access_utc":"2026-10-05T12:35:00Z","authority":"Doncaster Metropolitan Borough Council","confidence":0.99,"confidence_score_0_100":99,"coverage_polygon_provided":true,"data_date":"2025-12-03","dataset_url":"https://www.planning.data.gov.uk/dataset/brownfield-site","evidence_grade":"A","evidence_scope":"official_coverage_polygon","evidence_slice_sha256":"6a81d57d50d27b1a526030271c2f367052c494986d0c911190afbaffb72ed888","exact_identifier":"93","exact_identifier_provided":true,"fake_data":false,"field_evidence":{"dataset":"brownfield-site","entry_date":"2025-12-03","geometry_wkt":"MULTIPOLYGON (((-1.012064 53.489347, -1.011939 53.489353, -1.012088 53.489649, -1.012209 53.489829, -1.012313 53.489942, -1.012641 53.49009, -1.013285 53.490095, -1.013183 53.489334, -1.012064 53.489347)))","name":"Land At First Avenue/Hayfield Lane, Auckley, Doncaster, DN9 3GA","organisation":"Doncaster Metropolitan Borough Council","quality":"authoritative","reference":"93"},"final_url":"https://www.planning.data.gov.uk/entity/1802760","identifier_namespace":"Planning Data brownfield-site reference","license":"Open Government Licence v3.0","lineage_id":"future_growth_ 2-newstart-20261001T203100Z","owner":"future_growth_ 2","page_generation":1,"partition":"future_growth","planned_building_count_contribution":0,"point":[-1.012692,53.489687],"semantic_mode":"SOURCE_AREA_EXACT_IDENTIFIER","slot_id":"future_growth_ 2","source_area_count_contribution":1,"source_url":"https://www.planning.data.gov.uk/entity/1802760","spatial_binding_method":"official authoritative MultiPolygon source-area geometry; canonical parcel spatial join/materialization delegated to local OpenCode"},"type":"Feature"}],"type":"FeatureCollection"}