{"type":"FeatureCollection","name":"height_difference_5","metadata":{"slot_id":"height_difference_5","owner":"height_difference_5","lineage_id":"height_difference_5-eb56f92ed3f0514c","page_generation":1,"schema":"AAYS_LAYER24_EVIDENCE_V1","partition":"layer24","semantic_mode_state":"ABSENT_IN_PRIOR_PHYSICAL_STATE_PRESERVED_BY_OMISSION","batch_id":"20261007T153900Z_spatialni_osni_terrain_guide_blocked","record_policy":"Official public Spatial NI terrain-service guide evidence only; no Belfast 2006 tile/file, parcel binding, geometry or CRS synthesized.","fake_data":false},"features":[{"type":"Feature","geometry":null,"properties":{"slot_id":"height_difference_5","owner":"height_difference_5","lineage_id":"height_difference_5-eb56f92ed3f0514c","page_generation":1,"schema":"AAYS_LAYER24_EVIDENCE_V1","partition":"layer24","batch_id":"20261007T153900Z_spatialni_osni_terrain_guide_blocked","source_record_id":"SPATIALNI:OSNI_TERRAIN_ARCGISPRO_GUIDE_3D_ANALYSIS","source_url":"https://docs.spatialni.gov.uk/NimaSupport/Guidance/Desktop/ArcGISPro/SpatialNI_NIMA_Portal_Services_ArcGISPro.pdf","access_utc":"2026-10-07T15:39:00Z","required_building_state":"BUILDING_PRESENT","binding_status":"LOCAL_OPENCODE_BUILDING_PRESENT_EXACT_TILE_BIND_REQUIRED","osni_terrain_resolution_m":1,"osni_terrain_derivation":"enhanced 60 m DTM","belfast_2006_exact_tile_identifier":null,"crs":null,"evidence_slice_sha256":"976c1347db83e7a6ec49e5373cecec5fab4026a9a5aff97c1e6cc729a9fccdab","accepted_count_contribution":0,"source_area_count_contribution":0,"fake_data":false}}]}
