{"type":"FeatureCollection","features":[{"type":"Feature","id":"CHERWELL_23_00440_CLUP_SINGLE_STOREY_GARAGE_01","geometry":null,"properties":{"slot_id":"planned_buildings_4","owner":"planned_buildings_4","lineage_id":"pb4-8debc7c8ddf348a2","page_generation":1,"partition":"layer24","schema":"AAYS_LAYER24_EVIDENCE_V1","semantic_mode":"PLANNED_BUILDINGS_OFFICIAL_REFERENCE_DISTINCT_STRUCTURE","batch_id":"20261005T161055Z-cherwell-23-00440-clup-window-001","publisher":"Cherwell District Council","source_family":"CHERWELL_PLANNING_REGISTER","source_url":"https://planningregister.cherwell.gov.uk/Planning/Display/23/00440/CLUP","final_url":"https://planningregister.cherwell.gov.uk/Planning/Display/23/00440/CLUP","access_utc":"2026-10-05T16:10:55Z","data_date":"2023-02-17","license":"Public planning register; document copyright/usage remains governed by council register terms","planning_reference":"23/00440/CLUP","location":"38 Lock Crescent Kidlington OX5 1HG","proposal":"Certificate of Lawfulness of Proposed Development for construction of garage building with associated driveway","status":"Application Permitted","geometry_status":"NOT_MATERIALIZED_LOCAL_OPENCODE","field_evidence":"Official Cherwell District Council Planning Register application 23/00440/CLUP. Application Type: Certificate of Lawful Use Proposed. Status: Application Permitted. Valid date: 17/02/2023. Location: 38 Lock Crescent Kidlington OX5 1HG. Proposal: Certificate of Lawfulness of Proposed Development for construction of garage building with associated driveway. Decision: Permitted. Decision Issued Date: 14/04/2023. Official Proposed Plans include drawing 23 004/P/001, described by the register as Location/block/plans/elevations. The official delegated officer report describes the proposal as construction of a garage building with associated driveway and appraises it as a Single Storey Outbuilding. Exactly one distinct proposed structure is accepted: the single-storey garage building; the associated driveway is not counted as a building. The certificate records the proposed development as lawful; it is not represented here as a full planning permission. Geometry/materialization is deferred to local OpenCode.","evidence_slice_sha256":"d77c546d1d01d1dda48c8bab034a34fcaa0afe0731c21774a7ff57a27a0216b9","confidence":0.99,"evidence_grade":"A_OFFICIAL_LOCAL_AUTHORITY_PLANNING_REGISTER_SINGLE_GARAGE_BUILDING_LAWFUL_PROPOSED","fake_data":false,"source_record_id":"CHERWELL_23_00440_CLUP_SINGLE_STOREY_GARAGE_01","planned_building":"single-storey garage building","official_plan_reference":"23 004/P/001","official_plan_description":"Location/block/plans/elevations"}}]}
