{"type":"FeatureCollection","features":[{"type":"Feature","id":"mid-suffolk-brownfield-land-register-2025:BR1","geometry":null,"properties":{"slot_id":"future_growth_4","lineage_id":"fg4-e4c9076d6f554f00","page_generation":1,"owner":"future_growth_4","partition":"future_growth","semantic_mode":"SOURCE_AREA_EXACT_IDENTIFIER","dataset":"mid-suffolk-brownfield-land-register-2025","entity":"BR1","reference":"BR1","quality":"authoritative","organisation":"Mid Suffolk District Council","name":"Former Bacton Middle School, Bacton","site_address":"Former Bacton Middle School, Bacton","source_url":"https://midsuffolk.gov.uk/documents/d/asset-library-54706/bmsdc-brownfield-land-register-2025-1-","final_url":"https://midsuffolk.gov.uk/documents/d/asset-library-54706/bmsdc-brownfield-land-register-2025-1-","access_utc":"2026-10-03T01:24:00Z","data_date":"2025-12-09","license":"not stated on source window","field_evidence":{"planning_authority":"Mid Suffolk","organisation_uri":"E07000203","site_reference":"BR1","site_name_address":"Former Bacton Middle School, Bacton","geox":604668,"geoy":267348,"hectares":4.3,"ownership_status":"Owned by public authority","planning_status":"Permissioned","permission_type":"Outline","permission_date":"2020-11-06","planning_reference":"DC/17/00399/OUT","deliverable":"Yes","net_dwellings_range_from":50,"net_dwellings_range_to":50,"notes":"Site with extant planning permission at 31/03/2025","first_added_date":"2023-07-20","last_updated_date":"2025-12-09"},"evidence_slice_sha256":"d0233a2ad7f65e94cb0dc8dbd5f212e5c593770ba3f8db9bd2265640a5a341e6","confidence_score_0_100":99,"confidence":0.99,"evidence_grade":"A","exact_identifier_provided":true,"coverage_polygon_provided":false,"fake_data":false,"join_mode":"LOCAL_OPENCODE_SPATIAL_JOIN_PENDING","direct_parcel":false,"source_area_count_contribution":1,"planned_building_count_contribution":0}}]}