{"type":"FeatureCollection","name":"security_public_safety_6","features":[{"type":"Feature","id":"durham:BISH1","geometry":null,"properties":{"source_area_id":"BISH1","source_area_name":"Bishop Auckland (Town Central)","source_area_kind":"police_neighbourhood_team_exact_identifier","source_force_id":"durham","source_window_id":"data_police_durham_neighbourhoods_first10_20261007","source_url":"https://data.police.uk/api/durham/neighbourhoods","accessed_utc":"2026-10-07T01:59:40Z","license":"Open Government Licence v3.0","evidence_type":"exact_identifier","evidence_slice_sha256":"6ec34cd57d2e90dd06573b2b633c4d52bb3886bbf33be82e20faa886fd0a473f","confidence_score_0_100":100,"evidence_grade":"A_OFFICIAL_PRIMARY_API","fake_data":false,"canonical_parcel_id":null,"parcel_match_status":"DEFERRED_TO_LOCAL_OPENCODE"}},{"type":"Feature","id":"durham:BISH2","geometry":null,"properties":{"source_area_id":"BISH2","source_area_name":"Bishop Auckland (West)","source_area_kind":"police_neighbourhood_team_exact_identifier","source_force_id":"durham","source_window_id":"data_police_durham_neighbourhoods_first10_20261007","source_url":"https://data.police.uk/api/durham/neighbourhoods","accessed_utc":"2026-10-07T01:59:40Z","license":"Open Government Licence v3.0","evidence_type":"exact_identifier","evidence_slice_sha256":"6ec34cd57d2e90dd06573b2b633c4d52bb3886bbf33be82e20faa886fd0a473f","confidence_score_0_100":100,"evidence_grade":"A_OFFICIAL_PRIMARY_API","fake_data":false,"canonical_parcel_id":null,"parcel_match_status":"DEFERRED_TO_LOCAL_OPENCODE"}},{"type":"Feature","id":"durham:BISH3","geometry":null,"properties":{"source_area_id":"BISH3","source_area_name":"Bishop Auckland (Villages)","source_area_kind":"police_neighbourhood_team_exact_identifier","source_force_id":"durham","source_window_id":"data_police_durham_neighbourhoods_first10_20261007","source_url":"https://data.police.uk/api/durham/neighbourhoods","accessed_utc":"2026-10-07T01:59:40Z","license":"Open Government Licence v3.0","evidence_type":"exact_identifier","evidence_slice_sha256":"6ec34cd57d2e90dd06573b2b633c4d52bb3886bbf33be82e20faa886fd0a473f","confidence_score_0_100":100,"evidence_grade":"A_OFFICIAL_PRIMARY_API","fake_data":false,"canonical_parcel_id":null,"parcel_match_status":"DEFERRED_TO_LOCAL_OPENCODE"}},{"type":"Feature","id":"durham:BISH4","geometry":null,"properties":{"source_area_id":"BISH4","source_area_name":"Bishop Auckland (East)","source_area_kind":"police_neighbourhood_team_exact_identifier","source_force_id":"durham","source_window_id":"data_police_durham_neighbourhoods_first10_20261007","source_url":"https://data.police.uk/api/durham/neighbourhoods","accessed_utc":"2026-10-07T01:59:40Z","license":"Open Government Licence v3.0","evidence_type":"exact_identifier","evidence_slice_sha256":"6ec34cd57d2e90dd06573b2b633c4d52bb3886bbf33be82e20faa886fd0a473f","confidence_score_0_100":100,"evidence_grade":"A_OFFICIAL_PRIMARY_API","fake_data":false,"canonical_parcel_id":null,"parcel_match_status":"DEFERRED_TO_LOCAL_OPENCODE"}},{"type":"Feature","id":"durham:CLS1","geometry":null,"properties":{"source_area_id":"CLS1","source_area_name":"Chester-le-Street (Town Central)","source_area_kind":"police_neighbourhood_team_exact_identifier","source_force_id":"durham","source_window_id":"data_police_durham_neighbourhoods_first10_20261007","source_url":"https://data.police.uk/api/durham/neighbourhoods","accessed_utc":"2026-10-07T01:59:40Z","license":"Open Government Licence v3.0","evidence_type":"exact_identifier","evidence_slice_sha256":"6ec34cd57d2e90dd06573b2b633c4d52bb3886bbf33be82e20faa886fd0a473f","confidence_score_0_100":100,"evidence_grade":"A_OFFICIAL_PRIMARY_API","fake_data":false,"canonical_parcel_id":null,"parcel_match_status":"DEFERRED_TO_LOCAL_OPENCODE"}},{"type":"Feature","id":"durham:CLS2","geometry":null,"properties":{"source_area_id":"CLS2","source_area_name":"Chester-le-Street (Town South)","source_area_kind":"police_neighbourhood_team_exact_identifier","source_force_id":"durham","source_window_id":"data_police_durham_neighbourhoods_first10_20261007","source_url":"https://data.police.uk/api/durham/neighbourhoods","accessed_utc":"2026-10-07T01:59:40Z","license":"Open Government Licence v3.0","evidence_type":"exact_identifier","evidence_slice_sha256":"6ec34cd57d2e90dd06573b2b633c4d52bb3886bbf33be82e20faa886fd0a473f","confidence_score_0_100":100,"evidence_grade":"A_OFFICIAL_PRIMARY_API","fake_data":false,"canonical_parcel_id":null,"parcel_match_status":"DEFERRED_TO_LOCAL_OPENCODE"}},{"type":"Feature","id":"durham:CLS3","geometry":null,"properties":{"source_area_id":"CLS3","source_area_name":"Chester-le-Street (Rural South)","source_area_kind":"police_neighbourhood_team_exact_identifier","source_force_id":"durham","source_window_id":"data_police_durham_neighbourhoods_first10_20261007","source_url":"https://data.police.uk/api/durham/neighbourhoods","accessed_utc":"2026-10-07T01:59:40Z","license":"Open Government Licence v3.0","evidence_type":"exact_identifier","evidence_slice_sha256":"6ec34cd57d2e90dd06573b2b633c4d52bb3886bbf33be82e20faa886fd0a473f","confidence_score_0_100":100,"evidence_grade":"A_OFFICIAL_PRIMARY_API","fake_data":false,"canonical_parcel_id":null,"parcel_match_status":"DEFERRED_TO_LOCAL_OPENCODE"}},{"type":"Feature","id":"durham:CLS4","geometry":null,"properties":{"source_area_id":"CLS4","source_area_name":"Chester-le-Street (Rural North)","source_area_kind":"police_neighbourhood_team_exact_identifier","source_force_id":"durham","source_window_id":"data_police_durham_neighbourhoods_first10_20261007","source_url":"https://data.police.uk/api/durham/neighbourhoods","accessed_utc":"2026-10-07T01:59:40Z","license":"Open Government Licence v3.0","evidence_type":"exact_identifier","evidence_slice_sha256":"6ec34cd57d2e90dd06573b2b633c4d52bb3886bbf33be82e20faa886fd0a473f","confidence_score_0_100":100,"evidence_grade":"A_OFFICIAL_PRIMARY_API","fake_data":false,"canonical_parcel_id":null,"parcel_match_status":"DEFERRED_TO_LOCAL_OPENCODE"}},{"type":"Feature","id":"durham:CLS5","geometry":null,"properties":{"source_area_id":"CLS5","source_area_name":"Chester-le-Street (Rural West)","source_area_kind":"police_neighbourhood_team_exact_identifier","source_force_id":"durham","source_window_id":"data_police_durham_neighbourhoods_first10_20261007","source_url":"https://data.police.uk/api/durham/neighbourhoods","accessed_utc":"2026-10-07T01:59:40Z","license":"Open Government Licence v3.0","evidence_type":"exact_identifier","evidence_slice_sha256":"6ec34cd57d2e90dd06573b2b633c4d52bb3886bbf33be82e20faa886fd0a473f","confidence_score_0_100":100,"evidence_grade":"A_OFFICIAL_PRIMARY_API","fake_data":false,"canonical_parcel_id":null,"parcel_match_status":"DEFERRED_TO_LOCAL_OPENCODE"}},{"type":"Feature","id":"durham:CLS6","geometry":null,"properties":{"source_area_id":"CLS6","source_area_name":"Chester-le-Street (East Villages)","source_area_kind":"police_neighbourhood_team_exact_identifier","source_force_id":"durham","source_window_id":"data_police_durham_neighbourhoods_first10_20261007","source_url":"https://data.police.uk/api/durham/neighbourhoods","accessed_utc":"2026-10-07T01:59:40Z","license":"Open Government Licence v3.0","evidence_type":"exact_identifier","evidence_slice_sha256":"6ec34cd57d2e90dd06573b2b633c4d52bb3886bbf33be82e20faa886fd0a473f","confidence_score_0_100":100,"evidence_grade":"A_OFFICIAL_PRIMARY_API","fake_data":false,"canonical_parcel_id":null,"parcel_match_status":"DEFERRED_TO_LOCAL_OPENCODE"}}],"metadata":{"slot_id":"security_public_safety_6","lineage_id":"SECPS6_20260930T003421Z_01","page_generation":1,"batch_id":"BATCH_20261007T015940Z_DURHAM_NEIGHBOURHOODS_FIRST10","source_window_id":"data_police_durham_neighbourhoods_first10_20261007","source_url":"https://data.police.uk/api/durham/neighbourhoods","final_url":"https://data.police.uk/api/durham/neighbourhoods","publisher":"Single Online Home National Digital Team / Durham Constabulary","accessed_utc":"2026-10-07T01:59:40Z","data_date":"2026-10-07","license":"Open Government Licence v3.0","evidence_slice_sha256":"6ec34cd57d2e90dd06573b2b633c4d52bb3886bbf33be82e20faa886fd0a473f","new_source_records":10,"source_area_count_delta":10,"cumulative_source_area_count":72,"accepted_count":0,"duplicate_count":0,"rejected_count":0,"unmatched_count":0,"materialized_parcel_count":0,"direct_parcel_count":0,"planned_building_count":0,"cursor":null,"window_complete":true,"dataset_complete":false,"local_spatial_join_required":true,"fake_data":false}}
