{"type":"FeatureCollection","features":[{"type":"Feature","id":"stafford-borough-council-brownfield-register-data-gov-uk-preview:2236513REM","geometry":null,"properties":{"slot_id":"future_growth_4","lineage_id":"fg4-e4c9076d6f554f00","page_generation":1,"owner":"future_growth_4","partition":"future_growth","semantic_mode":"SOURCE_AREA_EXACT_IDENTIFIER","dataset":"stafford-borough-council-brownfield-register-data-gov-uk-preview","entity":"2236513REM","reference":"2236513REM","quality":"authoritative","organisation":"Stafford Borough Council","name":"Land Off Fairway Littleworth Stafford Staffordshire ST17 4NH","site_address":"Land Off Fairway Littleworth Stafford Staffordshire ST17 4NH","source_url":"https://www.data.gov.uk/dataset/e64edeff-2abf-4f3a-9a09-0d71023ca2a1/brownfield_register/datafile/65e28379-750c-415d-8428-358183c56a98/preview","final_url":"https://www.data.gov.uk/dataset/e64edeff-2abf-4f3a-9a09-0d71023ca2a1/brownfield_register/datafile/65e28379-750c-415d-8428-358183c56a98/preview","access_utc":"2026-10-06T18:31:00Z","data_date":"2024-10-30","license":"Open Government Licence","field_evidence":{"site_reference":"2236513REM","site_name_address":"Land Off Fairway Littleworth Stafford Staffordshire ST17 4NH","latitude":52.80168953,"longitude":-2.090782895,"hectares":22.7,"ownership_status":"not owned by a public authority","planning_status":"permissioned","permission_type":"full planning permission","permission_date":"07/03/2023","deliverable":"yes","net_dwellings_range_from":196,"net_dwellings_range_to":196,"notes":"Approval of reserved matters (appearance, landscaping, layout and scale) pursuant to planning permission reference 18/28423/OUT for phase 4 of the proposed development which comprises 209 dwellings, parking, landscaping, and associated infrastructure.","last_updated_date":"30/10/2024"},"evidence_slice_sha256":"3f6f26ddf6f474b49ad93b55029ea7c4a426feadacf4aa25bae82aea80cd36ae","confidence_score_0_100":99,"confidence":0.99,"evidence_grade":"A","exact_identifier_provided":true,"coverage_polygon_provided":false,"point_provided":true,"fake_data":false,"join_mode":"LOCAL_OPENCODE_SPATIAL_JOIN_PENDING","direct_parcel":false,"source_area_count_contribution":1,"planned_building_count_contribution":0}}]}