{"type":"FeatureCollection","schema":"AAYS_LAYER24_EVIDENCE_V1","category":"AAYS_SOURCE_AREA_V1","slot_id":"internet_access_1","lineage_id":"d59e0209-0d99-45c3-a2fb-a49551aa549e","page_generation":40,"features":[{"type":"Feature","geometry":null,"properties":{"slot_id":"internet_access_1","source_window_id":"bduk_202509_v2_sample_preview_lines_64_113","evidence_scope":"exact_official_identifier","official_identifier_type":"UPRN","official_identifier":"10023108378","uprn":"10023108378","postcode":"BA1 1AR","current_gigabit":true,"future_gigabit":false,"subsidy_control_status":"Gigabit Grey/Black","source_url":"https://www.gov.uk/government/publications/september-2025-omr-and-premises-in-bduk-plans-england-and-wales","source_preview_url":"https://www.gov.uk/csv-preview/697cf18d01dffa646558006d/202509_BDUK_uprn_release_sample_v2.csv","final_url":"https://assets.publishing.service.gov.uk/media/697cf18d01dffa646558006d/202509_BDUK_uprn_release_sample_v2.csv","access_utc":"2026-10-01T01:28:00Z","data_date":"2025-09","publication_date":"2026-02-02","license":"Open Government Licence v3.0","measurement_method":"Building Digital UK September 2025 OMR premises-level v2 sample","spatial_binding_method":"local OpenCode exact UPRN crosswalk/readback to canonical parcel inventory","field_evidence":{"source_preview_line":64,"source_record_index":1,"uprn":"10023108378","postcode":"BA1 1AR","country":"England","lot_id":6,"lot_name":"Devon & Somerset","subsidy_control_status":"Gigabit Grey/Black","current_gigabit":true,"future_gigabit":false,"local_authority_district_ons_code":"E06000022","local_authority_district_ons":"Bath and North East Somerset","region_ons_code":"E12000009","region_ons":"South West"},"evidence_slice_sha256":"0d39af0e8c46f9186e17630835bc7a9cecd3696bb1eea134e39688c50089ebb1","confidence_score_0_100":100,"evidence_grade":"A_OFFICIAL_GOV_UK_EXACT_UPRN_CONNECTIVITY","canonical_parcel_id":null,"match_status":"LOCAL_CANONICAL_PARCEL_UPRN_CROSSWALK_REQUIRED","fake_data":false}},{"type":"Feature","geometry":null,"properties":{"slot_id":"internet_access_1","source_window_id":"bduk_202509_v2_sample_preview_lines_64_113","evidence_scope":"exact_official_identifier","official_identifier_type":"UPRN","official_identifier":"10001148313","uprn":"10001148313","postcode":"BA1 1EN","current_gigabit":true,"future_gigabit":false,"subsidy_control_status":"Gigabit Grey/Black","source_url":"https://www.gov.uk/government/publications/september-2025-omr-and-premises-in-bduk-plans-england-and-wales","source_preview_url":"https://www.gov.uk/csv-preview/697cf18d01dffa646558006d/202509_BDUK_uprn_release_sample_v2.csv","final_url":"https://assets.publishing.service.gov.uk/media/697cf18d01dffa646558006d/202509_BDUK_uprn_release_sample_v2.csv","access_utc":"2026-10-01T01:28:00Z","data_date":"2025-09","publication_date":"2026-02-02","license":"Open Government Licence v3.0","measurement_method":"Building Digital UK September 2025 OMR premises-level v2 sample","spatial_binding_method":"local OpenCode exact UPRN crosswalk/readback to canonical parcel inventory","field_evidence":{"source_preview_line":65,"source_record_index":2,"uprn":"10001148313","postcode":"BA1 1EN","country":"England","lot_id":6,"lot_name":"Devon & Somerset","subsidy_control_status":"Gigabit Grey/Black","current_gigabit":true,"future_gigabit":false,"local_authority_district_ons_code":"E06000022","local_authority_district_ons":"Bath and North East Somerset","region_ons_code":"E12000009","region_ons":"South West"},"evidence_slice_sha256":"0d39af0e8c46f9186e17630835bc7a9cecd3696bb1eea134e39688c50089ebb1","confidence_score_0_100":100,"evidence_grade":"A_OFFICIAL_GOV_UK_EXACT_UPRN_CONNECTIVITY","canonical_parcel_id":null,"match_status":"LOCAL_CANONICAL_PARCEL_UPRN_CROSSWALK_REQUIRED","fake_data":false}},{"type":"Feature","geometry":null,"properties":{"slot_id":"internet_access_1","source_window_id":"bduk_202509_v2_sample_preview_lines_64_113","evidence_scope":"exact_official_identifier","official_identifier_type":"UPRN","official_identifier":"100121170104","uprn":"100121170104","postcode":"BA1 1RG","current_gigabit":true,"future_gigabit":false,"subsidy_control_status":"Gigabit Grey/Black","source_url":"https://www.gov.uk/government/publications/september-2025-omr-and-premises-in-bduk-plans-england-and-wales","source_preview_url":"https://www.gov.uk/csv-preview/697cf18d01dffa646558006d/202509_BDUK_uprn_release_sample_v2.csv","final_url":"https://assets.publishing.service.gov.uk/media/697cf18d01dffa646558006d/202509_BDUK_uprn_release_sample_v2.csv","access_utc":"2026-10-01T01:28:00Z","data_date":"2025-09","publication_date":"2026-02-02","license":"Open Government Licence v3.0","measurement_method":"Building Digital UK September 2025 OMR premises-level v2 sample","spatial_binding_method":"local OpenCode exact UPRN crosswalk/readback to canonical parcel inventory","field_evidence":{"source_preview_line":66,"source_record_index":3,"uprn":"100121170104","postcode":"BA1 1RG","country":"England","lot_id":6,"lot_name":"Devon & Somerset","subsidy_control_status":"Gigabit Grey/Black","current_gigabit":true,"future_gigabit":false,"local_authority_district_ons_code":"E06000022","local_authority_district_ons":"Bath and North East Somerset","region_ons_code":"E12000009","region_ons":"South West"},"evidence_slice_sha256":"0d39af0e8c46f9186e17630835bc7a9cecd3696bb1eea134e39688c50089ebb1","confidence_score_0_100":100,"evidence_grade":"A_OFFICIAL_GOV_UK_EXACT_UPRN_CONNECTIVITY","canonical_parcel_id":null,"match_status":"LOCAL_CANONICAL_PARCEL_UPRN_CROSSWALK_REQUIRED","fake_data":false}},{"type":"Feature","geometry":null,"properties":{"slot_id":"internet_access_1","source_window_id":"bduk_202509_v2_sample_preview_lines_64_113","evidence_scope":"exact_official_identifier","official_identifier_type":"UPRN","official_identifier":"10001138641","uprn":"10001138641","postcode":"BA1 2EU","current_gigabit":true,"future_gigabit":false,"subsidy_control_status":"Gigabit Grey/Black","source_url":"https://www.gov.uk/government/publications/september-2025-omr-and-premises-in-bduk-plans-england-and-wales","source_preview_url":"https://www.gov.uk/csv-preview/697cf18d01dffa646558006d/202509_BDUK_uprn_release_sample_v2.csv","final_url":"https://assets.publishing.service.gov.uk/media/697cf18d01dffa646558006d/202509_BDUK_uprn_release_sample_v2.csv","access_utc":"2026-10-01T01:28:00Z","data_date":"2025-09","publication_date":"2026-02-02","license":"Open Government Licence v3.0","measurement_method":"Building Digital UK September 2025 OMR premises-level v2 sample","spatial_binding_method":"local OpenCode exact UPRN crosswalk/readback to canonical parcel inventory","field_evidence":{"source_preview_line":67,"source_record_index":4,"uprn":"10001138641","postcode":"BA1 2EU","country":"England","lot_id":6,"lot_name":"Devon & Somerset","subsidy_control_status":"Gigabit Grey/Black","current_gigabit":true,"future_gigabit":false,"local_authority_district_ons_code":"E06000022","local_authority_district_ons":"Bath and North East Somerset","region_ons_code":"E12000009","region_ons":"South West"},"evidence_slice_sha256":"0d39af0e8c46f9186e17630835bc7a9cecd3696bb1eea134e39688c50089ebb1","confidence_score_0_100":100,"evidence_grade":"A_OFFICIAL_GOV_UK_EXACT_UPRN_CONNECTIVITY","canonical_parcel_id":null,"match_status":"LOCAL_CANONICAL_PARCEL_UPRN_CROSSWALK_REQUIRED","fake_data":false}},{"type":"Feature","geometry":null,"properties":{"slot_id":"internet_access_1","source_window_id":"bduk_202509_v2_sample_preview_lines_64_113","evidence_scope":"exact_official_identifier","official_identifier_type":"UPRN","official_identifier":"10001134282","uprn":"10001134282","postcode":"BA1 2JU","current_gigabit":true,"future_gigabit":true,"subsidy_control_status":"Gigabit Grey/Black","source_url":"https://www.gov.uk/government/publications/september-2025-omr-and-premises-in-bduk-plans-england-and-wales","source_preview_url":"https://www.gov.uk/csv-preview/697cf18d01dffa646558006d/202509_BDUK_uprn_release_sample_v2.csv","final_url":"https://assets.publishing.service.gov.uk/media/697cf18d01dffa646558006d/202509_BDUK_uprn_release_sample_v2.csv","access_utc":"2026-10-01T01:28:00Z","data_date":"2025-09","publication_date":"2026-02-02","license":"Open Government Licence v3.0","measurement_method":"Building Digital UK September 2025 OMR premises-level v2 sample","spatial_binding_method":"local OpenCode exact UPRN crosswalk/readback to canonical parcel inventory","field_evidence":{"source_preview_line":68,"source_record_index":5,"uprn":"10001134282","postcode":"BA1 2JU","country":"England","lot_id":6,"lot_name":"Devon & Somerset","subsidy_control_status":"Gigabit Grey/Black","current_gigabit":true,"future_gigabit":true,"local_authority_district_ons_code":"E06000022","local_authority_district_ons":"Bath and North East Somerset","region_ons_code":"E12000009","region_ons":"South West"},"evidence_slice_sha256":"0d39af0e8c46f9186e17630835bc7a9cecd3696bb1eea134e39688c50089ebb1","confidence_score_0_100":100,"evidence_grade":"A_OFFICIAL_GOV_UK_EXACT_UPRN_CONNECTIVITY","canonical_parcel_id":null,"match_status":"LOCAL_CANONICAL_PARCEL_UPRN_CROSSWALK_REQUIRED","fake_data":false}},{"type":"Feature","geometry":null,"properties":{"slot_id":"internet_access_1","source_window_id":"bduk_202509_v2_sample_preview_lines_64_113","evidence_scope":"exact_official_identifier","official_identifier_type":"UPRN","official_identifier":"10001138944","uprn":"10001138944","postcode":"BA1 2PR","current_gigabit":true,"future_gigabit":true,"subsidy_control_status":"Gigabit Grey/Black","source_url":"https://www.gov.uk/government/publications/september-2025-omr-and-premises-in-bduk-plans-england-and-wales","source_preview_url":"https://www.gov.uk/csv-preview/697cf18d01dffa646558006d/202509_BDUK_uprn_release_sample_v2.csv","final_url":"https://assets.publishing.service.gov.uk/media/697cf18d01dffa646558006d/202509_BDUK_uprn_release_sample_v2.csv","access_utc":"2026-10-01T01:28:00Z","data_date":"2025-09","publication_date":"2026-02-02","license":"Open Government Licence v3.0","measurement_method":"Building Digital UK September 2025 OMR premises-level v2 sample","spatial_binding_method":"local OpenCode exact UPRN crosswalk/readback to canonical parcel inventory","field_evidence":{"source_preview_line":69,"source_record_index":6,"uprn":"10001138944","postcode":"BA1 2PR","country":"England","lot_id":6,"lot_name":"Devon & Somerset","subsidy_control_status":"Gigabit Grey/Black","current_gigabit":true,"future_gigabit":true,"local_authority_district_ons_code":"E06000022","local_authority_district_ons":"Bath and North East Somerset","region_ons_code":"E12000009","region_ons":"South West"},"evidence_slice_sha256":"0d39af0e8c46f9186e17630835bc7a9cecd3696bb1eea134e39688c50089ebb1","confidence_score_0_100":100,"evidence_grade":"A_OFFICIAL_GOV_UK_EXACT_UPRN_CONNECTIVITY","canonical_parcel_id":null,"match_status":"LOCAL_CANONICAL_PARCEL_UPRN_CROSSWALK_REQUIRED","fake_data":false}},{"type":"Feature","geometry":null,"properties":{"slot_id":"internet_access_1","source_window_id":"bduk_202509_v2_sample_preview_lines_64_113","evidence_scope":"exact_official_identifier","official_identifier_type":"UPRN","official_identifier":"100121171079","uprn":"100121171079","postcode":"BA1 2SX","current_gigabit":true,"future_gigabit":true,"subsidy_control_status":"Gigabit Grey/Black","source_url":"https://www.gov.uk/government/publications/september-2025-omr-and-premises-in-bduk-plans-england-and-wales","source_preview_url":"https://www.gov.uk/csv-preview/697cf18d01dffa646558006d/202509_BDUK_uprn_release_sample_v2.csv","final_url":"https://assets.publishing.service.gov.uk/media/697cf18d01dffa646558006d/202509_BDUK_uprn_release_sample_v2.csv","access_utc":"2026-10-01T01:28:00Z","data_date":"2025-09","publication_date":"2026-02-02","license":"Open Government Licence v3.0","measurement_method":"Building Digital UK September 2025 OMR premises-level v2 sample","spatial_binding_method":"local OpenCode exact UPRN crosswalk/readback to canonical parcel inventory","field_evidence":{"source_preview_line":70,"source_record_index":7,"uprn":"100121171079","postcode":"BA1 2SX","country":"England","lot_id":6,"lot_name":"Devon & Somerset","subsidy_control_status":"Gigabit Grey/Black","current_gigabit":true,"future_gigabit":true,"local_authority_district_ons_code":"E06000022","local_authority_district_ons":"Bath and North East Somerset","region_ons_code":"E12000009","region_ons":"South West"},"evidence_slice_sha256":"0d39af0e8c46f9186e17630835bc7a9cecd3696bb1eea134e39688c50089ebb1","confidence_score_0_100":100,"evidence_grade":"A_OFFICIAL_GOV_UK_EXACT_UPRN_CONNECTIVITY","canonical_parcel_id":null,"match_status":"LOCAL_CANONICAL_PARCEL_UPRN_CROSSWALK_REQUIRED","fake_data":false}},{"type":"Feature","geometry":null,"properties":{"slot_id":"internet_access_1","source_window_id":"bduk_202509_v2_sample_preview_lines_64_113","evidence_scope":"exact_official_identifier","official_identifier_type":"UPRN","official_identifier":"100120007349","uprn":"100120007349","postcode":"BA1 2YE","current_gigabit":true,"future_gigabit":true,"subsidy_control_status":"Gigabit Grey/Black","source_url":"https://www.gov.uk/government/publications/september-2025-omr-and-premises-in-bduk-plans-england-and-wales","source_preview_url":"https://www.gov.uk/csv-preview/697cf18d01dffa646558006d/202509_BDUK_uprn_release_sample_v2.csv","final_url":"https://assets.publishing.service.gov.uk/media/697cf18d01dffa646558006d/202509_BDUK_uprn_release_sample_v2.csv","access_utc":"2026-10-01T01:28:00Z","data_date":"2025-09","publication_date":"2026-02-02","license":"Open Government Licence v3.0","measurement_method":"Building Digital UK September 2025 OMR premises-level v2 sample","spatial_binding_method":"local OpenCode exact UPRN crosswalk/readback to canonical parcel inventory","field_evidence":{"source_preview_line":71,"source_record_index":8,"uprn":"100120007349","postcode":"BA1 2YE","country":"England","lot_id":6,"lot_name":"Devon & Somerset","subsidy_control_status":"Gigabit Grey/Black","current_gigabit":true,"future_gigabit":true,"local_authority_district_ons_code":"E06000022","local_authority_district_ons":"Bath and North East Somerset","region_ons_code":"E12000009","region_ons":"South West"},"evidence_slice_sha256":"0d39af0e8c46f9186e17630835bc7a9cecd3696bb1eea134e39688c50089ebb1","confidence_score_0_100":100,"evidence_grade":"A_OFFICIAL_GOV_UK_EXACT_UPRN_CONNECTIVITY","canonical_parcel_id":null,"match_status":"LOCAL_CANONICAL_PARCEL_UPRN_CROSSWALK_REQUIRED","fake_data":false}},{"type":"Feature","geometry":null,"properties":{"slot_id":"internet_access_1","source_window_id":"bduk_202509_v2_sample_preview_lines_64_113","evidence_scope":"exact_official_identifier","official_identifier_type":"UPRN","official_identifier":"100120007357","uprn":"100120007357","postcode":"BA1 2YE","current_gigabit":true,"future_gigabit":true,"subsidy_control_status":"Gigabit Grey/Black","source_url":"https://www.gov.uk/government/publications/september-2025-omr-and-premises-in-bduk-plans-england-and-wales","source_preview_url":"https://www.gov.uk/csv-preview/697cf18d01dffa646558006d/202509_BDUK_uprn_release_sample_v2.csv","final_url":"https://assets.publishing.service.gov.uk/media/697cf18d01dffa646558006d/202509_BDUK_uprn_release_sample_v2.csv","access_utc":"2026-10-01T01:28:00Z","data_date":"2025-09","publication_date":"2026-02-02","license":"Open Government Licence v3.0","measurement_method":"Building Digital UK September 2025 OMR premises-level v2 sample","spatial_binding_method":"local OpenCode exact UPRN crosswalk/readback to canonical parcel inventory","field_evidence":{"source_preview_line":72,"source_record_index":9,"uprn":"100120007357","postcode":"BA1 2YE","country":"England","lot_id":6,"lot_name":"Devon & Somerset","subsidy_control_status":"Gigabit Grey/Black","current_gigabit":true,"future_gigabit":true,"local_authority_district_ons_code":"E06000022","local_authority_district_ons":"Bath and North East Somerset","region_ons_code":"E12000009","region_ons":"South West"},"evidence_slice_sha256":"0d39af0e8c46f9186e17630835bc7a9cecd3696bb1eea134e39688c50089ebb1","confidence_score_0_100":100,"evidence_grade":"A_OFFICIAL_GOV_UK_EXACT_UPRN_CONNECTIVITY","canonical_parcel_id":null,"match_status":"LOCAL_CANONICAL_PARCEL_UPRN_CROSSWALK_REQUIRED","fake_data":false}},{"type":"Feature","geometry":null,"properties":{"slot_id":"internet_access_1","source_window_id":"bduk_202509_v2_sample_preview_lines_64_113","evidence_scope":"exact_official_identifier","official_identifier_type":"UPRN","official_identifier":"100121171653","uprn":"100121171653","postcode":"BA1 3ED","current_gigabit":true,"future_gigabit":false,"subsidy_control_status":"Gigabit Grey/Black","source_url":"https://www.gov.uk/government/publications/september-2025-omr-and-premises-in-bduk-plans-england-and-wales","source_preview_url":"https://www.gov.uk/csv-preview/697cf18d01dffa646558006d/202509_BDUK_uprn_release_sample_v2.csv","final_url":"https://assets.publishing.service.gov.uk/media/697cf18d01dffa646558006d/202509_BDUK_uprn_release_sample_v2.csv","access_utc":"2026-10-01T01:28:00Z","data_date":"2025-09","publication_date":"2026-02-02","license":"Open Government Licence v3.0","measurement_method":"Building Digital UK September 2025 OMR premises-level v2 sample","spatial_binding_method":"local OpenCode exact UPRN crosswalk/readback to canonical parcel inventory","field_evidence":{"source_preview_line":73,"source_record_index":10,"uprn":"100121171653","postcode":"BA1 3ED","country":"England","lot_id":6,"lot_name":"Devon & Somerset","subsidy_control_status":"Gigabit Grey/Black","current_gigabit":true,"future_gigabit":false,"local_authority_district_ons_code":"E06000022","local_authority_district_ons":"Bath and North East Somerset","region_ons_code":"E12000009","region_ons":"South West"},"evidence_slice_sha256":"0d39af0e8c46f9186e17630835bc7a9cecd3696bb1eea134e39688c50089ebb1","confidence_score_0_100":100,"evidence_grade":"A_OFFICIAL_GOV_UK_EXACT_UPRN_CONNECTIVITY","canonical_parcel_id":null,"match_status":"LOCAL_CANONICAL_PARCEL_UPRN_CROSSWALK_REQUIRED","fake_data":false}},{"type":"Feature","geometry":null,"properties":{"slot_id":"internet_access_1","source_window_id":"bduk_202509_v2_sample_preview_lines_64_113","evidence_scope":"exact_official_identifier","official_identifier_type":"UPRN","official_identifier":"100120006245","uprn":"100120006245","postcode":"BA1 3EW","current_gigabit":true,"future_gigabit":true,"subsidy_control_status":"Gigabit Grey/Black","source_url":"https://www.gov.uk/government/publications/september-2025-omr-and-premises-in-bduk-plans-england-and-wales","source_preview_url":"https://www.gov.uk/csv-preview/697cf18d01dffa646558006d/202509_BDUK_uprn_release_sample_v2.csv","final_url":"https://assets.publishing.service.gov.uk/media/697cf18d01dffa646558006d/202509_BDUK_uprn_release_sample_v2.csv","access_utc":"2026-10-01T01:28:00Z","data_date":"2025-09","publication_date":"2026-02-02","license":"Open Government Licence v3.0","measurement_method":"Building Digital UK September 2025 OMR premises-level v2 sample","spatial_binding_method":"local OpenCode exact UPRN crosswalk/readback to canonical parcel inventory","field_evidence":{"source_preview_line":74,"source_record_index":11,"uprn":"100120006245","postcode":"BA1 3EW","country":"England","lot_id":6,"lot_name":"Devon & Somerset","subsidy_control_status":"Gigabit Grey/Black","current_gigabit":true,"future_gigabit":true,"local_authority_district_ons_code":"E06000022","local_authority_district_ons":"Bath and North East Somerset","region_ons_code":"E12000009","region_ons":"South West"},"evidence_slice_sha256":"0d39af0e8c46f9186e17630835bc7a9cecd3696bb1eea134e39688c50089ebb1","confidence_score_0_100":100,"evidence_grade":"A_OFFICIAL_GOV_UK_EXACT_UPRN_CONNECTIVITY","canonical_parcel_id":null,"match_status":"LOCAL_CANONICAL_PARCEL_UPRN_CROSSWALK_REQUIRED","fake_data":false}},{"type":"Feature","geometry":null,"properties":{"slot_id":"internet_access_1","source_window_id":"bduk_202509_v2_sample_preview_lines_64_113","evidence_scope":"exact_official_identifier","official_identifier_type":"UPRN","official_identifier":"100120050754","uprn":"100120050754","postcode":"BA1 4EW","current_gigabit":true,"future_gigabit":false,"subsidy_control_status":"Gigabit Grey/Black","source_url":"https://www.gov.uk/government/publications/september-2025-omr-and-premises-in-bduk-plans-england-and-wales","source_preview_url":"https://www.gov.uk/csv-preview/697cf18d01dffa646558006d/202509_BDUK_uprn_release_sample_v2.csv","final_url":"https://assets.publishing.service.gov.uk/media/697cf18d01dffa646558006d/202509_BDUK_uprn_release_sample_v2.csv","access_utc":"2026-10-01T01:28:00Z","data_date":"2025-09","publication_date":"2026-02-02","license":"Open Government Licence v3.0","measurement_method":"Building Digital UK September 2025 OMR premises-level v2 sample","spatial_binding_method":"local OpenCode exact UPRN crosswalk/readback to canonical parcel inventory","field_evidence":{"source_preview_line":75,"source_record_index":12,"uprn":"100120050754","postcode":"BA1 4EW","country":"England","lot_id":6,"lot_name":"Devon & Somerset","subsidy_control_status":"Gigabit Grey/Black","current_gigabit":true,"future_gigabit":false,"local_authority_district_ons_code":"E06000022","local_authority_district_ons":"Bath and North East Somerset","region_ons_code":"E12000009","region_ons":"South West"},"evidence_slice_sha256":"0d39af0e8c46f9186e17630835bc7a9cecd3696bb1eea134e39688c50089ebb1","confidence_score_0_100":100,"evidence_grade":"A_OFFICIAL_GOV_UK_EXACT_UPRN_CONNECTIVITY","canonical_parcel_id":null,"match_status":"LOCAL_CANONICAL_PARCEL_UPRN_CROSSWALK_REQUIRED","fake_data":false}},{"type":"Feature","geometry":null,"properties":{"slot_id":"internet_access_1","source_window_id":"bduk_202509_v2_sample_preview_lines_64_113","evidence_scope":"exact_official_identifier","official_identifier_type":"UPRN","official_identifier":"10001136589","uprn":"10001136589","postcode":"BA1 5BD","current_gigabit":true,"future_gigabit":true,"subsidy_control_status":"Gigabit Grey/Black","source_url":"https://www.gov.uk/government/publications/september-2025-omr-and-premises-in-bduk-plans-england-and-wales","source_preview_url":"https://www.gov.uk/csv-preview/697cf18d01dffa646558006d/202509_BDUK_uprn_release_sample_v2.csv","final_url":"https://assets.publishing.service.gov.uk/media/697cf18d01dffa646558006d/202509_BDUK_uprn_release_sample_v2.csv","access_utc":"2026-10-01T01:28:00Z","data_date":"2025-09","publication_date":"2026-02-02","license":"Open Government Licence v3.0","measurement_method":"Building Digital UK September 2025 OMR premises-level v2 sample","spatial_binding_method":"local OpenCode exact UPRN crosswalk/readback to canonical parcel inventory","field_evidence":{"source_preview_line":76,"source_record_index":13,"uprn":"10001136589","postcode":"BA1 5BD","country":"England","lot_id":6,"lot_name":"Devon & Somerset","subsidy_control_status":"Gigabit Grey/Black","current_gigabit":true,"future_gigabit":true,"local_authority_district_ons_code":"E06000022","local_authority_district_ons":"Bath and North East Somerset","region_ons_code":"E12000009","region_ons":"South West"},"evidence_slice_sha256":"0d39af0e8c46f9186e17630835bc7a9cecd3696bb1eea134e39688c50089ebb1","confidence_score_0_100":100,"evidence_grade":"A_OFFICIAL_GOV_UK_EXACT_UPRN_CONNECTIVITY","canonical_parcel_id":null,"match_status":"LOCAL_CANONICAL_PARCEL_UPRN_CROSSWALK_REQUIRED","fake_data":false}},{"type":"Feature","geometry":null,"properties":{"slot_id":"internet_access_1","source_window_id":"bduk_202509_v2_sample_preview_lines_64_113","evidence_scope":"exact_official_identifier","official_identifier_type":"UPRN","official_identifier":"100120012061","uprn":"100120012061","postcode":"BA1 5NB","current_gigabit":true,"future_gigabit":true,"subsidy_control_status":"Gigabit Grey/Black","source_url":"https://www.gov.uk/government/publications/september-2025-omr-and-premises-in-bduk-plans-england-and-wales","source_preview_url":"https://www.gov.uk/csv-preview/697cf18d01dffa646558006d/202509_BDUK_uprn_release_sample_v2.csv","final_url":"https://assets.publishing.service.gov.uk/media/697cf18d01dffa646558006d/202509_BDUK_uprn_release_sample_v2.csv","access_utc":"2026-10-01T01:28:00Z","data_date":"2025-09","publication_date":"2026-02-02","license":"Open Government Licence v3.0","measurement_method":"Building Digital UK September 2025 OMR premises-level v2 sample","spatial_binding_method":"local OpenCode exact UPRN crosswalk/readback to canonical parcel inventory","field_evidence":{"source_preview_line":77,"source_record_index":14,"uprn":"100120012061","postcode":"BA1 5NB","country":"England","lot_id":6,"lot_name":"Devon & Somerset","subsidy_control_status":"Gigabit Grey/Black","current_gigabit":true,"future_gigabit":true,"local_authority_district_ons_code":"E06000022","local_authority_district_ons":"Bath and North East Somerset","region_ons_code":"E12000009","region_ons":"South West"},"evidence_slice_sha256":"0d39af0e8c46f9186e17630835bc7a9cecd3696bb1eea134e39688c50089ebb1","confidence_score_0_100":100,"evidence_grade":"A_OFFICIAL_GOV_UK_EXACT_UPRN_CONNECTIVITY","canonical_parcel_id":null,"match_status":"LOCAL_CANONICAL_PARCEL_UPRN_CROSSWALK_REQUIRED","fake_data":false}},{"type":"Feature","geometry":null,"properties":{"slot_id":"internet_access_1","source_window_id":"bduk_202509_v2_sample_preview_lines_64_113","evidence_scope":"exact_official_identifier","official_identifier_type":"UPRN","official_identifier":"100120025786","uprn":"100120025786","postcode":"BA1 6DY","current_gigabit":true,"future_gigabit":true,"subsidy_control_status":"Gigabit Grey/Black","source_url":"https://www.gov.uk/government/publications/september-2025-omr-and-premises-in-bduk-plans-england-and-wales","source_preview_url":"https://www.gov.uk/csv-preview/697cf18d01dffa646558006d/202509_BDUK_uprn_release_sample_v2.csv","final_url":"https://assets.publishing.service.gov.uk/media/697cf18d01dffa646558006d/202509_BDUK_uprn_release_sample_v2.csv","access_utc":"2026-10-01T01:28:00Z","data_date":"2025-09","publication_date":"2026-02-02","license":"Open Government Licence v3.0","measurement_method":"Building Digital UK September 2025 OMR premises-level v2 sample","spatial_binding_method":"local OpenCode exact UPRN crosswalk/readback to canonical parcel inventory","field_evidence":{"source_preview_line":78,"source_record_index":15,"uprn":"100120025786","postcode":"BA1 6DY","country":"England","lot_id":6,"lot_name":"Devon & Somerset","subsidy_control_status":"Gigabit Grey/Black","current_gigabit":true,"future_gigabit":true,"local_authority_district_ons_code":"E06000022","local_authority_district_ons":"Bath and North East Somerset","region_ons_code":"E12000009","region_ons":"South West"},"evidence_slice_sha256":"0d39af0e8c46f9186e17630835bc7a9cecd3696bb1eea134e39688c50089ebb1","confidence_score_0_100":100,"evidence_grade":"A_OFFICIAL_GOV_UK_EXACT_UPRN_CONNECTIVITY","canonical_parcel_id":null,"match_status":"LOCAL_CANONICAL_PARCEL_UPRN_CROSSWALK_REQUIRED","fake_data":false}},{"type":"Feature","geometry":null,"properties":{"slot_id":"internet_access_1","source_window_id":"bduk_202509_v2_sample_preview_lines_64_113","evidence_scope":"exact_official_identifier","official_identifier_type":"UPRN","official_identifier":"10001135025","uprn":"10001135025","postcode":"BA1 6ET","current_gigabit":true,"future_gigabit":false,"subsidy_control_status":"Gigabit Grey/Black","source_url":"https://www.gov.uk/government/publications/september-2025-omr-and-premises-in-bduk-plans-england-and-wales","source_preview_url":"https://www.gov.uk/csv-preview/697cf18d01dffa646558006d/202509_BDUK_uprn_release_sample_v2.csv","final_url":"https://assets.publishing.service.gov.uk/media/697cf18d01dffa646558006d/202509_BDUK_uprn_release_sample_v2.csv","access_utc":"2026-10-01T01:28:00Z","data_date":"2025-09","publication_date":"2026-02-02","license":"Open Government Licence v3.0","measurement_method":"Building Digital UK September 2025 OMR premises-level v2 sample","spatial_binding_method":"local OpenCode exact UPRN crosswalk/readback to canonical parcel inventory","field_evidence":{"source_preview_line":79,"source_record_index":16,"uprn":"10001135025","postcode":"BA1 6ET","country":"England","lot_id":6,"lot_name":"Devon & Somerset","subsidy_control_status":"Gigabit Grey/Black","current_gigabit":true,"future_gigabit":false,"local_authority_district_ons_code":"E06000022","local_authority_district_ons":"Bath and North East Somerset","region_ons_code":"E12000009","region_ons":"South West"},"evidence_slice_sha256":"0d39af0e8c46f9186e17630835bc7a9cecd3696bb1eea134e39688c50089ebb1","confidence_score_0_100":100,"evidence_grade":"A_OFFICIAL_GOV_UK_EXACT_UPRN_CONNECTIVITY","canonical_parcel_id":null,"match_status":"LOCAL_CANONICAL_PARCEL_UPRN_CROSSWALK_REQUIRED","fake_data":false}},{"type":"Feature","geometry":null,"properties":{"slot_id":"internet_access_1","source_window_id":"bduk_202509_v2_sample_preview_lines_64_113","evidence_scope":"exact_official_identifier","official_identifier_type":"UPRN","official_identifier":"10001136774","uprn":"10001136774","postcode":"BA1 6HY","current_gigabit":true,"future_gigabit":true,"subsidy_control_status":"Gigabit Grey/Black","source_url":"https://www.gov.uk/government/publications/september-2025-omr-and-premises-in-bduk-plans-england-and-wales","source_preview_url":"https://www.gov.uk/csv-preview/697cf18d01dffa646558006d/202509_BDUK_uprn_release_sample_v2.csv","final_url":"https://assets.publishing.service.gov.uk/media/697cf18d01dffa646558006d/202509_BDUK_uprn_release_sample_v2.csv","access_utc":"2026-10-01T01:28:00Z","data_date":"2025-09","publication_date":"2026-02-02","license":"Open Government Licence v3.0","measurement_method":"Building Digital UK September 2025 OMR premises-level v2 sample","spatial_binding_method":"local OpenCode exact UPRN crosswalk/readback to canonical parcel inventory","field_evidence":{"source_preview_line":80,"source_record_index":17,"uprn":"10001136774","postcode":"BA1 6HY","country":"England","lot_id":6,"lot_name":"Devon & Somerset","subsidy_control_status":"Gigabit Grey/Black","current_gigabit":true,"future_gigabit":true,"local_authority_district_ons_code":"E06000022","local_authority_district_ons":"Bath and North East Somerset","region_ons_code":"E12000009","region_ons":"South West"},"evidence_slice_sha256":"0d39af0e8c46f9186e17630835bc7a9cecd3696bb1eea134e39688c50089ebb1","confidence_score_0_100":100,"evidence_grade":"A_OFFICIAL_GOV_UK_EXACT_UPRN_CONNECTIVITY","canonical_parcel_id":null,"match_status":"LOCAL_CANONICAL_PARCEL_UPRN_CROSSWALK_REQUIRED","fake_data":false}},{"type":"Feature","geometry":null,"properties":{"slot_id":"internet_access_1","source_window_id":"bduk_202509_v2_sample_preview_lines_64_113","evidence_scope":"exact_official_identifier","official_identifier_type":"UPRN","official_identifier":"100120046701","uprn":"100120046701","postcode":"BA1 6RU","current_gigabit":true,"future_gigabit":true,"subsidy_control_status":"Gigabit Grey/Black","source_url":"https://www.gov.uk/government/publications/september-2025-omr-and-premises-in-bduk-plans-england-and-wales","source_preview_url":"https://www.gov.uk/csv-preview/697cf18d01dffa646558006d/202509_BDUK_uprn_release_sample_v2.csv","final_url":"https://assets.publishing.service.gov.uk/media/697cf18d01dffa646558006d/202509_BDUK_uprn_release_sample_v2.csv","access_utc":"2026-10-01T01:28:00Z","data_date":"2025-09","publication_date":"2026-02-02","license":"Open Government Licence v3.0","measurement_method":"Building Digital UK September 2025 OMR premises-level v2 sample","spatial_binding_method":"local OpenCode exact UPRN crosswalk/readback to canonical parcel inventory","field_evidence":{"source_preview_line":81,"source_record_index":18,"uprn":"100120046701","postcode":"BA1 6RU","country":"England","lot_id":6,"lot_name":"Devon & Somerset","subsidy_control_status":"Gigabit Grey/Black","current_gigabit":true,"future_gigabit":true,"local_authority_district_ons_code":"E06000022","local_authority_district_ons":"Bath and North East Somerset","region_ons_code":"E12000009","region_ons":"South West"},"evidence_slice_sha256":"0d39af0e8c46f9186e17630835bc7a9cecd3696bb1eea134e39688c50089ebb1","confidence_score_0_100":100,"evidence_grade":"A_OFFICIAL_GOV_UK_EXACT_UPRN_CONNECTIVITY","canonical_parcel_id":null,"match_status":"LOCAL_CANONICAL_PARCEL_UPRN_CROSSWALK_REQUIRED","fake_data":false}},{"type":"Feature","geometry":null,"properties":{"slot_id":"internet_access_1","source_window_id":"bduk_202509_v2_sample_preview_lines_64_113","evidence_scope":"exact_official_identifier","official_identifier_type":"UPRN","official_identifier":"100120007603","uprn":"100120007603","postcode":"BA1 6SG","current_gigabit":true,"future_gigabit":true,"subsidy_control_status":"Gigabit Grey/Black","source_url":"https://www.gov.uk/government/publications/september-2025-omr-and-premises-in-bduk-plans-england-and-wales","source_preview_url":"https://www.gov.uk/csv-preview/697cf18d01dffa646558006d/202509_BDUK_uprn_release_sample_v2.csv","final_url":"https://assets.publishing.service.gov.uk/media/697cf18d01dffa646558006d/202509_BDUK_uprn_release_sample_v2.csv","access_utc":"2026-10-01T01:28:00Z","data_date":"2025-09","publication_date":"2026-02-02","license":"Open Government Licence v3.0","measurement_method":"Building Digital UK September 2025 OMR premises-level v2 sample","spatial_binding_method":"local OpenCode exact UPRN crosswalk/readback to canonical parcel inventory","field_evidence":{"source_preview_line":82,"source_record_index":19,"uprn":"100120007603","postcode":"BA1 6SG","country":"England","lot_id":6,"lot_name":"Devon & Somerset","subsidy_control_status":"Gigabit Grey/Black","current_gigabit":true,"future_gigabit":true,"local_authority_district_ons_code":"E06000022","local_authority_district_ons":"Bath and North East Somerset","region_ons_code":"E12000009","region_ons":"South West"},"evidence_slice_sha256":"0d39af0e8c46f9186e17630835bc7a9cecd3696bb1eea134e39688c50089ebb1","confidence_score_0_100":100,"evidence_grade":"A_OFFICIAL_GOV_UK_EXACT_UPRN_CONNECTIVITY","canonical_parcel_id":null,"match_status":"LOCAL_CANONICAL_PARCEL_UPRN_CROSSWALK_REQUIRED","fake_data":false}},{"type":"Feature","geometry":null,"properties":{"slot_id":"internet_access_1","source_window_id":"bduk_202509_v2_sample_preview_lines_64_113","evidence_scope":"exact_official_identifier","official_identifier_type":"UPRN","official_identifier":"100120007561","uprn":"100120007561","postcode":"BA1 6SW","current_gigabit":true,"future_gigabit":true,"subsidy_control_status":"Gigabit Grey/Black","source_url":"https://www.gov.uk/government/publications/september-2025-omr-and-premises-in-bduk-plans-england-and-wales","source_preview_url":"https://www.gov.uk/csv-preview/697cf18d01dffa646558006d/202509_BDUK_uprn_release_sample_v2.csv","final_url":"https://assets.publishing.service.gov.uk/media/697cf18d01dffa646558006d/202509_BDUK_uprn_release_sample_v2.csv","access_utc":"2026-10-01T01:28:00Z","data_date":"2025-09","publication_date":"2026-02-02","license":"Open Government Licence v3.0","measurement_method":"Building Digital UK September 2025 OMR premises-level v2 sample","spatial_binding_method":"local OpenCode exact UPRN crosswalk/readback to canonical parcel inventory","field_evidence":{"source_preview_line":83,"source_record_index":20,"uprn":"100120007561","postcode":"BA1 6SW","country":"England","lot_id":6,"lot_name":"Devon & Somerset","subsidy_control_status":"Gigabit Grey/Black","current_gigabit":true,"future_gigabit":true,"local_authority_district_ons_code":"E06000022","local_authority_district_ons":"Bath and North East Somerset","region_ons_code":"E12000009","region_ons":"South West"},"evidence_slice_sha256":"0d39af0e8c46f9186e17630835bc7a9cecd3696bb1eea134e39688c50089ebb1","confidence_score_0_100":100,"evidence_grade":"A_OFFICIAL_GOV_UK_EXACT_UPRN_CONNECTIVITY","canonical_parcel_id":null,"match_status":"LOCAL_CANONICAL_PARCEL_UPRN_CROSSWALK_REQUIRED","fake_data":false}},{"type":"Feature","geometry":null,"properties":{"slot_id":"internet_access_1","source_window_id":"bduk_202509_v2_sample_preview_lines_64_113","evidence_scope":"exact_official_identifier","official_identifier_type":"UPRN","official_identifier":"100120007586","uprn":"100120007586","postcode":"BA1 6SW","current_gigabit":true,"future_gigabit":true,"subsidy_control_status":"Gigabit Grey/Black","source_url":"https://www.gov.uk/government/publications/september-2025-omr-and-premises-in-bduk-plans-england-and-wales","source_preview_url":"https://www.gov.uk/csv-preview/697cf18d01dffa646558006d/202509_BDUK_uprn_release_sample_v2.csv","final_url":"https://assets.publishing.service.gov.uk/media/697cf18d01dffa646558006d/202509_BDUK_uprn_release_sample_v2.csv","access_utc":"2026-10-01T01:28:00Z","data_date":"2025-09","publication_date":"2026-02-02","license":"Open Government Licence v3.0","measurement_method":"Building Digital UK September 2025 OMR premises-level v2 sample","spatial_binding_method":"local OpenCode exact UPRN crosswalk/readback to canonical parcel inventory","field_evidence":{"source_preview_line":84,"source_record_index":21,"uprn":"100120007586","postcode":"BA1 6SW","country":"England","lot_id":6,"lot_name":"Devon & Somerset","subsidy_control_status":"Gigabit Grey/Black","current_gigabit":true,"future_gigabit":true,"local_authority_district_ons_code":"E06000022","local_authority_district_ons":"Bath and North East Somerset","region_ons_code":"E12000009","region_ons":"South West"},"evidence_slice_sha256":"0d39af0e8c46f9186e17630835bc7a9cecd3696bb1eea134e39688c50089ebb1","confidence_score_0_100":100,"evidence_grade":"A_OFFICIAL_GOV_UK_EXACT_UPRN_CONNECTIVITY","canonical_parcel_id":null,"match_status":"LOCAL_CANONICAL_PARCEL_UPRN_CROSSWALK_REQUIRED","fake_data":false}},{"type":"Feature","geometry":null,"properties":{"slot_id":"internet_access_1","source_window_id":"bduk_202509_v2_sample_preview_lines_64_113","evidence_scope":"exact_official_identifier","official_identifier_type":"UPRN","official_identifier":"100121173492","uprn":"100121173492","postcode":"BA1 7NW","current_gigabit":true,"future_gigabit":true,"subsidy_control_status":"Gigabit Grey/Black","source_url":"https://www.gov.uk/government/publications/september-2025-omr-and-premises-in-bduk-plans-england-and-wales","source_preview_url":"https://www.gov.uk/csv-preview/697cf18d01dffa646558006d/202509_BDUK_uprn_release_sample_v2.csv","final_url":"https://assets.publishing.service.gov.uk/media/697cf18d01dffa646558006d/202509_BDUK_uprn_release_sample_v2.csv","access_utc":"2026-10-01T01:28:00Z","data_date":"2025-09","publication_date":"2026-02-02","license":"Open Government Licence v3.0","measurement_method":"Building Digital UK September 2025 OMR premises-level v2 sample","spatial_binding_method":"local OpenCode exact UPRN crosswalk/readback to canonical parcel inventory","field_evidence":{"source_preview_line":85,"source_record_index":22,"uprn":"100121173492","postcode":"BA1 7NW","country":"England","lot_id":6,"lot_name":"Devon & Somerset","subsidy_control_status":"Gigabit Grey/Black","current_gigabit":true,"future_gigabit":true,"local_authority_district_ons_code":"E06000022","local_authority_district_ons":"Bath and North East Somerset","region_ons_code":"E12000009","region_ons":"South West"},"evidence_slice_sha256":"0d39af0e8c46f9186e17630835bc7a9cecd3696bb1eea134e39688c50089ebb1","confidence_score_0_100":100,"evidence_grade":"A_OFFICIAL_GOV_UK_EXACT_UPRN_CONNECTIVITY","canonical_parcel_id":null,"match_status":"LOCAL_CANONICAL_PARCEL_UPRN_CROSSWALK_REQUIRED","fake_data":false}},{"type":"Feature","geometry":null,"properties":{"slot_id":"internet_access_1","source_window_id":"bduk_202509_v2_sample_preview_lines_64_113","evidence_scope":"exact_official_identifier","official_identifier_type":"UPRN","official_identifier":"100120046316","uprn":"100120046316","postcode":"BA2 0BH","current_gigabit":true,"future_gigabit":true,"subsidy_control_status":"Gigabit Grey/Black","source_url":"https://www.gov.uk/government/publications/september-2025-omr-and-premises-in-bduk-plans-england-and-wales","source_preview_url":"https://www.gov.uk/csv-preview/697cf18d01dffa646558006d/202509_BDUK_uprn_release_sample_v2.csv","final_url":"https://assets.publishing.service.gov.uk/media/697cf18d01dffa646558006d/202509_BDUK_uprn_release_sample_v2.csv","access_utc":"2026-10-01T01:28:00Z","data_date":"2025-09","publication_date":"2026-02-02","license":"Open Government Licence v3.0","measurement_method":"Building Digital UK September 2025 OMR premises-level v2 sample","spatial_binding_method":"local OpenCode exact UPRN crosswalk/readback to canonical parcel inventory","field_evidence":{"source_preview_line":86,"source_record_index":23,"uprn":"100120046316","postcode":"BA2 0BH","country":"England","lot_id":6,"lot_name":"Devon & Somerset","subsidy_control_status":"Gigabit Grey/Black","current_gigabit":true,"future_gigabit":true,"local_authority_district_ons_code":"E06000022","local_authority_district_ons":"Bath and North East Somerset","region_ons_code":"E12000009","region_ons":"South West"},"evidence_slice_sha256":"0d39af0e8c46f9186e17630835bc7a9cecd3696bb1eea134e39688c50089ebb1","confidence_score_0_100":100,"evidence_grade":"A_OFFICIAL_GOV_UK_EXACT_UPRN_CONNECTIVITY","canonical_parcel_id":null,"match_status":"LOCAL_CANONICAL_PARCEL_UPRN_CROSSWALK_REQUIRED","fake_data":false}},{"type":"Feature","geometry":null,"properties":{"slot_id":"internet_access_1","source_window_id":"bduk_202509_v2_sample_preview_lines_64_113","evidence_scope":"exact_official_identifier","official_identifier_type":"UPRN","official_identifier":"100120042614","uprn":"100120042614","postcode":"BA2 0BZ","current_gigabit":true,"future_gigabit":true,"subsidy_control_status":"Gigabit Grey/Black","source_url":"https://www.gov.uk/government/publications/september-2025-omr-and-premises-in-bduk-plans-england-and-wales","source_preview_url":"https://www.gov.uk/csv-preview/697cf18d01dffa646558006d/202509_BDUK_uprn_release_sample_v2.csv","final_url":"https://assets.publishing.service.gov.uk/media/697cf18d01dffa646558006d/202509_BDUK_uprn_release_sample_v2.csv","access_utc":"2026-10-01T01:28:00Z","data_date":"2025-09","publication_date":"2026-02-02","license":"Open Government Licence v3.0","measurement_method":"Building Digital UK September 2025 OMR premises-level v2 sample","spatial_binding_method":"local OpenCode exact UPRN crosswalk/readback to canonical parcel inventory","field_evidence":{"source_preview_line":87,"source_record_index":24,"uprn":"100120042614","postcode":"BA2 0BZ","country":"England","lot_id":6,"lot_name":"Devon & Somerset","subsidy_control_status":"Gigabit Grey/Black","current_gigabit":true,"future_gigabit":true,"local_authority_district_ons_code":"E06000022","local_authority_district_ons":"Bath and North East Somerset","region_ons_code":"E12000009","region_ons":"South West"},"evidence_slice_sha256":"0d39af0e8c46f9186e17630835bc7a9cecd3696bb1eea134e39688c50089ebb1","confidence_score_0_100":100,"evidence_grade":"A_OFFICIAL_GOV_UK_EXACT_UPRN_CONNECTIVITY","canonical_parcel_id":null,"match_status":"LOCAL_CANONICAL_PARCEL_UPRN_CROSSWALK_REQUIRED","fake_data":false}},{"type":"Feature","geometry":null,"properties":{"slot_id":"internet_access_1","source_window_id":"bduk_202509_v2_sample_preview_lines_64_113","evidence_scope":"exact_official_identifier","official_identifier_type":"UPRN","official_identifier":"100120027260","uprn":"100120027260","postcode":"BA2 0HB","current_gigabit":true,"future_gigabit":false,"subsidy_control_status":"Gigabit Grey/Black","source_url":"https://www.gov.uk/government/publications/september-2025-omr-and-premises-in-bduk-plans-england-and-wales","source_preview_url":"https://www.gov.uk/csv-preview/697cf18d01dffa646558006d/202509_BDUK_uprn_release_sample_v2.csv","final_url":"https://assets.publishing.service.gov.uk/media/697cf18d01dffa646558006d/202509_BDUK_uprn_release_sample_v2.csv","access_utc":"2026-10-01T01:28:00Z","data_date":"2025-09","publication_date":"2026-02-02","license":"Open Government Licence v3.0","measurement_method":"Building Digital UK September 2025 OMR premises-level v2 sample","spatial_binding_method":"local OpenCode exact UPRN crosswalk/readback to canonical parcel inventory","field_evidence":{"source_preview_line":88,"source_record_index":25,"uprn":"100120027260","postcode":"BA2 0HB","country":"England","lot_id":6,"lot_name":"Devon & Somerset","subsidy_control_status":"Gigabit Grey/Black","current_gigabit":true,"future_gigabit":false,"local_authority_district_ons_code":"E06000022","local_authority_district_ons":"Bath and North East Somerset","region_ons_code":"E12000009","region_ons":"South West"},"evidence_slice_sha256":"0d39af0e8c46f9186e17630835bc7a9cecd3696bb1eea134e39688c50089ebb1","confidence_score_0_100":100,"evidence_grade":"A_OFFICIAL_GOV_UK_EXACT_UPRN_CONNECTIVITY","canonical_parcel_id":null,"match_status":"LOCAL_CANONICAL_PARCEL_UPRN_CROSSWALK_REQUIRED","fake_data":false}},{"type":"Feature","geometry":null,"properties":{"slot_id":"internet_access_1","source_window_id":"bduk_202509_v2_sample_preview_lines_64_113","evidence_scope":"exact_official_identifier","official_identifier_type":"UPRN","official_identifier":"10001146039","uprn":"10001146039","postcode":"BA2 0NR","current_gigabit":true,"future_gigabit":true,"subsidy_control_status":"Gigabit Grey/Black","source_url":"https://www.gov.uk/government/publications/september-2025-omr-and-premises-in-bduk-plans-england-and-wales","source_preview_url":"https://www.gov.uk/csv-preview/697cf18d01dffa646558006d/202509_BDUK_uprn_release_sample_v2.csv","final_url":"https://assets.publishing.service.gov.uk/media/697cf18d01dffa646558006d/202509_BDUK_uprn_release_sample_v2.csv","access_utc":"2026-10-01T01:28:00Z","data_date":"2025-09","publication_date":"2026-02-02","license":"Open Government Licence v3.0","measurement_method":"Building Digital UK September 2025 OMR premises-level v2 sample","spatial_binding_method":"local OpenCode exact UPRN crosswalk/readback to canonical parcel inventory","field_evidence":{"source_preview_line":89,"source_record_index":26,"uprn":"10001146039","postcode":"BA2 0NR","country":"England","lot_id":6,"lot_name":"Devon & Somerset","subsidy_control_status":"Gigabit Grey/Black","current_gigabit":true,"future_gigabit":true,"local_authority_district_ons_code":"E06000022","local_authority_district_ons":"Bath and North East Somerset","region_ons_code":"E12000009","region_ons":"South West"},"evidence_slice_sha256":"0d39af0e8c46f9186e17630835bc7a9cecd3696bb1eea134e39688c50089ebb1","confidence_score_0_100":100,"evidence_grade":"A_OFFICIAL_GOV_UK_EXACT_UPRN_CONNECTIVITY","canonical_parcel_id":null,"match_status":"LOCAL_CANONICAL_PARCEL_UPRN_CROSSWALK_REQUIRED","fake_data":false}},{"type":"Feature","geometry":null,"properties":{"slot_id":"internet_access_1","source_window_id":"bduk_202509_v2_sample_preview_lines_64_113","evidence_scope":"exact_official_identifier","official_identifier_type":"UPRN","official_identifier":"100120010922","uprn":"100120010922","postcode":"BA2 1DR","current_gigabit":true,"future_gigabit":true,"subsidy_control_status":"Gigabit Grey/Black","source_url":"https://www.gov.uk/government/publications/september-2025-omr-and-premises-in-bduk-plans-england-and-wales","source_preview_url":"https://www.gov.uk/csv-preview/697cf18d01dffa646558006d/202509_BDUK_uprn_release_sample_v2.csv","final_url":"https://assets.publishing.service.gov.uk/media/697cf18d01dffa646558006d/202509_BDUK_uprn_release_sample_v2.csv","access_utc":"2026-10-01T01:28:00Z","data_date":"2025-09","publication_date":"2026-02-02","license":"Open Government Licence v3.0","measurement_method":"Building Digital UK September 2025 OMR premises-level v2 sample","spatial_binding_method":"local OpenCode exact UPRN crosswalk/readback to canonical parcel inventory","field_evidence":{"source_preview_line":90,"source_record_index":27,"uprn":"100120010922","postcode":"BA2 1DR","country":"England","lot_id":6,"lot_name":"Devon & Somerset","subsidy_control_status":"Gigabit Grey/Black","current_gigabit":true,"future_gigabit":true,"local_authority_district_ons_code":"E06000022","local_authority_district_ons":"Bath and North East Somerset","region_ons_code":"E12000009","region_ons":"South West"},"evidence_slice_sha256":"0d39af0e8c46f9186e17630835bc7a9cecd3696bb1eea134e39688c50089ebb1","confidence_score_0_100":100,"evidence_grade":"A_OFFICIAL_GOV_UK_EXACT_UPRN_CONNECTIVITY","canonical_parcel_id":null,"match_status":"LOCAL_CANONICAL_PARCEL_UPRN_CROSSWALK_REQUIRED","fake_data":false}},{"type":"Feature","geometry":null,"properties":{"slot_id":"internet_access_1","source_window_id":"bduk_202509_v2_sample_preview_lines_64_113","evidence_scope":"exact_official_identifier","official_identifier_type":"UPRN","official_identifier":"100120019517","uprn":"100120019517","postcode":"BA2 1HZ","current_gigabit":true,"future_gigabit":true,"subsidy_control_status":"Gigabit Grey/Black","source_url":"https://www.gov.uk/government/publications/september-2025-omr-and-premises-in-bduk-plans-england-and-wales","source_preview_url":"https://www.gov.uk/csv-preview/697cf18d01dffa646558006d/202509_BDUK_uprn_release_sample_v2.csv","final_url":"https://assets.publishing.service.gov.uk/media/697cf18d01dffa646558006d/202509_BDUK_uprn_release_sample_v2.csv","access_utc":"2026-10-01T01:28:00Z","data_date":"2025-09","publication_date":"2026-02-02","license":"Open Government Licence v3.0","measurement_method":"Building Digital UK September 2025 OMR premises-level v2 sample","spatial_binding_method":"local OpenCode exact UPRN crosswalk/readback to canonical parcel inventory","field_evidence":{"source_preview_line":91,"source_record_index":28,"uprn":"100120019517","postcode":"BA2 1HZ","country":"England","lot_id":6,"lot_name":"Devon & Somerset","subsidy_control_status":"Gigabit Grey/Black","current_gigabit":true,"future_gigabit":true,"local_authority_district_ons_code":"E06000022","local_authority_district_ons":"Bath and North East Somerset","region_ons_code":"E12000009","region_ons":"South West"},"evidence_slice_sha256":"0d39af0e8c46f9186e17630835bc7a9cecd3696bb1eea134e39688c50089ebb1","confidence_score_0_100":100,"evidence_grade":"A_OFFICIAL_GOV_UK_EXACT_UPRN_CONNECTIVITY","canonical_parcel_id":null,"match_status":"LOCAL_CANONICAL_PARCEL_UPRN_CROSSWALK_REQUIRED","fake_data":false}},{"type":"Feature","geometry":null,"properties":{"slot_id":"internet_access_1","source_window_id":"bduk_202509_v2_sample_preview_lines_64_113","evidence_scope":"exact_official_identifier","official_identifier_type":"UPRN","official_identifier":"100120020419","uprn":"100120020419","postcode":"BA2 1JX","current_gigabit":true,"future_gigabit":true,"subsidy_control_status":"Gigabit Grey/Black","source_url":"https://www.gov.uk/government/publications/september-2025-omr-and-premises-in-bduk-plans-england-and-wales","source_preview_url":"https://www.gov.uk/csv-preview/697cf18d01dffa646558006d/202509_BDUK_uprn_release_sample_v2.csv","final_url":"https://assets.publishing.service.gov.uk/media/697cf18d01dffa646558006d/202509_BDUK_uprn_release_sample_v2.csv","access_utc":"2026-10-01T01:28:00Z","data_date":"2025-09","publication_date":"2026-02-02","license":"Open Government Licence v3.0","measurement_method":"Building Digital UK September 2025 OMR premises-level v2 sample","spatial_binding_method":"local OpenCode exact UPRN crosswalk/readback to canonical parcel inventory","field_evidence":{"source_preview_line":92,"source_record_index":29,"uprn":"100120020419","postcode":"BA2 1JX","country":"England","lot_id":6,"lot_name":"Devon & Somerset","subsidy_control_status":"Gigabit Grey/Black","current_gigabit":true,"future_gigabit":true,"local_authority_district_ons_code":"E06000022","local_authority_district_ons":"Bath and North East Somerset","region_ons_code":"E12000009","region_ons":"South West"},"evidence_slice_sha256":"0d39af0e8c46f9186e17630835bc7a9cecd3696bb1eea134e39688c50089ebb1","confidence_score_0_100":100,"evidence_grade":"A_OFFICIAL_GOV_UK_EXACT_UPRN_CONNECTIVITY","canonical_parcel_id":null,"match_status":"LOCAL_CANONICAL_PARCEL_UPRN_CROSSWALK_REQUIRED","fake_data":false}},{"type":"Feature","geometry":null,"properties":{"slot_id":"internet_access_1","source_window_id":"bduk_202509_v2_sample_preview_lines_64_113","evidence_scope":"exact_official_identifier","official_identifier_type":"UPRN","official_identifier":"10001130900","uprn":"10001130900","postcode":"BA2 1SA","current_gigabit":true,"future_gigabit":true,"subsidy_control_status":"Gigabit Grey/Black","source_url":"https://www.gov.uk/government/publications/september-2025-omr-and-premises-in-bduk-plans-england-and-wales","source_preview_url":"https://www.gov.uk/csv-preview/697cf18d01dffa646558006d/202509_BDUK_uprn_release_sample_v2.csv","final_url":"https://assets.publishing.service.gov.uk/media/697cf18d01dffa646558006d/202509_BDUK_uprn_release_sample_v2.csv","access_utc":"2026-10-01T01:28:00Z","data_date":"2025-09","publication_date":"2026-02-02","license":"Open Government Licence v3.0","measurement_method":"Building Digital UK September 2025 OMR premises-level v2 sample","spatial_binding_method":"local OpenCode exact UPRN crosswalk/readback to canonical parcel inventory","field_evidence":{"source_preview_line":93,"source_record_index":30,"uprn":"10001130900","postcode":"BA2 1SA","country":"England","lot_id":6,"lot_name":"Devon & Somerset","subsidy_control_status":"Gigabit Grey/Black","current_gigabit":true,"future_gigabit":true,"local_authority_district_ons_code":"E06000022","local_authority_district_ons":"Bath and North East Somerset","region_ons_code":"E12000009","region_ons":"South West"},"evidence_slice_sha256":"0d39af0e8c46f9186e17630835bc7a9cecd3696bb1eea134e39688c50089ebb1","confidence_score_0_100":100,"evidence_grade":"A_OFFICIAL_GOV_UK_EXACT_UPRN_CONNECTIVITY","canonical_parcel_id":null,"match_status":"LOCAL_CANONICAL_PARCEL_UPRN_CROSSWALK_REQUIRED","fake_data":false}},{"type":"Feature","geometry":null,"properties":{"slot_id":"internet_access_1","source_window_id":"bduk_202509_v2_sample_preview_lines_64_113","evidence_scope":"exact_official_identifier","official_identifier_type":"UPRN","official_identifier":"100120002780","uprn":"100120002780","postcode":"BA2 2BG","current_gigabit":true,"future_gigabit":false,"subsidy_control_status":"Gigabit Grey/Black","source_url":"https://www.gov.uk/government/publications/september-2025-omr-and-premises-in-bduk-plans-england-and-wales","source_preview_url":"https://www.gov.uk/csv-preview/697cf18d01dffa646558006d/202509_BDUK_uprn_release_sample_v2.csv","final_url":"https://assets.publishing.service.gov.uk/media/697cf18d01dffa646558006d/202509_BDUK_uprn_release_sample_v2.csv","access_utc":"2026-10-01T01:28:00Z","data_date":"2025-09","publication_date":"2026-02-02","license":"Open Government Licence v3.0","measurement_method":"Building Digital UK September 2025 OMR premises-level v2 sample","spatial_binding_method":"local OpenCode exact UPRN crosswalk/readback to canonical parcel inventory","field_evidence":{"source_preview_line":94,"source_record_index":31,"uprn":"100120002780","postcode":"BA2 2BG","country":"England","lot_id":6,"lot_name":"Devon & Somerset","subsidy_control_status":"Gigabit Grey/Black","current_gigabit":true,"future_gigabit":false,"local_authority_district_ons_code":"E06000022","local_authority_district_ons":"Bath and North East Somerset","region_ons_code":"E12000009","region_ons":"South West"},"evidence_slice_sha256":"0d39af0e8c46f9186e17630835bc7a9cecd3696bb1eea134e39688c50089ebb1","confidence_score_0_100":100,"evidence_grade":"A_OFFICIAL_GOV_UK_EXACT_UPRN_CONNECTIVITY","canonical_parcel_id":null,"match_status":"LOCAL_CANONICAL_PARCEL_UPRN_CROSSWALK_REQUIRED","fake_data":false}},{"type":"Feature","geometry":null,"properties":{"slot_id":"internet_access_1","source_window_id":"bduk_202509_v2_sample_preview_lines_64_113","evidence_scope":"exact_official_identifier","official_identifier_type":"UPRN","official_identifier":"100120031686","uprn":"100120031686","postcode":"BA2 2EB","current_gigabit":true,"future_gigabit":true,"subsidy_control_status":"Gigabit Grey/Black","source_url":"https://www.gov.uk/government/publications/september-2025-omr-and-premises-in-bduk-plans-england-and-wales","source_preview_url":"https://www.gov.uk/csv-preview/697cf18d01dffa646558006d/202509_BDUK_uprn_release_sample_v2.csv","final_url":"https://assets.publishing.service.gov.uk/media/697cf18d01dffa646558006d/202509_BDUK_uprn_release_sample_v2.csv","access_utc":"2026-10-01T01:28:00Z","data_date":"2025-09","publication_date":"2026-02-02","license":"Open Government Licence v3.0","measurement_method":"Building Digital UK September 2025 OMR premises-level v2 sample","spatial_binding_method":"local OpenCode exact UPRN crosswalk/readback to canonical parcel inventory","field_evidence":{"source_preview_line":95,"source_record_index":32,"uprn":"100120031686","postcode":"BA2 2EB","country":"England","lot_id":6,"lot_name":"Devon & Somerset","subsidy_control_status":"Gigabit Grey/Black","current_gigabit":true,"future_gigabit":true,"local_authority_district_ons_code":"E06000022","local_authority_district_ons":"Bath and North East Somerset","region_ons_code":"E12000009","region_ons":"South West"},"evidence_slice_sha256":"0d39af0e8c46f9186e17630835bc7a9cecd3696bb1eea134e39688c50089ebb1","confidence_score_0_100":100,"evidence_grade":"A_OFFICIAL_GOV_UK_EXACT_UPRN_CONNECTIVITY","canonical_parcel_id":null,"match_status":"LOCAL_CANONICAL_PARCEL_UPRN_CROSSWALK_REQUIRED","fake_data":false}},{"type":"Feature","geometry":null,"properties":{"slot_id":"internet_access_1","source_window_id":"bduk_202509_v2_sample_preview_lines_64_113","evidence_scope":"exact_official_identifier","official_identifier_type":"UPRN","official_identifier":"10001129126","uprn":"10001129126","postcode":"BA2 2HE","current_gigabit":true,"future_gigabit":false,"subsidy_control_status":"Gigabit Grey/Black","source_url":"https://www.gov.uk/government/publications/september-2025-omr-and-premises-in-bduk-plans-england-and-wales","source_preview_url":"https://www.gov.uk/csv-preview/697cf18d01dffa646558006d/202509_BDUK_uprn_release_sample_v2.csv","final_url":"https://assets.publishing.service.gov.uk/media/697cf18d01dffa646558006d/202509_BDUK_uprn_release_sample_v2.csv","access_utc":"2026-10-01T01:28:00Z","data_date":"2025-09","publication_date":"2026-02-02","license":"Open Government Licence v3.0","measurement_method":"Building Digital UK September 2025 OMR premises-level v2 sample","spatial_binding_method":"local OpenCode exact UPRN crosswalk/readback to canonical parcel inventory","field_evidence":{"source_preview_line":96,"source_record_index":33,"uprn":"10001129126","postcode":"BA2 2HE","country":"England","lot_id":6,"lot_name":"Devon & Somerset","subsidy_control_status":"Gigabit Grey/Black","current_gigabit":true,"future_gigabit":false,"local_authority_district_ons_code":"E06000022","local_authority_district_ons":"Bath and North East Somerset","region_ons_code":"E12000009","region_ons":"South West"},"evidence_slice_sha256":"0d39af0e8c46f9186e17630835bc7a9cecd3696bb1eea134e39688c50089ebb1","confidence_score_0_100":100,"evidence_grade":"A_OFFICIAL_GOV_UK_EXACT_UPRN_CONNECTIVITY","canonical_parcel_id":null,"match_status":"LOCAL_CANONICAL_PARCEL_UPRN_CROSSWALK_REQUIRED","fake_data":false}},{"type":"Feature","geometry":null,"properties":{"slot_id":"internet_access_1","source_window_id":"bduk_202509_v2_sample_preview_lines_64_113","evidence_scope":"exact_official_identifier","official_identifier_type":"UPRN","official_identifier":"100120013094","uprn":"100120013094","postcode":"BA2 2JE","current_gigabit":true,"future_gigabit":false,"subsidy_control_status":"Gigabit Grey/Black","source_url":"https://www.gov.uk/government/publications/september-2025-omr-and-premises-in-bduk-plans-england-and-wales","source_preview_url":"https://www.gov.uk/csv-preview/697cf18d01dffa646558006d/202509_BDUK_uprn_release_sample_v2.csv","final_url":"https://assets.publishing.service.gov.uk/media/697cf18d01dffa646558006d/202509_BDUK_uprn_release_sample_v2.csv","access_utc":"2026-10-01T01:28:00Z","data_date":"2025-09","publication_date":"2026-02-02","license":"Open Government Licence v3.0","measurement_method":"Building Digital UK September 2025 OMR premises-level v2 sample","spatial_binding_method":"local OpenCode exact UPRN crosswalk/readback to canonical parcel inventory","field_evidence":{"source_preview_line":97,"source_record_index":34,"uprn":"100120013094","postcode":"BA2 2JE","country":"England","lot_id":6,"lot_name":"Devon & Somerset","subsidy_control_status":"Gigabit Grey/Black","current_gigabit":true,"future_gigabit":false,"local_authority_district_ons_code":"E06000022","local_authority_district_ons":"Bath and North East Somerset","region_ons_code":"E12000009","region_ons":"South West"},"evidence_slice_sha256":"0d39af0e8c46f9186e17630835bc7a9cecd3696bb1eea134e39688c50089ebb1","confidence_score_0_100":100,"evidence_grade":"A_OFFICIAL_GOV_UK_EXACT_UPRN_CONNECTIVITY","canonical_parcel_id":null,"match_status":"LOCAL_CANONICAL_PARCEL_UPRN_CROSSWALK_REQUIRED","fake_data":false}},{"type":"Feature","geometry":null,"properties":{"slot_id":"internet_access_1","source_window_id":"bduk_202509_v2_sample_preview_lines_64_113","evidence_scope":"exact_official_identifier","official_identifier_type":"UPRN","official_identifier":"100120006725","uprn":"100120006725","postcode":"BA2 2JT","current_gigabit":true,"future_gigabit":true,"subsidy_control_status":"Gigabit Grey/Black","source_url":"https://www.gov.uk/government/publications/september-2025-omr-and-premises-in-bduk-plans-england-and-wales","source_preview_url":"https://www.gov.uk/csv-preview/697cf18d01dffa646558006d/202509_BDUK_uprn_release_sample_v2.csv","final_url":"https://assets.publishing.service.gov.uk/media/697cf18d01dffa646558006d/202509_BDUK_uprn_release_sample_v2.csv","access_utc":"2026-10-01T01:28:00Z","data_date":"2025-09","publication_date":"2026-02-02","license":"Open Government Licence v3.0","measurement_method":"Building Digital UK September 2025 OMR premises-level v2 sample","spatial_binding_method":"local OpenCode exact UPRN crosswalk/readback to canonical parcel inventory","field_evidence":{"source_preview_line":98,"source_record_index":35,"uprn":"100120006725","postcode":"BA2 2JT","country":"England","lot_id":6,"lot_name":"Devon & Somerset","subsidy_control_status":"Gigabit Grey/Black","current_gigabit":true,"future_gigabit":true,"local_authority_district_ons_code":"E06000022","local_authority_district_ons":"Bath and North East Somerset","region_ons_code":"E12000009","region_ons":"South West"},"evidence_slice_sha256":"0d39af0e8c46f9186e17630835bc7a9cecd3696bb1eea134e39688c50089ebb1","confidence_score_0_100":100,"evidence_grade":"A_OFFICIAL_GOV_UK_EXACT_UPRN_CONNECTIVITY","canonical_parcel_id":null,"match_status":"LOCAL_CANONICAL_PARCEL_UPRN_CROSSWALK_REQUIRED","fake_data":false}},{"type":"Feature","geometry":null,"properties":{"slot_id":"internet_access_1","source_window_id":"bduk_202509_v2_sample_preview_lines_64_113","evidence_scope":"exact_official_identifier","official_identifier_type":"UPRN","official_identifier":"100120026653","uprn":"100120026653","postcode":"BA2 2PG","current_gigabit":true,"future_gigabit":false,"subsidy_control_status":"Gigabit Grey/Black","source_url":"https://www.gov.uk/government/publications/september-2025-omr-and-premises-in-bduk-plans-england-and-wales","source_preview_url":"https://www.gov.uk/csv-preview/697cf18d01dffa646558006d/202509_BDUK_uprn_release_sample_v2.csv","final_url":"https://assets.publishing.service.gov.uk/media/697cf18d01dffa646558006d/202509_BDUK_uprn_release_sample_v2.csv","access_utc":"2026-10-01T01:28:00Z","data_date":"2025-09","publication_date":"2026-02-02","license":"Open Government Licence v3.0","measurement_method":"Building Digital UK September 2025 OMR premises-level v2 sample","spatial_binding_method":"local OpenCode exact UPRN crosswalk/readback to canonical parcel inventory","field_evidence":{"source_preview_line":99,"source_record_index":36,"uprn":"100120026653","postcode":"BA2 2PG","country":"England","lot_id":6,"lot_name":"Devon & Somerset","subsidy_control_status":"Gigabit Grey/Black","current_gigabit":true,"future_gigabit":false,"local_authority_district_ons_code":"E06000022","local_authority_district_ons":"Bath and North East Somerset","region_ons_code":"E12000009","region_ons":"South West"},"evidence_slice_sha256":"0d39af0e8c46f9186e17630835bc7a9cecd3696bb1eea134e39688c50089ebb1","confidence_score_0_100":100,"evidence_grade":"A_OFFICIAL_GOV_UK_EXACT_UPRN_CONNECTIVITY","canonical_parcel_id":null,"match_status":"LOCAL_CANONICAL_PARCEL_UPRN_CROSSWALK_REQUIRED","fake_data":false}},{"type":"Feature","geometry":null,"properties":{"slot_id":"internet_access_1","source_window_id":"bduk_202509_v2_sample_preview_lines_64_113","evidence_scope":"exact_official_identifier","official_identifier_type":"UPRN","official_identifier":"10023112820","uprn":"10023112820","postcode":"BA2 2QB","current_gigabit":true,"future_gigabit":false,"subsidy_control_status":"Gigabit Grey/Black","source_url":"https://www.gov.uk/government/publications/september-2025-omr-and-premises-in-bduk-plans-england-and-wales","source_preview_url":"https://www.gov.uk/csv-preview/697cf18d01dffa646558006d/202509_BDUK_uprn_release_sample_v2.csv","final_url":"https://assets.publishing.service.gov.uk/media/697cf18d01dffa646558006d/202509_BDUK_uprn_release_sample_v2.csv","access_utc":"2026-10-01T01:28:00Z","data_date":"2025-09","publication_date":"2026-02-02","license":"Open Government Licence v3.0","measurement_method":"Building Digital UK September 2025 OMR premises-level v2 sample","spatial_binding_method":"local OpenCode exact UPRN crosswalk/readback to canonical parcel inventory","field_evidence":{"source_preview_line":100,"source_record_index":37,"uprn":"10023112820","postcode":"BA2 2QB","country":"England","lot_id":6,"lot_name":"Devon & Somerset","subsidy_control_status":"Gigabit Grey/Black","current_gigabit":true,"future_gigabit":false,"local_authority_district_ons_code":"E06000022","local_authority_district_ons":"Bath and North East Somerset","region_ons_code":"E12000009","region_ons":"South West"},"evidence_slice_sha256":"0d39af0e8c46f9186e17630835bc7a9cecd3696bb1eea134e39688c50089ebb1","confidence_score_0_100":100,"evidence_grade":"A_OFFICIAL_GOV_UK_EXACT_UPRN_CONNECTIVITY","canonical_parcel_id":null,"match_status":"LOCAL_CANONICAL_PARCEL_UPRN_CROSSWALK_REQUIRED","fake_data":false}},{"type":"Feature","geometry":null,"properties":{"slot_id":"internet_access_1","source_window_id":"bduk_202509_v2_sample_preview_lines_64_113","evidence_scope":"exact_official_identifier","official_identifier_type":"UPRN","official_identifier":"100120006181","uprn":"100120006181","postcode":"BA2 2SD","current_gigabit":true,"future_gigabit":false,"subsidy_control_status":"Gigabit Grey/Black","source_url":"https://www.gov.uk/government/publications/september-2025-omr-and-premises-in-bduk-plans-england-and-wales","source_preview_url":"https://www.gov.uk/csv-preview/697cf18d01dffa646558006d/202509_BDUK_uprn_release_sample_v2.csv","final_url":"https://assets.publishing.service.gov.uk/media/697cf18d01dffa646558006d/202509_BDUK_uprn_release_sample_v2.csv","access_utc":"2026-10-01T01:28:00Z","data_date":"2025-09","publication_date":"2026-02-02","license":"Open Government Licence v3.0","measurement_method":"Building Digital UK September 2025 OMR premises-level v2 sample","spatial_binding_method":"local OpenCode exact UPRN crosswalk/readback to canonical parcel inventory","field_evidence":{"source_preview_line":101,"source_record_index":38,"uprn":"100120006181","postcode":"BA2 2SD","country":"England","lot_id":6,"lot_name":"Devon & Somerset","subsidy_control_status":"Gigabit Grey/Black","current_gigabit":true,"future_gigabit":false,"local_authority_district_ons_code":"E06000022","local_authority_district_ons":"Bath and North East Somerset","region_ons_code":"E12000009","region_ons":"South West"},"evidence_slice_sha256":"0d39af0e8c46f9186e17630835bc7a9cecd3696bb1eea134e39688c50089ebb1","confidence_score_0_100":100,"evidence_grade":"A_OFFICIAL_GOV_UK_EXACT_UPRN_CONNECTIVITY","canonical_parcel_id":null,"match_status":"LOCAL_CANONICAL_PARCEL_UPRN_CROSSWALK_REQUIRED","fake_data":false}},{"type":"Feature","geometry":null,"properties":{"slot_id":"internet_access_1","source_window_id":"bduk_202509_v2_sample_preview_lines_64_113","evidence_scope":"exact_official_identifier","official_identifier_type":"UPRN","official_identifier":"10001128725","uprn":"10001128725","postcode":"BA2 3AN","current_gigabit":true,"future_gigabit":false,"subsidy_control_status":"Gigabit Grey/Black","source_url":"https://www.gov.uk/government/publications/september-2025-omr-and-premises-in-bduk-plans-england-and-wales","source_preview_url":"https://www.gov.uk/csv-preview/697cf18d01dffa646558006d/202509_BDUK_uprn_release_sample_v2.csv","final_url":"https://assets.publishing.service.gov.uk/media/697cf18d01dffa646558006d/202509_BDUK_uprn_release_sample_v2.csv","access_utc":"2026-10-01T01:28:00Z","data_date":"2025-09","publication_date":"2026-02-02","license":"Open Government Licence v3.0","measurement_method":"Building Digital UK September 2025 OMR premises-level v2 sample","spatial_binding_method":"local OpenCode exact UPRN crosswalk/readback to canonical parcel inventory","field_evidence":{"source_preview_line":102,"source_record_index":39,"uprn":"10001128725","postcode":"BA2 3AN","country":"England","lot_id":6,"lot_name":"Devon & Somerset","subsidy_control_status":"Gigabit Grey/Black","current_gigabit":true,"future_gigabit":false,"local_authority_district_ons_code":"E06000022","local_authority_district_ons":"Bath and North East Somerset","region_ons_code":"E12000009","region_ons":"South West"},"evidence_slice_sha256":"0d39af0e8c46f9186e17630835bc7a9cecd3696bb1eea134e39688c50089ebb1","confidence_score_0_100":100,"evidence_grade":"A_OFFICIAL_GOV_UK_EXACT_UPRN_CONNECTIVITY","canonical_parcel_id":null,"match_status":"LOCAL_CANONICAL_PARCEL_UPRN_CROSSWALK_REQUIRED","fake_data":false}},{"type":"Feature","geometry":null,"properties":{"slot_id":"internet_access_1","source_window_id":"bduk_202509_v2_sample_preview_lines_64_113","evidence_scope":"exact_official_identifier","official_identifier_type":"UPRN","official_identifier":"100120032050","uprn":"100120032050","postcode":"BA2 3LF","current_gigabit":true,"future_gigabit":true,"subsidy_control_status":"Gigabit Grey/Black","source_url":"https://www.gov.uk/government/publications/september-2025-omr-and-premises-in-bduk-plans-england-and-wales","source_preview_url":"https://www.gov.uk/csv-preview/697cf18d01dffa646558006d/202509_BDUK_uprn_release_sample_v2.csv","final_url":"https://assets.publishing.service.gov.uk/media/697cf18d01dffa646558006d/202509_BDUK_uprn_release_sample_v2.csv","access_utc":"2026-10-01T01:28:00Z","data_date":"2025-09","publication_date":"2026-02-02","license":"Open Government Licence v3.0","measurement_method":"Building Digital UK September 2025 OMR premises-level v2 sample","spatial_binding_method":"local OpenCode exact UPRN crosswalk/readback to canonical parcel inventory","field_evidence":{"source_preview_line":103,"source_record_index":40,"uprn":"100120032050","postcode":"BA2 3LF","country":"England","lot_id":6,"lot_name":"Devon & Somerset","subsidy_control_status":"Gigabit Grey/Black","current_gigabit":true,"future_gigabit":true,"local_authority_district_ons_code":"E06000022","local_authority_district_ons":"Bath and North East Somerset","region_ons_code":"E12000009","region_ons":"South West"},"evidence_slice_sha256":"0d39af0e8c46f9186e17630835bc7a9cecd3696bb1eea134e39688c50089ebb1","confidence_score_0_100":100,"evidence_grade":"A_OFFICIAL_GOV_UK_EXACT_UPRN_CONNECTIVITY","canonical_parcel_id":null,"match_status":"LOCAL_CANONICAL_PARCEL_UPRN_CROSSWALK_REQUIRED","fake_data":false}},{"type":"Feature","geometry":null,"properties":{"slot_id":"internet_access_1","source_window_id":"bduk_202509_v2_sample_preview_lines_64_113","evidence_scope":"exact_official_identifier","official_identifier_type":"UPRN","official_identifier":"100120014518","uprn":"100120014518","postcode":"BA2 3NU","current_gigabit":true,"future_gigabit":false,"subsidy_control_status":"Gigabit Grey/Black","source_url":"https://www.gov.uk/government/publications/september-2025-omr-and-premises-in-bduk-plans-england-and-wales","source_preview_url":"https://www.gov.uk/csv-preview/697cf18d01dffa646558006d/202509_BDUK_uprn_release_sample_v2.csv","final_url":"https://assets.publishing.service.gov.uk/media/697cf18d01dffa646558006d/202509_BDUK_uprn_release_sample_v2.csv","access_utc":"2026-10-01T01:28:00Z","data_date":"2025-09","publication_date":"2026-02-02","license":"Open Government Licence v3.0","measurement_method":"Building Digital UK September 2025 OMR premises-level v2 sample","spatial_binding_method":"local OpenCode exact UPRN crosswalk/readback to canonical parcel inventory","field_evidence":{"source_preview_line":104,"source_record_index":41,"uprn":"100120014518","postcode":"BA2 3NU","country":"England","lot_id":6,"lot_name":"Devon & Somerset","subsidy_control_status":"Gigabit Grey/Black","current_gigabit":true,"future_gigabit":false,"local_authority_district_ons_code":"E06000022","local_authority_district_ons":"Bath and North East Somerset","region_ons_code":"E12000009","region_ons":"South West"},"evidence_slice_sha256":"0d39af0e8c46f9186e17630835bc7a9cecd3696bb1eea134e39688c50089ebb1","confidence_score_0_100":100,"evidence_grade":"A_OFFICIAL_GOV_UK_EXACT_UPRN_CONNECTIVITY","canonical_parcel_id":null,"match_status":"LOCAL_CANONICAL_PARCEL_UPRN_CROSSWALK_REQUIRED","fake_data":false}},{"type":"Feature","geometry":null,"properties":{"slot_id":"internet_access_1","source_window_id":"bduk_202509_v2_sample_preview_lines_64_113","evidence_scope":"exact_official_identifier","official_identifier_type":"UPRN","official_identifier":"100120003773","uprn":"100120003773","postcode":"BA2 3RS","current_gigabit":true,"future_gigabit":true,"subsidy_control_status":"Gigabit Grey/Black","source_url":"https://www.gov.uk/government/publications/september-2025-omr-and-premises-in-bduk-plans-england-and-wales","source_preview_url":"https://www.gov.uk/csv-preview/697cf18d01dffa646558006d/202509_BDUK_uprn_release_sample_v2.csv","final_url":"https://assets.publishing.service.gov.uk/media/697cf18d01dffa646558006d/202509_BDUK_uprn_release_sample_v2.csv","access_utc":"2026-10-01T01:28:00Z","data_date":"2025-09","publication_date":"2026-02-02","license":"Open Government Licence v3.0","measurement_method":"Building Digital UK September 2025 OMR premises-level v2 sample","spatial_binding_method":"local OpenCode exact UPRN crosswalk/readback to canonical parcel inventory","field_evidence":{"source_preview_line":105,"source_record_index":42,"uprn":"100120003773","postcode":"BA2 3RS","country":"England","lot_id":6,"lot_name":"Devon & Somerset","subsidy_control_status":"Gigabit Grey/Black","current_gigabit":true,"future_gigabit":true,"local_authority_district_ons_code":"E06000022","local_authority_district_ons":"Bath and North East Somerset","region_ons_code":"E12000009","region_ons":"South West"},"evidence_slice_sha256":"0d39af0e8c46f9186e17630835bc7a9cecd3696bb1eea134e39688c50089ebb1","confidence_score_0_100":100,"evidence_grade":"A_OFFICIAL_GOV_UK_EXACT_UPRN_CONNECTIVITY","canonical_parcel_id":null,"match_status":"LOCAL_CANONICAL_PARCEL_UPRN_CROSSWALK_REQUIRED","fake_data":false}},{"type":"Feature","geometry":null,"properties":{"slot_id":"internet_access_1","source_window_id":"bduk_202509_v2_sample_preview_lines_64_113","evidence_scope":"exact_official_identifier","official_identifier_type":"UPRN","official_identifier":"100120026823","uprn":"100120026823","postcode":"BA2 3RW","current_gigabit":true,"future_gigabit":true,"subsidy_control_status":"Gigabit Grey/Black","source_url":"https://www.gov.uk/government/publications/september-2025-omr-and-premises-in-bduk-plans-england-and-wales","source_preview_url":"https://www.gov.uk/csv-preview/697cf18d01dffa646558006d/202509_BDUK_uprn_release_sample_v2.csv","final_url":"https://assets.publishing.service.gov.uk/media/697cf18d01dffa646558006d/202509_BDUK_uprn_release_sample_v2.csv","access_utc":"2026-10-01T01:28:00Z","data_date":"2025-09","publication_date":"2026-02-02","license":"Open Government Licence v3.0","measurement_method":"Building Digital UK September 2025 OMR premises-level v2 sample","spatial_binding_method":"local OpenCode exact UPRN crosswalk/readback to canonical parcel inventory","field_evidence":{"source_preview_line":106,"source_record_index":43,"uprn":"100120026823","postcode":"BA2 3RW","country":"England","lot_id":6,"lot_name":"Devon & Somerset","subsidy_control_status":"Gigabit Grey/Black","current_gigabit":true,"future_gigabit":true,"local_authority_district_ons_code":"E06000022","local_authority_district_ons":"Bath and North East Somerset","region_ons_code":"E12000009","region_ons":"South West"},"evidence_slice_sha256":"0d39af0e8c46f9186e17630835bc7a9cecd3696bb1eea134e39688c50089ebb1","confidence_score_0_100":100,"evidence_grade":"A_OFFICIAL_GOV_UK_EXACT_UPRN_CONNECTIVITY","canonical_parcel_id":null,"match_status":"LOCAL_CANONICAL_PARCEL_UPRN_CROSSWALK_REQUIRED","fake_data":false}},{"type":"Feature","geometry":null,"properties":{"slot_id":"internet_access_1","source_window_id":"bduk_202509_v2_sample_preview_lines_64_113","evidence_scope":"exact_official_identifier","official_identifier_type":"UPRN","official_identifier":"10001144120","uprn":"10001144120","postcode":"BA2 5HG","current_gigabit":true,"future_gigabit":true,"subsidy_control_status":"Gigabit Grey/Black","source_url":"https://www.gov.uk/government/publications/september-2025-omr-and-premises-in-bduk-plans-england-and-wales","source_preview_url":"https://www.gov.uk/csv-preview/697cf18d01dffa646558006d/202509_BDUK_uprn_release_sample_v2.csv","final_url":"https://assets.publishing.service.gov.uk/media/697cf18d01dffa646558006d/202509_BDUK_uprn_release_sample_v2.csv","access_utc":"2026-10-01T01:28:00Z","data_date":"2025-09","publication_date":"2026-02-02","license":"Open Government Licence v3.0","measurement_method":"Building Digital UK September 2025 OMR premises-level v2 sample","spatial_binding_method":"local OpenCode exact UPRN crosswalk/readback to canonical parcel inventory","field_evidence":{"source_preview_line":107,"source_record_index":44,"uprn":"10001144120","postcode":"BA2 5HG","country":"England","lot_id":6,"lot_name":"Devon & Somerset","subsidy_control_status":"Gigabit Grey/Black","current_gigabit":true,"future_gigabit":true,"local_authority_district_ons_code":"E06000022","local_authority_district_ons":"Bath and North East Somerset","region_ons_code":"E12000009","region_ons":"South West"},"evidence_slice_sha256":"0d39af0e8c46f9186e17630835bc7a9cecd3696bb1eea134e39688c50089ebb1","confidence_score_0_100":100,"evidence_grade":"A_OFFICIAL_GOV_UK_EXACT_UPRN_CONNECTIVITY","canonical_parcel_id":null,"match_status":"LOCAL_CANONICAL_PARCEL_UPRN_CROSSWALK_REQUIRED","fake_data":false}},{"type":"Feature","geometry":null,"properties":{"slot_id":"internet_access_1","source_window_id":"bduk_202509_v2_sample_preview_lines_64_113","evidence_scope":"exact_official_identifier","official_identifier_type":"UPRN","official_identifier":"10001144121","uprn":"10001144121","postcode":"BA2 5HG","current_gigabit":true,"future_gigabit":true,"subsidy_control_status":"Gigabit Grey/Black","source_url":"https://www.gov.uk/government/publications/september-2025-omr-and-premises-in-bduk-plans-england-and-wales","source_preview_url":"https://www.gov.uk/csv-preview/697cf18d01dffa646558006d/202509_BDUK_uprn_release_sample_v2.csv","final_url":"https://assets.publishing.service.gov.uk/media/697cf18d01dffa646558006d/202509_BDUK_uprn_release_sample_v2.csv","access_utc":"2026-10-01T01:28:00Z","data_date":"2025-09","publication_date":"2026-02-02","license":"Open Government Licence v3.0","measurement_method":"Building Digital UK September 2025 OMR premises-level v2 sample","spatial_binding_method":"local OpenCode exact UPRN crosswalk/readback to canonical parcel inventory","field_evidence":{"source_preview_line":108,"source_record_index":45,"uprn":"10001144121","postcode":"BA2 5HG","country":"England","lot_id":6,"lot_name":"Devon & Somerset","subsidy_control_status":"Gigabit Grey/Black","current_gigabit":true,"future_gigabit":true,"local_authority_district_ons_code":"E06000022","local_authority_district_ons":"Bath and North East Somerset","region_ons_code":"E12000009","region_ons":"South West"},"evidence_slice_sha256":"0d39af0e8c46f9186e17630835bc7a9cecd3696bb1eea134e39688c50089ebb1","confidence_score_0_100":100,"evidence_grade":"A_OFFICIAL_GOV_UK_EXACT_UPRN_CONNECTIVITY","canonical_parcel_id":null,"match_status":"LOCAL_CANONICAL_PARCEL_UPRN_CROSSWALK_REQUIRED","fake_data":false}},{"type":"Feature","geometry":null,"properties":{"slot_id":"internet_access_1","source_window_id":"bduk_202509_v2_sample_preview_lines_64_113","evidence_scope":"exact_official_identifier","official_identifier_type":"UPRN","official_identifier":"100120043038","uprn":"100120043038","postcode":"BA2 5JU","current_gigabit":true,"future_gigabit":true,"subsidy_control_status":"Gigabit Grey/Black","source_url":"https://www.gov.uk/government/publications/september-2025-omr-and-premises-in-bduk-plans-england-and-wales","source_preview_url":"https://www.gov.uk/csv-preview/697cf18d01dffa646558006d/202509_BDUK_uprn_release_sample_v2.csv","final_url":"https://assets.publishing.service.gov.uk/media/697cf18d01dffa646558006d/202509_BDUK_uprn_release_sample_v2.csv","access_utc":"2026-10-01T01:28:00Z","data_date":"2025-09","publication_date":"2026-02-02","license":"Open Government Licence v3.0","measurement_method":"Building Digital UK September 2025 OMR premises-level v2 sample","spatial_binding_method":"local OpenCode exact UPRN crosswalk/readback to canonical parcel inventory","field_evidence":{"source_preview_line":109,"source_record_index":46,"uprn":"100120043038","postcode":"BA2 5JU","country":"England","lot_id":6,"lot_name":"Devon & Somerset","subsidy_control_status":"Gigabit Grey/Black","current_gigabit":true,"future_gigabit":true,"local_authority_district_ons_code":"E06000022","local_authority_district_ons":"Bath and North East Somerset","region_ons_code":"E12000009","region_ons":"South West"},"evidence_slice_sha256":"0d39af0e8c46f9186e17630835bc7a9cecd3696bb1eea134e39688c50089ebb1","confidence_score_0_100":100,"evidence_grade":"A_OFFICIAL_GOV_UK_EXACT_UPRN_CONNECTIVITY","canonical_parcel_id":null,"match_status":"LOCAL_CANONICAL_PARCEL_UPRN_CROSSWALK_REQUIRED","fake_data":false}},{"type":"Feature","geometry":null,"properties":{"slot_id":"internet_access_1","source_window_id":"bduk_202509_v2_sample_preview_lines_64_113","evidence_scope":"exact_official_identifier","official_identifier_type":"UPRN","official_identifier":"100120044519","uprn":"100120044519","postcode":"BA2 6BY","current_gigabit":true,"future_gigabit":true,"subsidy_control_status":"Gigabit Grey/Black","source_url":"https://www.gov.uk/government/publications/september-2025-omr-and-premises-in-bduk-plans-england-and-wales","source_preview_url":"https://www.gov.uk/csv-preview/697cf18d01dffa646558006d/202509_BDUK_uprn_release_sample_v2.csv","final_url":"https://assets.publishing.service.gov.uk/media/697cf18d01dffa646558006d/202509_BDUK_uprn_release_sample_v2.csv","access_utc":"2026-10-01T01:28:00Z","data_date":"2025-09","publication_date":"2026-02-02","license":"Open Government Licence v3.0","measurement_method":"Building Digital UK September 2025 OMR premises-level v2 sample","spatial_binding_method":"local OpenCode exact UPRN crosswalk/readback to canonical parcel inventory","field_evidence":{"source_preview_line":110,"source_record_index":47,"uprn":"100120044519","postcode":"BA2 6BY","country":"England","lot_id":6,"lot_name":"Devon & Somerset","subsidy_control_status":"Gigabit Grey/Black","current_gigabit":true,"future_gigabit":true,"local_authority_district_ons_code":"E06000022","local_authority_district_ons":"Bath and North East Somerset","region_ons_code":"E12000009","region_ons":"South West"},"evidence_slice_sha256":"0d39af0e8c46f9186e17630835bc7a9cecd3696bb1eea134e39688c50089ebb1","confidence_score_0_100":100,"evidence_grade":"A_OFFICIAL_GOV_UK_EXACT_UPRN_CONNECTIVITY","canonical_parcel_id":null,"match_status":"LOCAL_CANONICAL_PARCEL_UPRN_CROSSWALK_REQUIRED","fake_data":false}},{"type":"Feature","geometry":null,"properties":{"slot_id":"internet_access_1","source_window_id":"bduk_202509_v2_sample_preview_lines_64_113","evidence_scope":"exact_official_identifier","official_identifier_type":"UPRN","official_identifier":"100120028225","uprn":"100120028225","postcode":"BA2 6BZ","current_gigabit":true,"future_gigabit":true,"subsidy_control_status":"Gigabit Grey/Black","source_url":"https://www.gov.uk/government/publications/september-2025-omr-and-premises-in-bduk-plans-england-and-wales","source_preview_url":"https://www.gov.uk/csv-preview/697cf18d01dffa646558006d/202509_BDUK_uprn_release_sample_v2.csv","final_url":"https://assets.publishing.service.gov.uk/media/697cf18d01dffa646558006d/202509_BDUK_uprn_release_sample_v2.csv","access_utc":"2026-10-01T01:28:00Z","data_date":"2025-09","publication_date":"2026-02-02","license":"Open Government Licence v3.0","measurement_method":"Building Digital UK September 2025 OMR premises-level v2 sample","spatial_binding_method":"local OpenCode exact UPRN crosswalk/readback to canonical parcel inventory","field_evidence":{"source_preview_line":111,"source_record_index":48,"uprn":"100120028225","postcode":"BA2 6BZ","country":"England","lot_id":6,"lot_name":"Devon & Somerset","subsidy_control_status":"Gigabit Grey/Black","current_gigabit":true,"future_gigabit":true,"local_authority_district_ons_code":"E06000022","local_authority_district_ons":"Bath and North East Somerset","region_ons_code":"E12000009","region_ons":"South West"},"evidence_slice_sha256":"0d39af0e8c46f9186e17630835bc7a9cecd3696bb1eea134e39688c50089ebb1","confidence_score_0_100":100,"evidence_grade":"A_OFFICIAL_GOV_UK_EXACT_UPRN_CONNECTIVITY","canonical_parcel_id":null,"match_status":"LOCAL_CANONICAL_PARCEL_UPRN_CROSSWALK_REQUIRED","fake_data":false}},{"type":"Feature","geometry":null,"properties":{"slot_id":"internet_access_1","source_window_id":"bduk_202509_v2_sample_preview_lines_64_113","evidence_scope":"exact_official_identifier","official_identifier_type":"UPRN","official_identifier":"10001125485","uprn":"10001125485","postcode":"BA2 7BY","current_gigabit":true,"future_gigabit":true,"subsidy_control_status":"Gigabit Grey/Black","source_url":"https://www.gov.uk/government/publications/september-2025-omr-and-premises-in-bduk-plans-england-and-wales","source_preview_url":"https://www.gov.uk/csv-preview/697cf18d01dffa646558006d/202509_BDUK_uprn_release_sample_v2.csv","final_url":"https://assets.publishing.service.gov.uk/media/697cf18d01dffa646558006d/202509_BDUK_uprn_release_sample_v2.csv","access_utc":"2026-10-01T01:28:00Z","data_date":"2025-09","publication_date":"2026-02-02","license":"Open Government Licence v3.0","measurement_method":"Building Digital UK September 2025 OMR premises-level v2 sample","spatial_binding_method":"local OpenCode exact UPRN crosswalk/readback to canonical parcel inventory","field_evidence":{"source_preview_line":112,"source_record_index":49,"uprn":"10001125485","postcode":"BA2 7BY","country":"England","lot_id":6,"lot_name":"Devon & Somerset","subsidy_control_status":"Gigabit Grey/Black","current_gigabit":true,"future_gigabit":true,"local_authority_district_ons_code":"E06000022","local_authority_district_ons":"Bath and North East Somerset","region_ons_code":"E12000009","region_ons":"South West"},"evidence_slice_sha256":"0d39af0e8c46f9186e17630835bc7a9cecd3696bb1eea134e39688c50089ebb1","confidence_score_0_100":100,"evidence_grade":"A_OFFICIAL_GOV_UK_EXACT_UPRN_CONNECTIVITY","canonical_parcel_id":null,"match_status":"LOCAL_CANONICAL_PARCEL_UPRN_CROSSWALK_REQUIRED","fake_data":false}},{"type":"Feature","geometry":null,"properties":{"slot_id":"internet_access_1","source_window_id":"bduk_202509_v2_sample_preview_lines_64_113","evidence_scope":"exact_official_identifier","official_identifier_type":"UPRN","official_identifier":"100120020285","uprn":"100120020285","postcode":"BA2 7HW","current_gigabit":true,"future_gigabit":true,"subsidy_control_status":"Gigabit Grey/Black","source_url":"https://www.gov.uk/government/publications/september-2025-omr-and-premises-in-bduk-plans-england-and-wales","source_preview_url":"https://www.gov.uk/csv-preview/697cf18d01dffa646558006d/202509_BDUK_uprn_release_sample_v2.csv","final_url":"https://assets.publishing.service.gov.uk/media/697cf18d01dffa646558006d/202509_BDUK_uprn_release_sample_v2.csv","access_utc":"2026-10-01T01:28:00Z","data_date":"2025-09","publication_date":"2026-02-02","license":"Open Government Licence v3.0","measurement_method":"Building Digital UK September 2025 OMR premises-level v2 sample","spatial_binding_method":"local OpenCode exact UPRN crosswalk/readback to canonical parcel inventory","field_evidence":{"source_preview_line":113,"source_record_index":50,"uprn":"100120020285","postcode":"BA2 7HW","country":"England","lot_id":6,"lot_name":"Devon & Somerset","subsidy_control_status":"Gigabit Grey/Black","current_gigabit":true,"future_gigabit":true,"local_authority_district_ons_code":"E06000022","local_authority_district_ons":"Bath and North East Somerset","region_ons_code":"E12000009","region_ons":"South West"},"evidence_slice_sha256":"0d39af0e8c46f9186e17630835bc7a9cecd3696bb1eea134e39688c50089ebb1","confidence_score_0_100":100,"evidence_grade":"A_OFFICIAL_GOV_UK_EXACT_UPRN_CONNECTIVITY","canonical_parcel_id":null,"match_status":"LOCAL_CANONICAL_PARCEL_UPRN_CROSSWALK_REQUIRED","fake_data":false}}]}
