{"type":"FeatureCollection","features":[{"type":"Feature","geometry":null,"properties":{"evidence_scope":"authoritative_exact_identifier","coverage_area_id":"Site allocation SR01: Bestwood Road - Former Bestwood Day Centre","official_identifier":"SR01","source_resolution":"exact adopted Nottingham Local Plan site-allocation identifier captured from official council PDF; raw polygon geometry not captured by this retrieval path","source_url":"https://www.nottinghamcity.gov.uk/media/blqmbjvu/land-and-planning-policies-document-lapp-2020.pdf","final_url":"https://www.nottinghamcity.gov.uk/media/blqmbjvu/land-and-planning-policies-document-lapp-2020.pdf","access_utc":"2026-10-03T11:26:00Z","data_date":"2020-01-13","licence":"Nottingham City Council Local Plan publication; no explicit open reuse licence identified in the retrieved source","measurement_method":"official Nottingham City Council adopted Local Plan Part 2 site-allocation schedule","spatial_binding_method":"local OpenCode spatial/identifier binding against canonical parcel polygons; not performed here","confidence_score_0_100":100,"evidence_grade":"authoritative_exact_identifier","fake_data":false,"upstream_file_sha256":null,"upstream_file_sha256_reason":"raw upstream PDF bytes were not exposed by the available retrieval path; no hash invented","source_window_payload_sha256":"8cc0d1aecdd586352453a721fc42014d3f06cee2399bda7e295fca3e12990b41","field_evidence":{"entry-date":"2020-01-13","start-date":"","end-date":"","entity":null,"name":"Bestwood Road - Former Bestwood Day Centre","dataset":"nottingham-city-lapp-2020-site-allocation","typology":"geography","reference":"SR01","prefix":"site-allocation","organisation-entity":"Nottingham City Council","geometry":"","point":"","quality":"authoritative","ward":"Bulwell","site-area-hectares":1.67,"proposed-use":"Residential (C3, predominantly family housing)","anticipated-housing-units":48,"policy":"SA1","adoption-date":"2020-01-13"}}}]}
