{"type":"FeatureCollection","name":"height_difference_5","metadata":{"slot_id":"height_difference_5","owner":"height_difference_5","lineage_id":"height_difference_5-eb56f92ed3f0514c","page_generation":1,"schema":"AAYS_LAYER24_EVIDENCE_V1","partition":"layer24","semantic_mode_state":"ABSENT_IN_PRIOR_PHYSICAL_STATE_PRESERVED_BY_OMISSION","batch_id":"20261005T025600Z_spatialni_glossary_irish_grid_dtm_context","record_policy":"Official Spatial NI glossary context only; general Irish Grid/DTM/LIDAR statements are not promoted to a Belfast 2006 dataset-specific CRS or tile binding.","fake_data":false},"features":[{"type":"Feature","geometry":null,"properties":{"slot_id":"height_difference_5","owner":"height_difference_5","lineage_id":"height_difference_5-eb56f92ed3f0514c","page_generation":1,"schema":"AAYS_LAYER24_EVIDENCE_V1","partition":"layer24","batch_id":"20261005T025600Z_spatialni_glossary_irish_grid_dtm_context","source_record_id":"SPATIALNI_GLOSSARY:IRISH_GRID_DTM_LIDAR","source_url":"https://support.spatialni.gov.uk/nima/help-glossary.html","access_utc":"2026-10-05T02:56:00Z","required_building_state":"BUILDING_PRESENT","binding_status":"LOCAL_OPENCODE_BUILDING_PRESENT_EXACT_TILE_AND_DATASET_SPECIFIC_CRS_REQUIRED","general_coordinate_system":"Irish Grid","dataset_specific_crs":null,"exact_tile_identifier":null,"evidence_slice_sha256":"4334459fcffdd0c679d8c46c3d8a493230b14402a76ac75bbe53b3e27fe9b9d8","accepted_count_contribution":0,"source_area_count_contribution":0,"fake_data":false}}]}
