{
  "type": "FeatureCollection",
  "metadata": {
    "slot_id": "future_growth_1",
    "generated_at": "2026-08-14T22:10:18Z",
    "append_only": true,
    "matching_method": "strict program parcel centroid within active official GLA polygon",
    "demo_only": true,
    "fake_data": false,
    "final_ready": false,
    "production_merge": false,
    "feature_count": 1
  },
  "features": [
    {
      "type": "Feature",
      "id": "future-growth-1-gla-1739849-parcel_485",
      "geometry": {
        "type": "Point",
        "coordinates": [
          0.1512388,
          51.5301575
        ]
      },
      "properties": {
        "topic_id": "future-growth",
        "slot_id": "future_growth_1",
        "parcel_id": "parcel_485",
        "program_parcel_id": "parcel_485",
        "planning_entity": 1739849,
        "site_reference": "LBBD49",
        "future_growth_value": 45,
        "future_growth_probability": 55,
        "future_growth_confidence_1_to_4": 3,
        "future_growth_source_granularity": "parcel_centroid_within_official_project_polygon",
        "future_growth_geometry_relation": "program_parcel_centroid_within_official_brownfield_polygon",
        "future_growth_drivers": [
          "active official GLA Brownfield Register polygon",
          "planning status",
          "residential capacity"
        ],
        "future_growth_project_name": "Former Ford Stamping Plant",
        "future_growth_source_url": "https://gis.london.gov.uk/arcgis/rest/services/apps/planning_data_map_02/FeatureServer/101",
        "source_url": "https://gis.london.gov.uk/arcgis/rest/services/apps/planning_data_map_02/FeatureServer/101",
        "source_accessed_at": "2026-08-04T00:44:00.000000Z",
        "source_sha256": "2f12781c6b6991dc587e1ece219cd5a6d134c39f899921b2eb696841967b08d6",
        "source_license": "Open Government Licence v3.0 (verify before production)",
        "source_record_scope": "GLA objectid=2134; planning_entity=1739849",
        "evidence_level": 3,
        "evidence_excerpt": {
          "planningstatus": "Not permissioned",
          "minimum_net_dwellings": 3000,
          "maximum_net_dwellings": 3502,
          "ownershipstatus": "Not owned by a public authority"
        },
        "demo_only": true,
        "fake_data": false,
        "final_ready": false,
        "production_merge": false,
        "generated_at": "2026-08-14T22:10:18Z"
      }
    }
  ]
}