{
  "type": "FeatureCollection",
  "features": [
    {
      "type": "Feature",
      "id": "future_growth_6-nsip-EN030003-35965818",
      "geometry": {
        "type": "Point",
        "coordinates": [
          -0.09498172614858026,
          53.81118551047475
        ]
      },
      "properties": {
        "topic_id": "future-growth",
        "slot_id": "future_growth_6",
        "parcel_id": "35965818",
        "program_parcel_id": "pmtiles:north:35965818",
        "future_growth_value": null,
        "future_growth_probability": null,
        "future_growth_confidence_1_to_4": 3,
        "future_growth_source_granularity": "official_project_polygon + parcel_geometry_centroid",
        "future_growth_geometry_relation": "strict parcel centroid within official NSIP project polygon",
        "future_growth_drivers": [
          "Energy"
        ],
        "future_growth_project_name": "Aldbrough Hydrogen Storage",
        "future_growth_project_stage": "Pre Application",
        "future_growth_scoring_status": "METHODOLOGY_APPROVAL_REQUIRED",
        "future_growth_source_url": "https://infrastructure.planninginspectorate.gov.uk/",
        "source_url": "https://infrastructure.planninginspectorate.gov.uk/",
        "source_accessed_at": "2026-08-15T08:33:07Z",
        "source_sha256": "88b3d3f22e2d736b821348a1ac88416b4612040b884396a35de07185580df878",
        "source_license": "Official Planning Inspectorate/NSIP source; licence verification required before production",
        "source_record_scope": {
          "code": "EN030003",
          "stage": "Pre Application",
          "type": "Energy"
        },
        "parcel_geometry_source": "north.pmtiles",
        "parcel_geometry_relation": "PMTiles parcel polygon ring centroid",
        "evidence_level": 3,
        "demo_only": true,
        "fake_data": false,
        "final_ready": false,
        "production_merge": false,
        "generated_at": "2026-08-15T08:33:07Z"
      }
    },
    {
      "type": "Feature",
      "id": "future_growth_6-nsip-EN030003-35965818",
      "geometry": {
        "type": "Point",
        "coordinates": [
          -0.0944024632901631,
          53.81164217939073
        ]
      },
      "properties": {
        "topic_id": "future-growth",
        "slot_id": "future_growth_6",
        "parcel_id": "35965818",
        "program_parcel_id": "pmtiles:north:35965818",
        "future_growth_value": null,
        "future_growth_probability": null,
        "future_growth_confidence_1_to_4": 3,
        "future_growth_source_granularity": "official_project_polygon + parcel_geometry_centroid",
        "future_growth_geometry_relation": "strict parcel centroid within official NSIP project polygon",
        "future_growth_drivers": [
          "Energy"
        ],
        "future_growth_project_name": "Aldbrough Hydrogen Storage",
        "future_growth_project_stage": "Pre Application",
        "future_growth_scoring_status": "METHODOLOGY_APPROVAL_REQUIRED",
        "future_growth_source_url": "https://infrastructure.planninginspectorate.gov.uk/",
        "source_url": "https://infrastructure.planninginspectorate.gov.uk/",
        "source_accessed_at": "2026-08-15T08:33:07Z",
        "source_sha256": "88b3d3f22e2d736b821348a1ac88416b4612040b884396a35de07185580df878",
        "source_license": "Official Planning Inspectorate/NSIP source; licence verification required before production",
        "source_record_scope": {
          "code": "EN030003",
          "stage": "Pre Application",
          "type": "Energy"
        },
        "parcel_geometry_source": "north.pmtiles",
        "parcel_geometry_relation": "PMTiles parcel polygon ring centroid",
        "evidence_level": 3,
        "demo_only": true,
        "fake_data": false,
        "final_ready": false,
        "production_merge": false,
        "generated_at": "2026-08-15T08:33:07Z"
      }
    },
    {
      "type": "Feature",
      "id": "future_growth_6-nsip-EN030003-36001402",
      "geometry": {
        "type": "Point",
        "coordinates": [
          -0.09480008840158417,
          53.81121263910112
        ]
      },
      "properties": {
        "topic_id": "future-growth",
        "slot_id": "future_growth_6",
        "parcel_id": "36001402",
        "program_parcel_id": "pmtiles:north:36001402",
        "future_growth_value": null,
        "future_growth_probability": null,
        "future_growth_confidence_1_to_4": 3,
        "future_growth_source_granularity": "official_project_polygon + parcel_geometry_centroid",
        "future_growth_geometry_relation": "strict parcel centroid within official NSIP project polygon",
        "future_growth_drivers": [
          "Energy"
        ],
        "future_growth_project_name": "Aldbrough Hydrogen Storage",
        "future_growth_project_stage": "Pre Application",
        "future_growth_scoring_status": "METHODOLOGY_APPROVAL_REQUIRED",
        "future_growth_source_url": "https://infrastructure.planninginspectorate.gov.uk/",
        "source_url": "https://infrastructure.planninginspectorate.gov.uk/",
        "source_accessed_at": "2026-08-15T08:33:07Z",
        "source_sha256": "88b3d3f22e2d736b821348a1ac88416b4612040b884396a35de07185580df878",
        "source_license": "Official Planning Inspectorate/NSIP source; licence verification required before production",
        "source_record_scope": {
          "code": "EN030003",
          "stage": "Pre Application",
          "type": "Energy"
        },
        "parcel_geometry_source": "north.pmtiles",
        "parcel_geometry_relation": "PMTiles parcel polygon ring centroid",
        "evidence_level": 3,
        "demo_only": true,
        "fake_data": false,
        "final_ready": false,
        "production_merge": false,
        "generated_at": "2026-08-15T08:33:07Z"
      }
    },
    {
      "type": "Feature",
      "id": "future_growth_6-nsip-EN030003-36001402",
      "geometry": {
        "type": "Point",
        "coordinates": [
          -0.09482565008091927,
          53.8110251535692
        ]
      },
      "properties": {
        "topic_id": "future-growth",
        "slot_id": "future_growth_6",
        "parcel_id": "36001402",
        "program_parcel_id": "pmtiles:north:36001402",
        "future_growth_value": null,
        "future_growth_probability": null,
        "future_growth_confidence_1_to_4": 3,
        "future_growth_source_granularity": "official_project_polygon + parcel_geometry_centroid",
        "future_growth_geometry_relation": "strict parcel centroid within official NSIP project polygon",
        "future_growth_drivers": [
          "Energy"
        ],
        "future_growth_project_name": "Aldbrough Hydrogen Storage",
        "future_growth_project_stage": "Pre Application",
        "future_growth_scoring_status": "METHODOLOGY_APPROVAL_REQUIRED",
        "future_growth_source_url": "https://infrastructure.planninginspectorate.gov.uk/",
        "source_url": "https://infrastructure.planninginspectorate.gov.uk/",
        "source_accessed_at": "2026-08-15T08:33:07Z",
        "source_sha256": "88b3d3f22e2d736b821348a1ac88416b4612040b884396a35de07185580df878",
        "source_license": "Official Planning Inspectorate/NSIP source; licence verification required before production",
        "source_record_scope": {
          "code": "EN030003",
          "stage": "Pre Application",
          "type": "Energy"
        },
        "parcel_geometry_source": "north.pmtiles",
        "parcel_geometry_relation": "PMTiles parcel polygon ring centroid",
        "evidence_level": 3,
        "demo_only": true,
        "fake_data": false,
        "final_ready": false,
        "production_merge": false,
        "generated_at": "2026-08-15T08:33:07Z"
      }
    },
    {
      "type": "Feature",
      "id": "future_growth_6-nsip-EN030003-36001402",
      "geometry": {
        "type": "Point",
        "coordinates": [
          -0.09390784949995003,
          53.81140785396919
        ]
      },
      "properties": {
        "topic_id": "future-growth",
        "slot_id": "future_growth_6",
        "parcel_id": "36001402",
        "program_parcel_id": "pmtiles:north:36001402",
        "future_growth_value": null,
        "future_growth_probability": null,
        "future_growth_confidence_1_to_4": 3,
        "future_growth_source_granularity": "official_project_polygon + parcel_geometry_centroid",
        "future_growth_geometry_relation": "strict parcel centroid within official NSIP project polygon",
        "future_growth_drivers": [
          "Energy"
        ],
        "future_growth_project_name": "Aldbrough Hydrogen Storage",
        "future_growth_project_stage": "Pre Application",
        "future_growth_scoring_status": "METHODOLOGY_APPROVAL_REQUIRED",
        "future_growth_source_url": "https://infrastructure.planninginspectorate.gov.uk/",
        "source_url": "https://infrastructure.planninginspectorate.gov.uk/",
        "source_accessed_at": "2026-08-15T08:33:07Z",
        "source_sha256": "88b3d3f22e2d736b821348a1ac88416b4612040b884396a35de07185580df878",
        "source_license": "Official Planning Inspectorate/NSIP source; licence verification required before production",
        "source_record_scope": {
          "code": "EN030003",
          "stage": "Pre Application",
          "type": "Energy"
        },
        "parcel_geometry_source": "north.pmtiles",
        "parcel_geometry_relation": "PMTiles parcel polygon ring centroid",
        "evidence_level": 3,
        "demo_only": true,
        "fake_data": false,
        "final_ready": false,
        "production_merge": false,
        "generated_at": "2026-08-15T08:33:07Z"
      }
    },
    {
      "type": "Feature",
      "id": "future_growth_6-nsip-EN030003-36001402",
      "geometry": {
        "type": "Point",
        "coordinates": [
          -0.09404084634087616,
          53.810801310012074
        ]
      },
      "properties": {
        "topic_id": "future-growth",
        "slot_id": "future_growth_6",
        "parcel_id": "36001402",
        "program_parcel_id": "pmtiles:north:36001402",
        "future_growth_value": null,
        "future_growth_probability": null,
        "future_growth_confidence_1_to_4": 3,
        "future_growth_source_granularity": "official_project_polygon + parcel_geometry_centroid",
        "future_growth_geometry_relation": "strict parcel centroid within official NSIP project polygon",
        "future_growth_drivers": [
          "Energy"
        ],
        "future_growth_project_name": "Aldbrough Hydrogen Storage",
        "future_growth_project_stage": "Pre Application",
        "future_growth_scoring_status": "METHODOLOGY_APPROVAL_REQUIRED",
        "future_growth_source_url": "https://infrastructure.planninginspectorate.gov.uk/",
        "source_url": "https://infrastructure.planninginspectorate.gov.uk/",
        "source_accessed_at": "2026-08-15T08:33:07Z",
        "source_sha256": "88b3d3f22e2d736b821348a1ac88416b4612040b884396a35de07185580df878",
        "source_license": "Official Planning Inspectorate/NSIP source; licence verification required before production",
        "source_record_scope": {
          "code": "EN030003",
          "stage": "Pre Application",
          "type": "Energy"
        },
        "parcel_geometry_source": "north.pmtiles",
        "parcel_geometry_relation": "PMTiles parcel polygon ring centroid",
        "evidence_level": 3,
        "demo_only": true,
        "fake_data": false,
        "final_ready": false,
        "production_merge": false,
        "generated_at": "2026-08-15T08:33:07Z"
      }
    },
    {
      "type": "Feature",
      "id": "future_growth_6-nsip-EN030003-36001402",
      "geometry": {
        "type": "Point",
        "coordinates": [
          -0.0938276721011706,
          53.8100178729988
        ]
      },
      "properties": {
        "topic_id": "future-growth",
        "slot_id": "future_growth_6",
        "parcel_id": "36001402",
        "program_parcel_id": "pmtiles:north:36001402",
        "future_growth_value": null,
        "future_growth_probability": null,
        "future_growth_confidence_1_to_4": 3,
        "future_growth_source_granularity": "official_project_polygon + parcel_geometry_centroid",
        "future_growth_geometry_relation": "strict parcel centroid within official NSIP project polygon",
        "future_growth_drivers": [
          "Energy"
        ],
        "future_growth_project_name": "Aldbrough Hydrogen Storage",
        "future_growth_project_stage": "Pre Application",
        "future_growth_scoring_status": "METHODOLOGY_APPROVAL_REQUIRED",
        "future_growth_source_url": "https://infrastructure.planninginspectorate.gov.uk/",
        "source_url": "https://infrastructure.planninginspectorate.gov.uk/",
        "source_accessed_at": "2026-08-15T08:33:07Z",
        "source_sha256": "88b3d3f22e2d736b821348a1ac88416b4612040b884396a35de07185580df878",
        "source_license": "Official Planning Inspectorate/NSIP source; licence verification required before production",
        "source_record_scope": {
          "code": "EN030003",
          "stage": "Pre Application",
          "type": "Energy"
        },
        "parcel_geometry_source": "north.pmtiles",
        "parcel_geometry_relation": "PMTiles parcel polygon ring centroid",
        "evidence_level": 3,
        "demo_only": true,
        "fake_data": false,
        "final_ready": false,
        "production_merge": false,
        "generated_at": "2026-08-15T08:33:07Z"
      }
    },
    {
      "type": "Feature",
      "id": "future_growth_6-nsip-EN030003-36001402",
      "geometry": {
        "type": "Point",
        "coordinates": [
          -0.09361941580510916,
          53.8094211461956
        ]
      },
      "properties": {
        "topic_id": "future-growth",
        "slot_id": "future_growth_6",
        "parcel_id": "36001402",
        "program_parcel_id": "pmtiles:north:36001402",
        "future_growth_value": null,
        "future_growth_probability": null,
        "future_growth_confidence_1_to_4": 3,
        "future_growth_source_granularity": "official_project_polygon + parcel_geometry_centroid",
        "future_growth_geometry_relation": "strict parcel centroid within official NSIP project polygon",
        "future_growth_drivers": [
          "Energy"
        ],
        "future_growth_project_name": "Aldbrough Hydrogen Storage",
        "future_growth_project_stage": "Pre Application",
        "future_growth_scoring_status": "METHODOLOGY_APPROVAL_REQUIRED",
        "future_growth_source_url": "https://infrastructure.planninginspectorate.gov.uk/",
        "source_url": "https://infrastructure.planninginspectorate.gov.uk/",
        "source_accessed_at": "2026-08-15T08:33:07Z",
        "source_sha256": "88b3d3f22e2d736b821348a1ac88416b4612040b884396a35de07185580df878",
        "source_license": "Official Planning Inspectorate/NSIP source; licence verification required before production",
        "source_record_scope": {
          "code": "EN030003",
          "stage": "Pre Application",
          "type": "Energy"
        },
        "parcel_geometry_source": "north.pmtiles",
        "parcel_geometry_relation": "PMTiles parcel polygon ring centroid",
        "evidence_level": 3,
        "demo_only": true,
        "fake_data": false,
        "final_ready": false,
        "production_merge": false,
        "generated_at": "2026-08-15T08:33:07Z"
      }
    },
    {
      "type": "Feature",
      "id": "future_growth_6-nsip-EN030003-36001402",
      "geometry": {
        "type": "Point",
        "coordinates": [
          -0.09268755587460832,
          53.811428143019725
        ]
      },
      "properties": {
        "topic_id": "future-growth",
        "slot_id": "future_growth_6",
        "parcel_id": "36001402",
        "program_parcel_id": "pmtiles:north:36001402",
        "future_growth_value": null,
        "future_growth_probability": null,
        "future_growth_confidence_1_to_4": 3,
        "future_growth_source_granularity": "official_project_polygon + parcel_geometry_centroid",
        "future_growth_geometry_relation": "strict parcel centroid within official NSIP project polygon",
        "future_growth_drivers": [
          "Energy"
        ],
        "future_growth_project_name": "Aldbrough Hydrogen Storage",
        "future_growth_project_stage": "Pre Application",
        "future_growth_scoring_status": "METHODOLOGY_APPROVAL_REQUIRED",
        "future_growth_source_url": "https://infrastructure.planninginspectorate.gov.uk/",
        "source_url": "https://infrastructure.planninginspectorate.gov.uk/",
        "source_accessed_at": "2026-08-15T08:33:07Z",
        "source_sha256": "88b3d3f22e2d736b821348a1ac88416b4612040b884396a35de07185580df878",
        "source_license": "Official Planning Inspectorate/NSIP source; licence verification required before production",
        "source_record_scope": {
          "code": "EN030003",
          "stage": "Pre Application",
          "type": "Energy"
        },
        "parcel_geometry_source": "north.pmtiles",
        "parcel_geometry_relation": "PMTiles parcel polygon ring centroid",
        "evidence_level": 3,
        "demo_only": true,
        "fake_data": false,
        "final_ready": false,
        "production_merge": false,
        "generated_at": "2026-08-15T08:33:07Z"
      }
    },
    {
      "type": "Feature",
      "id": "future_growth_6-nsip-EN030003-36001402",
      "geometry": {
        "type": "Point",
        "coordinates": [
          -0.0926971435546875,
          53.81078785954931
        ]
      },
      "properties": {
        "topic_id": "future-growth",
        "slot_id": "future_growth_6",
        "parcel_id": "36001402",
        "program_parcel_id": "pmtiles:north:36001402",
        "future_growth_value": null,
        "future_growth_probability": null,
        "future_growth_confidence_1_to_4": 3,
        "future_growth_source_granularity": "official_project_polygon + parcel_geometry_centroid",
        "future_growth_geometry_relation": "strict parcel centroid within official NSIP project polygon",
        "future_growth_drivers": [
          "Energy"
        ],
        "future_growth_project_name": "Aldbrough Hydrogen Storage",
        "future_growth_project_stage": "Pre Application",
        "future_growth_scoring_status": "METHODOLOGY_APPROVAL_REQUIRED",
        "future_growth_source_url": "https://infrastructure.planninginspectorate.gov.uk/",
        "source_url": "https://infrastructure.planninginspectorate.gov.uk/",
        "source_accessed_at": "2026-08-15T08:33:07Z",
        "source_sha256": "88b3d3f22e2d736b821348a1ac88416b4612040b884396a35de07185580df878",
        "source_license": "Official Planning Inspectorate/NSIP source; licence verification required before production",
        "source_record_scope": {
          "code": "EN030003",
          "stage": "Pre Application",
          "type": "Energy"
        },
        "parcel_geometry_source": "north.pmtiles",
        "parcel_geometry_relation": "PMTiles parcel polygon ring centroid",
        "evidence_level": 3,
        "demo_only": true,
        "fake_data": false,
        "final_ready": false,
        "production_merge": false,
        "generated_at": "2026-08-15T08:33:07Z"
      }
    },
    {
      "type": "Feature",
      "id": "future_growth_6-nsip-EN030003-36001402",
      "geometry": {
        "type": "Point",
        "coordinates": [
          -0.09269714355468749,
          53.809976986918116
        ]
      },
      "properties": {
        "topic_id": "future-growth",
        "slot_id": "future_growth_6",
        "parcel_id": "36001402",
        "program_parcel_id": "pmtiles:north:36001402",
        "future_growth_value": null,
        "future_growth_probability": null,
        "future_growth_confidence_1_to_4": 3,
        "future_growth_source_granularity": "official_project_polygon + parcel_geometry_centroid",
        "future_growth_geometry_relation": "strict parcel centroid within official NSIP project polygon",
        "future_growth_drivers": [
          "Energy"
        ],
        "future_growth_project_name": "Aldbrough Hydrogen Storage",
        "future_growth_project_stage": "Pre Application",
        "future_growth_scoring_status": "METHODOLOGY_APPROVAL_REQUIRED",
        "future_growth_source_url": "https://infrastructure.planninginspectorate.gov.uk/",
        "source_url": "https://infrastructure.planninginspectorate.gov.uk/",
        "source_accessed_at": "2026-08-15T08:33:07Z",
        "source_sha256": "88b3d3f22e2d736b821348a1ac88416b4612040b884396a35de07185580df878",
        "source_license": "Official Planning Inspectorate/NSIP source; licence verification required before production",
        "source_record_scope": {
          "code": "EN030003",
          "stage": "Pre Application",
          "type": "Energy"
        },
        "parcel_geometry_source": "north.pmtiles",
        "parcel_geometry_relation": "PMTiles parcel polygon ring centroid",
        "evidence_level": 3,
        "demo_only": true,
        "fake_data": false,
        "final_ready": false,
        "production_merge": false,
        "generated_at": "2026-08-15T08:33:07Z"
      }
    },
    {
      "type": "Feature",
      "id": "future_growth_6-nsip-EN030003-36001402",
      "geometry": {
        "type": "Point",
        "coordinates": [
          -0.09262538623384728,
          53.809287587161016
        ]
      },
      "properties": {
        "topic_id": "future-growth",
        "slot_id": "future_growth_6",
        "parcel_id": "36001402",
        "program_parcel_id": "pmtiles:north:36001402",
        "future_growth_value": null,
        "future_growth_probability": null,
        "future_growth_confidence_1_to_4": 3,
        "future_growth_source_granularity": "official_project_polygon + parcel_geometry_centroid",
        "future_growth_geometry_relation": "strict parcel centroid within official NSIP project polygon",
        "future_growth_drivers": [
          "Energy"
        ],
        "future_growth_project_name": "Aldbrough Hydrogen Storage",
        "future_growth_project_stage": "Pre Application",
        "future_growth_scoring_status": "METHODOLOGY_APPROVAL_REQUIRED",
        "future_growth_source_url": "https://infrastructure.planninginspectorate.gov.uk/",
        "source_url": "https://infrastructure.planninginspectorate.gov.uk/",
        "source_accessed_at": "2026-08-15T08:33:07Z",
        "source_sha256": "88b3d3f22e2d736b821348a1ac88416b4612040b884396a35de07185580df878",
        "source_license": "Official Planning Inspectorate/NSIP source; licence verification required before production",
        "source_record_scope": {
          "code": "EN030003",
          "stage": "Pre Application",
          "type": "Energy"
        },
        "parcel_geometry_source": "north.pmtiles",
        "parcel_geometry_relation": "PMTiles parcel polygon ring centroid",
        "evidence_level": 3,
        "demo_only": true,
        "fake_data": false,
        "final_ready": false,
        "production_merge": false,
        "generated_at": "2026-08-15T08:33:07Z"
      }
    },
    {
      "type": "Feature",
      "id": "future_growth_6-nsip-EN030003-36001402",
      "geometry": {
        "type": "Point",
        "coordinates": [
          -0.09188402091432267,
          53.81143676584449
        ]
      },
      "properties": {
        "topic_id": "future-growth",
        "slot_id": "future_growth_6",
        "parcel_id": "36001402",
        "program_parcel_id": "pmtiles:north:36001402",
        "future_growth_value": null,
        "future_growth_probability": null,
        "future_growth_confidence_1_to_4": 3,
        "future_growth_source_granularity": "official_project_polygon + parcel_geometry_centroid",
        "future_growth_geometry_relation": "strict parcel centroid within official NSIP project polygon",
        "future_growth_drivers": [
          "Energy"
        ],
        "future_growth_project_name": "Aldbrough Hydrogen Storage",
        "future_growth_project_stage": "Pre Application",
        "future_growth_scoring_status": "METHODOLOGY_APPROVAL_REQUIRED",
        "future_growth_source_url": "https://infrastructure.planninginspectorate.gov.uk/",
        "source_url": "https://infrastructure.planninginspectorate.gov.uk/",
        "source_accessed_at": "2026-08-15T08:33:07Z",
        "source_sha256": "88b3d3f22e2d736b821348a1ac88416b4612040b884396a35de07185580df878",
        "source_license": "Official Planning Inspectorate/NSIP source; licence verification required before production",
        "source_record_scope": {
          "code": "EN030003",
          "stage": "Pre Application",
          "type": "Energy"
        },
        "parcel_geometry_source": "north.pmtiles",
        "parcel_geometry_relation": "PMTiles parcel polygon ring centroid",
        "evidence_level": 3,
        "demo_only": true,
        "fake_data": false,
        "final_ready": false,
        "production_merge": false,
        "generated_at": "2026-08-15T08:33:07Z"
      }
    },
    {
      "type": "Feature",
      "id": "future_growth_6-nsip-EN030003-36001402",
      "geometry": {
        "type": "Point",
        "coordinates": [
          -0.09181328940635286,
          53.81075988579242
        ]
      },
      "properties": {
        "topic_id": "future-growth",
        "slot_id": "future_growth_6",
        "parcel_id": "36001402",
        "program_parcel_id": "pmtiles:north:36001402",
        "future_growth_value": null,
        "future_growth_probability": null,
        "future_growth_confidence_1_to_4": 3,
        "future_growth_source_granularity": "official_project_polygon + parcel_geometry_centroid",
        "future_growth_geometry_relation": "strict parcel centroid within official NSIP project polygon",
        "future_growth_drivers": [
          "Energy"
        ],
        "future_growth_project_name": "Aldbrough Hydrogen Storage",
        "future_growth_project_stage": "Pre Application",
        "future_growth_scoring_status": "METHODOLOGY_APPROVAL_REQUIRED",
        "future_growth_source_url": "https://infrastructure.planninginspectorate.gov.uk/",
        "source_url": "https://infrastructure.planninginspectorate.gov.uk/",
        "source_accessed_at": "2026-08-15T08:33:07Z",
        "source_sha256": "88b3d3f22e2d736b821348a1ac88416b4612040b884396a35de07185580df878",
        "source_license": "Official Planning Inspectorate/NSIP source; licence verification required before production",
        "source_record_scope": {
          "code": "EN030003",
          "stage": "Pre Application",
          "type": "Energy"
        },
        "parcel_geometry_source": "north.pmtiles",
        "parcel_geometry_relation": "PMTiles parcel polygon ring centroid",
        "evidence_level": 3,
        "demo_only": true,
        "fake_data": false,
        "final_ready": false,
        "production_merge": false,
        "generated_at": "2026-08-15T08:33:07Z"
      }
    },
    {
      "type": "Feature",
      "id": "future_growth_6-nsip-EN030003-36001402",
      "geometry": {
        "type": "Point",
        "coordinates": [
          -0.0917083907490399,
          53.80994488114299
        ]
      },
      "properties": {
        "topic_id": "future-growth",
        "slot_id": "future_growth_6",
        "parcel_id": "36001402",
        "program_parcel_id": "pmtiles:north:36001402",
        "future_growth_value": null,
        "future_growth_probability": null,
        "future_growth_confidence_1_to_4": 3,
        "future_growth_source_granularity": "official_project_polygon + parcel_geometry_centroid",
        "future_growth_geometry_relation": "strict parcel centroid within official NSIP project polygon",
        "future_growth_drivers": [
          "Energy"
        ],
        "future_growth_project_name": "Aldbrough Hydrogen Storage",
        "future_growth_project_stage": "Pre Application",
        "future_growth_scoring_status": "METHODOLOGY_APPROVAL_REQUIRED",
        "future_growth_source_url": "https://infrastructure.planninginspectorate.gov.uk/",
        "source_url": "https://infrastructure.planninginspectorate.gov.uk/",
        "source_accessed_at": "2026-08-15T08:33:07Z",
        "source_sha256": "88b3d3f22e2d736b821348a1ac88416b4612040b884396a35de07185580df878",
        "source_license": "Official Planning Inspectorate/NSIP source; licence verification required before production",
        "source_record_scope": {
          "code": "EN030003",
          "stage": "Pre Application",
          "type": "Energy"
        },
        "parcel_geometry_source": "north.pmtiles",
        "parcel_geometry_relation": "PMTiles parcel polygon ring centroid",
        "evidence_level": 3,
        "demo_only": true,
        "fake_data": false,
        "final_ready": false,
        "production_merge": false,
        "generated_at": "2026-08-15T08:33:07Z"
      }
    },
    {
      "type": "Feature",
      "id": "future_growth_6-nsip-EN030003-36001402",
      "geometry": {
        "type": "Point",
        "coordinates": [
          -0.09165051827660811,
          53.80927662410416
        ]
      },
      "properties": {
        "topic_id": "future-growth",
        "slot_id": "future_growth_6",
        "parcel_id": "36001402",
        "program_parcel_id": "pmtiles:north:36001402",
        "future_growth_value": null,
        "future_growth_probability": null,
        "future_growth_confidence_1_to_4": 3,
        "future_growth_source_granularity": "official_project_polygon + parcel_geometry_centroid",
        "future_growth_geometry_relation": "strict parcel centroid within official NSIP project polygon",
        "future_growth_drivers": [
          "Energy"
        ],
        "future_growth_project_name": "Aldbrough Hydrogen Storage",
        "future_growth_project_stage": "Pre Application",
        "future_growth_scoring_status": "METHODOLOGY_APPROVAL_REQUIRED",
        "future_growth_source_url": "https://infrastructure.planninginspectorate.gov.uk/",
        "source_url": "https://infrastructure.planninginspectorate.gov.uk/",
        "source_accessed_at": "2026-08-15T08:33:07Z",
        "source_sha256": "88b3d3f22e2d736b821348a1ac88416b4612040b884396a35de07185580df878",
        "source_license": "Official Planning Inspectorate/NSIP source; licence verification required before production",
        "source_record_scope": {
          "code": "EN030003",
          "stage": "Pre Application",
          "type": "Energy"
        },
        "parcel_geometry_source": "north.pmtiles",
        "parcel_geometry_relation": "PMTiles parcel polygon ring centroid",
        "evidence_level": 3,
        "demo_only": true,
        "fake_data": false,
        "final_ready": false,
        "production_merge": false,
        "generated_at": "2026-08-15T08:33:07Z"
      }
    },
    {
      "type": "Feature",
      "id": "future_growth_6-nsip-EN030003-36023384",
      "geometry": {
        "type": "Point",
        "coordinates": [
          -0.09355732488314658,
          53.81206934012769
        ]
      },
      "properties": {
        "topic_id": "future-growth",
        "slot_id": "future_growth_6",
        "parcel_id": "36023384",
        "program_parcel_id": "pmtiles:north:36023384",
        "future_growth_value": null,
        "future_growth_probability": null,
        "future_growth_confidence_1_to_4": 3,
        "future_growth_source_granularity": "official_project_polygon + parcel_geometry_centroid",
        "future_growth_geometry_relation": "strict parcel centroid within official NSIP project polygon",
        "future_growth_drivers": [
          "Energy"
        ],
        "future_growth_project_name": "Aldbrough Hydrogen Storage",
        "future_growth_project_stage": "Pre Application",
        "future_growth_scoring_status": "METHODOLOGY_APPROVAL_REQUIRED",
        "future_growth_source_url": "https://infrastructure.planninginspectorate.gov.uk/",
        "source_url": "https://infrastructure.planninginspectorate.gov.uk/",
        "source_accessed_at": "2026-08-15T08:33:07Z",
        "source_sha256": "88b3d3f22e2d736b821348a1ac88416b4612040b884396a35de07185580df878",
        "source_license": "Official Planning Inspectorate/NSIP source; licence verification required before production",
        "source_record_scope": {
          "code": "EN030003",
          "stage": "Pre Application",
          "type": "Energy"
        },
        "parcel_geometry_source": "north.pmtiles",
        "parcel_geometry_relation": "PMTiles parcel polygon ring centroid",
        "evidence_level": 3,
        "demo_only": true,
        "fake_data": false,
        "final_ready": false,
        "production_merge": false,
        "generated_at": "2026-08-15T08:33:07Z"
      }
    },
    {
      "type": "Feature",
      "id": "future_growth_6-nsip-EN030003-36023384",
      "geometry": {
        "type": "Point",
        "coordinates": [
          -0.09368037382140183,
          53.811904857532184
        ]
      },
      "properties": {
        "topic_id": "future-growth",
        "slot_id": "future_growth_6",
        "parcel_id": "36023384",
        "program_parcel_id": "pmtiles:north:36023384",
        "future_growth_value": null,
        "future_growth_probability": null,
        "future_growth_confidence_1_to_4": 3,
        "future_growth_source_granularity": "official_project_polygon + parcel_geometry_centroid",
        "future_growth_geometry_relation": "strict parcel centroid within official NSIP project polygon",
        "future_growth_drivers": [
          "Energy"
        ],
        "future_growth_project_name": "Aldbrough Hydrogen Storage",
        "future_growth_project_stage": "Pre Application",
        "future_growth_scoring_status": "METHODOLOGY_APPROVAL_REQUIRED",
        "future_growth_source_url": "https://infrastructure.planninginspectorate.gov.uk/",
        "source_url": "https://infrastructure.planninginspectorate.gov.uk/",
        "source_accessed_at": "2026-08-15T08:33:07Z",
        "source_sha256": "88b3d3f22e2d736b821348a1ac88416b4612040b884396a35de07185580df878",
        "source_license": "Official Planning Inspectorate/NSIP source; licence verification required before production",
        "source_record_scope": {
          "code": "EN030003",
          "stage": "Pre Application",
          "type": "Energy"
        },
        "parcel_geometry_source": "north.pmtiles",
        "parcel_geometry_relation": "PMTiles parcel polygon ring centroid",
        "evidence_level": 3,
        "demo_only": true,
        "fake_data": false,
        "final_ready": false,
        "production_merge": false,
        "generated_at": "2026-08-15T08:33:07Z"
      }
    },
    {
      "type": "Feature",
      "id": "future_growth_6-nsip-EN030003-36023384",
      "geometry": {
        "type": "Point",
        "coordinates": [
          -0.09256196175060737,
          53.81227119082548
        ]
      },
      "properties": {
        "topic_id": "future-growth",
        "slot_id": "future_growth_6",
        "parcel_id": "36023384",
        "program_parcel_id": "pmtiles:north:36023384",
        "future_growth_value": null,
        "future_growth_probability": null,
        "future_growth_confidence_1_to_4": 3,
        "future_growth_source_granularity": "official_project_polygon + parcel_geometry_centroid",
        "future_growth_geometry_relation": "strict parcel centroid within official NSIP project polygon",
        "future_growth_drivers": [
          "Energy"
        ],
        "future_growth_project_name": "Aldbrough Hydrogen Storage",
        "future_growth_project_stage": "Pre Application",
        "future_growth_scoring_status": "METHODOLOGY_APPROVAL_REQUIRED",
        "future_growth_source_url": "https://infrastructure.planninginspectorate.gov.uk/",
        "source_url": "https://infrastructure.planninginspectorate.gov.uk/",
        "source_accessed_at": "2026-08-15T08:33:07Z",
        "source_sha256": "88b3d3f22e2d736b821348a1ac88416b4612040b884396a35de07185580df878",
        "source_license": "Official Planning Inspectorate/NSIP source; licence verification required before production",
        "source_record_scope": {
          "code": "EN030003",
          "stage": "Pre Application",
          "type": "Energy"
        },
        "parcel_geometry_source": "north.pmtiles",
        "parcel_geometry_relation": "PMTiles parcel polygon ring centroid",
        "evidence_level": 3,
        "demo_only": true,
        "fake_data": false,
        "final_ready": false,
        "production_merge": false,
        "generated_at": "2026-08-15T08:33:07Z"
      }
    },
    {
      "type": "Feature",
      "id": "future_growth_6-nsip-EN030003-36023384",
      "geometry": {
        "type": "Point",
        "coordinates": [
          -0.09271043237617299,
          53.81185954460282
        ]
      },
      "properties": {
        "topic_id": "future-growth",
        "slot_id": "future_growth_6",
        "parcel_id": "36023384",
        "program_parcel_id": "pmtiles:north:36023384",
        "future_growth_value": null,
        "future_growth_probability": null,
        "future_growth_confidence_1_to_4": 3,
        "future_growth_source_granularity": "official_project_polygon + parcel_geometry_centroid",
        "future_growth_geometry_relation": "strict parcel centroid within official NSIP project polygon",
        "future_growth_drivers": [
          "Energy"
        ],
        "future_growth_project_name": "Aldbrough Hydrogen Storage",
        "future_growth_project_stage": "Pre Application",
        "future_growth_scoring_status": "METHODOLOGY_APPROVAL_REQUIRED",
        "future_growth_source_url": "https://infrastructure.planninginspectorate.gov.uk/",
        "source_url": "https://infrastructure.planninginspectorate.gov.uk/",
        "source_accessed_at": "2026-08-15T08:33:07Z",
        "source_sha256": "88b3d3f22e2d736b821348a1ac88416b4612040b884396a35de07185580df878",
        "source_license": "Official Planning Inspectorate/NSIP source; licence verification required before production",
        "source_record_scope": {
          "code": "EN030003",
          "stage": "Pre Application",
          "type": "Energy"
        },
        "parcel_geometry_source": "north.pmtiles",
        "parcel_geometry_relation": "PMTiles parcel polygon ring centroid",
        "evidence_level": 3,
        "demo_only": true,
        "fake_data": false,
        "final_ready": false,
        "production_merge": false,
        "generated_at": "2026-08-15T08:33:07Z"
      }
    },
    {
      "type": "Feature",
      "id": "future_growth_6-nsip-EN030003-36023384",
      "geometry": {
        "type": "Point",
        "coordinates": [
          -0.0912626179363022,
          53.81283144550859
        ]
      },
      "properties": {
        "topic_id": "future-growth",
        "slot_id": "future_growth_6",
        "parcel_id": "36023384",
        "program_parcel_id": "pmtiles:north:36023384",
        "future_growth_value": null,
        "future_growth_probability": null,
        "future_growth_confidence_1_to_4": 3,
        "future_growth_source_granularity": "official_project_polygon + parcel_geometry_centroid",
        "future_growth_geometry_relation": "strict parcel centroid within official NSIP project polygon",
        "future_growth_drivers": [
          "Energy"
        ],
        "future_growth_project_name": "Aldbrough Hydrogen Storage",
        "future_growth_project_stage": "Pre Application",
        "future_growth_scoring_status": "METHODOLOGY_APPROVAL_REQUIRED",
        "future_growth_source_url": "https://infrastructure.planninginspectorate.gov.uk/",
        "source_url": "https://infrastructure.planninginspectorate.gov.uk/",
        "source_accessed_at": "2026-08-15T08:33:07Z",
        "source_sha256": "88b3d3f22e2d736b821348a1ac88416b4612040b884396a35de07185580df878",
        "source_license": "Official Planning Inspectorate/NSIP source; licence verification required before production",
        "source_record_scope": {
          "code": "EN030003",
          "stage": "Pre Application",
          "type": "Energy"
        },
        "parcel_geometry_source": "north.pmtiles",
        "parcel_geometry_relation": "PMTiles parcel polygon ring centroid",
        "evidence_level": 3,
        "demo_only": true,
        "fake_data": false,
        "final_ready": false,
        "production_merge": false,
        "generated_at": "2026-08-15T08:33:07Z"
      }
    },
    {
      "type": "Feature",
      "id": "future_growth_6-nsip-EN030003-36023384",
      "geometry": {
        "type": "Point",
        "coordinates": [
          -0.0913213454022576,
          53.81240804513703
        ]
      },
      "properties": {
        "topic_id": "future-growth",
        "slot_id": "future_growth_6",
        "parcel_id": "36023384",
        "program_parcel_id": "pmtiles:north:36023384",
        "future_growth_value": null,
        "future_growth_probability": null,
        "future_growth_confidence_1_to_4": 3,
        "future_growth_source_granularity": "official_project_polygon + parcel_geometry_centroid",
        "future_growth_geometry_relation": "strict parcel centroid within official NSIP project polygon",
        "future_growth_drivers": [
          "Energy"
        ],
        "future_growth_project_name": "Aldbrough Hydrogen Storage",
        "future_growth_project_stage": "Pre Application",
        "future_growth_scoring_status": "METHODOLOGY_APPROVAL_REQUIRED",
        "future_growth_source_url": "https://infrastructure.planninginspectorate.gov.uk/",
        "source_url": "https://infrastructure.planninginspectorate.gov.uk/",
        "source_accessed_at": "2026-08-15T08:33:07Z",
        "source_sha256": "88b3d3f22e2d736b821348a1ac88416b4612040b884396a35de07185580df878",
        "source_license": "Official Planning Inspectorate/NSIP source; licence verification required before production",
        "source_record_scope": {
          "code": "EN030003",
          "stage": "Pre Application",
          "type": "Energy"
        },
        "parcel_geometry_source": "north.pmtiles",
        "parcel_geometry_relation": "PMTiles parcel polygon ring centroid",
        "evidence_level": 3,
        "demo_only": true,
        "fake_data": false,
        "final_ready": false,
        "production_merge": false,
        "generated_at": "2026-08-15T08:33:07Z"
      }
    },
    {
      "type": "Feature",
      "id": "future_growth_6-nsip-EN030003-36023384",
      "geometry": {
        "type": "Point",
        "coordinates": [
          -0.09137034579751922,
          53.81188905800806
        ]
      },
      "properties": {
        "topic_id": "future-growth",
        "slot_id": "future_growth_6",
        "parcel_id": "36023384",
        "program_parcel_id": "pmtiles:north:36023384",
        "future_growth_value": null,
        "future_growth_probability": null,
        "future_growth_confidence_1_to_4": 3,
        "future_growth_source_granularity": "official_project_polygon + parcel_geometry_centroid",
        "future_growth_geometry_relation": "strict parcel centroid within official NSIP project polygon",
        "future_growth_drivers": [
          "Energy"
        ],
        "future_growth_project_name": "Aldbrough Hydrogen Storage",
        "future_growth_project_stage": "Pre Application",
        "future_growth_scoring_status": "METHODOLOGY_APPROVAL_REQUIRED",
        "future_growth_source_url": "https://infrastructure.planninginspectorate.gov.uk/",
        "source_url": "https://infrastructure.planninginspectorate.gov.uk/",
        "source_accessed_at": "2026-08-15T08:33:07Z",
        "source_sha256": "88b3d3f22e2d736b821348a1ac88416b4612040b884396a35de07185580df878",
        "source_license": "Official Planning Inspectorate/NSIP source; licence verification required before production",
        "source_record_scope": {
          "code": "EN030003",
          "stage": "Pre Application",
          "type": "Energy"
        },
        "parcel_geometry_source": "north.pmtiles",
        "parcel_geometry_relation": "PMTiles parcel polygon ring centroid",
        "evidence_level": 3,
        "demo_only": true,
        "fake_data": false,
        "final_ready": false,
        "production_merge": false,
        "generated_at": "2026-08-15T08:33:07Z"
      }
    },
    {
      "type": "Feature",
      "id": "future_growth_6-nsip-EN030003-36023384",
      "geometry": {
        "type": "Point",
        "coordinates": [
          -0.09023086139154382,
          53.81282802050896
        ]
      },
      "properties": {
        "topic_id": "future-growth",
        "slot_id": "future_growth_6",
        "parcel_id": "36023384",
        "program_parcel_id": "pmtiles:north:36023384",
        "future_growth_value": null,
        "future_growth_probability": null,
        "future_growth_confidence_1_to_4": 3,
        "future_growth_source_granularity": "official_project_polygon + parcel_geometry_centroid",
        "future_growth_geometry_relation": "strict parcel centroid within official NSIP project polygon",
        "future_growth_drivers": [
          "Energy"
        ],
        "future_growth_project_name": "Aldbrough Hydrogen Storage",
        "future_growth_project_stage": "Pre Application",
        "future_growth_scoring_status": "METHODOLOGY_APPROVAL_REQUIRED",
        "future_growth_source_url": "https://infrastructure.planninginspectorate.gov.uk/",
        "source_url": "https://infrastructure.planninginspectorate.gov.uk/",
        "source_accessed_at": "2026-08-15T08:33:07Z",
        "source_sha256": "88b3d3f22e2d736b821348a1ac88416b4612040b884396a35de07185580df878",
        "source_license": "Official Planning Inspectorate/NSIP source; licence verification required before production",
        "source_record_scope": {
          "code": "EN030003",
          "stage": "Pre Application",
          "type": "Energy"
        },
        "parcel_geometry_source": "north.pmtiles",
        "parcel_geometry_relation": "PMTiles parcel polygon ring centroid",
        "evidence_level": 3,
        "demo_only": true,
        "fake_data": false,
        "final_ready": false,
        "production_merge": false,
        "generated_at": "2026-08-15T08:33:07Z"
      }
    },
    {
      "type": "Feature",
      "id": "future_growth_6-nsip-EN030003-36023384",
      "geometry": {
        "type": "Point",
        "coordinates": [
          -0.09018220427617644,
          53.812427622749645
        ]
      },
      "properties": {
        "topic_id": "future-growth",
        "slot_id": "future_growth_6",
        "parcel_id": "36023384",
        "program_parcel_id": "pmtiles:north:36023384",
        "future_growth_value": null,
        "future_growth_probability": null,
        "future_growth_confidence_1_to_4": 3,
        "future_growth_source_granularity": "official_project_polygon + parcel_geometry_centroid",
        "future_growth_geometry_relation": "strict parcel centroid within official NSIP project polygon",
        "future_growth_drivers": [
          "Energy"
        ],
        "future_growth_project_name": "Aldbrough Hydrogen Storage",
        "future_growth_project_stage": "Pre Application",
        "future_growth_scoring_status": "METHODOLOGY_APPROVAL_REQUIRED",
        "future_growth_source_url": "https://infrastructure.planninginspectorate.gov.uk/",
        "source_url": "https://infrastructure.planninginspectorate.gov.uk/",
        "source_accessed_at": "2026-08-15T08:33:07Z",
        "source_sha256": "88b3d3f22e2d736b821348a1ac88416b4612040b884396a35de07185580df878",
        "source_license": "Official Planning Inspectorate/NSIP source; licence verification required before production",
        "source_record_scope": {
          "code": "EN030003",
          "stage": "Pre Application",
          "type": "Energy"
        },
        "parcel_geometry_source": "north.pmtiles",
        "parcel_geometry_relation": "PMTiles parcel polygon ring centroid",
        "evidence_level": 3,
        "demo_only": true,
        "fake_data": false,
        "final_ready": false,
        "production_merge": false,
        "generated_at": "2026-08-15T08:33:07Z"
      }
    },
    {
      "type": "Feature",
      "id": "future_growth_6-nsip-EN030003-36023384",
      "geometry": {
        "type": "Point",
        "coordinates": [
          -0.0904568737577633,
          53.81197177556943
        ]
      },
      "properties": {
        "topic_id": "future-growth",
        "slot_id": "future_growth_6",
        "parcel_id": "36023384",
        "program_parcel_id": "pmtiles:north:36023384",
        "future_growth_value": null,
        "future_growth_probability": null,
        "future_growth_confidence_1_to_4": 3,
        "future_growth_source_granularity": "official_project_polygon + parcel_geometry_centroid",
        "future_growth_geometry_relation": "strict parcel centroid within official NSIP project polygon",
        "future_growth_drivers": [
          "Energy"
        ],
        "future_growth_project_name": "Aldbrough Hydrogen Storage",
        "future_growth_project_stage": "Pre Application",
        "future_growth_scoring_status": "METHODOLOGY_APPROVAL_REQUIRED",
        "future_growth_source_url": "https://infrastructure.planninginspectorate.gov.uk/",
        "source_url": "https://infrastructure.planninginspectorate.gov.uk/",
        "source_accessed_at": "2026-08-15T08:33:07Z",
        "source_sha256": "88b3d3f22e2d736b821348a1ac88416b4612040b884396a35de07185580df878",
        "source_license": "Official Planning Inspectorate/NSIP source; licence verification required before production",
        "source_record_scope": {
          "code": "EN030003",
          "stage": "Pre Application",
          "type": "Energy"
        },
        "parcel_geometry_source": "north.pmtiles",
        "parcel_geometry_relation": "PMTiles parcel polygon ring centroid",
        "evidence_level": 3,
        "demo_only": true,
        "fake_data": false,
        "final_ready": false,
        "production_merge": false,
        "generated_at": "2026-08-15T08:33:07Z"
      }
    },
    {
      "type": "Feature",
      "id": "future_growth_6-nsip-EN030003-36030667",
      "geometry": {
        "type": "Point",
        "coordinates": [
          -0.09114910773264755,
          53.81146750078082
        ]
      },
      "properties": {
        "topic_id": "future-growth",
        "slot_id": "future_growth_6",
        "parcel_id": "36030667",
        "program_parcel_id": "pmtiles:north:36030667",
        "future_growth_value": null,
        "future_growth_probability": null,
        "future_growth_confidence_1_to_4": 3,
        "future_growth_source_granularity": "official_project_polygon + parcel_geometry_centroid",
        "future_growth_geometry_relation": "strict parcel centroid within official NSIP project polygon",
        "future_growth_drivers": [
          "Energy"
        ],
        "future_growth_project_name": "Aldbrough Hydrogen Storage",
        "future_growth_project_stage": "Pre Application",
        "future_growth_scoring_status": "METHODOLOGY_APPROVAL_REQUIRED",
        "future_growth_source_url": "https://infrastructure.planninginspectorate.gov.uk/",
        "source_url": "https://infrastructure.planninginspectorate.gov.uk/",
        "source_accessed_at": "2026-08-15T08:33:07Z",
        "source_sha256": "88b3d3f22e2d736b821348a1ac88416b4612040b884396a35de07185580df878",
        "source_license": "Official Planning Inspectorate/NSIP source; licence verification required before production",
        "source_record_scope": {
          "code": "EN030003",
          "stage": "Pre Application",
          "type": "Energy"
        },
        "parcel_geometry_source": "north.pmtiles",
        "parcel_geometry_relation": "PMTiles parcel polygon ring centroid",
        "evidence_level": 3,
        "demo_only": true,
        "fake_data": false,
        "final_ready": false,
        "production_merge": false,
        "generated_at": "2026-08-15T08:33:07Z"
      }
    },
    {
      "type": "Feature",
      "id": "future_growth_6-nsip-EN030003-36030667",
      "geometry": {
        "type": "Point",
        "coordinates": [
          -0.09110405611223515,
          53.81080042529274
        ]
      },
      "properties": {
        "topic_id": "future-growth",
        "slot_id": "future_growth_6",
        "parcel_id": "36030667",
        "program_parcel_id": "pmtiles:north:36030667",
        "future_growth_value": null,
        "future_growth_probability": null,
        "future_growth_confidence_1_to_4": 3,
        "future_growth_source_granularity": "official_project_polygon + parcel_geometry_centroid",
        "future_growth_geometry_relation": "strict parcel centroid within official NSIP project polygon",
        "future_growth_drivers": [
          "Energy"
        ],
        "future_growth_project_name": "Aldbrough Hydrogen Storage",
        "future_growth_project_stage": "Pre Application",
        "future_growth_scoring_status": "METHODOLOGY_APPROVAL_REQUIRED",
        "future_growth_source_url": "https://infrastructure.planninginspectorate.gov.uk/",
        "source_url": "https://infrastructure.planninginspectorate.gov.uk/",
        "source_accessed_at": "2026-08-15T08:33:07Z",
        "source_sha256": "88b3d3f22e2d736b821348a1ac88416b4612040b884396a35de07185580df878",
        "source_license": "Official Planning Inspectorate/NSIP source; licence verification required before production",
        "source_record_scope": {
          "code": "EN030003",
          "stage": "Pre Application",
          "type": "Energy"
        },
        "parcel_geometry_source": "north.pmtiles",
        "parcel_geometry_relation": "PMTiles parcel polygon ring centroid",
        "evidence_level": 3,
        "demo_only": true,
        "fake_data": false,
        "final_ready": false,
        "production_merge": false,
        "generated_at": "2026-08-15T08:33:07Z"
      }
    },
    {
      "type": "Feature",
      "id": "future_growth_6-nsip-EN030003-36030667",
      "geometry": {
        "type": "Point",
        "coordinates": [
          -0.09100611475425574,
          53.81000352184321
        ]
      },
      "properties": {
        "topic_id": "future-growth",
        "slot_id": "future_growth_6",
        "parcel_id": "36030667",
        "program_parcel_id": "pmtiles:north:36030667",
        "future_growth_value": null,
        "future_growth_probability": null,
        "future_growth_confidence_1_to_4": 3,
        "future_growth_source_granularity": "official_project_polygon + parcel_geometry_centroid",
        "future_growth_geometry_relation": "strict parcel centroid within official NSIP project polygon",
        "future_growth_drivers": [
          "Energy"
        ],
        "future_growth_project_name": "Aldbrough Hydrogen Storage",
        "future_growth_project_stage": "Pre Application",
        "future_growth_scoring_status": "METHODOLOGY_APPROVAL_REQUIRED",
        "future_growth_source_url": "https://infrastructure.planninginspectorate.gov.uk/",
        "source_url": "https://infrastructure.planninginspectorate.gov.uk/",
        "source_accessed_at": "2026-08-15T08:33:07Z",
        "source_sha256": "88b3d3f22e2d736b821348a1ac88416b4612040b884396a35de07185580df878",
        "source_license": "Official Planning Inspectorate/NSIP source; licence verification required before production",
        "source_record_scope": {
          "code": "EN030003",
          "stage": "Pre Application",
          "type": "Energy"
        },
        "parcel_geometry_source": "north.pmtiles",
        "parcel_geometry_relation": "PMTiles parcel polygon ring centroid",
        "evidence_level": 3,
        "demo_only": true,
        "fake_data": false,
        "final_ready": false,
        "production_merge": false,
        "generated_at": "2026-08-15T08:33:07Z"
      }
    },
    {
      "type": "Feature",
      "id": "future_growth_6-nsip-EN030003-36030667",
      "geometry": {
        "type": "Point",
        "coordinates": [
          -0.09093262191233892,
          53.80932840158626
        ]
      },
      "properties": {
        "topic_id": "future-growth",
        "slot_id": "future_growth_6",
        "parcel_id": "36030667",
        "program_parcel_id": "pmtiles:north:36030667",
        "future_growth_value": null,
        "future_growth_probability": null,
        "future_growth_confidence_1_to_4": 3,
        "future_growth_source_granularity": "official_project_polygon + parcel_geometry_centroid",
        "future_growth_geometry_relation": "strict parcel centroid within official NSIP project polygon",
        "future_growth_drivers": [
          "Energy"
        ],
        "future_growth_project_name": "Aldbrough Hydrogen Storage",
        "future_growth_project_stage": "Pre Application",
        "future_growth_scoring_status": "METHODOLOGY_APPROVAL_REQUIRED",
        "future_growth_source_url": "https://infrastructure.planninginspectorate.gov.uk/",
        "source_url": "https://infrastructure.planninginspectorate.gov.uk/",
        "source_accessed_at": "2026-08-15T08:33:07Z",
        "source_sha256": "88b3d3f22e2d736b821348a1ac88416b4612040b884396a35de07185580df878",
        "source_license": "Official Planning Inspectorate/NSIP source; licence verification required before production",
        "source_record_scope": {
          "code": "EN030003",
          "stage": "Pre Application",
          "type": "Energy"
        },
        "parcel_geometry_source": "north.pmtiles",
        "parcel_geometry_relation": "PMTiles parcel polygon ring centroid",
        "evidence_level": 3,
        "demo_only": true,
        "fake_data": false,
        "final_ready": false,
        "production_merge": false,
        "generated_at": "2026-08-15T08:33:07Z"
      }
    },
    {
      "type": "Feature",
      "id": "future_growth_6-nsip-EN030003-36030667",
      "geometry": {
        "type": "Point",
        "coordinates": [
          -0.08976502092826237,
          53.812092235557614
        ]
      },
      "properties": {
        "topic_id": "future-growth",
        "slot_id": "future_growth_6",
        "parcel_id": "36030667",
        "program_parcel_id": "pmtiles:north:36030667",
        "future_growth_value": null,
        "future_growth_probability": null,
        "future_growth_confidence_1_to_4": 3,
        "future_growth_source_granularity": "official_project_polygon + parcel_geometry_centroid",
        "future_growth_geometry_relation": "strict parcel centroid within official NSIP project polygon",
        "future_growth_drivers": [
          "Energy"
        ],
        "future_growth_project_name": "Aldbrough Hydrogen Storage",
        "future_growth_project_stage": "Pre Application",
        "future_growth_scoring_status": "METHODOLOGY_APPROVAL_REQUIRED",
        "future_growth_source_url": "https://infrastructure.planninginspectorate.gov.uk/",
        "source_url": "https://infrastructure.planninginspectorate.gov.uk/",
        "source_accessed_at": "2026-08-15T08:33:07Z",
        "source_sha256": "88b3d3f22e2d736b821348a1ac88416b4612040b884396a35de07185580df878",
        "source_license": "Official Planning Inspectorate/NSIP source; licence verification required before production",
        "source_record_scope": {
          "code": "EN030003",
          "stage": "Pre Application",
          "type": "Energy"
        },
        "parcel_geometry_source": "north.pmtiles",
        "parcel_geometry_relation": "PMTiles parcel polygon ring centroid",
        "evidence_level": 3,
        "demo_only": true,
        "fake_data": false,
        "final_ready": false,
        "production_merge": false,
        "generated_at": "2026-08-15T08:33:07Z"
      }
    },
    {
      "type": "Feature",
      "id": "future_growth_6-nsip-EN030003-36030667",
      "geometry": {
        "type": "Point",
        "coordinates": [
          -0.09024113772589955,
          53.811452953641044
        ]
      },
      "properties": {
        "topic_id": "future-growth",
        "slot_id": "future_growth_6",
        "parcel_id": "36030667",
        "program_parcel_id": "pmtiles:north:36030667",
        "future_growth_value": null,
        "future_growth_probability": null,
        "future_growth_confidence_1_to_4": 3,
        "future_growth_source_granularity": "official_project_polygon + parcel_geometry_centroid",
        "future_growth_geometry_relation": "strict parcel centroid within official NSIP project polygon",
        "future_growth_drivers": [
          "Energy"
        ],
        "future_growth_project_name": "Aldbrough Hydrogen Storage",
        "future_growth_project_stage": "Pre Application",
        "future_growth_scoring_status": "METHODOLOGY_APPROVAL_REQUIRED",
        "future_growth_source_url": "https://infrastructure.planninginspectorate.gov.uk/",
        "source_url": "https://infrastructure.planninginspectorate.gov.uk/",
        "source_accessed_at": "2026-08-15T08:33:07Z",
        "source_sha256": "88b3d3f22e2d736b821348a1ac88416b4612040b884396a35de07185580df878",
        "source_license": "Official Planning Inspectorate/NSIP source; licence verification required before production",
        "source_record_scope": {
          "code": "EN030003",
          "stage": "Pre Application",
          "type": "Energy"
        },
        "parcel_geometry_source": "north.pmtiles",
        "parcel_geometry_relation": "PMTiles parcel polygon ring centroid",
        "evidence_level": 3,
        "demo_only": true,
        "fake_data": false,
        "final_ready": false,
        "production_merge": false,
        "generated_at": "2026-08-15T08:33:07Z"
      }
    },
    {
      "type": "Feature",
      "id": "future_growth_6-nsip-EN030003-36030667",
      "geometry": {
        "type": "Point",
        "coordinates": [
          -0.09011956892122144,
          53.810785044859124
        ]
      },
      "properties": {
        "topic_id": "future-growth",
        "slot_id": "future_growth_6",
        "parcel_id": "36030667",
        "program_parcel_id": "pmtiles:north:36030667",
        "future_growth_value": null,
        "future_growth_probability": null,
        "future_growth_confidence_1_to_4": 3,
        "future_growth_source_granularity": "official_project_polygon + parcel_geometry_centroid",
        "future_growth_geometry_relation": "strict parcel centroid within official NSIP project polygon",
        "future_growth_drivers": [
          "Energy"
        ],
        "future_growth_project_name": "Aldbrough Hydrogen Storage",
        "future_growth_project_stage": "Pre Application",
        "future_growth_scoring_status": "METHODOLOGY_APPROVAL_REQUIRED",
        "future_growth_source_url": "https://infrastructure.planninginspectorate.gov.uk/",
        "source_url": "https://infrastructure.planninginspectorate.gov.uk/",
        "source_accessed_at": "2026-08-15T08:33:07Z",
        "source_sha256": "88b3d3f22e2d736b821348a1ac88416b4612040b884396a35de07185580df878",
        "source_license": "Official Planning Inspectorate/NSIP source; licence verification required before production",
        "source_record_scope": {
          "code": "EN030003",
          "stage": "Pre Application",
          "type": "Energy"
        },
        "parcel_geometry_source": "north.pmtiles",
        "parcel_geometry_relation": "PMTiles parcel polygon ring centroid",
        "evidence_level": 3,
        "demo_only": true,
        "fake_data": false,
        "final_ready": false,
        "production_merge": false,
        "generated_at": "2026-08-15T08:33:07Z"
      }
    },
    {
      "type": "Feature",
      "id": "future_growth_6-nsip-EN030003-36030667",
      "geometry": {
        "type": "Point",
        "coordinates": [
          -0.09007900705887101,
          53.809974741580646
        ]
      },
      "properties": {
        "topic_id": "future-growth",
        "slot_id": "future_growth_6",
        "parcel_id": "36030667",
        "program_parcel_id": "pmtiles:north:36030667",
        "future_growth_value": null,
        "future_growth_probability": null,
        "future_growth_confidence_1_to_4": 3,
        "future_growth_source_granularity": "official_project_polygon + parcel_geometry_centroid",
        "future_growth_geometry_relation": "strict parcel centroid within official NSIP project polygon",
        "future_growth_drivers": [
          "Energy"
        ],
        "future_growth_project_name": "Aldbrough Hydrogen Storage",
        "future_growth_project_stage": "Pre Application",
        "future_growth_scoring_status": "METHODOLOGY_APPROVAL_REQUIRED",
        "future_growth_source_url": "https://infrastructure.planninginspectorate.gov.uk/",
        "source_url": "https://infrastructure.planninginspectorate.gov.uk/",
        "source_accessed_at": "2026-08-15T08:33:07Z",
        "source_sha256": "88b3d3f22e2d736b821348a1ac88416b4612040b884396a35de07185580df878",
        "source_license": "Official Planning Inspectorate/NSIP source; licence verification required before production",
        "source_record_scope": {
          "code": "EN030003",
          "stage": "Pre Application",
          "type": "Energy"
        },
        "parcel_geometry_source": "north.pmtiles",
        "parcel_geometry_relation": "PMTiles parcel polygon ring centroid",
        "evidence_level": 3,
        "demo_only": true,
        "fake_data": false,
        "final_ready": false,
        "production_merge": false,
        "generated_at": "2026-08-15T08:33:07Z"
      }
    },
    {
      "type": "Feature",
      "id": "future_growth_6-nsip-EN030003-36030667",
      "geometry": {
        "type": "Point",
        "coordinates": [
          -0.09011873551623133,
          53.809379344800234
        ]
      },
      "properties": {
        "topic_id": "future-growth",
        "slot_id": "future_growth_6",
        "parcel_id": "36030667",
        "program_parcel_id": "pmtiles:north:36030667",
        "future_growth_value": null,
        "future_growth_probability": null,
        "future_growth_confidence_1_to_4": 3,
        "future_growth_source_granularity": "official_project_polygon + parcel_geometry_centroid",
        "future_growth_geometry_relation": "strict parcel centroid within official NSIP project polygon",
        "future_growth_drivers": [
          "Energy"
        ],
        "future_growth_project_name": "Aldbrough Hydrogen Storage",
        "future_growth_project_stage": "Pre Application",
        "future_growth_scoring_status": "METHODOLOGY_APPROVAL_REQUIRED",
        "future_growth_source_url": "https://infrastructure.planninginspectorate.gov.uk/",
        "source_url": "https://infrastructure.planninginspectorate.gov.uk/",
        "source_accessed_at": "2026-08-15T08:33:07Z",
        "source_sha256": "88b3d3f22e2d736b821348a1ac88416b4612040b884396a35de07185580df878",
        "source_license": "Official Planning Inspectorate/NSIP source; licence verification required before production",
        "source_record_scope": {
          "code": "EN030003",
          "stage": "Pre Application",
          "type": "Energy"
        },
        "parcel_geometry_source": "north.pmtiles",
        "parcel_geometry_relation": "PMTiles parcel polygon ring centroid",
        "evidence_level": 3,
        "demo_only": true,
        "fake_data": false,
        "final_ready": false,
        "production_merge": false,
        "generated_at": "2026-08-15T08:33:07Z"
      }
    },
    {
      "type": "Feature",
      "id": "future_growth_6-nsip-EN030003-36046313",
      "geometry": {
        "type": "Point",
        "coordinates": [
          -0.08946553764547137,
          53.81205380105995
        ]
      },
      "properties": {
        "topic_id": "future-growth",
        "slot_id": "future_growth_6",
        "parcel_id": "36046313",
        "program_parcel_id": "pmtiles:north:36046313",
        "future_growth_value": null,
        "future_growth_probability": null,
        "future_growth_confidence_1_to_4": 3,
        "future_growth_source_granularity": "official_project_polygon + parcel_geometry_centroid",
        "future_growth_geometry_relation": "strict parcel centroid within official NSIP project polygon",
        "future_growth_drivers": [
          "Energy"
        ],
        "future_growth_project_name": "Aldbrough Hydrogen Storage",
        "future_growth_project_stage": "Pre Application",
        "future_growth_scoring_status": "METHODOLOGY_APPROVAL_REQUIRED",
        "future_growth_source_url": "https://infrastructure.planninginspectorate.gov.uk/",
        "source_url": "https://infrastructure.planninginspectorate.gov.uk/",
        "source_accessed_at": "2026-08-15T08:33:07Z",
        "source_sha256": "88b3d3f22e2d736b821348a1ac88416b4612040b884396a35de07185580df878",
        "source_license": "Official Planning Inspectorate/NSIP source; licence verification required before production",
        "source_record_scope": {
          "code": "EN030003",
          "stage": "Pre Application",
          "type": "Energy"
        },
        "parcel_geometry_source": "north.pmtiles",
        "parcel_geometry_relation": "PMTiles parcel polygon ring centroid",
        "evidence_level": 3,
        "demo_only": true,
        "fake_data": false,
        "final_ready": false,
        "production_merge": false,
        "generated_at": "2026-08-15T08:33:07Z"
      }
    },
    {
      "type": "Feature",
      "id": "future_growth_6-nsip-EN030003-36046313",
      "geometry": {
        "type": "Point",
        "coordinates": [
          -0.08930603959714446,
          53.81200176571519
        ]
      },
      "properties": {
        "topic_id": "future-growth",
        "slot_id": "future_growth_6",
        "parcel_id": "36046313",
        "program_parcel_id": "pmtiles:north:36046313",
        "future_growth_value": null,
        "future_growth_probability": null,
        "future_growth_confidence_1_to_4": 3,
        "future_growth_source_granularity": "official_project_polygon + parcel_geometry_centroid",
        "future_growth_geometry_relation": "strict parcel centroid within official NSIP project polygon",
        "future_growth_drivers": [
          "Energy"
        ],
        "future_growth_project_name": "Aldbrough Hydrogen Storage",
        "future_growth_project_stage": "Pre Application",
        "future_growth_scoring_status": "METHODOLOGY_APPROVAL_REQUIRED",
        "future_growth_source_url": "https://infrastructure.planninginspectorate.gov.uk/",
        "source_url": "https://infrastructure.planninginspectorate.gov.uk/",
        "source_accessed_at": "2026-08-15T08:33:07Z",
        "source_sha256": "88b3d3f22e2d736b821348a1ac88416b4612040b884396a35de07185580df878",
        "source_license": "Official Planning Inspectorate/NSIP source; licence verification required before production",
        "source_record_scope": {
          "code": "EN030003",
          "stage": "Pre Application",
          "type": "Energy"
        },
        "parcel_geometry_source": "north.pmtiles",
        "parcel_geometry_relation": "PMTiles parcel polygon ring centroid",
        "evidence_level": 3,
        "demo_only": true,
        "fake_data": false,
        "final_ready": false,
        "production_merge": false,
        "generated_at": "2026-08-15T08:33:07Z"
      }
    },
    {
      "type": "Feature",
      "id": "future_growth_6-nsip-EN030003-36046313",
      "geometry": {
        "type": "Point",
        "coordinates": [
          -0.08921003159052178,
          53.812005474563456
        ]
      },
      "properties": {
        "topic_id": "future-growth",
        "slot_id": "future_growth_6",
        "parcel_id": "36046313",
        "program_parcel_id": "pmtiles:north:36046313",
        "future_growth_value": null,
        "future_growth_probability": null,
        "future_growth_confidence_1_to_4": 3,
        "future_growth_source_granularity": "official_project_polygon + parcel_geometry_centroid",
        "future_growth_geometry_relation": "strict parcel centroid within official NSIP project polygon",
        "future_growth_drivers": [
          "Energy"
        ],
        "future_growth_project_name": "Aldbrough Hydrogen Storage",
        "future_growth_project_stage": "Pre Application",
        "future_growth_scoring_status": "METHODOLOGY_APPROVAL_REQUIRED",
        "future_growth_source_url": "https://infrastructure.planninginspectorate.gov.uk/",
        "source_url": "https://infrastructure.planninginspectorate.gov.uk/",
        "source_accessed_at": "2026-08-15T08:33:07Z",
        "source_sha256": "88b3d3f22e2d736b821348a1ac88416b4612040b884396a35de07185580df878",
        "source_license": "Official Planning Inspectorate/NSIP source; licence verification required before production",
        "source_record_scope": {
          "code": "EN030003",
          "stage": "Pre Application",
          "type": "Energy"
        },
        "parcel_geometry_source": "north.pmtiles",
        "parcel_geometry_relation": "PMTiles parcel polygon ring centroid",
        "evidence_level": 3,
        "demo_only": true,
        "fake_data": false,
        "final_ready": false,
        "production_merge": false,
        "generated_at": "2026-08-15T08:33:07Z"
      }
    },
    {
      "type": "Feature",
      "id": "future_growth_6-nsip-EN030003-36046313",
      "geometry": {
        "type": "Point",
        "coordinates": [
          -0.08892309035781083,
          53.81190440425585
        ]
      },
      "properties": {
        "topic_id": "future-growth",
        "slot_id": "future_growth_6",
        "parcel_id": "36046313",
        "program_parcel_id": "pmtiles:north:36046313",
        "future_growth_value": null,
        "future_growth_probability": null,
        "future_growth_confidence_1_to_4": 3,
        "future_growth_source_granularity": "official_project_polygon + parcel_geometry_centroid",
        "future_growth_geometry_relation": "strict parcel centroid within official NSIP project polygon",
        "future_growth_drivers": [
          "Energy"
        ],
        "future_growth_project_name": "Aldbrough Hydrogen Storage",
        "future_growth_project_stage": "Pre Application",
        "future_growth_scoring_status": "METHODOLOGY_APPROVAL_REQUIRED",
        "future_growth_source_url": "https://infrastructure.planninginspectorate.gov.uk/",
        "source_url": "https://infrastructure.planninginspectorate.gov.uk/",
        "source_accessed_at": "2026-08-15T08:33:07Z",
        "source_sha256": "88b3d3f22e2d736b821348a1ac88416b4612040b884396a35de07185580df878",
        "source_license": "Official Planning Inspectorate/NSIP source; licence verification required before production",
        "source_record_scope": {
          "code": "EN030003",
          "stage": "Pre Application",
          "type": "Energy"
        },
        "parcel_geometry_source": "north.pmtiles",
        "parcel_geometry_relation": "PMTiles parcel polygon ring centroid",
        "evidence_level": 3,
        "demo_only": true,
        "fake_data": false,
        "final_ready": false,
        "production_merge": false,
        "generated_at": "2026-08-15T08:33:07Z"
      }
    },
    {
      "type": "Feature",
      "id": "future_growth_6-nsip-EN030003-36055921",
      "geometry": {
        "type": "Point",
        "coordinates": [
          -0.0886377134540031,
          53.81196048273226
        ]
      },
      "properties": {
        "topic_id": "future-growth",
        "slot_id": "future_growth_6",
        "parcel_id": "36055921",
        "program_parcel_id": "pmtiles:north:36055921",
        "future_growth_value": null,
        "future_growth_probability": null,
        "future_growth_confidence_1_to_4": 3,
        "future_growth_source_granularity": "official_project_polygon + parcel_geometry_centroid",
        "future_growth_geometry_relation": "strict parcel centroid within official NSIP project polygon",
        "future_growth_drivers": [
          "Energy"
        ],
        "future_growth_project_name": "Aldbrough Hydrogen Storage",
        "future_growth_project_stage": "Pre Application",
        "future_growth_scoring_status": "METHODOLOGY_APPROVAL_REQUIRED",
        "future_growth_source_url": "https://infrastructure.planninginspectorate.gov.uk/",
        "source_url": "https://infrastructure.planninginspectorate.gov.uk/",
        "source_accessed_at": "2026-08-15T08:33:07Z",
        "source_sha256": "88b3d3f22e2d736b821348a1ac88416b4612040b884396a35de07185580df878",
        "source_license": "Official Planning Inspectorate/NSIP source; licence verification required before production",
        "source_record_scope": {
          "code": "EN030003",
          "stage": "Pre Application",
          "type": "Energy"
        },
        "parcel_geometry_source": "north.pmtiles",
        "parcel_geometry_relation": "PMTiles parcel polygon ring centroid",
        "evidence_level": 3,
        "demo_only": true,
        "fake_data": false,
        "final_ready": false,
        "production_merge": false,
        "generated_at": "2026-08-15T08:33:07Z"
      }
    },
    {
      "type": "Feature",
      "id": "future_growth_6-nsip-EN030003-36055921",
      "geometry": {
        "type": "Point",
        "coordinates": [
          -0.08790793865469225,
          53.81201591083237
        ]
      },
      "properties": {
        "topic_id": "future-growth",
        "slot_id": "future_growth_6",
        "parcel_id": "36055921",
        "program_parcel_id": "pmtiles:north:36055921",
        "future_growth_value": null,
        "future_growth_probability": null,
        "future_growth_confidence_1_to_4": 3,
        "future_growth_source_granularity": "official_project_polygon + parcel_geometry_centroid",
        "future_growth_geometry_relation": "strict parcel centroid within official NSIP project polygon",
        "future_growth_drivers": [
          "Energy"
        ],
        "future_growth_project_name": "Aldbrough Hydrogen Storage",
        "future_growth_project_stage": "Pre Application",
        "future_growth_scoring_status": "METHODOLOGY_APPROVAL_REQUIRED",
        "future_growth_source_url": "https://infrastructure.planninginspectorate.gov.uk/",
        "source_url": "https://infrastructure.planninginspectorate.gov.uk/",
        "source_accessed_at": "2026-08-15T08:33:07Z",
        "source_sha256": "88b3d3f22e2d736b821348a1ac88416b4612040b884396a35de07185580df878",
        "source_license": "Official Planning Inspectorate/NSIP source; licence verification required before production",
        "source_record_scope": {
          "code": "EN030003",
          "stage": "Pre Application",
          "type": "Energy"
        },
        "parcel_geometry_source": "north.pmtiles",
        "parcel_geometry_relation": "PMTiles parcel polygon ring centroid",
        "evidence_level": 3,
        "demo_only": true,
        "fake_data": false,
        "final_ready": false,
        "production_merge": false,
        "generated_at": "2026-08-15T08:33:07Z"
      }
    },
    {
      "type": "Feature",
      "id": "future_growth_6-nsip-EN030003-36055921",
      "geometry": {
        "type": "Point",
        "coordinates": [
          -0.08785960634405608,
          53.81201299307355
        ]
      },
      "properties": {
        "topic_id": "future-growth",
        "slot_id": "future_growth_6",
        "parcel_id": "36055921",
        "program_parcel_id": "pmtiles:north:36055921",
        "future_growth_value": null,
        "future_growth_probability": null,
        "future_growth_confidence_1_to_4": 3,
        "future_growth_source_granularity": "official_project_polygon + parcel_geometry_centroid",
        "future_growth_geometry_relation": "strict parcel centroid within official NSIP project polygon",
        "future_growth_drivers": [
          "Energy"
        ],
        "future_growth_project_name": "Aldbrough Hydrogen Storage",
        "future_growth_project_stage": "Pre Application",
        "future_growth_scoring_status": "METHODOLOGY_APPROVAL_REQUIRED",
        "future_growth_source_url": "https://infrastructure.planninginspectorate.gov.uk/",
        "source_url": "https://infrastructure.planninginspectorate.gov.uk/",
        "source_accessed_at": "2026-08-15T08:33:07Z",
        "source_sha256": "88b3d3f22e2d736b821348a1ac88416b4612040b884396a35de07185580df878",
        "source_license": "Official Planning Inspectorate/NSIP source; licence verification required before production",
        "source_record_scope": {
          "code": "EN030003",
          "stage": "Pre Application",
          "type": "Energy"
        },
        "parcel_geometry_source": "north.pmtiles",
        "parcel_geometry_relation": "PMTiles parcel polygon ring centroid",
        "evidence_level": 3,
        "demo_only": true,
        "fake_data": false,
        "final_ready": false,
        "production_merge": false,
        "generated_at": "2026-08-15T08:33:07Z"
      }
    },
    {
      "type": "Feature",
      "id": "future_growth_6-nsip-EN030003-36058513",
      "geometry": {
        "type": "Point",
        "coordinates": [
          -0.09214258409521277,
          53.80881942315125
        ]
      },
      "properties": {
        "topic_id": "future-growth",
        "slot_id": "future_growth_6",
        "parcel_id": "36058513",
        "program_parcel_id": "pmtiles:north:36058513",
        "future_growth_value": null,
        "future_growth_probability": null,
        "future_growth_confidence_1_to_4": 3,
        "future_growth_source_granularity": "official_project_polygon + parcel_geometry_centroid",
        "future_growth_geometry_relation": "strict parcel centroid within official NSIP project polygon",
        "future_growth_drivers": [
          "Energy"
        ],
        "future_growth_project_name": "Aldbrough Hydrogen Storage",
        "future_growth_project_stage": "Pre Application",
        "future_growth_scoring_status": "METHODOLOGY_APPROVAL_REQUIRED",
        "future_growth_source_url": "https://infrastructure.planninginspectorate.gov.uk/",
        "source_url": "https://infrastructure.planninginspectorate.gov.uk/",
        "source_accessed_at": "2026-08-15T08:33:07Z",
        "source_sha256": "88b3d3f22e2d736b821348a1ac88416b4612040b884396a35de07185580df878",
        "source_license": "Official Planning Inspectorate/NSIP source; licence verification required before production",
        "source_record_scope": {
          "code": "EN030003",
          "stage": "Pre Application",
          "type": "Energy"
        },
        "parcel_geometry_source": "north.pmtiles",
        "parcel_geometry_relation": "PMTiles parcel polygon ring centroid",
        "evidence_level": 3,
        "demo_only": true,
        "fake_data": false,
        "final_ready": false,
        "production_merge": false,
        "generated_at": "2026-08-15T08:33:07Z"
      }
    },
    {
      "type": "Feature",
      "id": "future_growth_6-nsip-EN030003-36058513",
      "geometry": {
        "type": "Point",
        "coordinates": [
          -0.09208380910282979,
          53.80869178253054
        ]
      },
      "properties": {
        "topic_id": "future-growth",
        "slot_id": "future_growth_6",
        "parcel_id": "36058513",
        "program_parcel_id": "pmtiles:north:36058513",
        "future_growth_value": null,
        "future_growth_probability": null,
        "future_growth_confidence_1_to_4": 3,
        "future_growth_source_granularity": "official_project_polygon + parcel_geometry_centroid",
        "future_growth_geometry_relation": "strict parcel centroid within official NSIP project polygon",
        "future_growth_drivers": [
          "Energy"
        ],
        "future_growth_project_name": "Aldbrough Hydrogen Storage",
        "future_growth_project_stage": "Pre Application",
        "future_growth_scoring_status": "METHODOLOGY_APPROVAL_REQUIRED",
        "future_growth_source_url": "https://infrastructure.planninginspectorate.gov.uk/",
        "source_url": "https://infrastructure.planninginspectorate.gov.uk/",
        "source_accessed_at": "2026-08-15T08:33:07Z",
        "source_sha256": "88b3d3f22e2d736b821348a1ac88416b4612040b884396a35de07185580df878",
        "source_license": "Official Planning Inspectorate/NSIP source; licence verification required before production",
        "source_record_scope": {
          "code": "EN030003",
          "stage": "Pre Application",
          "type": "Energy"
        },
        "parcel_geometry_source": "north.pmtiles",
        "parcel_geometry_relation": "PMTiles parcel polygon ring centroid",
        "evidence_level": 3,
        "demo_only": true,
        "fake_data": false,
        "final_ready": false,
        "production_merge": false,
        "generated_at": "2026-08-15T08:33:07Z"
      }
    },
    {
      "type": "Feature",
      "id": "future_growth_6-nsip-EN030003-36058513",
      "geometry": {
        "type": "Point",
        "coordinates": [
          -0.09123233709667275,
          53.80888122754547
        ]
      },
      "properties": {
        "topic_id": "future-growth",
        "slot_id": "future_growth_6",
        "parcel_id": "36058513",
        "program_parcel_id": "pmtiles:north:36058513",
        "future_growth_value": null,
        "future_growth_probability": null,
        "future_growth_confidence_1_to_4": 3,
        "future_growth_source_granularity": "official_project_polygon + parcel_geometry_centroid",
        "future_growth_geometry_relation": "strict parcel centroid within official NSIP project polygon",
        "future_growth_drivers": [
          "Energy"
        ],
        "future_growth_project_name": "Aldbrough Hydrogen Storage",
        "future_growth_project_stage": "Pre Application",
        "future_growth_scoring_status": "METHODOLOGY_APPROVAL_REQUIRED",
        "future_growth_source_url": "https://infrastructure.planninginspectorate.gov.uk/",
        "source_url": "https://infrastructure.planninginspectorate.gov.uk/",
        "source_accessed_at": "2026-08-15T08:33:07Z",
        "source_sha256": "88b3d3f22e2d736b821348a1ac88416b4612040b884396a35de07185580df878",
        "source_license": "Official Planning Inspectorate/NSIP source; licence verification required before production",
        "source_record_scope": {
          "code": "EN030003",
          "stage": "Pre Application",
          "type": "Energy"
        },
        "parcel_geometry_source": "north.pmtiles",
        "parcel_geometry_relation": "PMTiles parcel polygon ring centroid",
        "evidence_level": 3,
        "demo_only": true,
        "fake_data": false,
        "final_ready": false,
        "production_merge": false,
        "generated_at": "2026-08-15T08:33:07Z"
      }
    },
    {
      "type": "Feature",
      "id": "future_growth_6-nsip-EN030003-36058513",
      "geometry": {
        "type": "Point",
        "coordinates": [
          -0.09121029564018479,
          53.80840673557133
        ]
      },
      "properties": {
        "topic_id": "future-growth",
        "slot_id": "future_growth_6",
        "parcel_id": "36058513",
        "program_parcel_id": "pmtiles:north:36058513",
        "future_growth_value": null,
        "future_growth_probability": null,
        "future_growth_confidence_1_to_4": 3,
        "future_growth_source_granularity": "official_project_polygon + parcel_geometry_centroid",
        "future_growth_geometry_relation": "strict parcel centroid within official NSIP project polygon",
        "future_growth_drivers": [
          "Energy"
        ],
        "future_growth_project_name": "Aldbrough Hydrogen Storage",
        "future_growth_project_stage": "Pre Application",
        "future_growth_scoring_status": "METHODOLOGY_APPROVAL_REQUIRED",
        "future_growth_source_url": "https://infrastructure.planninginspectorate.gov.uk/",
        "source_url": "https://infrastructure.planninginspectorate.gov.uk/",
        "source_accessed_at": "2026-08-15T08:33:07Z",
        "source_sha256": "88b3d3f22e2d736b821348a1ac88416b4612040b884396a35de07185580df878",
        "source_license": "Official Planning Inspectorate/NSIP source; licence verification required before production",
        "source_record_scope": {
          "code": "EN030003",
          "stage": "Pre Application",
          "type": "Energy"
        },
        "parcel_geometry_source": "north.pmtiles",
        "parcel_geometry_relation": "PMTiles parcel polygon ring centroid",
        "evidence_level": 3,
        "demo_only": true,
        "fake_data": false,
        "final_ready": false,
        "production_merge": false,
        "generated_at": "2026-08-15T08:33:07Z"
      }
    },
    {
      "type": "Feature",
      "id": "future_growth_6-nsip-EN030003-36058513",
      "geometry": {
        "type": "Point",
        "coordinates": [
          -0.0908451788974087,
          53.807746058302875
        ]
      },
      "properties": {
        "topic_id": "future-growth",
        "slot_id": "future_growth_6",
        "parcel_id": "36058513",
        "program_parcel_id": "pmtiles:north:36058513",
        "future_growth_value": null,
        "future_growth_probability": null,
        "future_growth_confidence_1_to_4": 3,
        "future_growth_source_granularity": "official_project_polygon + parcel_geometry_centroid",
        "future_growth_geometry_relation": "strict parcel centroid within official NSIP project polygon",
        "future_growth_drivers": [
          "Energy"
        ],
        "future_growth_project_name": "Aldbrough Hydrogen Storage",
        "future_growth_project_stage": "Pre Application",
        "future_growth_scoring_status": "METHODOLOGY_APPROVAL_REQUIRED",
        "future_growth_source_url": "https://infrastructure.planninginspectorate.gov.uk/",
        "source_url": "https://infrastructure.planninginspectorate.gov.uk/",
        "source_accessed_at": "2026-08-15T08:33:07Z",
        "source_sha256": "88b3d3f22e2d736b821348a1ac88416b4612040b884396a35de07185580df878",
        "source_license": "Official Planning Inspectorate/NSIP source; licence verification required before production",
        "source_record_scope": {
          "code": "EN030003",
          "stage": "Pre Application",
          "type": "Energy"
        },
        "parcel_geometry_source": "north.pmtiles",
        "parcel_geometry_relation": "PMTiles parcel polygon ring centroid",
        "evidence_level": 3,
        "demo_only": true,
        "fake_data": false,
        "final_ready": false,
        "production_merge": false,
        "generated_at": "2026-08-15T08:33:07Z"
      }
    },
    {
      "type": "Feature",
      "id": "future_growth_6-nsip-EN030003-36058513",
      "geometry": {
        "type": "Point",
        "coordinates": [
          -0.08997480107453418,
          53.80895374645954
        ]
      },
      "properties": {
        "topic_id": "future-growth",
        "slot_id": "future_growth_6",
        "parcel_id": "36058513",
        "program_parcel_id": "pmtiles:north:36058513",
        "future_growth_value": null,
        "future_growth_probability": null,
        "future_growth_confidence_1_to_4": 3,
        "future_growth_source_granularity": "official_project_polygon + parcel_geometry_centroid",
        "future_growth_geometry_relation": "strict parcel centroid within official NSIP project polygon",
        "future_growth_drivers": [
          "Energy"
        ],
        "future_growth_project_name": "Aldbrough Hydrogen Storage",
        "future_growth_project_stage": "Pre Application",
        "future_growth_scoring_status": "METHODOLOGY_APPROVAL_REQUIRED",
        "future_growth_source_url": "https://infrastructure.planninginspectorate.gov.uk/",
        "source_url": "https://infrastructure.planninginspectorate.gov.uk/",
        "source_accessed_at": "2026-08-15T08:33:07Z",
        "source_sha256": "88b3d3f22e2d736b821348a1ac88416b4612040b884396a35de07185580df878",
        "source_license": "Official Planning Inspectorate/NSIP source; licence verification required before production",
        "source_record_scope": {
          "code": "EN030003",
          "stage": "Pre Application",
          "type": "Energy"
        },
        "parcel_geometry_source": "north.pmtiles",
        "parcel_geometry_relation": "PMTiles parcel polygon ring centroid",
        "evidence_level": 3,
        "demo_only": true,
        "fake_data": false,
        "final_ready": false,
        "production_merge": false,
        "generated_at": "2026-08-15T08:33:07Z"
      }
    },
    {
      "type": "Feature",
      "id": "future_growth_6-nsip-EN030003-36058513",
      "geometry": {
        "type": "Point",
        "coordinates": [
          -0.0899505615234375,
          53.80835519459842
        ]
      },
      "properties": {
        "topic_id": "future-growth",
        "slot_id": "future_growth_6",
        "parcel_id": "36058513",
        "program_parcel_id": "pmtiles:north:36058513",
        "future_growth_value": null,
        "future_growth_probability": null,
        "future_growth_confidence_1_to_4": 3,
        "future_growth_source_granularity": "official_project_polygon + parcel_geometry_centroid",
        "future_growth_geometry_relation": "strict parcel centroid within official NSIP project polygon",
        "future_growth_drivers": [
          "Energy"
        ],
        "future_growth_project_name": "Aldbrough Hydrogen Storage",
        "future_growth_project_stage": "Pre Application",
        "future_growth_scoring_status": "METHODOLOGY_APPROVAL_REQUIRED",
        "future_growth_source_url": "https://infrastructure.planninginspectorate.gov.uk/",
        "source_url": "https://infrastructure.planninginspectorate.gov.uk/",
        "source_accessed_at": "2026-08-15T08:33:07Z",
        "source_sha256": "88b3d3f22e2d736b821348a1ac88416b4612040b884396a35de07185580df878",
        "source_license": "Official Planning Inspectorate/NSIP source; licence verification required before production",
        "source_record_scope": {
          "code": "EN030003",
          "stage": "Pre Application",
          "type": "Energy"
        },
        "parcel_geometry_source": "north.pmtiles",
        "parcel_geometry_relation": "PMTiles parcel polygon ring centroid",
        "evidence_level": 3,
        "demo_only": true,
        "fake_data": false,
        "final_ready": false,
        "production_merge": false,
        "generated_at": "2026-08-15T08:33:07Z"
      }
    },
    {
      "type": "Feature",
      "id": "future_growth_6-nsip-EN030003-36058513",
      "geometry": {
        "type": "Point",
        "coordinates": [
          -0.08995132821287229,
          53.807674694228574
        ]
      },
      "properties": {
        "topic_id": "future-growth",
        "slot_id": "future_growth_6",
        "parcel_id": "36058513",
        "program_parcel_id": "pmtiles:north:36058513",
        "future_growth_value": null,
        "future_growth_probability": null,
        "future_growth_confidence_1_to_4": 3,
        "future_growth_source_granularity": "official_project_polygon + parcel_geometry_centroid",
        "future_growth_geometry_relation": "strict parcel centroid within official NSIP project polygon",
        "future_growth_drivers": [
          "Energy"
        ],
        "future_growth_project_name": "Aldbrough Hydrogen Storage",
        "future_growth_project_stage": "Pre Application",
        "future_growth_scoring_status": "METHODOLOGY_APPROVAL_REQUIRED",
        "future_growth_source_url": "https://infrastructure.planninginspectorate.gov.uk/",
        "source_url": "https://infrastructure.planninginspectorate.gov.uk/",
        "source_accessed_at": "2026-08-15T08:33:07Z",
        "source_sha256": "88b3d3f22e2d736b821348a1ac88416b4612040b884396a35de07185580df878",
        "source_license": "Official Planning Inspectorate/NSIP source; licence verification required before production",
        "source_record_scope": {
          "code": "EN030003",
          "stage": "Pre Application",
          "type": "Energy"
        },
        "parcel_geometry_source": "north.pmtiles",
        "parcel_geometry_relation": "PMTiles parcel polygon ring centroid",
        "evidence_level": 3,
        "demo_only": true,
        "fake_data": false,
        "final_ready": false,
        "production_merge": false,
        "generated_at": "2026-08-15T08:33:07Z"
      }
    }
  ],
  "metadata": {
    "slot_id": "future_growth_6",
    "append_only": true,
    "matching_method": "strict PMTiles parcel centroid within official NSIP project polygon",
    "feature_count": 50,
    "demo_only": true,
    "fake_data": false,
    "final_ready": false,
    "production_merge": false
  }
}
