{"type":"FeatureCollection","features":[{"type":"Feature","id":"CHERWELL_23_01996_F_OUTBUILDING_01","geometry":null,"properties":{"slot_id":"planned_buildings_4","owner":"planned_buildings_4","lineage_id":"pb4-8debc7c8ddf348a2","page_generation":1,"partition":"layer24","schema":"AAYS_LAYER24_EVIDENCE_V1","semantic_mode":"PLANNED_BUILDINGS_OFFICIAL_REFERENCE_DISTINCT_STRUCTURE","batch_id":"20261005T071651Z-cherwell-23-01996-f-window-001","publisher":"Cherwell District Council","source_family":"CHERWELL_PLANNING_REGISTER","source_url":"https://planningregister.cherwell.gov.uk/Planning/Display/23/01996/F","final_url":"https://planningregister.cherwell.gov.uk/Planning/Display/23/01996/F","access_utc":"2026-10-05T07:16:51Z","data_date":"2023-09-08","license":"Public planning register; document copyright/usage remains governed by council register terms","planning_reference":"23/01996/F","location":"85 Cherwell Avenue Kidlington OX5 2JN","proposal":"Demolition of existing garage and shed - Erection of a single storey outbuilding","status":"Permitted","geometry_status":"NOT_MATERIALIZED_LOCAL_OPENCODE","field_evidence":"Official Cherwell District Council planning record 23/01996/F. Application Type: Full Development. Valid date: 08/09/2023. Location: 85 Cherwell Avenue Kidlington OX5 2JN. Proposal: Demolition of existing garage and shed - Erection of a single storey outbuilding. Decision: Permitted, issued 09/11/2023. Official supporting documents include Cherwell/Site/01 revision A, Existing & Proposed Site Plans, and Cherwell/Site/02 revision C, Proposed Floor Plans & Elevations. These official plans and the proposal support one distinct new planned structure: the single-storey outbuilding. The existing garage and shed are demolition subjects and are not counted as planned new structures. Geometry/materialization is deferred to local OpenCode.","evidence_slice_sha256":"ca5115ee1a45474ba492e06bbac0a56b8e4a3769693bf7bb2b342d38e5818085","confidence":0.99,"evidence_grade":"A_OFFICIAL_LOCAL_AUTHORITY_PERMITTED_SINGLE_STOREY_OUTBUILDING","fake_data":false,"source_record_id":"CHERWELL_23_01996_F_OUTBUILDING_01","planned_building":"single-storey outbuilding","official_plan_reference":"Cherwell/Site/01 - A; Cherwell/Site/02 - C","official_plan_description":"Existing & Proposed Site Plans; Proposed Floor Plans & Elevations"}}]}
