{
  "type": "FeatureCollection",
  "features": [
    {
      "type": "Feature",
      "id": "rbkc-notice-of-poll-2026-campden",
      "geometry": null,
      "properties": {
        "evidence_scope": "coverage_area",
        "coverage_area_id": "E05009390",
        "coverage_area_name": "Campden",
        "identifier_scheme": "RBKC_OFFICIAL_CAMPDEN_NOTICE_OF_POLL_DOCUMENT",
        "exact_official_identifier": "/media/document/campden---notice-of-poll",
        "source_resolution": "RBKC_OFFICIAL_CAMPDEN_NOTICE_OF_POLL_DOCUMENT",
        "time_window": "2026_LOCAL_ELECTION",
        "measurement_date": "2026-04-28",
        "measurement_method": "official RBKC Campden Notice of Poll document",
        "spatial_binding_method": "PARCEL_JOIN_DEFERRED_TO_LOCAL_OPENCODE",
        "source_url": "https://www.rbkc.gov.uk/media/document/campden---notice-of-poll",
        "final_url": "https://www.rbkc.gov.uk/media/document/campden---notice-of-poll",
        "accessed_at_utc": "2026-10-05T18:03:00Z",
        "data_date": "2026-04-28",
        "licence": "NOT_STATED_ON_CAPTURED_DOCUMENT",
        "sha256": "59aceb6d0272200ed2e19680fa93ac068ed7e335f741078b47b8e1496080e9a4",
        "field_evidence": {
          "document_title": "NOTICE OF POLL — Election of Borough Councillors for Campden",
          "publisher": "Royal Borough of Kensington and Chelsea / Returning Officer",
          "notice_date": "2026-04-28",
          "poll_date": "2026-05-07",
          "poll_hours": "07:00-22:00",
          "borough_councillors_to_be_elected": 3,
          "polling_stations": [
            {
              "station": "Fox Primary School, Kensington Place, London",
              "station_number": "CAAK7",
              "register_range": "CAAK-1 to CAAK-2106"
            },
            {
              "station": "Children's Library, Kensington Central Library, 12 Phillimore Walk",
              "station_number": "CABK8",
              "register_range": "CABK-1 to CABK-1617"
            },
            {
              "station": "Children's Library, Kensington Central Library, 12 Phillimore Walk",
              "station_number": "CABK9",
              "register_range": "CABK-1618 to CABK-3313"
            }
          ],
          "exact_official_identifier": "/media/document/campden---notice-of-poll",
          "source_url": "https://www.rbkc.gov.uk/media/document/campden---notice-of-poll",
          "accessed_at_utc": "2026-10-05T18:03:00Z"
        },
        "evidence_slice_sha256": "a9381cc504f4dcdf3ca7e0bbff144cdc8eb7534eda92f7143ec03855ccab9a16",
        "confidence_score_0_100": 100,
        "evidence_grade": "A",
        "fake_data": false,
        "source_window_id": "rbkc_notice_of_poll_2026_campden_sps5_20261005_v1",
        "cursor": "rbkc_notice_of_poll_2026_campden_sps5_20261005_v1:record=1"
      }
    }
  ]
}
