{"type":"FeatureCollection","features":[{"type":"Feature","geometry":null,"properties":{"slot_id":"planned_buildings_1","lineage_id":"planned_buildings_1-0ffc4ebd6c6e4e41","semantic_mode":"DISTINCT_BUILDINGS","planned_building_id":"planning-application:RB2026/0661::NEW_SUB_STATION","building_status":"PLANNED","building_name":"New sub station, Northern Garage Houghton Road North Anston","planning_reference":"RB2026/0661","authority":"Rotherham Metropolitan Borough Council","source_url":"https://planning.rotherham.gov.uk/fulldetail.asp?AltRef=RB2026%2F0661","final_url":"https://planning.rotherham.gov.uk/fulldetail.asp?AltRef=RB2026%2F0661","access_utc":"2026-10-02T23:29:00Z","source_data_date":"2026-05-12","license":"Open Government Licence v3.0","geometry_role":"official planning page exposes no machine-readable point or building footprint; geometry null; no geometry inferred","field_evidence":"Official Registered/Valid application explicitly states erection of a new sub station; the official page states no decision.","identity_limitation":"Exactly one new sub station explicitly stated by the source is counted as one new planned building.","confidence_score_0_100":98,"evidence_grade":"A","fake_data":false}}]}