{"type":"FeatureCollection","features":[{"type":"Feature","id":"PLANNINGDATA_LBO_42131749","geometry":{"type":"MultiPolygon","coordinates":[[[[-0.074334,51.52584],[-0.074307,51.525708],[-0.074233,51.525714],[-0.074228,51.525691],[-0.073972,51.525712],[-0.073966,51.525693],[-0.073921,51.525697],[-0.073917,51.525689],[-0.073886,51.525692],[-0.073889,51.525702],[-0.073834,51.525708],[-0.073847,51.525745],[-0.073857,51.525744],[-0.073904,51.525869],[-0.073912,51.525872],[-0.074334,51.52584]]]]},"properties":{"slot_id":"building_type_3","lineage_id":"building_type_3-new-20260927T1328+0300","batch_id":"BT3-P78G61-20261006-PLANNINGDATA-LBO42131749","cursor":"BT3-P78G61-20261006-PLANNINGDATA-LBO42131749-p78","building_state":"BUILDING_PRESENT","source_record_id":"reference=LB_32;outline_entity=42131749","entity":42131749,"reference":"LB_32","name":"Rochelle Street Primary School","building_type_use":"primary_school","type_use_evidence":"official_name_exact=Rochelle Street Primary School","dataset":"listed-building-outline","quality":"authoritative","start_date":"1973-09-27","entry_date":"2026-09-22","organisation":"London Borough of Tower Hamlets","listed_building":"1357759","source_url":"https://www.planning.data.gov.uk/entity/42131749","final_url":"https://www.planning.data.gov.uk/entity/42131749","source_version":"Planning Data listed-building-outline entity 42131749 reference LB_32; authoritative London Borough of Tower Hamlets record","access_utc":"2026-10-06T00:16:00Z","data_date":"1973-09-27","license":"Open Government Licence v3.0; © Crown copyright and database right 2026","source_file_sha256":"e9d0a05eb4d8da288e6d68c6458b0ddea9a9b5606ab95357db059e6e5e7d88dd","evidence_slice_sha256":"c3c8dc77c636d50f21aee0d29dbbc3fda27f1c7791bfbd93e5a8bcb391c3a497","field_evidence":["entity","reference","name","quality","dataset","organisation","start-date","entry-date","geometry","point","listed-building"],"confidence_score_0_100":99,"evidence_grade":"A_OFFICIAL_GOVERNMENT_BUILDING_OUTLINE_AND_NAMED_TYPE_USE","fake_data":false}}]}