{"type":"FeatureCollection","features":[{"type":"Feature","geometry":null,"properties":{"slot_id":"future_growth_1","lineage_id":"future_growth_1-newstart-20260927T153100+0300","page_generation":null,"accepted_as_parcel":false,"source_area_count_contribution":1,"exact_identifier":"Navigator Quarter Tax Site","exact_identifier_provided":true,"coverage_polygon_provided":false,"identifier_namespace":"The Designation of Freeport Tax Sites (Solent Freeport) (No. 2) Regulations 2022 (SI 2022/973)","site_name":"Navigator Quarter Tax Site","access_utc":"2026-10-04T04:18:00Z","data_date":"2022-10-14","source_url":"https://www.gov.uk/government/publications/maps-of-solent-freeport-tax-sites","final_url":"https://www.gov.uk/government/publications/maps-of-solent-freeport-tax-sites","regulations_url":"https://www.legislation.gov.uk/uksi/2022/973/contents/made","license":"Open Government Licence v3.0","authority":"HM Revenue & Customs","freeport":"Solent Freeport","tax_site_name":"Navigator Quarter Tax Site","designation_effective_date":"2022-10-14","map_date":"2022-06-08","legal_instrument":"The Designation of Freeport Tax Sites (Solent Freeport) (No. 2) Regulations 2022","legal_instrument_number":"SI 2022/973","designation_status":"designated and recognised in law","evidence_grade":"A","confidence_score_0_100":99,"evidence_scope":"exact legally designated Solent Freeport Navigator Quarter Tax Site plus HMRC publication and SI 2022/973","evidence_slice_sha256":"1ae02d4adea31226bda0ca8825917ff4b279224f6cbe65ccba881c37c63ce410","fake_data":false,"spatial_binding_method":"official HMRC Freeport tax-site map and statutory exact site identifier; exact legal boundary extraction, canonical parcel spatial join and materialization delegated to local OpenCode","planned_building_count_contribution":0}}]}