{"type":"FeatureCollection","name":"height_difference_5","metadata":{"slot_id":"height_difference_5","owner":"height_difference_5","lineage_id":"height_difference_5-eb56f92ed3f0514c","page_generation":1,"schema":"AAYS_LAYER24_EVIDENCE_V1","partition":"layer24","semantic_mode_state":"ABSENT_IN_PRIOR_PHYSICAL_STATE_PRESERVED_BY_OMISSION","batch_id":"20261005T105000Z_spatialni_data_supply_metadata_pdf_blocked","record_policy":"Official SpatialNI metadata-guidance evidence only; no Belfast 2006 CRS, tile/file, geometry or parcel binding synthesized.","fake_data":false},"features":[{"type":"Feature","geometry":null,"properties":{"slot_id":"height_difference_5","owner":"height_difference_5","lineage_id":"height_difference_5-eb56f92ed3f0514c","page_generation":1,"schema":"AAYS_LAYER24_EVIDENCE_V1","partition":"layer24","batch_id":"20261005T105000Z_spatialni_data_supply_metadata_pdf_blocked","source_record_id":"SPATIALNI:DATA_SUPPLY_METADATA_PDF","source_url":"https://support.spatialni.gov.uk/nima/DownloadDocs/Guidance/SpatialNI_Data_Supply_Metadata_Form.pdf","access_utc":"2026-10-05T10:50:00Z","required_building_state":"BUILDING_PRESENT","binding_status":"LOCAL_OPENCODE_BUILDING_PRESENT_EXACT_TILE_BIND_REQUIRED","metadata_transport_status":"TEXT_LAYER_AVAILABLE_SCREENSHOT_CACHE_MISS","dataset_specific_belfast_2006_crs":null,"exact_tile_identifier":null,"evidence_slice_sha256":"56b6b924972bb6e95a589975fcabaa7430d23aaefee5737f35b003285fb11db0","accepted_count_contribution":0,"source_area_count_contribution":0,"fake_data":false}}]}
