{"type":"FeatureCollection","name":"security_public_safety_6","features":[],"metadata":{"slot_id":"security_public_safety_6","lineage_id":"SECPS6_20260930T003421Z_01","page_generation":1,"batch_id":"BATCH_20261006T171133Z_ONS_LAD_CSP_PFA_DEC2024_CSV_BLOCKER","source_window_id":"ons_lad_csp_pfa_dec2024_lookup_csv_direct_download","source_url":"https://open-geography-portalx-ons.hub.arcgis.com/api/download/v1/items/679cadadaa4a474c83ca28b97894b6dd/csv?layers=0","final_url":"https://open-geography-portalx-ons.hub.arcgis.com/api/download/v1/items/679cadadaa4a474c83ca28b97894b6dd/csv?layers=0","dataset_url":"https://www.data.gov.uk/dataset/5cc891f8-784b-44bb-814f-b6725e2357f9/local-authority-district-to-community-safety-partnership-to-pfa-december-2024-lookup-in-ew","preview_url":"https://www.data.gov.uk/dataset/5cc891f8-784b-44bb-814f-b6725e2357f9/local-authority-district-to-community-safety-partnership-to-pfa-december-2024-lookup-in-ew/datafile/95490400-93a9-4884-9652-bf26c0b2a812/preview","accessed_utc":"2026-10-06T17:11:33Z","data_date":"2024-12-31","license":"Dataset licence field: Not set; National Data Library site content is OGL v3.0 except where otherwise stated.","new_source_records":0,"source_area_count_delta":0,"cumulative_source_area_count":58,"accepted_count":0,"duplicate_count":0,"rejected_count":0,"unmatched_count":0,"materialized_parcel_count":0,"direct_parcel_count":0,"planned_building_count":0,"cursor":null,"window_complete":false,"dataset_complete":false,"exact_blocker":"ONS_LAD_CSP_PFA_DEC2024_CSV_DIRECT_BYTE_DOWNLOAD_FAILED_CURRENT_TOOLCHAIN","local_spatial_join_required":true,"fake_data":false}}
