{"type":"FeatureCollection","features":[{"type":"Feature","properties":{"slot_id":"building_type_3","lineage_id":"building_type_3-new-20260927T1328+0300","batch_id":"BT3-P94G61-20261007-PLANNINGDATA-LBO42131425","cursor":"BT3-P94G61-20261007-PLANNINGDATA-LBO42131425-p94","building_state":"BUILDING_PRESENT","source_record_id":"planning-data:listed-building-outline:42131425","entity":42131425,"reference":"LB_863","name":"Church of St Mary and St Joseph","building_type_use":"church","type_use_evidence":"official_name=Church of St Mary and St Joseph","dataset":"listed-building-outline","quality":"authoritative","start_date":"1998-05-03","entry_date":"2026-07-28","organisation":"London Borough of Tower Hamlets","listed_building":"","source_url":"https://www.planning.data.gov.uk/entity/42131425","final_url":"https://www.planning.data.gov.uk/entity/42131425","source_version":"Planning Data listed-building-outline entity 42131425 reference LB_863; authoritative London Borough of Tower Hamlets; entry-date 2026-07-28","access_utc":"2026-10-06T21:59:29Z","data_date":"2026-07-28","license":"Open Government Licence v3.0; © Crown copyright and database right 2026","source_file_sha256":"d23cf4e9bd2650161ee5e67cd39e3b9b8563756582851fd95368b6e1b850d4f9","evidence_slice_sha256":"69002335c565bb22e02702f3a67811eb382c8927e81ad77f36abae3b52e9f665","field_evidence":["entity","reference","name","quality","dataset","organisation","start-date","entry-date","geometry"],"confidence_score_0_100":99,"evidence_grade":"A_OFFICIAL_GOVERNMENT_BUILDING_OUTLINE_AND_NAMED_TYPE_USE","fake_data":false},"geometry":{"type":"MultiPolygon","coordinates":[[[[-0.020869,51.512218],[-0.02087,51.512143],[-0.020885,51.511862],[-0.020456,51.511854],[-0.020456,51.511887],[-0.020438,51.511887],[-0.02034,51.511934],[-0.020339,51.511946],[-0.020263,51.511945],[-0.020257,51.512105],[-0.020332,51.512107],[-0.02033,51.512121],[-0.020424,51.512178],[-0.020439,51.512179],[-0.020437,51.512208],[-0.020869,51.512218]]]]}}]}
