{"type":"FeatureCollection","features":[{"type":"Feature","geometry":null,"properties":{"evidence_scope":"authoritative_exact_identifier","coverage_area_id":"Braybrooke NP Policy H1","official_identifier":"H1","source_resolution":"exact made Braybrooke Neighbourhood Plan Policy H1 captured from North Northamptonshire Council; page states Top Yard is the site allocated in Policy H1","source_url":"https://www.northnorthants.gov.uk/planning-strategies-and-plans/neighbourhood-planning/braybrooke-neighbourhood-plan-modification","final_url":"https://www.northnorthants.gov.uk/planning-strategies-and-plans/neighbourhood-planning/braybrooke-neighbourhood-plan-modification","access_utc":"2026-10-02T21:25:00Z","data_date":"2024-11-05","licence":"North Northamptonshire Council public webpage; no explicit reuse licence identified on the retrieved page","measurement_method":"official North Northamptonshire Council neighbourhood-plan modification page","spatial_binding_method":"local OpenCode spatial/identifier binding against canonical parcel polygons; not performed here","confidence_score_0_100":100,"evidence_grade":"authoritative_exact_identifier","fake_data":false,"upstream_file_sha256":null,"upstream_file_sha256_reason":"raw upstream HTML response bytes were not exposed by the available retrieval path; no hash invented","source_window_payload_sha256":"e263e1b6a3f11e6049976d0cd1988ce584459b184012de23e23f9a7913e7528b","field_evidence":{"entry-date":"2024-11-05","start-date":"2023-06-08","end-date":"","entity":null,"name":"Top Yard, Braybrooke","dataset":"braybrooke-neighbourhood-plan-policy-h1","typology":"geography","reference":"H1","prefix":"braybrooke-neighbourhood-plan-policy","organisation-entity":"North Northamptonshire Council","geometry":"","point":"","quality":"authoritative","area":"Top Yard, Braybrooke","site-allocation-number":"H1","policy-title":"Residential Site Allocation","plan-status":"made","plan-made-date":"2023-06-08","modification-last-updated":"2024-11-05","adjacent-site":"Top Orchard"}}}]}
