{"type":"FeatureCollection","features":[{"type":"Feature","id":"CHERWELL_25_01479_F_GARAGE_01","geometry":null,"properties":{"slot_id":"planned_buildings_4","owner":"planned_buildings_4","lineage_id":"pb4-8debc7c8ddf348a2","page_generation":1,"partition":"layer24","schema":"AAYS_LAYER24_EVIDENCE_V1","semantic_mode":"PLANNED_BUILDINGS_OFFICIAL_REFERENCE_DISTINCT_STRUCTURE","batch_id":"20261006T140837Z-cherwell-25-01479-f-window-001","publisher":"Cherwell District Council","source_family":"CHERWELL_PLANNING_REGISTER","source_url":"https://planningregister.cherwell.gov.uk/Planning/Display/25/01479/F","final_url":"https://planningregister.cherwell.gov.uk/Planning/Display/25/01479/F","access_utc":"2026-10-06T14:08:37Z","data_date":"2025-07-17","license":"Public planning register; document copyright/usage remains governed by council register terms","planning_reference":"25/01479/F","location":"Ridgeway Lodge Manor Road Adderbury OX17 3EL","proposal":"Erection of garage and bicycle shed","status":"Application Permitted","geometry_status":"NOT_MATERIALIZED_LOCAL_OPENCODE","field_evidence":"Official Cherwell District Council Planning Register application 25/01479/F. Application Type: Full Development. Status: Application Permitted. Valid date: 17/07/2025. Location: Ridgeway Lodge Manor Road Adderbury OX17 3EL. Proposal: Erection of garage and bicycle shed. Decision: Permitted. Decision Issued Date: 09/09/2025. Official documents include Block Plan/prop elevations drawing 25 3791 and the Site Location Plan. The official proposal explicitly identifies two distinct new structures: one garage and one bicycle shed. Drawing 25 3791 is the official block-plan/proposed-elevations evidence for the proposal and supports the two separately named planned structures. No existing structure, source-area geometry, parcel materialization or spatial join is counted as planned-building progress. Geometry/materialization is deferred to local OpenCode.","evidence_slice_sha256":"c19d1652360accd07c81425e35f26d2fc551d68f82a553e186c668a5eb83ffaf","confidence":0.99,"evidence_grade":"A_OFFICIAL_LOCAL_AUTHORITY_PLANNING_REGISTER_GARAGE_AND_BICYCLE_SHED_PERMITTED","fake_data":false,"source_record_id":"CHERWELL_25_01479_F_GARAGE_01","planned_building":"garage","official_plan_reference":"25 3791","official_plan_description":"Block Plan/prop elevations"}},{"type":"Feature","id":"CHERWELL_25_01479_F_BICYCLE_SHED_02","geometry":null,"properties":{"slot_id":"planned_buildings_4","owner":"planned_buildings_4","lineage_id":"pb4-8debc7c8ddf348a2","page_generation":1,"partition":"layer24","schema":"AAYS_LAYER24_EVIDENCE_V1","semantic_mode":"PLANNED_BUILDINGS_OFFICIAL_REFERENCE_DISTINCT_STRUCTURE","batch_id":"20261006T140837Z-cherwell-25-01479-f-window-001","publisher":"Cherwell District Council","source_family":"CHERWELL_PLANNING_REGISTER","source_url":"https://planningregister.cherwell.gov.uk/Planning/Display/25/01479/F","final_url":"https://planningregister.cherwell.gov.uk/Planning/Display/25/01479/F","access_utc":"2026-10-06T14:08:37Z","data_date":"2025-07-17","license":"Public planning register; document copyright/usage remains governed by council register terms","planning_reference":"25/01479/F","location":"Ridgeway Lodge Manor Road Adderbury OX17 3EL","proposal":"Erection of garage and bicycle shed","status":"Application Permitted","geometry_status":"NOT_MATERIALIZED_LOCAL_OPENCODE","field_evidence":"Official Cherwell District Council Planning Register application 25/01479/F. Application Type: Full Development. Status: Application Permitted. Valid date: 17/07/2025. Location: Ridgeway Lodge Manor Road Adderbury OX17 3EL. Proposal: Erection of garage and bicycle shed. Decision: Permitted. Decision Issued Date: 09/09/2025. Official documents include Block Plan/prop elevations drawing 25 3791 and the Site Location Plan. The official proposal explicitly identifies two distinct new structures: one garage and one bicycle shed. Drawing 25 3791 is the official block-plan/proposed-elevations evidence for the proposal and supports the two separately named planned structures. No existing structure, source-area geometry, parcel materialization or spatial join is counted as planned-building progress. Geometry/materialization is deferred to local OpenCode.","evidence_slice_sha256":"c19d1652360accd07c81425e35f26d2fc551d68f82a553e186c668a5eb83ffaf","confidence":0.99,"evidence_grade":"A_OFFICIAL_LOCAL_AUTHORITY_PLANNING_REGISTER_GARAGE_AND_BICYCLE_SHED_PERMITTED","fake_data":false,"source_record_id":"CHERWELL_25_01479_F_BICYCLE_SHED_02","planned_building":"bicycle shed","official_plan_reference":"25 3791","official_plan_description":"Block Plan/prop elevations"}}]}
