{"type":"FeatureCollection","features":[{"type":"Feature","geometry":null,"properties":{"slot_id":"planned_buildings_1","lineage_id":"planned_buildings_1-0ffc4ebd6c6e4e41","semantic_mode":"DISTINCT_BUILDINGS","planned_building_id":"planning-application:W/26/01325/FUL::DWELLING_01","building_status":"PLANNED","building_name":"Dwelling 1, The Ridgeway","planning_reference":"W/26/01325/FUL","authority":"Wychavon District Council","source_url":"https://plan.wychavon.gov.uk/Planning/Display/W/26/01325/FUL","final_url":"https://plan.wychavon.gov.uk/Planning/Display/W/26/01325/FUL","access_utc":"2026-10-05T01:23:04Z","source_data_date":"2026-06-11","license":"Council planning-register copyright/consultation terms; no separate data licence stated on page","geometry_role":"null; no geometry inferred","field_evidence":"Valid; Pending Decision; decision Pending; proposal explicitly states erection of 2 dwellings and associated works.","identity_limitation":"The official proposal explicitly identifies two new dwellings; individual dwelling footprints or machine-readable building geometries are not exposed.","confidence_score_0_100":99,"evidence_grade":"A","fake_data":false}},{"type":"Feature","geometry":null,"properties":{"slot_id":"planned_buildings_1","lineage_id":"planned_buildings_1-0ffc4ebd6c6e4e41","semantic_mode":"DISTINCT_BUILDINGS","planned_building_id":"planning-application:W/26/01325/FUL::DWELLING_02","building_status":"PLANNED","building_name":"Dwelling 2, The Ridgeway","planning_reference":"W/26/01325/FUL","authority":"Wychavon District Council","source_url":"https://plan.wychavon.gov.uk/Planning/Display/W/26/01325/FUL","final_url":"https://plan.wychavon.gov.uk/Planning/Display/W/26/01325/FUL","access_utc":"2026-10-05T01:23:04Z","source_data_date":"2026-06-11","license":"Council planning-register copyright/consultation terms; no separate data licence stated on page","geometry_role":"null; no geometry inferred","field_evidence":"Valid; Pending Decision; decision Pending; proposal explicitly states erection of 2 dwellings and associated works.","identity_limitation":"The official proposal explicitly identifies two new dwellings; individual dwelling footprints or machine-readable building geometries are not exposed.","confidence_score_0_100":99,"evidence_grade":"A","fake_data":false}}]}