{"type":"FeatureCollection","features":[{"type":"Feature","id":"medway-local-plan-regulation-19-2025-site-allocations:CCB1","geometry":null,"properties":{"slot_id":"future_growth_4","lineage_id":"fg4-e4c9076d6f554f00","page_generation":1,"owner":"future_growth_4","partition":"future_growth","semantic_mode":"SOURCE_AREA_EXACT_IDENTIFIER","dataset":"medway-local-plan-regulation-19-2025-site-allocations","entity":"CCB1","reference":"CCB1","quality":"authoritative","organisation":"Medway Council","name":"Avenue Business Centre, 17 New Road Avenue, Chatham","site_address":"Avenue Business Centre, 17 New Road Avenue, Chatham","source_url":"https://medway.oc2.uk/document/28/1215","final_url":"https://medway.oc2.uk/document/28/1215","access_utc":"2026-10-03T11:20:00Z","data_date":"2025-08-11","license":"Medway Council official consultation publication; no explicit reuse licence stated on page","field_evidence":{"policy_reference":"SA1","site_reference":"CCB1","site_name_address":"Avenue Business Centre, 17 New Road Avenue, Chatham","land_use":"Residential","indicative_capacity_homes":12,"plan_period_years":"1-5, 6-10","policy_collective_site_area_ha":11.78,"policy_collective_capacity_homes":1350,"plan_stage":"Medway Local Plan (Regulation 19, 2025)","consultation_end_date":"2025-08-11"},"evidence_slice_sha256":"4a31ece68911267da34305f5d72918fa1773dc35a6d1171f5bb789b600a39f0e","confidence_score_0_100":99,"confidence":0.99,"evidence_grade":"A","exact_identifier_provided":true,"coverage_polygon_provided":false,"fake_data":false,"join_mode":"LOCAL_OPENCODE_SPATIAL_JOIN_PENDING","direct_parcel":false,"source_area_count_contribution":1,"planned_building_count_contribution":0}}]}