{"type":"FeatureCollection","name":"building_type_9_20261008T075657Z_TRAFFORD_OS_FIRE_STATIONS_6","features":[{"type":"Feature","id":"4873CEAB-1FD1-4199-887D-745226DD9C00","geometry":{"type":"Polygon","coordinates":[[[-2.329079997405505,53.42520827892172],[-2.328901478308632,53.42535879010289],[-2.328408832733948,53.425150803107876],[-2.328651325243445,53.42494384811644],[-2.328775120404385,53.42499519139062],[-2.328621135472286,53.425126848477156],[-2.328743422820995,53.425177746506776],[-2.328833137003172,53.4251028942986],[-2.329079997405505,53.42520827892172]]]},"properties":{"slot_id":"building_type_9","lineage_id":"building_type_9-20261001T200900Z-newstart","page_generation":1,"batch_id":"20261008T075657Z_TRAFFORD_OS_FIRE_STATIONS_6","source_entity":"4873CEAB-1FD1-4199-887D-745226DD9C00","source_reference":"4873CEAB-1FD1-4199-887D-745226DD9C00","source_dataset":"OS OpenMap Local ImportantBuilding","source_organisation":"Ordnance Survey via Trafford Data Lab","building_evidence_status":"BUILDING_PRESENT","parcel_status":"UNPROCESSED","canonical_parcel_id":null,"building_type":"fire_station","building_use":"fire_station_as_of_2018_04","poi_accepted":false,"field_evidence":{"footprint":"OS OpenMap Local ImportantBuilding Polygon; extracted from OS ImportantBuilding.shp and CRS transformed from EPSG:27700 to EPSG:4326 by Trafford Data Lab","type":"CLASSIFICA=Fire Station; BUILDGTHEM=Emergency Service; FEATCODE=15023","use":"fire station classification as at source 2018-04; current use not independently confirmed","source_name":"Unknown","source_os_id":"4873CEAB-1FD1-4199-887D-745226DD9C00","admin_area":"E08000009","source_processing":"Official Trafford Data Lab pre-processing R script filters CLASSIFICA then intersects Trafford local authority polygon"},"source_url":"https://raw.githubusercontent.com/traffordDataLab/open_data/82d7d561d5238d819a956f1c5731317759f20162/fire_stations/trafford_fire_stations.geojson","final_url":"https://raw.githubusercontent.com/traffordDataLab/open_data/82d7d561d5238d819a956f1c5731317759f20162/fire_stations/trafford_fire_stations.geojson","http_status":null,"http_status_note":"public GitHub connector file read; HTTP numeric status not exposed by connector","access_utc":"2026-10-08T07:56:57.931Z","data_date":"2018-04","licence":"Open Government Licence v3.0; Contains OS data Crown copyright and database right 2018","source_sha256":"636acb375f9e7d94ea93b314cf24590715c29d51c0fc7a47a97962e01ae187d1","source_sha256_scope":"full source GeoJSON UTF-8 file content at immutable source commit","evidence_slice_sha256":"4f37ae1e789d1af53f569154bc9cf2b8fa23df0ffdc680b5af715024b669145a","confidence_score_0_100":88,"evidence_grade":"B","fake_data":false,"local_spatial_join_required":true}},{"type":"Feature","id":"1A60F9D3-C164-4337-8139-5C741DE189F5","geometry":{"type":"Polygon","coordinates":[[[-2.31687642231222,53.45511326476662],[-2.316635353311821,53.455157768323545],[-2.316578225127558,53.455049428471604],[-2.316954352117599,53.45498164583017],[-2.316882826244462,53.45484089580906],[-2.317157127053918,53.454790101394416],[-2.317418259404188,53.455315594967495],[-2.317370132798894,53.45532408223267],[-2.317182321064697,53.455280807299054],[-2.317088225975763,53.455264068963835],[-2.31708732645408,53.455264610663754],[-2.317090999593479,53.45527251079939],[-2.316960295271528,53.45529416065901],[-2.31687642231222,53.45511326476662]]]},"properties":{"slot_id":"building_type_9","lineage_id":"building_type_9-20261001T200900Z-newstart","page_generation":1,"batch_id":"20261008T075657Z_TRAFFORD_OS_FIRE_STATIONS_6","source_entity":"1A60F9D3-C164-4337-8139-5C741DE189F5","source_reference":"1A60F9D3-C164-4337-8139-5C741DE189F5","source_dataset":"OS OpenMap Local ImportantBuilding","source_organisation":"Ordnance Survey via Trafford Data Lab","building_evidence_status":"BUILDING_PRESENT","parcel_status":"UNPROCESSED","canonical_parcel_id":null,"building_type":"fire_station","building_use":"fire_station_as_of_2018_04","poi_accepted":false,"field_evidence":{"footprint":"OS OpenMap Local ImportantBuilding Polygon; extracted from OS ImportantBuilding.shp and CRS transformed from EPSG:27700 to EPSG:4326 by Trafford Data Lab","type":"CLASSIFICA=Fire Station; BUILDGTHEM=Emergency Service; FEATCODE=15023","use":"fire station classification as at source 2018-04; current use not independently confirmed","source_name":"Unknown","source_os_id":"1A60F9D3-C164-4337-8139-5C741DE189F5","admin_area":"E08000009","source_processing":"Official Trafford Data Lab pre-processing R script filters CLASSIFICA then intersects Trafford local authority polygon"},"source_url":"https://raw.githubusercontent.com/traffordDataLab/open_data/82d7d561d5238d819a956f1c5731317759f20162/fire_stations/trafford_fire_stations.geojson","final_url":"https://raw.githubusercontent.com/traffordDataLab/open_data/82d7d561d5238d819a956f1c5731317759f20162/fire_stations/trafford_fire_stations.geojson","http_status":null,"http_status_note":"public GitHub connector file read; HTTP numeric status not exposed by connector","access_utc":"2026-10-08T07:56:57.931Z","data_date":"2018-04","licence":"Open Government Licence v3.0; Contains OS data Crown copyright and database right 2018","source_sha256":"636acb375f9e7d94ea93b314cf24590715c29d51c0fc7a47a97962e01ae187d1","source_sha256_scope":"full source GeoJSON UTF-8 file content at immutable source commit","evidence_slice_sha256":"7a6228d53c3412d67fb7e6871459d995515d06ced5f5d999242365654178b1c1","confidence_score_0_100":88,"evidence_grade":"B","fake_data":false,"local_spatial_join_required":true}},{"type":"Feature","id":"38049F60-EB1E-4E83-B858-6DF449C15E45","geometry":{"type":"Polygon","coordinates":[[[-2.31676614675633,53.45537053900319],[-2.31673294922813,53.45542222114575],[-2.316566258549887,53.45538401266028],[-2.316599456251054,53.45533233056346],[-2.31676614675633,53.45537053900319]]]},"properties":{"slot_id":"building_type_9","lineage_id":"building_type_9-20261001T200900Z-newstart","page_generation":1,"batch_id":"20261008T075657Z_TRAFFORD_OS_FIRE_STATIONS_6","source_entity":"38049F60-EB1E-4E83-B858-6DF449C15E45","source_reference":"38049F60-EB1E-4E83-B858-6DF449C15E45","source_dataset":"OS OpenMap Local ImportantBuilding","source_organisation":"Ordnance Survey via Trafford Data Lab","building_evidence_status":"BUILDING_PRESENT","parcel_status":"UNPROCESSED","canonical_parcel_id":null,"building_type":"fire_station","building_use":"fire_station_as_of_2018_04","poi_accepted":false,"field_evidence":{"footprint":"OS OpenMap Local ImportantBuilding Polygon; extracted from OS ImportantBuilding.shp and CRS transformed from EPSG:27700 to EPSG:4326 by Trafford Data Lab","type":"CLASSIFICA=Fire Station; BUILDGTHEM=Emergency Service; FEATCODE=15023","use":"fire station classification as at source 2018-04; current use not independently confirmed","source_name":"Unknown","source_os_id":"38049F60-EB1E-4E83-B858-6DF449C15E45","admin_area":"E08000009","source_processing":"Official Trafford Data Lab pre-processing R script filters CLASSIFICA then intersects Trafford local authority polygon"},"source_url":"https://raw.githubusercontent.com/traffordDataLab/open_data/82d7d561d5238d819a956f1c5731317759f20162/fire_stations/trafford_fire_stations.geojson","final_url":"https://raw.githubusercontent.com/traffordDataLab/open_data/82d7d561d5238d819a956f1c5731317759f20162/fire_stations/trafford_fire_stations.geojson","http_status":null,"http_status_note":"public GitHub connector file read; HTTP numeric status not exposed by connector","access_utc":"2026-10-08T07:56:57.931Z","data_date":"2018-04","licence":"Open Government Licence v3.0; Contains OS data Crown copyright and database right 2018","source_sha256":"636acb375f9e7d94ea93b314cf24590715c29d51c0fc7a47a97962e01ae187d1","source_sha256_scope":"full source GeoJSON UTF-8 file content at immutable source commit","evidence_slice_sha256":"90bdce91b4cbf5fce80991333c6648e839fbd6de34573578db36668d395ab645","confidence_score_0_100":88,"evidence_grade":"B","fake_data":false,"local_spatial_join_required":true}},{"type":"Feature","id":"36D384D2-C55B-4347-AAC5-97D9BCFB7A4B","geometry":{"type":"Polygon","coordinates":[[[-2.35426856737344,53.39490637023586],[-2.354270435664886,53.39495022912565],[-2.35408684421782,53.39495302124322],[-2.354084976114973,53.39490916235027],[-2.35426856737344,53.39490637023586]]]},"properties":{"slot_id":"building_type_9","lineage_id":"building_type_9-20261001T200900Z-newstart","page_generation":1,"batch_id":"20261008T075657Z_TRAFFORD_OS_FIRE_STATIONS_6","source_entity":"36D384D2-C55B-4347-AAC5-97D9BCFB7A4B","source_reference":"36D384D2-C55B-4347-AAC5-97D9BCFB7A4B","source_dataset":"OS OpenMap Local ImportantBuilding","source_organisation":"Ordnance Survey via Trafford Data Lab","building_evidence_status":"BUILDING_PRESENT","parcel_status":"UNPROCESSED","canonical_parcel_id":null,"building_type":"fire_station","building_use":"fire_station_as_of_2018_04","poi_accepted":false,"field_evidence":{"footprint":"OS OpenMap Local ImportantBuilding Polygon; extracted from OS ImportantBuilding.shp and CRS transformed from EPSG:27700 to EPSG:4326 by Trafford Data Lab","type":"CLASSIFICA=Fire Station; BUILDGTHEM=Emergency Service; FEATCODE=15023","use":"fire station classification as at source 2018-04; current use not independently confirmed","source_name":"Unknown","source_os_id":"36D384D2-C55B-4347-AAC5-97D9BCFB7A4B","admin_area":"E08000009","source_processing":"Official Trafford Data Lab pre-processing R script filters CLASSIFICA then intersects Trafford local authority polygon"},"source_url":"https://raw.githubusercontent.com/traffordDataLab/open_data/82d7d561d5238d819a956f1c5731317759f20162/fire_stations/trafford_fire_stations.geojson","final_url":"https://raw.githubusercontent.com/traffordDataLab/open_data/82d7d561d5238d819a956f1c5731317759f20162/fire_stations/trafford_fire_stations.geojson","http_status":null,"http_status_note":"public GitHub connector file read; HTTP numeric status not exposed by connector","access_utc":"2026-10-08T07:56:57.931Z","data_date":"2018-04","licence":"Open Government Licence v3.0; Contains OS data Crown copyright and database right 2018","source_sha256":"636acb375f9e7d94ea93b314cf24590715c29d51c0fc7a47a97962e01ae187d1","source_sha256_scope":"full source GeoJSON UTF-8 file content at immutable source commit","evidence_slice_sha256":"cb2529aa6dd95eb2aad49e67afe90dbb18611a27a27819580d435e71cc764a70","confidence_score_0_100":88,"evidence_grade":"B","fake_data":false,"local_spatial_join_required":true}},{"type":"Feature","id":"9B84FD48-E3A5-4D0A-8694-8F72A421F7BD","geometry":{"type":"Polygon","coordinates":[[[-2.353614419074015,53.395251585837975],[-2.353585281429043,53.39500214827261],[-2.353911326057202,53.394986350419956],[-2.353933856823994,53.39514619102907],[-2.354123267542681,53.395137808936624],[-2.354134850380234,53.395228739330285],[-2.353614419074015,53.395251585837975]]]},"properties":{"slot_id":"building_type_9","lineage_id":"building_type_9-20261001T200900Z-newstart","page_generation":1,"batch_id":"20261008T075657Z_TRAFFORD_OS_FIRE_STATIONS_6","source_entity":"9B84FD48-E3A5-4D0A-8694-8F72A421F7BD","source_reference":"9B84FD48-E3A5-4D0A-8694-8F72A421F7BD","source_dataset":"OS OpenMap Local ImportantBuilding","source_organisation":"Ordnance Survey via Trafford Data Lab","building_evidence_status":"BUILDING_PRESENT","parcel_status":"UNPROCESSED","canonical_parcel_id":null,"building_type":"fire_station","building_use":"fire_station_as_of_2018_04","poi_accepted":false,"field_evidence":{"footprint":"OS OpenMap Local ImportantBuilding Polygon; extracted from OS ImportantBuilding.shp and CRS transformed from EPSG:27700 to EPSG:4326 by Trafford Data Lab","type":"CLASSIFICA=Fire Station; BUILDGTHEM=Emergency Service; FEATCODE=15023","use":"fire station classification as at source 2018-04; current use not independently confirmed","source_name":"Unknown","source_os_id":"9B84FD48-E3A5-4D0A-8694-8F72A421F7BD","admin_area":"E08000009","source_processing":"Official Trafford Data Lab pre-processing R script filters CLASSIFICA then intersects Trafford local authority polygon"},"source_url":"https://raw.githubusercontent.com/traffordDataLab/open_data/82d7d561d5238d819a956f1c5731317759f20162/fire_stations/trafford_fire_stations.geojson","final_url":"https://raw.githubusercontent.com/traffordDataLab/open_data/82d7d561d5238d819a956f1c5731317759f20162/fire_stations/trafford_fire_stations.geojson","http_status":null,"http_status_note":"public GitHub connector file read; HTTP numeric status not exposed by connector","access_utc":"2026-10-08T07:56:57.931Z","data_date":"2018-04","licence":"Open Government Licence v3.0; Contains OS data Crown copyright and database right 2018","source_sha256":"636acb375f9e7d94ea93b314cf24590715c29d51c0fc7a47a97962e01ae187d1","source_sha256_scope":"full source GeoJSON UTF-8 file content at immutable source commit","evidence_slice_sha256":"aaec21e77697c20e98c2da5fa7b70267a4bef83bfb757c6e5a6223224e05c250","confidence_score_0_100":88,"evidence_grade":"B","fake_data":false,"local_spatial_join_required":true}},{"type":"Feature","id":"2AAFDFAD-7FB4-4ECE-B2E0-089EFC952C08","geometry":{"type":"Polygon","coordinates":[[[-2.354151925826768,53.395437763799265],[-2.354118122009378,53.39535112400885],[-2.354234534438366,53.39533504838588],[-2.354304469311081,53.39551686016333],[-2.353699147380008,53.39560359845768],[-2.353669989944824,53.39553312427393],[-2.354119848307572,53.39546842028986],[-2.354151925826768,53.395437763799265]]]},"properties":{"slot_id":"building_type_9","lineage_id":"building_type_9-20261001T200900Z-newstart","page_generation":1,"batch_id":"20261008T075657Z_TRAFFORD_OS_FIRE_STATIONS_6","source_entity":"2AAFDFAD-7FB4-4ECE-B2E0-089EFC952C08","source_reference":"2AAFDFAD-7FB4-4ECE-B2E0-089EFC952C08","source_dataset":"OS OpenMap Local ImportantBuilding","source_organisation":"Ordnance Survey via Trafford Data Lab","building_evidence_status":"BUILDING_PRESENT","parcel_status":"UNPROCESSED","canonical_parcel_id":null,"building_type":"fire_station","building_use":"fire_station_as_of_2018_04","poi_accepted":false,"field_evidence":{"footprint":"OS OpenMap Local ImportantBuilding Polygon; extracted from OS ImportantBuilding.shp and CRS transformed from EPSG:27700 to EPSG:4326 by Trafford Data Lab","type":"CLASSIFICA=Fire Station; BUILDGTHEM=Emergency Service; FEATCODE=15023","use":"fire station classification as at source 2018-04; current use not independently confirmed","source_name":"Unknown","source_os_id":"2AAFDFAD-7FB4-4ECE-B2E0-089EFC952C08","admin_area":"E08000009","source_processing":"Official Trafford Data Lab pre-processing R script filters CLASSIFICA then intersects Trafford local authority polygon"},"source_url":"https://raw.githubusercontent.com/traffordDataLab/open_data/82d7d561d5238d819a956f1c5731317759f20162/fire_stations/trafford_fire_stations.geojson","final_url":"https://raw.githubusercontent.com/traffordDataLab/open_data/82d7d561d5238d819a956f1c5731317759f20162/fire_stations/trafford_fire_stations.geojson","http_status":null,"http_status_note":"public GitHub connector file read; HTTP numeric status not exposed by connector","access_utc":"2026-10-08T07:56:57.931Z","data_date":"2018-04","licence":"Open Government Licence v3.0; Contains OS data Crown copyright and database right 2018","source_sha256":"636acb375f9e7d94ea93b314cf24590715c29d51c0fc7a47a97962e01ae187d1","source_sha256_scope":"full source GeoJSON UTF-8 file content at immutable source commit","evidence_slice_sha256":"a63868ae78bdbd70c6d9efde78c0bb99f3e6da258a9f42449d1697004cafef5c","confidence_score_0_100":88,"evidence_grade":"B","fake_data":false,"local_spatial_join_required":true}}]}
