{"type":"FeatureCollection","name":"security_public_safety_6","features":[],"metadata":{"slot_id":"security_public_safety_6","lineage_id":"SECPS6_20260930T003421Z_01","page_generation":1,"batch_id":"BATCH_20261002T211110Z_ONS_CSP23_PREVIEW_TIMEOUT_BLOCKER","source_window_id":"ons_csp_dec2023_names_codes_csv_preview_timeout","source_url":"https://www.data.gov.uk/dataset/c012c923-029f-440a-bf49-16027abdc8d8/community-safety-partnerships-december-2023-names-and-codes-in-ew/datafile/ce5445d1-9d7b-444b-bf26-f2a2dce9d6dd/preview","final_url":"https://www.data.gov.uk/dataset/c012c923-029f-440a-bf49-16027abdc8d8/community-safety-partnerships-december-2023-names-and-codes-in-ew/datafile/ce5445d1-9d7b-444b-bf26-f2a2dce9d6dd/preview","dataset_url":"https://www.data.gov.uk/dataset/c012c923-029f-440a-bf49-16027abdc8d8/community-safety-partnerships-december-2023-names-and-codes-in-ew","accessed_utc":"2026-10-02T21:11:10Z","data_date":"2023-12-31","license":"Dataset licence field: Not set; National Data Library site content is OGL v3.0 except where otherwise stated.","new_source_records":0,"source_area_count_delta":0,"cumulative_source_area_count":58,"accepted_count":0,"duplicate_count":0,"rejected_count":0,"unmatched_count":0,"materialized_parcel_count":0,"direct_parcel_count":0,"planned_building_count":0,"cursor":null,"window_complete":false,"dataset_complete":false,"exact_blocker":"ONS_CSP_DEC2023_NAMES_CODES_PREVIEW_TIMEOUT_CURRENT_TOOLCHAIN","local_spatial_join_required":true,"fake_data":false}}
