{"type":"FeatureCollection","name":"height_difference_5","metadata":{"slot_id":"height_difference_5","owner":"height_difference_5","lineage_id":"height_difference_5-eb56f92ed3f0514c","page_generation":1,"schema":"AAYS_LAYER24_EVIDENCE_V1","partition":"layer24","semantic_mode_state":"ABSENT_IN_PRIOR_PHYSICAL_STATE_PRESERVED_BY_OMISSION","batch_id":"20261006T120600Z_spatialni_data_supply_crs_form_generic","record_policy":"Official SpatialNI generic CRS-standard evidence only; no Belfast dataset-specific CRS, tile/file, geometry or parcel binding synthesized.","fake_data":false},"features":[{"type":"Feature","geometry":null,"properties":{"slot_id":"height_difference_5","owner":"height_difference_5","lineage_id":"height_difference_5-eb56f92ed3f0514c","page_generation":1,"schema":"AAYS_LAYER24_EVIDENCE_V1","partition":"layer24","batch_id":"20261006T120600Z_spatialni_data_supply_crs_form_generic","source_record_id":"SPATIALNI:DATA_SUPPLY_METADATA_CRS_TM65_EPSG29902","source_url":"https://support.spatialni.gov.uk/nima/DownloadDocs/Guidance/SpatialNI_Data_Supply_Metadata_Form.pdf","access_utc":"2026-10-06T12:06:00Z","required_building_state":"BUILDING_PRESENT","binding_status":"LOCAL_OPENCODE_BUILDING_PRESENT_EXACT_TILE_BIND_REQUIRED","generic_spatial_reference_system":"Irish Grid (TM65) [EPSG:29902]","dataset_specific_crs_confirmed":false,"exact_tile_identifier":null,"crs":null,"evidence_slice_sha256":"ab17b4fe54110daee1e8c32e8f97a10b93b9ce7a6a901783a481cf5d74c76751","accepted_count_contribution":0,"source_area_count_contribution":0,"fake_data":false}}]}
