{
  "type": "FeatureCollection",
  "features": [
    {
      "type": "Feature",
      "id": "ons-wd26-lad26:E05009390",
      "geometry": null,
      "properties": {
        "evidence_scope": "coverage_area",
        "coverage_area_id": "E05009390",
        "coverage_area_name": "Campden",
        "identifier_scheme": "ONS_WD26_LAD26_LOOKUP_BINDING",
        "exact_official_identifier": "E05009390",
        "source_resolution": "ONS_OFFICIAL_MAY_2026_WARD_TO_LAD_LOOKUP_TABLE",
        "time_window": "2026-05",
        "measurement_date": "2026-05-07",
        "measurement_method": "official ONS Ward-to-LAD lookup-table binding by verified Campden ward code",
        "spatial_binding_method": "ROW_EXTRACTION_AND_PARCEL_JOIN_DEFERRED_TO_LOCAL_OPENCODE",
        "source_url": "https://www.data.gov.uk/dataset/48bf314b-69c4-47ed-9af1-cbb0ab235ab3/ward-to-local-authority-district-may-2026-lookup-in-the-uk",
        "final_url": "https://services1.arcgis.com/ESMARspQHYMw9BZ9/arcgis/rest/services/WD26_LAD26_UK_LU/FeatureServer/0",
        "accessed_at_utc": "2026-10-05T16:53:00Z",
        "data_date": "2026-05-07",
        "licence": "Open Government Licence v3.0 except where otherwise stated",
        "sha256": "3e2bf97e0c555722ec709f2291a16e2e90ef3ff57650b2920cebbad2f4d832c3",
        "field_evidence": {
          "dataset_title": "Ward to Local Authority District (May 2026) Lookup in the UK",
          "publisher": "Office for National Statistics",
          "updated": "2026-05-13",
          "data_date": "2026-05-07",
          "lookup_fields": [
            "WD26CD",
            "WD26NM",
            "WD26NMW",
            "LAD26CD",
            "LAD26NM",
            "LAD26NMW"
          ],
          "feature_service_layer": "WD26_LAD26_UK_LU",
          "layer_type": "Table",
          "supported_query_formats": [
            "JSON",
            "geoJSON",
            "PBF"
          ],
          "has_geometry_properties": false,
          "target_ward_code": "E05009390",
          "target_ward_name": "Campden",
          "row_query_status": "DIRECT_ROW_QUERY_NOT_ACCESSIBLE_VIA_CURRENT_WEB_TRANSPORT",
          "crosswalk_materialized": false,
          "parcel_join_materialized": false,
          "service_url": "https://services1.arcgis.com/ESMARspQHYMw9BZ9/arcgis/rest/services/WD26_LAD26_UK_LU/FeatureServer/0",
          "source_url": "https://www.data.gov.uk/dataset/48bf314b-69c4-47ed-9af1-cbb0ab235ab3/ward-to-local-authority-district-may-2026-lookup-in-the-uk",
          "accessed_at_utc": "2026-10-05T16:53:00Z"
        },
        "evidence_slice_sha256": "07f8477a9cd3013722662ff0f7b6c178e3c7abed134289574d035c2b5a34d8b6",
        "confidence_score_0_100": 98,
        "evidence_grade": "A",
        "fake_data": false,
        "source_window_id": "ons_wd26_lad26_lookup_may2026_campden_E05009390_sps5_20261005_v1",
        "cursor": "ons_wd26_lad26_lookup_may2026_campden_E05009390_sps5_20261005_v1:record=1"
      }
    }
  ]
}
