{"type":"FeatureCollection","features":[{"type":"Feature","geometry":null,"properties":{"slot_id":"planned_buildings_1","lineage_id":"planned_buildings_1-0ffc4ebd6c6e4e41","semantic_mode":"DISTINCT_BUILDINGS","planned_building_id":"planning-application:26/00594/FUL::DRIVE_THRU_RESTAURANT_24_00195_FUL","building_status":"PLANNED","building_name":"Drive-thru restaurant, Elgar Retail Park Blackpole Road Worcester WR3 8HP","planning_reference":"26/00594/FUL","authority":"Worcester City Council","source_url":"https://plan.worcester.gov.uk/Planning/Display/26/00594/FUL","final_url":"https://plan.worcester.gov.uk/Planning/Display/26/00594/FUL","access_utc":"2026-10-05T10:42:00Z","source_data_date":"2026-07-07","license":"Council planning-register copyright/consultation terms; no separate data licence stated on page","geometry_role":"null; no geometry inferred","field_evidence":"Valid; Pending Decision; decision Pending; proposal explicitly identifies one drive-thru restaurant under planning permission 24/00195/FUL and changes to the position of that building.","identity_limitation":"Exactly one drive-thru restaurant is counted; associated car parking, landscaping and condition variations are not separate buildings.","confidence_score_0_100":99,"evidence_grade":"A","fake_data":false}}]}