{"type":"FeatureCollection","features":[{"type":"Feature","id":"CHERWELL_26_00262_F_TIMBER_FRAMED_OUTBUILDING_01","geometry":null,"properties":{"slot_id":"planned_buildings_4","owner":"planned_buildings_4","lineage_id":"pb4-8debc7c8ddf348a2","page_generation":1,"partition":"layer24","schema":"AAYS_LAYER24_EVIDENCE_V1","semantic_mode":"PLANNED_BUILDINGS_OFFICIAL_REFERENCE_DISTINCT_STRUCTURE","batch_id":"20261002T013500Z-cherwell-26-00262-f-window-001","publisher":"Cherwell District Council","source_family":"CHERWELL_PLANNING_REGISTER","source_url":"https://planningregister.cherwell.gov.uk/Planning/Display/26/00262/F","final_url":"https://planningregister.cherwell.gov.uk/Planning/Display/26/00262/F","access_utc":"2026-10-02T01:35:00Z","data_date":"2026-03-02","license":"Public planning register; document copyright/usage remains governed by council register terms","planning_reference":"26/00262/F","location":"Mallories Cherry Street Stratton Audley Bicester OX27 9AA","proposal":"Construction of a timber framed outbuilding in the rear garden to be used as an office, store, workshop and open carport, ancillary to the main dwellinghouse","status":"Application Permitted","geometry_status":"NOT_MATERIALIZED_LOCAL_OPENCODE","field_evidence":"Official Cherwell District Council Planning Register application 26/00262/F. Status: Application Permitted. Valid date: 02/03/2026. Location: Mallories Cherry Street Stratton Audley Bicester OX27 9AA. Proposal: Construction of a timber framed outbuilding in the rear garden to be used as an office, store, workshop and open carport, ancillary to the main dwellinghouse. Decision: Permitted; Decision Issued Date: 20/05/2026. Official supporting documents list “Mallories Garden outbuilding in relation to existing structures - 3.5.26.pdf” and “Mallories Garden outbuilding - 3.5.26.pdf”, plus an amended block plan showing the existing and proposed building. One distinct planned structure is counted: the timber framed outbuilding. Geometry/materialization is deferred to local OpenCode.","evidence_slice_sha256":"650653268cfc4c2e120f52a8f091c8fe24c98ea9c7e75e862668a66f28986962","confidence":0.99,"evidence_grade":"A_OFFICIAL_LOCAL_AUTHORITY_PLANNING_REGISTER_DISTINCT_TIMBER_FRAMED_OUTBUILDING_PERMITTED","fake_data":false,"source_record_id":"CHERWELL_26_00262_F_TIMBER_FRAMED_OUTBUILDING_01","planned_building":"timber framed outbuilding","official_plan_reference":"Mallories Garden outbuilding - 3.5.26.pdf","official_plan_description":"amended outbuilding"}}]}
