{"type":"FeatureCollection","features":[{"type":"Feature","id":"planned_buildings_2-planning-data-brownfield-1729398","geometry":null,"properties":{"entity":1729398,"reference":"BR00193","canonical_record_key":"planning-data:brownfield-land:1729398","planned_project_name":"Former Mecca Bingo site","planned_project_status":"pending-decision","borough":"London Borough of Brent","official_hectares":0.17,"official_minimum_net_dwellings":50,"official_maximum_net_dwellings":50,"planned_building_value":null,"planned_building_probability":null,"planned_building_complete_month":null,"source_quality":"authoritative","fake_data":false}}],"metadata":{"slot_id":"planned_buildings_2","batch_index":156,"source_index":10,"source_window":{"resource_index":3,"limit":1},"feature_count_before":506,"feature_count_after":507,"unique_real_site_project_before":347,"unique_real_site_project_after":348,"duplicate_count_new":0,"nearest_match_used":false,"parcel_match_used":false,"mirror_only":true}}