{"type":"FeatureCollection","features":[{"type":"Feature","id":"planned_buildings_2-planning-data-brownfield-1704624","geometry":null,"properties":{"entity":1704624,"reference":"171","canonical_record_key":"planning-data:brownfield-land:1704624","planned_project_name":"Instone House and Car Park, Instone Road, Dartford","planned_project_status":"permissioned","borough":"Dartford Borough Council","official_hectares":0.06,"official_minimum_net_dwellings":15,"official_maximum_net_dwellings":15,"planned_building_value":null,"planned_building_probability":null,"planned_building_complete_month":null,"source_quality":"authoritative","fake_data":false}}],"metadata":{"slot_id":"planned_buildings_2","batch_index":157,"source_index":10,"source_window":{"resource_index":4,"limit":1},"feature_count_before":507,"feature_count_after":508,"unique_real_site_project_before":348,"unique_real_site_project_after":349,"duplicate_count_new":0,"nearest_match_used":false,"parcel_match_used":false,"mirror_only":true}}