{"type":"FeatureCollection","features":[{"type":"Feature","id":"planned_buildings_2-planning-data-brownfield-1720871","geometry":null,"properties":{"entity":1720871,"reference":"17/0594/FUL","canonical_record_key":"planning-data:brownfield-land:1720871","planned_project_name":"744 High Road, London, N12 9QG","planned_project_status":"permissioned","borough":"London Borough of Barnet","official_hectares":0.028,"planned_building_value":null,"planned_building_probability":null,"planned_building_complete_month":null,"source_quality":"authoritative","fake_data":false}}],"metadata":{"slot_id":"planned_buildings_2","batch_index":163,"source_index":10,"source_window":{"resource_index":10,"limit":1},"feature_count_before":513,"feature_count_after":514,"unique_real_site_project_before":354,"unique_real_site_project_after":355,"duplicate_count_new":0,"nearest_match_used":false,"parcel_match_used":false,"mirror_only":true}}