{"type":"FeatureCollection","features":[{"type":"Feature","id":"planned_buildings_2-planning-data-brownfield-1717232","geometry":null,"properties":{"entity":1717232,"reference":"BR00099","canonical_record_key":"planning-data:brownfield-land:1717232","planned_project_name":"Northfield Industrial Estate, Beresford Avenue, HA0 1NW","planned_project_status":"permissioned","borough":"London Borough of Brent","official_hectares":6.01,"official_minimum_net_dwellings":2426,"official_maximum_net_dwellings":2426,"planned_building_value":null,"planned_building_probability":null,"planned_building_complete_month":null,"source_quality":"authoritative","fake_data":false}}],"metadata":{"slot_id":"planned_buildings_2","batch_index":160,"source_index":10,"source_window":{"resource_index":7,"limit":1},"feature_count_before":510,"feature_count_after":511,"unique_real_site_project_before":351,"unique_real_site_project_after":352,"duplicate_count_new":0,"nearest_match_used":false,"parcel_match_used":false,"mirror_only":true}}