{"type":"FeatureCollection","features":[{"type":"Feature","id":"planned_buildings_2-planning-data-brownfield-1739855","geometry":null,"properties":{"entity":1739855,"reference":"LBBD60/DP","canonical_record_key":"planning-data:brownfield-land:1739855","planned_project_name":"Abbey Retail Park (Former Sainsbury's Scheme), Abbey Road, Barking","planned_project_status":"permissioned","borough":"London Borough of Barking and Dagenham","official_hectares":2.1,"official_minimum_net_dwellings":1089,"official_maximum_net_dwellings":1089,"planned_building_value":null,"planned_building_probability":null,"planned_building_complete_month":null,"source_quality":"authoritative","fake_data":false}}],"metadata":{"slot_id":"planned_buildings_2","batch_index":154,"source_index":10,"source_window":{"resource_index":1,"limit":1},"feature_count_before":504,"feature_count_after":505,"unique_real_site_project_before":345,"unique_real_site_project_after":346,"duplicate_count_new":0,"nearest_match_used":false,"parcel_match_used":false,"mirror_only":true}}