{"type":"FeatureCollection","features":[{"type":"Feature","id":"planned_buildings_2-planning-data-brownfield-1735595","geometry":null,"properties":{"entity":1735595,"reference":"21/01221/F","canonical_record_key":"planning-data:brownfield-land:1735595","planned_project_name":"1 South Road Bedminster Bristol BS3 3LS","planned_project_status":"permissioned","borough":"Bristol City Council","official_hectares":0.01,"official_minimum_net_dwellings":5,"official_maximum_net_dwellings":5,"planned_building_value":null,"planned_building_probability":null,"planned_building_complete_month":null,"source_quality":"authoritative","fake_data":false}}],"metadata":{"slot_id":"planned_buildings_2","batch_index":158,"source_index":10,"source_window":{"resource_index":5,"limit":1},"feature_count_before":508,"feature_count_after":509,"unique_real_site_project_before":349,"unique_real_site_project_after":350,"duplicate_count_new":0,"nearest_match_used":false,"parcel_match_used":false,"mirror_only":true}}