{"type":"FeatureCollection","features":[{"type":"Feature","id":"planned_buildings_2-planning-data-brownfield-1715393","geometry":null,"properties":{"entity":1715393,"reference":"ROM26","canonical_record_key":"planning-data:brownfield-land:1715393","planned_project_name":"22-44 North Street, Romford","planned_project_status":"permissioned","borough":"London Borough of Havering","official_hectares":0.11,"planned_building_value":null,"planned_building_probability":null,"planned_building_complete_month":null,"source_quality":"authoritative","fake_data":false}}],"metadata":{"slot_id":"planned_buildings_2","batch_index":162,"source_index":10,"source_window":{"resource_index":9,"limit":1},"feature_count_before":512,"feature_count_after":513,"unique_real_site_project_before":353,"unique_real_site_project_after":354,"duplicate_count_new":0,"nearest_match_used":false,"parcel_match_used":false,"mirror_only":true}}