{"type":"FeatureCollection","features":[{"type":"Feature","id":"planned_buildings_2-planning-data-brownfield-1739366","geometry":null,"properties":{"entity":1739366,"reference":"BR334-24","canonical_record_key":"planning-data:brownfield-land:1739366","planned_project_name":"Rear of 12-16 Victoria Road and Fronting Sondes Road, Deal","planned_project_status":"permissioned","borough":"Dover District Council","official_hectares":0.05,"official_minimum_net_dwellings":6,"official_maximum_net_dwellings":6,"planned_building_value":null,"planned_building_probability":null,"planned_building_complete_month":null,"source_quality":"authoritative","fake_data":false}}],"metadata":{"slot_id":"planned_buildings_2","batch_index":161,"source_index":10,"source_window":{"resource_index":8,"limit":1},"feature_count_before":511,"feature_count_after":512,"unique_real_site_project_before":352,"unique_real_site_project_after":353,"duplicate_count_new":0,"nearest_match_used":false,"parcel_match_used":false,"mirror_only":true}}