{"type":"FeatureCollection","features":[{"type":"Feature","id":156646,"geometry":{"type":"MultiPolygon","coordinates":[[[[-73.944297631696,40.626386164317],[-73.944363840136,40.626380395224],[-73.944370823102,40.626426916775],[-73.944304614617,40.626432684972],[-73.944297631696,40.626386164317]]]]},"properties":{"source_id":"156646","building_type":"Building","building_present":true,"DOITT_ID":"156646","BIN":"2004246","FEATURE_CODE":"2100","BASE_BBL":"2026120007","OBJECTID":876826,"construction_year":1927,"geom_source":"Photogrammetric","ground_elevation":79.0,"height_roof":118.02,"last_edited_date":"2017 Aug 22 02:08:35 PM","last_status_type":"Constructed","mappluto_bbl":"2026120007","length":879.08231315988,"evidence_grade":"A_OFFICIAL_CITY_BUILDING_FOOTPRINT_AND_TYPE"}}]}
