{"type":"FeatureCollection","name":"gas_emissions_4","slot_schema_family":"AAYS_LAYER24_EVIDENCE_V1","package_category":"AAYS_SOURCE_AREA_V1","semantic_mode":"AREA_JOIN","slot_id":"gas_emissions_4","owner":"gas_emissions_4","partition":"UNVERIFIED_UNRESOLVED","lineage_id":"GE4-d738674f-dbc5-4a78-bb2a-1132f6d738fd","page_generation":1,"batch_id":"batch_20261001T145400+0300_ons_lad_dec2025_bfc_hartlepool_0001","source_area_count":1,"new_source_area_delta":0,"new_source_record_count":1,"accepted_count":0,"features":[{"type":"Feature","id":"E06000001","geometry":null,"properties":{"FID":1,"LAD25CD":"E06000001","LAD25NM":"Hartlepool","LAD25NMW":"","BNG_E":447161,"BNG_N":531473,"LONG":-1.270174,"LAT":54.67613,"Shape__Area":93887000.9520721,"Shape__Length":73982.4086478572,"GlobalID":"c0c8140e-a926-409b-89e2-53f6a4eed797","slot_id":"gas_emissions_4","owner":"gas_emissions_4","partition":"UNVERIFIED_UNRESOLVED","lineage_id":"GE4-d738674f-dbc5-4a78-bb2a-1132f6d738fd","page_generation":1,"batch_id":"batch_20261001T145400+0300_ons_lad_dec2025_bfc_hartlepool_0001","schema_family":"AAYS_LAYER24_EVIDENCE_V1","category":"AAYS_SOURCE_AREA_V1","semantic_mode":"AREA_JOIN","authority":"Office for National Statistics","source_family":"Local Authority District boundaries","boundary_version":"December 2025","boundary_type":"BFC","source_url":"https://www.data.gov.uk/dataset/aa5a9ccf-fbea-43cb-81cc-fdc04d89f128/local-authority-districts-december-2025-boundaries-uk-bfc/datafile/2f9691f0-559e-4607-9904-36510e0aaccb/preview","accessed_at_utc":"2026-10-01T11:54:00Z","evidence_slice_sha256":"84fe38a54c196160a0666762ad48b78adf28fa37feb91dcec60638e936dae69f","confidence_score_0_100":100,"evidence_grade":"A_OFFICIAL_ONS_EXACT_IDENTIFIER","accepted_as_source_area":false,"accepted_as_parcel":false,"source_area_recount_suppressed":true,"fake_data":false}}]}
