{"type":"FeatureCollection","features":[{"type":"Feature","geometry":null,"properties":{"slot_id":"future_growth_1","lineage_id":"future_growth_1-newstart-20260927T153100+0300","page_generation":null,"accepted_as_parcel":false,"source_area_count_contribution":1,"exact_identifier":"B0188","exact_identifier_provided":true,"coverage_polygon_provided":false,"identifier_namespace":"Sefton Brownfield Land Register Site Ref","site_name":"Bootle Gasworks","access_utc":"2026-10-03T15:24:00Z","data_date":"2026-07-01","source_url":"https://www.sefton.gov.uk/planning-building-control/planning-policy-including-local-plan-and-neighbourhood-planning/brownfield-land-register/","final_url":"https://www.sefton.gov.uk/planning-building-control/planning-policy-including-local-plan-and-neighbourhood-planning/brownfield-land-register/","license":"Open Government Licence v3.0","authority":"Sefton Council","street_name":"Litherland Road","settlement":"Bootle","register_part":"Part 1","register_last_updated":"2026-07-01","evidence_grade":"A","confidence_score_0_100":99,"evidence_scope":"official Sefton Council July 2026 Brownfield Land Register Part 1 page and Map 1 exact Site Ref B0188 entry","evidence_slice_sha256":"5e1bfba14a5e2296e47984c3603d4e215c91c1b0136ccf0245a5816e2ba97568","source_window_payload_sha256":"fd5362e7fb3ac88b5527ba1dc1ac35e0df91b1f84b9ac35d76a146e815265db6","fake_data":false,"spatial_binding_method":"official Brownfield Land Register exact Site Ref B0188 plus council-published site-map index; exact boundary resolution, canonical parcel spatial join and materialization delegated to local OpenCode","planned_building_count_contribution":0}}]}