{"type":"FeatureCollection","features":[{"type":"Feature","id":"calderdale-local-plan:LP1194","geometry":null,"properties":{"slot_id":"future_growth_4","lineage_id":"fg4-e4c9076d6f554f00","page_generation":1,"owner":"future_growth_4","partition":"future_growth","semantic_mode":"SOURCE_AREA_EXACT_IDENTIFIER","dataset":"calderdale-local-plan-examination-library","entity":"LP1194","reference":"LP1194","quality":"authoritative","organisation":"Calderdale Council","name":"Barn Cottage, 5 Lower Exley, Siddal, Halifax","source_url":"https://new.calderdale.gov.uk/planning-and-building-control/planning-policy/local-plan/examination-library","final_url":"https://new.calderdale.gov.uk/planning-and-building-control/planning-policy/local-plan/examination-library","access_utc":"2026-10-01T23:55:21Z","data_date":"2023-03-22","license":"Calderdale Council website; no general reuse licence stated on source page","field_evidence":{"reference":"LP1194","section":"SS25","site_name":"Barn Cottage, 5 Lower Exley, Siddal, Halifax","allocation_type":"Housing Allocation","local_plan_status":"adopted","plan_adopted_date":"2023-03-22","source_page_updated":"2026-06-25"},"evidence_slice_sha256":"15fd219891522998630c2ce3ce9abda90807ce38604256740c94f01d24bdd97a","confidence_score_0_100":99,"confidence":0.99,"evidence_grade":"A","exact_identifier_provided":true,"coverage_polygon_provided":false,"fake_data":false,"join_mode":"LOCAL_OPENCODE_SPATIAL_JOIN_PENDING","direct_parcel":false,"source_area_count_contribution":1,"planned_building_count_contribution":0}}]}