{"type":"FeatureCollection","features":[{"type":"Feature","geometry":null,"properties":{"slot_id":"planned_buildings_1","lineage_id":"planned_buildings_1-0ffc4ebd6c6e4e41","semantic_mode":"DISTINCT_BUILDINGS","planned_building_id":"planning-application:RB2026/0504::DWELLING_01","building_status":"PLANNED","building_name":"Proposed residential dwelling 1, Highfield Farm West Melton","planning_reference":"RB2026/0504","authority":"Rotherham Metropolitan Borough Council","source_url":"https://planning.rotherham.gov.uk/detail.asp?AltRef=RB2026%2F0504","final_url":"https://planning.rotherham.gov.uk/detail.asp?AltRef=RB2026%2F0504","access_utc":"2026-10-03T10:39:08Z","source_data_date":"2026-04-08","license":"Open Government Licence v3.0","geometry_role":"official planning page exposes no machine-readable point or building footprint; geometry null; no geometry inferred","field_evidence":"Official Registered/Valid Listed Building Consent application explicitly states erection of 2 residential dwellings; current official page states no decision.","identity_limitation":"Exactly two newly erected residential dwellings are explicitly stated by the source; this record represents dwelling 1 of 2. Six dwellings formed by conversion of existing buildings are not counted as new planned buildings.","confidence_score_0_100":96,"evidence_grade":"A","fake_data":false}},{"type":"Feature","geometry":null,"properties":{"slot_id":"planned_buildings_1","lineage_id":"planned_buildings_1-0ffc4ebd6c6e4e41","semantic_mode":"DISTINCT_BUILDINGS","planned_building_id":"planning-application:RB2026/0504::DWELLING_02","building_status":"PLANNED","building_name":"Proposed residential dwelling 2, Highfield Farm West Melton","planning_reference":"RB2026/0504","authority":"Rotherham Metropolitan Borough Council","source_url":"https://planning.rotherham.gov.uk/detail.asp?AltRef=RB2026%2F0504","final_url":"https://planning.rotherham.gov.uk/detail.asp?AltRef=RB2026%2F0504","access_utc":"2026-10-03T10:39:08Z","source_data_date":"2026-04-08","license":"Open Government Licence v3.0","geometry_role":"official planning page exposes no machine-readable point or building footprint; geometry null; no geometry inferred","field_evidence":"Official Registered/Valid Listed Building Consent application explicitly states erection of 2 residential dwellings; current official page states no decision.","identity_limitation":"Exactly two newly erected residential dwellings are explicitly stated by the source; this record represents dwelling 2 of 2. Six dwellings formed by conversion of existing buildings are not counted as new planned buildings.","confidence_score_0_100":96,"evidence_grade":"A","fake_data":false}}]}