{"type":"FeatureCollection","name":"gas_emissions_4","slot_schema_family":"AAYS_LAYER24_EVIDENCE_V1","package_category":"AAYS_SOURCE_AREA_V1","semantic_mode":"AREA_JOIN","slot_id":"gas_emissions_4","owner":"gas_emissions_4","partition":"UNVERIFIED_UNRESOLVED","lineage_id":"GE4-d738674f-dbc5-4a78-bb2a-1132f6d738fd","page_generation":1,"batch_id":"batch_20261002T000600+0300_desnz_2005_2024_hartlepool_preview_0004","source_area_count":1,"new_source_area_delta":0,"new_source_record_count":4,"accepted_count":0,"features":[{"type":"Feature","id":"E06000001-2005-Agriculture_Electricity-CO2","geometry":null,"properties":{"Country":"England","Country Code":"E92000001","Region":"North East","Region Code":"E12000001","Second Tier Authority":"Hartlepool","Local Authority":"Hartlepool","Local Authority Code":"E06000001","Calendar Year":2005,"LA GHG Sector":"Agriculture","LA GHG Sub-sector":"Agriculture Electricity","Greenhouse gas":"CO2","Territorial emissions (kt CO2e)":"1.692170216","Emissions within the scope of influence of LAs (kt CO2)":"1.692170216","Mid-year Population (thousands)":"90.457","Area (km2)":"98.3466","slot_id":"gas_emissions_4","owner":"gas_emissions_4","partition":"UNVERIFIED_UNRESOLVED","lineage_id":"GE4-d738674f-dbc5-4a78-bb2a-1132f6d738fd","page_generation":1,"batch_id":"batch_20261002T000600+0300_desnz_2005_2024_hartlepool_preview_0004","schema_family":"AAYS_LAYER24_EVIDENCE_V1","category":"AAYS_SOURCE_AREA_V1","semantic_mode":"AREA_JOIN","authority":"Department for Energy Security and Net Zero","source_family":"UK local authority and regional greenhouse gas emissions statistics","dataset_version":"2005-2024","source_url":"https://www.data.gov.uk/dataset/723c243d-2f1a-4d27-8b61-cdb93e5b10ff/local_authority_carbon_dioxide_emissions/datafile/899d4613-20b6-49bc-a953-4fc13efdef12/preview","final_url":"https://www.data.gov.uk/dataset/723c243d-2f1a-4d27-8b61-cdb93e5b10ff/local_authority_carbon_dioxide_emissions/datafile/899d4613-20b6-49bc-a953-4fc13efdef12/preview","data_date":"2005-2024; record calendar_year=2005","license":"UK Open Government Licence (OGL)","accessed_at_utc":"2026-10-01T21:06:00Z","field_evidence":{"Local Authority Code":"E06000001","Local Authority":"Hartlepool","Calendar Year":2005},"evidence_slice_sha256":"50c1ac0505839493fcd6dcb7279210a591e534ae6d75e76bb5e7f2064eaad464","confidence_score_0_100":100,"evidence_grade":"A_DESNZ_ACCREDITED_OFFICIAL_STATISTICS_EXACT_IDENTIFIER","accepted_as_source_area":false,"accepted_as_parcel":false,"source_area_recount_suppressed":true,"fake_data":false}},{"type":"Feature","id":"E06000001-2005-Agriculture_Electricity-CH4","geometry":null,"properties":{"Country":"England","Country Code":"E92000001","Region":"North East","Region Code":"E12000001","Second Tier Authority":"Hartlepool","Local Authority":"Hartlepool","Local Authority Code":"E06000001","Calendar Year":2005,"LA GHG Sector":"Agriculture","LA GHG Sub-sector":"Agriculture Electricity","Greenhouse gas":"CH4","Territorial emissions (kt CO2e)":"5.36E-02","Emissions within the scope of influence of LAs (kt CO2)":"0","Mid-year Population (thousands)":"90.457","Area (km2)":"98.3466","slot_id":"gas_emissions_4","owner":"gas_emissions_4","partition":"UNVERIFIED_UNRESOLVED","lineage_id":"GE4-d738674f-dbc5-4a78-bb2a-1132f6d738fd","page_generation":1,"batch_id":"batch_20261002T000600+0300_desnz_2005_2024_hartlepool_preview_0004","schema_family":"AAYS_LAYER24_EVIDENCE_V1","category":"AAYS_SOURCE_AREA_V1","semantic_mode":"AREA_JOIN","authority":"Department for Energy Security and Net Zero","source_family":"UK local authority and regional greenhouse gas emissions statistics","dataset_version":"2005-2024","source_url":"https://www.data.gov.uk/dataset/723c243d-2f1a-4d27-8b61-cdb93e5b10ff/local_authority_carbon_dioxide_emissions/datafile/899d4613-20b6-49bc-a953-4fc13efdef12/preview","final_url":"https://www.data.gov.uk/dataset/723c243d-2f1a-4d27-8b61-cdb93e5b10ff/local_authority_carbon_dioxide_emissions/datafile/899d4613-20b6-49bc-a953-4fc13efdef12/preview","data_date":"2005-2024; record calendar_year=2005","license":"UK Open Government Licence (OGL)","accessed_at_utc":"2026-10-01T21:06:00Z","field_evidence":{"Local Authority Code":"E06000001","Local Authority":"Hartlepool","Calendar Year":2005},"evidence_slice_sha256":"50c1ac0505839493fcd6dcb7279210a591e534ae6d75e76bb5e7f2064eaad464","confidence_score_0_100":100,"evidence_grade":"A_DESNZ_ACCREDITED_OFFICIAL_STATISTICS_EXACT_IDENTIFIER","accepted_as_source_area":false,"accepted_as_parcel":false,"source_area_recount_suppressed":true,"fake_data":false}},{"type":"Feature","id":"E06000001-2005-Agriculture_Electricity-N2O","geometry":null,"properties":{"Country":"England","Country Code":"E92000001","Region":"North East","Region Code":"E12000001","Second Tier Authority":"Hartlepool","Local Authority":"Hartlepool","Local Authority Code":"E06000001","Calendar Year":2005,"LA GHG Sector":"Agriculture","LA GHG Sub-sector":"Agriculture Electricity","Greenhouse gas":"N2O","Territorial emissions (kt CO2e)":"6.83E-03","Emissions within the scope of influence of LAs (kt CO2)":"0","Mid-year Population (thousands)":"90.457","Area (km2)":"98.3466","slot_id":"gas_emissions_4","owner":"gas_emissions_4","partition":"UNVERIFIED_UNRESOLVED","lineage_id":"GE4-d738674f-dbc5-4a78-bb2a-1132f6d738fd","page_generation":1,"batch_id":"batch_20261002T000600+0300_desnz_2005_2024_hartlepool_preview_0004","schema_family":"AAYS_LAYER24_EVIDENCE_V1","category":"AAYS_SOURCE_AREA_V1","semantic_mode":"AREA_JOIN","authority":"Department for Energy Security and Net Zero","source_family":"UK local authority and regional greenhouse gas emissions statistics","dataset_version":"2005-2024","source_url":"https://www.data.gov.uk/dataset/723c243d-2f1a-4d27-8b61-cdb93e5b10ff/local_authority_carbon_dioxide_emissions/datafile/899d4613-20b6-49bc-a953-4fc13efdef12/preview","final_url":"https://www.data.gov.uk/dataset/723c243d-2f1a-4d27-8b61-cdb93e5b10ff/local_authority_carbon_dioxide_emissions/datafile/899d4613-20b6-49bc-a953-4fc13efdef12/preview","data_date":"2005-2024; record calendar_year=2005","license":"UK Open Government Licence (OGL)","accessed_at_utc":"2026-10-01T21:06:00Z","field_evidence":{"Local Authority Code":"E06000001","Local Authority":"Hartlepool","Calendar Year":2005},"evidence_slice_sha256":"50c1ac0505839493fcd6dcb7279210a591e534ae6d75e76bb5e7f2064eaad464","confidence_score_0_100":100,"evidence_grade":"A_DESNZ_ACCREDITED_OFFICIAL_STATISTICS_EXACT_IDENTIFIER","accepted_as_source_area":false,"accepted_as_parcel":false,"source_area_recount_suppressed":true,"fake_data":false}},{"type":"Feature","id":"E06000001-2005-Agriculture_Gas-CO2","geometry":null,"properties":{"Country":"England","Country Code":"E92000001","Region":"North East","Region Code":"E12000001","Second Tier Authority":"Hartlepool","Local Authority":"Hartlepool","Local Authority Code":"E06000001","Calendar Year":2005,"LA GHG Sector":"Agriculture","LA GHG Sub-sector":"Agriculture Gas","Greenhouse gas":"CO2","Territorial emissions (kt CO2e)":"0.277495195","Emissions within the scope of influence of LAs (kt CO2)":"0.277495195","Mid-year Population (thousands)":"90.457","Area (km2)":"98.3466","slot_id":"gas_emissions_4","owner":"gas_emissions_4","partition":"UNVERIFIED_UNRESOLVED","lineage_id":"GE4-d738674f-dbc5-4a78-bb2a-1132f6d738fd","page_generation":1,"batch_id":"batch_20261002T000600+0300_desnz_2005_2024_hartlepool_preview_0004","schema_family":"AAYS_LAYER24_EVIDENCE_V1","category":"AAYS_SOURCE_AREA_V1","semantic_mode":"AREA_JOIN","authority":"Department for Energy Security and Net Zero","source_family":"UK local authority and regional greenhouse gas emissions statistics","dataset_version":"2005-2024","source_url":"https://www.data.gov.uk/dataset/723c243d-2f1a-4d27-8b61-cdb93e5b10ff/local_authority_carbon_dioxide_emissions/datafile/899d4613-20b6-49bc-a953-4fc13efdef12/preview","final_url":"https://www.data.gov.uk/dataset/723c243d-2f1a-4d27-8b61-cdb93e5b10ff/local_authority_carbon_dioxide_emissions/datafile/899d4613-20b6-49bc-a953-4fc13efdef12/preview","data_date":"2005-2024; record calendar_year=2005","license":"UK Open Government Licence (OGL)","accessed_at_utc":"2026-10-01T21:06:00Z","field_evidence":{"Local Authority Code":"E06000001","Local Authority":"Hartlepool","Calendar Year":2005},"evidence_slice_sha256":"50c1ac0505839493fcd6dcb7279210a591e534ae6d75e76bb5e7f2064eaad464","confidence_score_0_100":100,"evidence_grade":"A_DESNZ_ACCREDITED_OFFICIAL_STATISTICS_EXACT_IDENTIFIER","accepted_as_source_area":false,"accepted_as_parcel":false,"source_area_recount_suppressed":true,"fake_data":false}}]}
