{"type":"FeatureCollection","features":[{"type":"Feature","id":"ons-ogp-wd-may-2026-bsc:E05009390","geometry":null,"properties":{"evidence_scope":"coverage_area","coverage_area_id":"E05009390","coverage_area_name":"Campden","identifier_scheme":"ONS_OGP_WARD_CODE_BINDING","exact_official_identifier":"E05009390","source_resolution":"ONS_OGP_MAY_2026_BSC_SUPER_GENERALISED_200M","time_window":"2026-05","measurement_date":"2026-05","measurement_method":"official ONS ward-boundary dataset catalogue and feature-service binding","spatial_binding_method":"FEATURE_EXTRACTION_AND_PARCEL_JOIN_DEFERRED_TO_LOCAL_OPENCODE","source_url":"https://www.data.gov.uk/dataset/2130d92d-8593-4373-b0e5-347133e85dc2/wards-may-2026-boundaries-uk-bsc","final_url":"https://www.data.gov.uk/dataset/2130d92d-8593-4373-b0e5-347133e85dc2/wards-may-2026-boundaries-uk-bsc","accessed_at_utc":"2026-10-06T05:48:00Z","data_date":"2026-05","licence":"NOT_STATED_ON_CATALOGUE_PAGE","sha256":"4af725f99f94e72a3c7f81cfcbd45cf63d2869ebc44e2886a305434399ce40b2","field_evidence":{"dataset_title":"Wards (May 2026) Boundaries UK BSC","publisher":"Office for National Statistics","catalogue_updated":"2026-08-13","boundary_date":"2026-05","boundary_resolution":"BSC Super Generalised (200m) - clipped to coastline (Mean High Water mark)","feature_access_service":"https://services1.arcgis.com/ESMARspQHYMw9BZ9/arcgis/rest/services/WD_MAY_2026_UK_BSC/FeatureServer","map_service":"https://services1.arcgis.com/ESMARspQHYMw9BZ9/arcgis/rest/services/Wards_(May_2026)_Boundaries_UK_BSC/MapServer","arcgis_item_id":"f642baf54ffc40f99f8030d120e507fa","target_ward_code":"E05009390","target_ward_name":"Campden","feature_extraction_status":"DEFERRED_TO_LOCAL_OPENCODE","geometry_materialized":false,"source_url":"https://www.data.gov.uk/dataset/2130d92d-8593-4373-b0e5-347133e85dc2/wards-may-2026-boundaries-uk-bsc","accessed_at_utc":"2026-10-06T05:48:00Z"},"evidence_slice_sha256":"4daf383afa0e027831fcc6f59c58aaee773dd91eb860739a0a91c0773312ba73","confidence_score_0_100":99,"evidence_grade":"A","fake_data":false,"source_window_id":"ons_ogp_WD_MAY_2026_UK_BSC_E05009390_sps5_20261006_v1","cursor":"ons_ogp_WD_MAY_2026_UK_BSC_E05009390_sps5_20261006_v1:record=1"}}]}
