{"type":"FeatureCollection","name":"height_difference_5","metadata":{"slot_id":"height_difference_5","owner":"height_difference_5","lineage_id":"height_difference_5-eb56f92ed3f0514c","page_generation":1,"schema":"AAYS_LAYER24_EVIDENCE_V1","partition":"layer24","semantic_mode_state":"ABSENT_IN_PRIOR_PHYSICAL_STATE_PRESERVED_BY_OMISSION","batch_id":"20261007T043000Z_osni_coverage_grid_10k_geoservice_blocked","record_policy":"Official OSNI Coverage Grid metadata/service blocker evidence only; no Belfast tile ID, geometry, CRS linkage or parcel binding synthesized.","fake_data":false},"features":[{"type":"Feature","geometry":null,"properties":{"slot_id":"height_difference_5","owner":"height_difference_5","lineage_id":"height_difference_5-eb56f92ed3f0514c","page_generation":1,"schema":"AAYS_LAYER24_EVIDENCE_V1","partition":"layer24","batch_id":"20261007T043000Z_osni_coverage_grid_10k_geoservice_blocked","source_record_id":"OSNI_COVERAGE_GRID_10K:ARCGIS_LAYER_1","source_url":"https://www.data.gov.uk/dataset/259d43ba-a24b-44af-b59f-16d38756a7aa/osni-open-data-coverage-grid-10k5","service_url":"https://services.spatialni.gov.uk/opendata/rest/services/OSNIVector/OSNIOpenData_CoverageGrids/MapServer/1","access_utc":"2026-10-07T04:30:00Z","required_building_state":"BUILDING_PRESENT","binding_status":"LOCAL_OPENCODE_BUILDING_PRESENT_EXACT_TILE_BIND_REQUIRED","service_transport_status":"HTTP_502_BAD_GATEWAY_NON_RETRYABLE","reference_system_name":"Irish Grid","belfast_2006_specific_crs_linkage":null,"exact_tile_identifier":null,"crs":null,"evidence_slice_sha256":"1ea63e01d47f18a07711adca5d6086c396caa8b8bf3993d5f7cb1c41e8d81871","accepted_count_contribution":0,"source_area_count_contribution":0,"fake_data":false}}]}
