{"type":"FeatureCollection","features":[{"type":"Feature","id":"planned_buildings_2-planning-data-brownfield-1724901","geometry":null,"properties":{"entity":1724901,"reference":"BR06","canonical_record_key":"planning-data:brownfield-land:1724901","planned_project_name":"Bishops College, Churchgate, Cheshunt, EN8 9XG","planned_project_status":"not-permissioned","borough":"Broxbourne Borough Council","official_hectares":1.911,"official_deliverable":null,"official_minimum_net_dwellings":null,"official_maximum_net_dwellings":null,"planned_building_value":null,"planned_building_probability":null,"planned_building_complete_month":null,"source_quality":"authoritative","source_url":"https://www.planning.data.gov.uk/entity/1724901","source_license":"Open Government Licence v3.0","fake_data":false}}],"metadata":{"slot_id":"planned_buildings_2","batch_index":259,"source_index":21,"source_window":{"resource_index":4,"limit":1},"feature_count_before":598,"feature_count_after":599,"unique_real_site_project_before":439,"unique_real_site_project_after":440,"duplicate_count_new":0,"nearest_match_used":false,"parcel_match_used":false,"geometry_inference_used":false,"mirror_only":true}}