{"type":"FeatureCollection","features":[{"type":"Feature","id":"planned_buildings_2-planning-data-brownfield-1724897","geometry":null,"properties":{"entity":1724897,"reference":"BR02","canonical_record_key":"planning-data:brownfield-land:1724897","planned_project_name":"Park Lane Paradise, Cheshunt, EN7 6TD","planned_project_status":"permissioned","borough":"Broxbourne Borough Council","official_hectares":2.238,"official_deliverable":null,"official_minimum_net_dwellings":null,"official_maximum_net_dwellings":null,"planned_building_value":null,"planned_building_probability":null,"planned_building_complete_month":null,"source_quality":"authoritative","source_url":"https://www.planning.data.gov.uk/entity/1724897","source_license":"Open Government Licence v3.0","fake_data":false}}],"metadata":{"slot_id":"planned_buildings_2","batch_index":256,"source_index":21,"source_window":{"resource_index":1,"limit":1},"feature_count_before":595,"feature_count_after":596,"unique_real_site_project_before":436,"unique_real_site_project_after":437,"duplicate_count_new":0,"nearest_match_used":false,"parcel_match_used":false,"geometry_inference_used":false,"mirror_only":true}}