{"type":"FeatureCollection","features":[{"type":"Feature","id":"planned_buildings_2-planning-data-brownfield-1724918","geometry":null,"properties":{"entity":1724918,"reference":"BR23","canonical_record_key":"planning-data:brownfield-land:1724918","planned_project_name":"134 Crossbrook Street, Cheshunt, EN8 8JH","planned_project_status":"permissioned","borough":"Broxbourne Borough Council","official_hectares":0.042,"official_deliverable":null,"official_minimum_net_dwellings":null,"official_maximum_net_dwellings":null,"planned_building_value":null,"planned_building_probability":null,"planned_building_complete_month":null,"source_quality":"authoritative","source_url":"https://www.planning.data.gov.uk/entity/1724918","source_license":"Open Government Licence v3.0","fake_data":false}}],"metadata":{"slot_id":"planned_buildings_2","batch_index":264,"source_index":21,"source_window":{"resource_index":9,"limit":1},"feature_count_before":603,"feature_count_after":604,"unique_real_site_project_before":444,"unique_real_site_project_after":445,"duplicate_count_new":0,"nearest_match_used":false,"parcel_match_used":false,"geometry_inference_used":false,"mirror_only":true}}