{"type":"FeatureCollection","features":[{"type":"Feature","id":"planned_buildings_2-1724896","geometry":null,"properties":{"entity":1724896,"reference":"BR01","canonical_record_key":"planning-data:brownfield-land:1724896","planned_project_name":"High Road Broxbourne, Broxbourne, EN10 7DD","fake_data":false}},{"type":"Feature","id":"planned_buildings_2-1724897","geometry":null,"properties":{"entity":1724897,"reference":"BR02","canonical_record_key":"planning-data:brownfield-land:1724897","planned_project_name":"Park Lane Paradise, Cheshunt, EN7 6TD","fake_data":false}},{"type":"Feature","id":"planned_buildings_2-1724898","geometry":null,"properties":{"entity":1724898,"reference":"BR03","canonical_record_key":"planning-data:brownfield-land:1724898","planned_project_name":"Rosedale Way, Cheshunt, Waltham Cross, Hertfordshire, EN7 6HR","fake_data":false}},{"type":"Feature","id":"planned_buildings_2-1724900","geometry":null,"properties":{"entity":1724900,"reference":"BR05","canonical_record_key":"planning-data:brownfield-land:1724900","planned_project_name":"Delamare Road, Cheshunt","fake_data":false}},{"type":"Feature","id":"planned_buildings_2-1724901","geometry":null,"properties":{"entity":1724901,"reference":"BR06","canonical_record_key":"planning-data:brownfield-land:1724901","planned_project_name":"Bishops College, Churchgate, Cheshunt, EN8 9XG","fake_data":false}},{"type":"Feature","id":"planned_buildings_2-1724903","geometry":null,"properties":{"entity":1724903,"reference":"BR08","canonical_record_key":"planning-data:brownfield-land:1724903","planned_project_name":"577-579 Goffs Lane, Goffs Oak, EN7 5HJ","fake_data":false}},{"type":"Feature","id":"planned_buildings_2-1724904","geometry":null,"properties":{"entity":1724904,"reference":"BR09","canonical_record_key":"planning-data:brownfield-land:1724904","planned_project_name":"104 Cuffley Hill, Goffs Oak, EN7 5EY","fake_data":false}},{"type":"Feature","id":"planned_buildings_2-1724905","geometry":null,"properties":{"entity":1724905,"reference":"BR10","canonical_record_key":"planning-data:brownfield-land:1724905","planned_project_name":"Rye Road, Hoddesdon, EN11","fake_data":false}},{"type":"Feature","id":"planned_buildings_2-1724913","geometry":null,"properties":{"entity":1724913,"reference":"BR18","canonical_record_key":"planning-data:brownfield-land:1724913","planned_project_name":"High Road, Turnford, EN10 6DB","fake_data":false}},{"type":"Feature","id":"planned_buildings_2-1724918","geometry":null,"properties":{"entity":1724918,"reference":"BR23","canonical_record_key":"planning-data:brownfield-land:1724918","planned_project_name":"134 Crossbrook Street, Cheshunt, EN8 8JH","fake_data":false}},{"type":"Feature","id":"planned_buildings_2-1724921","geometry":null,"properties":{"entity":1724921,"reference":"BR26","canonical_record_key":"planning-data:brownfield-land:1724921","planned_project_name":"75-81 High Street, Waltham Cross, EN8 7AF","fake_data":false}}],"metadata":{"slot_id":"planned_buildings_2","batch_indices":[255,256,257,258,259,260,261,262,263,264,265],"feature_count_before":594,"features_added":11,"feature_count_after":605,"unique_real_site_project_before":435,"unique_real_site_project_added":11,"unique_real_site_project_after":446,"duplicate_count_new":0,"nearest_match_used":false,"parcel_match_used":false,"geometry_inference_used":false,"mirror_only":true}}