{"type":"FeatureCollection","name":"height_difference_2","features":[],"metadata":{"slot_id":"height_difference_2","lineage_id":"height_difference_2_20260930T001051Z","page_generation":1,"partition":"source_area","schema":"AAYS_LAYER24_EVIDENCE_V1","fake_data":false,"owner":"cagdas aydin","batch_id":"batch_0059_post_batch0058_changed_producer_direct_field_blocker_20261005T052400+0300","cursor":"BLOCKED_POST_BATCH_0058_CHANGED_PRODUCER_DIRECT_FIELD_NO_HD2_CANONICAL_OR_TILE_BINDING","source_area_count":0,"accepted_count":0,"unmatched_count":1,"external_source_window_opened":false,"scan_head_sha":"ca7984185a25f304c37112cbf37cc0522d9c55b5","reason":"EXACT_BLOCKER: after repeated zero-acceptance rounds the method was materially changed from the batch_0058 targeted height_difference_2 binding search to a direct field audit of newly changed producer artifacts after immutable batch_0058 commit 479b77ebcaebcffe63a6343d0939a4dea309cbcd through scan head ca7984185a25f304c37112cbf37cc0522d9c55b5. No height_difference_2 path/materialization delta was added. The newest verified BUILDING_PRESENT producer candidate, North Somerset Council / Planning Data entity 42129906 (WH Smith, 44 High Street; reference LSB1191), has authoritative MultiPolygon geometry and OGL v3.0 evidence but canonical_parcel_id=null, materialized/direct parcel counts remain 0, and local_spatial_join_required=true. No exact official DEM/LIDAR tile selector attributable to height_difference_2 is present. Therefore the family start criterion remains unsatisfied; no external DEM/LIDAR window was opened. Local OpenCode must publish a non-null slot-bound height_difference_2 canonical_parcel_id with BUILDING_PRESENT plus parcel geometry/bbox or an exact official DEM/LIDAR tile selector before Height Difference source acceptance."}}
