{"type":"FeatureCollection","name":"internet_access_5_exact_blocker_partition_ownership_missing","metadata":{"schema":"AAYS_SOURCE_AREA_V1","target_schema":"AAYS_LAYER24_EVIDENCE_V1","family":"Layer24","category":"Internet Access","slot_id":"internet_access_5","slot_name":"internet_access_5","owner":"internet_access_5","lineage_id":"internet_access_5__20260927T155800+0300__newstart","page_generation":1,"partition":"UNRESOLVED_NO_PRIOR_OWNERSHIP_ARTIFACT","semantic_mode":"EXACT_OFFICIAL_IDENTIFIER","batch_id":"batch_0053_exact_blocker_historical_commit_changed_content_20261005T004300Z","delivery_mode":"TEXT_BUNDLE_V1","new_source_records_this_turn":0,"source_area_count":217,"batch_source_area_count":0,"accepted_count":0,"materialized_parcel_count":0,"direct_parcel_count":0,"verified_no_building_count":0,"unprocessed_count":0,"planned_building_count":0,"duplicate_count_this_turn":0,"rejected_count_this_turn":0,"unmatched_count_this_turn":0,"cursor":"GITHUB_HISTORICAL_COMMIT_CHANGED_CONTENT_WINDOW_1_NO_EXPLICIT_INTERNET_ACCESS_5_MAPPING@efaab121d150","first_missing_criterion":"EXISTING_PARTITION_OWNERSHIP_OR_EXPLICIT_PARTITION_MAP:EXACT_BLOCKER_NO_AUTHORITATIVE_ARTIFACT_FOUND","canonical_matching":"deferred_to_local_OpenCode","zero_accept_streak":"47+","method_change":"HISTORICAL_COMMIT_CHANGED_CONTENT_SCAN_AFTER_SLOTS21_DIRECTORY_COMMIT_HISTORY_METADATA_WINDOW","evidence_file":"source_evidence/ownership_partition_historical_commit_changed_content_window.json","confidence_score_0_100":100,"evidence_grade":"A_PUBLIC_REPOSITORY_IMMUTABLE_COMMIT_DIFF_NEGATIVE_EVIDENCE","fake_data":false,"claims":{"parcel_acceptance":false,"parcel_progress":false,"publisher_progress":false,"all_england_complete":false,"local_import_readback":false},"previous_checkpoint":{"source_area_count":217,"accepted_count":0,"cursor":"GITHUB_SLOTS21_DIRECTORY_COMMIT_HISTORY_WINDOW_50_NO_EXPLICIT_INTERNET_ACCESS_5_MAPPING@f60409b22d93","producer_commit":"93b8648878463943cbfbe9f781b463605c52b07d","lineage_id":"internet_access_5__20260927T155800+0300__newstart","page_generation":1,"partition":"UNRESOLVED_NO_PRIOR_OWNERSHIP_ARTIFACT","semantic_mode":"EXACT_OFFICIAL_IDENTIFIER"},"next_step":"Provide or materialize an authoritative explicit mapping from internet_access_5 to a parcel partition/ownership assignment before further source-area accumulation or parcel spatial join/materialization.","source_url":"https://github.com/cagdascagdas100/chat_gpt_clone_1/commit/efaab121d1505f248f66b6243d6e4d1439b2d85d","final_url":"https://api.github.com/repos/cagdascagdas100/chat_gpt_clone_1/commits/efaab121d1505f248f66b6243d6e4d1439b2d85d","access_utc":"2026-10-05T00:43:00Z","data_date":"2026-10-05","license":"GitHub public repository immutable commit diff/content metadata","source_window_records":1,"authoritative_candidate_count":0,"method_fingerprint_sha256":"b646dc97dd34b441a91433baf2f03b35b2a5034fa3716b5b290b6b7b6ac7aab5","evidence_slice_sha256":"45a83467a75f8b0606eb9594f10de96842048f3b4e73c5d6abe355ce5b86db65","exact_blocker":"EXISTING_PARTITION_OWNERSHIP_OR_EXPLICIT_PARTITION_MAP:EXACT_BLOCKER_NO_AUTHORITATIVE_ARTIFACT_FOUND"},"features":[]}
