{
  "type": "FeatureCollection",
  "features": [
    {
      "type": "Feature",
      "geometry": {
        "type": "MultiPolygon",
        "coordinates": [
          [
            [
              [
                -1.13325,
                53.52143
              ],
              [
                -1.133171,
                53.521487
              ],
              [
                -1.133431,
                53.521582
              ],
              [
                -1.13354,
                53.521632
              ],
              [
                -1.133517,
                53.52165
              ],
              [
                -1.133603,
                53.52169
              ],
              [
                -1.13383,
                53.52152
              ],
              [
                -1.133686,
                53.521448
              ],
              [
                -1.133744,
                53.521406
              ],
              [
                -1.133603,
                53.521336
              ],
              [
                -1.133585,
                53.521349
              ],
              [
                -1.133496,
                53.521307
              ],
              [
                -1.133485,
                53.521316
              ],
              [
                -1.133447,
                53.521298
              ],
              [
                -1.133459,
                53.52129
              ],
              [
                -1.133449,
                53.521286
              ],
              [
                -1.13325,
                53.52143
              ]
            ]
          ]
        ]
      },
      "properties": {
        "slot_id": "future_growth_3",
        "lineage_id": "future_growth_3-newstart-20261001T203100Z",
        "page_generation": "null",
        "accepted_as_parcel": false,
        "source_area_count_contribution": 1,
        "source_url": "https://www.planning.data.gov.uk/entity/1802777",
        "final_url": "https://www.planning.data.gov.uk/entity/1802777",
        "access_utc": "2026-10-09T11:31:12Z",
        "http_status": 200,
        "data_date": "2024-12-24",
        "license": "Open Government Licence v3.0; © Crown copyright and database right 2025",
        "exact_identifier": "110",
        "secondary_exact_identifier": "entity:1802777",
        "source_entity": "110 - 31-33 Cleveland Street, Doncaster, DN1 3DY",
        "exact_identifier_provided": true,
        "coverage_polygon_provided": true,
        "identifier_namespace": "Planning Data brownfield-site reference / Doncaster",
        "authority": "Doncaster Metropolitan Borough Council",
        "site_address": "31-33 Cleveland Street, Doncaster, DN1 3DY",
        "field_evidence": {
          "reference": "110",
          "prefix": "brownfield-site",
          "name": "31-33 Cleveland Street, Doncaster, DN1 3DY",
          "dataset": "brownfield-site",
          "organisation-entity": "109",
          "start-date": "",
          "end-date": "",
          "entry-date": "2024-12-24",
          "typology": "geography",
          "geometry": "MULTIPOLYGON (((-1.13325 53.52143, -1.133171 53.521487, -1.133431 53.521582, -1.13354 53.521632, -1.133517 53.52165, -1.133603 53.52169, -1.13383 53.52152, -1.133686 53.521448, -1.133744 53.521406, -1.133603 53.521336, -1.133585 53.521349, -1.133496 53.521307, -1.133485 53.521316, -1.133447 53.521298, -1.133459 53.52129, -1.133449 53.521286, -1.13325 53.52143)))",
          "point": "POINT (-1.133518 53.521482)",
          "entity": 1802777,
          "dataset-name": "",
          "brownfield-site": "110"
        },
        "source_payload_sha256": "9ed5c94ad07ab24cd1de55351ff2763568b903847de6f4f8d479add5a309433c",
        "source_payload_sha256_basis": "UTF-8 SHA256 of JSON serialization of official Planning Data entity field_evidence",
        "evidence_slice_sha256": "88c8fabbeb10a0680d8adb9e6742598fdb40f9a667f876a39ec0f9e197453b0c",
        "evidence_grade": "A",
        "confidence_score_0_100": 99,
        "evidence_scope": "official_polygon_from_planning_data_brownfield_site_entity",
        "fake_data": false,
        "spatial_binding_method": "Official Planning Data WKT MultiPolygon; canonical parcel spatial join/materialization delegated to local OpenCode",
        "planned_building_count_contribution": 0
      }
    }
  ]
}
