{
  "type": "FeatureCollection",
  "features": [
    {
      "type": "Feature",
      "properties": {
        "slot_id": "building_type_3",
        "lineage_id": "building_type_3-new-20260927T1328+0300",
        "owner": "cagdas aydin",
        "partition": "building_type_3",
        "page_generation": 61,
        "semantic_mode": null,
        "batch_id": "BT3-P105G61-20261008-OSOML-ALTRINCHAM-1D77265B",
        "cursor": "BT3-P105G61-20261008-OSOML-ALTRINCHAM-1D77265B-p105",
        "building_state": "BUILDING_PRESENT",
        "source_record_id": "os-openmap-local:important-building:1D77265B-4071-428C-89C8-976416C5C176",
        "semantic_identity": "os-openmap-local:important-building:1D77265B-4071-428C-89C8-976416C5C176",
        "name": "Altrincham Hospital",
        "building_type_use": "hospital",
        "type_use_evidence": "OS CLASSIFICA=Hospital; BUILDGTHEM=Medical Care",
        "dataset": "OS OpenMap Local ImportantBuilding",
        "quality": "authoritative OS-derived generalized building polygon",
        "coordinate_reference_system": "EPSG:4326; original EPSG:27700",
        "ID": "1D77265B-4071-428C-89C8-976416C5C176",
        "DISTNAME": "Altrincham Hospital",
        "BUILDGTHEM": "Medical Care",
        "CLASSIFICA": "Hospital",
        "FEATCODE": 15020,
        "area_code": "E08000009",
        "area_name": "Trafford",
        "authority": "Ordnance Survey OS OpenMap Local; official local government Trafford Data Lab publication",
        "source_url": "https://github.com/traffordDataLab/open_data/blob/834d8f847b874ccdef12d41d5e778dd108155feb/hospitals/trafford_hospitals.geojson",
        "final_url": "https://github.com/traffordDataLab/open_data/blob/834d8f847b874ccdef12d41d5e778dd108155feb/hospitals/trafford_hospitals.geojson",
        "http_status": 200,
        "access_utc": "2026-10-08T02:33:32.940Z",
        "data_date": "April 2018; source commit 2018-05-21",
        "source_version": "OS OpenMap Local ImportantBuilding; TraffordDataLab revision 834d8f847b874ccdef12d41d5e778dd108155feb",
        "license": "Open Government Licence v3.0; Contains OS data © Crown copyright and database right 2018",
        "source_file_sha256": "b701b485326448d3a340616867f7bd0cb936c865577aa690a9629b726a00bef1",
        "evidence_slice_sha256": "73b85ceac414a9a5e3560261b5f6e0e1dfee9b2020c747ff75fe77e780ac6dd0",
        "field_evidence": [
          "ID",
          "DISTNAME",
          "BUILDGTHEM",
          "CLASSIFICA",
          "FEATCODE",
          "geometry"
        ],
        "confidence_score_0_100": 95,
        "evidence_grade": "A_OS_OPENMAP_LOCAL_CLASSIFIED_IMPORTANT_BUILDING_POLYGON",
        "official_public_no_login": true,
        "fake_data": false
      },
      "geometry": {
        "type": "Polygon",
        "coordinates": [
          [
            [
              -2.351649214081412,
              53.38483931265021
            ],
            [
              -2.351136910378121,
              53.385377532541796
            ],
            [
              -2.351014015809487,
              53.38535182715884
            ],
            [
              -2.350590362542781,
              53.38526327646818
            ],
            [
              -2.350630347379737,
              53.38524410307112
            ],
            [
              -2.35091561113122,
              53.38510483948751
            ],
            [
              -2.351413225005982,
              53.38486391774329
            ],
            [
              -2.351461956185187,
              53.38479330334705
            ],
            [
              -2.351649214081412,
              53.38483931265021
            ]
          ]
        ]
      }
    }
  ]
}
