{"type":"FeatureCollection","features":[{"type":"Feature","geometry":null,"properties":{"slot_id":"future_growth_7","lineage_id":"future_growth_7_open_source_v2_20260813","page_generation":null,"batch_id":"batch_20261002T034312Z_lpb4211060","official_entity_id":4211060,"official_reference":"E60000077","dataset":"local-plan-boundary","organisation":"Amber Valley Borough Council","source_url":"https://www.planning.data.gov.uk/entity/4211060","final_url":"https://www.planning.data.gov.uk/entity/4211060","geojson_download_url":"https://www.planning.data.gov.uk/entity/4211060.geojson","accessed_utc":"2026-10-02T03:43:12Z","data_date":"2026-02-03","licence":"Open Government Licence v3.0","source_sha256":"3916e320f5aea6f11cc23ccc79c8be396b275d076f834154f84357b2b3ecf818","source_sha256_basis":"canonical_official_field_evidence_json","field_evidence":{"entry-date":"2026-02-03","start-date":"","end-date":"","entity":4211060,"name":"Amber Valley Borough Council","dataset":"local-plan-boundary","typology":"geography","reference":"E60000077","prefix":"local-plan-boundary","organisation-entity":"government-organisation:D1342","geometry":"Too large to display. Download JSON for full geometry.","point":"POINT (-1.466617 53.029278)","quality":"authoritative","organisations":"local-authority:AMB","local-planning-authorities":"E60000077"},"evidence_slice_sha256":"f0b71cc1664247defe08d814877732bfb13d2f6ac55ee2c48f45011b1521b186","evidence_grade":"A_EXACT_OFFICIAL_IDENTIFIER","confidence_score_0_100":99,"official_geometry_available":true,"official_geometry_transport":"official JSON/GeoJSON download","point_not_used_as_coverage":true,"fake_data":false}}]}
