{
  "type": "FeatureCollection",
  "features": [
    {
      "type": "Feature",
      "id": "planning-data:brownfield-site:1802271",
      "properties": {
        "slot_id": "future_growth_4",
        "lineage_id": "fg4-e4c9076d6f554f00",
        "page_generation": 1,
        "owner": "future_growth_4",
        "partition": "future_growth",
        "semantic_mode": "SOURCE_AREA_EXACT_IDENTIFIER",
        "batch_id": "20261008T054758Z_b021_BROWNFIELD_1802271",
        "dataset": "brownfield-site",
        "entity": 1802271,
        "reference": "LC015",
        "semantic_identity": "planning-data:brownfield-site:1802271",
        "name": "Lewisham Retail Park, east of Jerrard Street",
        "organisation": "London Borough of Lewisham",
        "source_url": "https://www.planning.data.gov.uk/entity/1802271",
        "final_url": "https://www.planning.data.gov.uk/entity/1802271",
        "http_status": "NOT_EXPOSED_BY_WEB_RETRIEVAL",
        "access_utc": "2026-10-08T05:47:58.996Z",
        "data_date": "2020-12-22",
        "license": "Open Government Licence v3.0",
        "field_evidence": {
          "entry-date": "2020-12-22",
          "start-date": "",
          "end-date": "",
          "entity": 1802271,
          "name": "Lewisham Retail Park, east of Jerrard Street",
          "dataset": "brownfield-site",
          "typology": "geography",
          "reference": "LC015",
          "prefix": "brownfield-site",
          "organisation-entity": 198,
          "geometry": "MULTIPOLYGON (((-0.015871 51.465785, -0.016357 51.465054, -0.016291 51.465041, -0.016033 51.464959, -0.016109 51.464714, -0.015855 51.464651, -0.015691 51.464649, -0.014677 51.464644, -0.014685 51.464959, -0.014697 51.465123, -0.014708 51.465158, -0.014789 51.465293, -0.014863 51.465364, -0.014929 51.465407, -0.015092 51.465502, -0.015288 51.465601, -0.015314 51.465609, -0.015756 51.465771, -0.015871 51.465785)))",
          "point": "POINT (-0.015474 51.465128)",
          "quality": "some",
          "brownfield-site": "LC015"
        },
        "evidence_slice_sha256": "820eab7bc3b2606a3a881230e78c8394ed4b94083b9c3f310201087d7af72a64",
        "geometry_sha256": "c9bf50f9f25d29d45119dcb5d0d54989f3edc78d4502aab300f3e6235ab0f409",
        "confidence_score_0_100": 80,
        "confidence": 0.8,
        "evidence_grade": "B",
        "exact_identifier_provided": false,
        "coverage_polygon_provided": true,
        "fake_data": false,
        "join_mode": "LOCAL_OPENCODE_SPATIAL_JOIN_PENDING",
        "direct_parcel": false,
        "source_area_count_contribution": 1,
        "planned_building_count_contribution": 0
      },
      "geometry": {
        "type": "MultiPolygon",
        "coordinates": [
          [
            [
              [
                -0.015871,
                51.465785
              ],
              [
                -0.016357,
                51.465054
              ],
              [
                -0.016291,
                51.465041
              ],
              [
                -0.016033,
                51.464959
              ],
              [
                -0.016109,
                51.464714
              ],
              [
                -0.015855,
                51.464651
              ],
              [
                -0.015691,
                51.464649
              ],
              [
                -0.014677,
                51.464644
              ],
              [
                -0.014685,
                51.464959
              ],
              [
                -0.014697,
                51.465123
              ],
              [
                -0.014708,
                51.465158
              ],
              [
                -0.014789,
                51.465293
              ],
              [
                -0.014863,
                51.465364
              ],
              [
                -0.014929,
                51.465407
              ],
              [
                -0.015092,
                51.465502
              ],
              [
                -0.015288,
                51.465601
              ],
              [
                -0.015314,
                51.465609
              ],
              [
                -0.015756,
                51.465771
              ],
              [
                -0.015871,
                51.465785
              ]
            ]
          ]
        ]
      }
    }
  ]
}
