{"type":"FeatureCollection","features":[{"type":"Feature","id":676231,"geometry":{"type":"MultiPolygon","coordinates":[[[[-73.724877576844,40.726626018403],[-73.724895875496,40.726522242819],[-73.724972415227,40.726530053913],[-73.724950840437,40.726652419089],[-73.724901188731,40.726647352152],[-73.724904466183,40.726628762577],[-73.724877576844,40.726626018403]]]]},"properties":{"source_id":"676231","building_type":"Building","building_present":true,"DOITT_ID":"676231","BIN":"4167644","FEATURE_CODE":"2100","BASE_BBL":"4079910014","OBJECTID":166350,"construction_year":1930,"geom_source":"Photogrammetric","ground_elevation":88.0,"height_roof":28.71,"last_edited_date":"2017 Aug 22 02:58:40 PM","last_status_type":"Constructed","mappluto_bbl":"4079910014","length":53.463152894929145,"evidence_grade":"A_OFFICIAL_CITY_BUILDING_FOOTPRINT_AND_TYPE"}},{"type":"Feature","id":210893,"geometry":{"type":"MultiPolygon","coordinates":[[[[-73.792431329579,40.77114097695],[-73.792584460144,40.771124484386],[-73.792594330117,40.771177457301],[-73.792441200619,40.77119394898],[-73.792431329579,40.77114097695]]]]},"properties":{"source_id":"210893","building_type":"Building","building_present":true,"DOITT_ID":"210893","BIN":"4132837","FEATURE_CODE":"2100","BASE_BBL":"4059650052","OBJECTID":197001,"construction_year":1940,"geom_source":"Photogrammetric","ground_elevation":94.0,"height_roof":25.79929116,"last_edited_date":"2017 Aug 22 03:39:40 PM","last_status_type":"Constructed","mappluto_bbl":"4059650052","length":50.16293605416444,"evidence_grade":"A_OFFICIAL_CITY_BUILDING_FOOTPRINT_AND_TYPE"}},{"type":"Feature","id":169561,"geometry":{"type":"MultiPolygon","coordinates":[[[[-73.85500291921,40.80683267743],[-73.854995838143,40.8067951357],[-73.854985680466,40.806796241344],[-73.854979071573,40.806761197293],[-73.85498923043,40.806760091651],[-73.854981421833,40.806718689464],[-73.854985833881,40.806718208744],[-73.854982494864,40.806700508826],[-73.855041848854,40.806694045845],[-73.855045186699,40.80671174666],[-73.855053572196,40.806710833291],[-73.855075069694,40.806824821243],[-73.85500291921,40.80683267743]]]]},"properties":{"source_id":"169561","building_type":"Building","building_present":true,"DOITT_ID":"169561","BIN":"2019898","FEATURE_CODE":"2100","BASE_BBL":"2034300038","OBJECTID":144468,"construction_year":1930,"geom_source":"Photogrammetric","ground_elevation":21.0,"height_roof":15.4,"last_edited_date":"2017 Aug 22 01:50:34 PM","last_status_type":"Constructed","mappluto_bbl":"2034300038","length":57.64124371696074,"evidence_grade":"A_OFFICIAL_CITY_BUILDING_FOOTPRINT_AND_TYPE"}},{"type":"Feature","id":904339,"geometry":{"type":"MultiPolygon","coordinates":[[[[-74.012466021545,40.60438471769],[-74.012486492915,40.604361117287],[-74.012544227552,40.604390208668],[-74.012523755011,40.604413809082],[-74.012466021545,40.60438471769]]]]},"properties":{"source_id":"904339","building_type":"Garage","building_present":true,"DOITT_ID":"904339","BIN":"3366656","FEATURE_CODE":"5110","BASE_BBL":"3064610188","OBJECTID":42219,"construction_year":1940,"geom_source":"Photogrammetric","ground_elevation":23.0,"height_roof":8.07,"last_edited_date":"2017 Aug 17 12:44:56 PM","last_status_type":"Constructed","mappluto_bbl":"3064610188","length":23.71397375014208,"evidence_grade":"A_OFFICIAL_CITY_BUILDING_FOOTPRINT_AND_TYPE"}},{"type":"Feature","id":1175312,"geometry":{"type":"MultiPolygon","coordinates":[[[[-73.782719298367,40.707580973649],[-73.782791202597,40.707563899625],[-73.782805657212,40.707599149609],[-73.782733752947,40.707616223643],[-73.782719298367,40.707580973649]]]]},"properties":{"source_id":"1175312","building_type":"Garage","building_present":true,"DOITT_ID":"1175312","BIN":"4590686","FEATURE_CODE":"5110","BASE_BBL":"4103170015","OBJECTID":145973,"construction_year":1920,"geom_source":"Photogrammetric","ground_elevation":54.0,"height_roof":11.99,"last_edited_date":"2017 Aug 17 12:26:15 PM","last_status_type":"Constructed","mappluto_bbl":"4103170015","length":27.61729880369854,"evidence_grade":"A_OFFICIAL_CITY_BUILDING_FOOTPRINT_AND_TYPE"}}]}
