{"type":"FeatureCollection","features":[{"type":"Feature","id":"planned_buildings_2-planning-data-brownfield-1737302","geometry":null,"properties":{"entity":1737302,"reference":"B041","canonical_record_key":"planning-data:brownfield-land:1737302","planned_project_name":"Land at the Longspring car park","planned_project_status":"not-permissioned","borough":"Watford Borough Council","official_hectares":0.27,"official_deliverable":true,"official_minimum_net_dwellings":17,"official_maximum_net_dwellings":17,"planned_building_value":null,"planned_building_probability":null,"planned_building_complete_month":null,"source_quality":"authoritative","source_url":"https://www.planning.data.gov.uk/entity/1737302","source_license":"Open Government Licence v3.0","fake_data":false}}],"metadata":{"slot_id":"planned_buildings_2","batch_index":227,"source_index":17,"source_window":{"resource_index":0,"limit":1},"feature_count_before":570,"feature_count_after":571,"unique_real_site_project_before":411,"unique_real_site_project_after":412,"duplicate_count_new":0,"nearest_match_used":false,"parcel_match_used":false,"geometry_inference_used":false,"mirror_only":true}}