{"type":"FeatureCollection","features":[{"type":"Feature","id":"planned_buildings_2-planning-data-brownfield-1737323","geometry":null,"properties":{"entity":1737323,"reference":"B062","canonical_record_key":"planning-data:brownfield-land:1737323","planned_project_name":"Land at Bushey Station","planned_project_status":null,"borough":"Watford Borough Council","planned_building_value":null,"planned_building_probability":null,"planned_building_complete_month":null,"source_quality":"authoritative","source_url":"https://www.planning.data.gov.uk/entity/1737323","source_license":"Open Government Licence v3.0","fake_data":false}}],"metadata":{"slot_id":"planned_buildings_2","batch_index":217,"source_index":15,"source_window":{"resource_index":4,"limit":1},"feature_count_before":562,"feature_count_after":563,"unique_real_site_project_before":403,"unique_real_site_project_after":404,"duplicate_count_new":0,"nearest_match_used":false,"parcel_match_used":false,"geometry_inference_used":false,"mirror_only":true}}