{
  "type": "FeatureCollection",
  "name": "gas_emissions_2_ons_ghg_per_capita_rows_0021_0070",
  "metadata": {
    "schema_family": "AAYS_LAYER24_EVIDENCE_V1",
    "package_category": "AAYS_SOURCE_AREA_V1",
    "slot_id": "gas_emissions_2",
    "lineage_id": "L24-GE2-600c3339868ccb329689",
    "page_generation": 4,
    "owner": "gas_emissions_2",
    "partition": {
      "start": 15382,
      "end": 30762
    },
    "batch_id": "20261001T195400Z_ONS_GHG_PER_CAPITA_ROWS_0021_0070",
    "semantic_mode_state": "ABSENT_IN_VERIFIED_PREDECESSOR_PRESERVED_NO_NEW_VALUE_ASSERTED",
    "source_family": "ONS_EXPLORE_LOCAL_STATISTICS_GHG_PER_CAPITA_2005_2024",
    "source_window_id": "ONS_GHG_PER_CAPITA_CSV_ROWS_0021_0070",
    "url": "https://www.ons.gov.uk/explore-local-statistics/api/v1/data/greenhouse-gas-emissions.csv?time=all",
    "final_url": "https://www.ons.gov.uk/explore-local-statistics/api/v1/data/greenhouse-gas-emissions.csv?time=all",
    "dataset_url": "https://www.ons.gov.uk/explore-local-statistics/indicators/greenhouse-gas-emissions",
    "accessed_at_utc": "2026-10-01T19:54:00Z",
    "data_date": "2005-2024",
    "dataset_updated": "2026-06-30",
    "publisher": "Office for National Statistics (Explore Local Statistics); source Department for Energy Security and Net Zero",
    "license": "Open Government Licence v3.0",
    "field_evidence": {
      "areacd": "official exact lower tier/unitary authority identifier",
      "areanm": "official area name",
      "period": "annual period 2005-2024",
      "value": "greenhouse gas emissions (tCO2e) per capita"
    },
    "evidence_slice_sha256": "43baa42d5bf87ee67399877ea87f990f2d68ca873060202728c6fd556398c70f",
    "confidence_score_0_100": 97,
    "evidence_grade": "A_OFFICIAL_STATISTICS_EXACT_IDENTIFIER",
    "fake_data": false,
    "geometry_materialization_status": "EXACT_IDENTIFIER_ONLY_NO_SOURCE_POLYGON_MATERIALIZED",
    "canonical_binding_status": "LOCAL_OPENCODE_SPATIAL_JOIN_REQUIRED"
  },
  "features": [
    {
      "type": "Feature",
      "geometry": null,
      "properties": {
        "areacd": "E06000002",
        "areanm": "Middlesbrough",
        "period": "2005-01-01/P1Y",
        "value": 8.55,
        "source_record_ordinal": 21,
        "official_identifier": "E06000002",
        "identifier_already_present_in_source_area_ledger": true
      }
    },
    {
      "type": "Feature",
      "geometry": null,
      "properties": {
        "areacd": "E06000002",
        "areanm": "Middlesbrough",
        "period": "2006-01-01/P1Y",
        "value": 8.53,
        "source_record_ordinal": 22,
        "official_identifier": "E06000002",
        "identifier_already_present_in_source_area_ledger": true
      }
    },
    {
      "type": "Feature",
      "geometry": null,
      "properties": {
        "areacd": "E06000002",
        "areanm": "Middlesbrough",
        "period": "2007-01-01/P1Y",
        "value": 8.95,
        "source_record_ordinal": 23,
        "official_identifier": "E06000002",
        "identifier_already_present_in_source_area_ledger": true
      }
    },
    {
      "type": "Feature",
      "geometry": null,
      "properties": {
        "areacd": "E06000002",
        "areanm": "Middlesbrough",
        "period": "2008-01-01/P1Y",
        "value": 7.99,
        "source_record_ordinal": 24,
        "official_identifier": "E06000002",
        "identifier_already_present_in_source_area_ledger": true
      }
    },
    {
      "type": "Feature",
      "geometry": null,
      "properties": {
        "areacd": "E06000002",
        "areanm": "Middlesbrough",
        "period": "2009-01-01/P1Y",
        "value": 7.25,
        "source_record_ordinal": 25,
        "official_identifier": "E06000002",
        "identifier_already_present_in_source_area_ledger": true
      }
    },
    {
      "type": "Feature",
      "geometry": null,
      "properties": {
        "areacd": "E06000002",
        "areanm": "Middlesbrough",
        "period": "2010-01-01/P1Y",
        "value": 7.3,
        "source_record_ordinal": 26,
        "official_identifier": "E06000002",
        "identifier_already_present_in_source_area_ledger": true
      }
    },
    {
      "type": "Feature",
      "geometry": null,
      "properties": {
        "areacd": "E06000002",
        "areanm": "Middlesbrough",
        "period": "2011-01-01/P1Y",
        "value": 6.76,
        "source_record_ordinal": 27,
        "official_identifier": "E06000002",
        "identifier_already_present_in_source_area_ledger": true
      }
    },
    {
      "type": "Feature",
      "geometry": null,
      "properties": {
        "areacd": "E06000002",
        "areanm": "Middlesbrough",
        "period": "2012-01-01/P1Y",
        "value": 7.2,
        "source_record_ordinal": 28,
        "official_identifier": "E06000002",
        "identifier_already_present_in_source_area_ledger": true
      }
    },
    {
      "type": "Feature",
      "geometry": null,
      "properties": {
        "areacd": "E06000002",
        "areanm": "Middlesbrough",
        "period": "2013-01-01/P1Y",
        "value": 6.48,
        "source_record_ordinal": 29,
        "official_identifier": "E06000002",
        "identifier_already_present_in_source_area_ledger": true
      }
    },
    {
      "type": "Feature",
      "geometry": null,
      "properties": {
        "areacd": "E06000002",
        "areanm": "Middlesbrough",
        "period": "2014-01-01/P1Y",
        "value": 5.93,
        "source_record_ordinal": 30,
        "official_identifier": "E06000002",
        "identifier_already_present_in_source_area_ledger": true
      }
    },
    {
      "type": "Feature",
      "geometry": null,
      "properties": {
        "areacd": "E06000002",
        "areanm": "Middlesbrough",
        "period": "2015-01-01/P1Y",
        "value": 6.05,
        "source_record_ordinal": 31,
        "official_identifier": "E06000002",
        "identifier_already_present_in_source_area_ledger": true
      }
    },
    {
      "type": "Feature",
      "geometry": null,
      "properties": {
        "areacd": "E06000002",
        "areanm": "Middlesbrough",
        "period": "2016-01-01/P1Y",
        "value": 5.49,
        "source_record_ordinal": 32,
        "official_identifier": "E06000002",
        "identifier_already_present_in_source_area_ledger": true
      }
    },
    {
      "type": "Feature",
      "geometry": null,
      "properties": {
        "areacd": "E06000002",
        "areanm": "Middlesbrough",
        "period": "2017-01-01/P1Y",
        "value": 5.17,
        "source_record_ordinal": 33,
        "official_identifier": "E06000002",
        "identifier_already_present_in_source_area_ledger": true
      }
    },
    {
      "type": "Feature",
      "geometry": null,
      "properties": {
        "areacd": "E06000002",
        "areanm": "Middlesbrough",
        "period": "2018-01-01/P1Y",
        "value": 5.4,
        "source_record_ordinal": 34,
        "official_identifier": "E06000002",
        "identifier_already_present_in_source_area_ledger": true
      }
    },
    {
      "type": "Feature",
      "geometry": null,
      "properties": {
        "areacd": "E06000002",
        "areanm": "Middlesbrough",
        "period": "2019-01-01/P1Y",
        "value": 5.21,
        "source_record_ordinal": 35,
        "official_identifier": "E06000002",
        "identifier_already_present_in_source_area_ledger": true
      }
    },
    {
      "type": "Feature",
      "geometry": null,
      "properties": {
        "areacd": "E06000002",
        "areanm": "Middlesbrough",
        "period": "2020-01-01/P1Y",
        "value": 4.61,
        "source_record_ordinal": 36,
        "official_identifier": "E06000002",
        "identifier_already_present_in_source_area_ledger": true
      }
    },
    {
      "type": "Feature",
      "geometry": null,
      "properties": {
        "areacd": "E06000002",
        "areanm": "Middlesbrough",
        "period": "2021-01-01/P1Y",
        "value": 4.62,
        "source_record_ordinal": 37,
        "official_identifier": "E06000002",
        "identifier_already_present_in_source_area_ledger": true
      }
    },
    {
      "type": "Feature",
      "geometry": null,
      "properties": {
        "areacd": "E06000002",
        "areanm": "Middlesbrough",
        "period": "2022-01-01/P1Y",
        "value": 4.47,
        "source_record_ordinal": 38,
        "official_identifier": "E06000002",
        "identifier_already_present_in_source_area_ledger": true
      }
    },
    {
      "type": "Feature",
      "geometry": null,
      "properties": {
        "areacd": "E06000002",
        "areanm": "Middlesbrough",
        "period": "2023-01-01/P1Y",
        "value": 4.25,
        "source_record_ordinal": 39,
        "official_identifier": "E06000002",
        "identifier_already_present_in_source_area_ledger": true
      }
    },
    {
      "type": "Feature",
      "geometry": null,
      "properties": {
        "areacd": "E06000002",
        "areanm": "Middlesbrough",
        "period": "2024-01-01/P1Y",
        "value": 4.54,
        "source_record_ordinal": 40,
        "official_identifier": "E06000002",
        "identifier_already_present_in_source_area_ledger": true
      }
    },
    {
      "type": "Feature",
      "geometry": null,
      "properties": {
        "areacd": "E06000003",
        "areanm": "Redcar and Cleveland",
        "period": "2005-01-01/P1Y",
        "value": 78.74,
        "source_record_ordinal": 41,
        "official_identifier": "E06000003",
        "identifier_already_present_in_source_area_ledger": true
      }
    },
    {
      "type": "Feature",
      "geometry": null,
      "properties": {
        "areacd": "E06000003",
        "areanm": "Redcar and Cleveland",
        "period": "2006-01-01/P1Y",
        "value": 75.48,
        "source_record_ordinal": 42,
        "official_identifier": "E06000003",
        "identifier_already_present_in_source_area_ledger": true
      }
    },
    {
      "type": "Feature",
      "geometry": null,
      "properties": {
        "areacd": "E06000003",
        "areanm": "Redcar and Cleveland",
        "period": "2007-01-01/P1Y",
        "value": 77.59,
        "source_record_ordinal": 43,
        "official_identifier": "E06000003",
        "identifier_already_present_in_source_area_ledger": true
      }
    },
    {
      "type": "Feature",
      "geometry": null,
      "properties": {
        "areacd": "E06000003",
        "areanm": "Redcar and Cleveland",
        "period": "2008-01-01/P1Y",
        "value": 71.46,
        "source_record_ordinal": 44,
        "official_identifier": "E06000003",
        "identifier_already_present_in_source_area_ledger": true
      }
    },
    {
      "type": "Feature",
      "geometry": null,
      "properties": {
        "areacd": "E06000003",
        "areanm": "Redcar and Cleveland",
        "period": "2009-01-01/P1Y",
        "value": 59.46,
        "source_record_ordinal": 45,
        "official_identifier": "E06000003",
        "identifier_already_present_in_source_area_ledger": true
      }
    },
    {
      "type": "Feature",
      "geometry": null,
      "properties": {
        "areacd": "E06000003",
        "areanm": "Redcar and Cleveland",
        "period": "2010-01-01/P1Y",
        "value": 27.45,
        "source_record_ordinal": 46,
        "official_identifier": "E06000003",
        "identifier_already_present_in_source_area_ledger": true
      }
    },
    {
      "type": "Feature",
      "geometry": null,
      "properties": {
        "areacd": "E06000003",
        "areanm": "Redcar and Cleveland",
        "period": "2011-01-01/P1Y",
        "value": 21.91,
        "source_record_ordinal": 47,
        "official_identifier": "E06000003",
        "identifier_already_present_in_source_area_ledger": true
      }
    },
    {
      "type": "Feature",
      "geometry": null,
      "properties": {
        "areacd": "E06000003",
        "areanm": "Redcar and Cleveland",
        "period": "2012-01-01/P1Y",
        "value": 55.56,
        "source_record_ordinal": 48,
        "official_identifier": "E06000003",
        "identifier_already_present_in_source_area_ledger": true
      }
    },
    {
      "type": "Feature",
      "geometry": null,
      "properties": {
        "areacd": "E06000003",
        "areanm": "Redcar and Cleveland",
        "period": "2013-01-01/P1Y",
        "value": 67.53,
        "source_record_ordinal": 49,
        "official_identifier": "E06000003",
        "identifier_already_present_in_source_area_ledger": true
      }
    },
    {
      "type": "Feature",
      "geometry": null,
      "properties": {
        "areacd": "E06000003",
        "areanm": "Redcar and Cleveland",
        "period": "2014-01-01/P1Y",
        "value": 62.99,
        "source_record_ordinal": 50,
        "official_identifier": "E06000003",
        "identifier_already_present_in_source_area_ledger": true
      }
    },
    {
      "type": "Feature",
      "geometry": null,
      "properties": {
        "areacd": "E06000003",
        "areanm": "Redcar and Cleveland",
        "period": "2015-01-01/P1Y",
        "value": 50.03,
        "source_record_ordinal": 51,
        "official_identifier": "E06000003",
        "identifier_already_present_in_source_area_ledger": true
      }
    },
    {
      "type": "Feature",
      "geometry": null,
      "properties": {
        "areacd": "E06000003",
        "areanm": "Redcar and Cleveland",
        "period": "2016-01-01/P1Y",
        "value": 16.19,
        "source_record_ordinal": 52,
        "official_identifier": "E06000003",
        "identifier_already_present_in_source_area_ledger": true
      }
    },
    {
      "type": "Feature",
      "geometry": null,
      "properties": {
        "areacd": "E06000003",
        "areanm": "Redcar and Cleveland",
        "period": "2017-01-01/P1Y",
        "value": 15.57,
        "source_record_ordinal": 53,
        "official_identifier": "E06000003",
        "identifier_already_present_in_source_area_ledger": true
      }
    },
    {
      "type": "Feature",
      "geometry": null,
      "properties": {
        "areacd": "E06000003",
        "areanm": "Redcar and Cleveland",
        "period": "2018-01-01/P1Y",
        "value": 15.1,
        "source_record_ordinal": 54,
        "official_identifier": "E06000003",
        "identifier_already_present_in_source_area_ledger": true
      }
    },
    {
      "type": "Feature",
      "geometry": null,
      "properties": {
        "areacd": "E06000003",
        "areanm": "Redcar and Cleveland",
        "period": "2019-01-01/P1Y",
        "value": 14.39,
        "source_record_ordinal": 55,
        "official_identifier": "E06000003",
        "identifier_already_present_in_source_area_ledger": true
      }
    },
    {
      "type": "Feature",
      "geometry": null,
      "properties": {
        "areacd": "E06000003",
        "areanm": "Redcar and Cleveland",
        "period": "2020-01-01/P1Y",
        "value": 12.24,
        "source_record_ordinal": 56,
        "official_identifier": "E06000003",
        "identifier_already_present_in_source_area_ledger": true
      }
    },
    {
      "type": "Feature",
      "geometry": null,
      "properties": {
        "areacd": "E06000003",
        "areanm": "Redcar and Cleveland",
        "period": "2021-01-01/P1Y",
        "value": 6.14,
        "source_record_ordinal": 57,
        "official_identifier": "E06000003",
        "identifier_already_present_in_source_area_ledger": true
      }
    },
    {
      "type": "Feature",
      "geometry": null,
      "properties": {
        "areacd": "E06000003",
        "areanm": "Redcar and Cleveland",
        "period": "2022-01-01/P1Y",
        "value": 5.52,
        "source_record_ordinal": 58,
        "official_identifier": "E06000003",
        "identifier_already_present_in_source_area_ledger": true
      }
    },
    {
      "type": "Feature",
      "geometry": null,
      "properties": {
        "areacd": "E06000003",
        "areanm": "Redcar and Cleveland",
        "period": "2023-01-01/P1Y",
        "value": 4.9,
        "source_record_ordinal": 59,
        "official_identifier": "E06000003",
        "identifier_already_present_in_source_area_ledger": true
      }
    },
    {
      "type": "Feature",
      "geometry": null,
      "properties": {
        "areacd": "E06000003",
        "areanm": "Redcar and Cleveland",
        "period": "2024-01-01/P1Y",
        "value": 4.82,
        "source_record_ordinal": 60,
        "official_identifier": "E06000003",
        "identifier_already_present_in_source_area_ledger": true
      }
    },
    {
      "type": "Feature",
      "geometry": null,
      "properties": {
        "areacd": "E06000004",
        "areanm": "Stockton-on-Tees",
        "period": "2005-01-01/P1Y",
        "value": 30.41,
        "source_record_ordinal": 61,
        "official_identifier": "E06000004",
        "identifier_already_present_in_source_area_ledger": true
      }
    },
    {
      "type": "Feature",
      "geometry": null,
      "properties": {
        "areacd": "E06000004",
        "areanm": "Stockton-on-Tees",
        "period": "2006-01-01/P1Y",
        "value": 29.1,
        "source_record_ordinal": 62,
        "official_identifier": "E06000004",
        "identifier_already_present_in_source_area_ledger": true
      }
    },
    {
      "type": "Feature",
      "geometry": null,
      "properties": {
        "areacd": "E06000004",
        "areanm": "Stockton-on-Tees",
        "period": "2007-01-01/P1Y",
        "value": 29.29,
        "source_record_ordinal": 63,
        "official_identifier": "E06000004",
        "identifier_already_present_in_source_area_ledger": true
      }
    },
    {
      "type": "Feature",
      "geometry": null,
      "properties": {
        "areacd": "E06000004",
        "areanm": "Stockton-on-Tees",
        "period": "2008-01-01/P1Y",
        "value": 31.09,
        "source_record_ordinal": 64,
        "official_identifier": "E06000004",
        "identifier_already_present_in_source_area_ledger": true
      }
    },
    {
      "type": "Feature",
      "geometry": null,
      "properties": {
        "areacd": "E06000004",
        "areanm": "Stockton-on-Tees",
        "period": "2009-01-01/P1Y",
        "value": 23.9,
        "source_record_ordinal": 65,
        "official_identifier": "E06000004",
        "identifier_already_present_in_source_area_ledger": true
      }
    },
    {
      "type": "Feature",
      "geometry": null,
      "properties": {
        "areacd": "E06000004",
        "areanm": "Stockton-on-Tees",
        "period": "2010-01-01/P1Y",
        "value": 25.9,
        "source_record_ordinal": 66,
        "official_identifier": "E06000004",
        "identifier_already_present_in_source_area_ledger": true
      }
    },
    {
      "type": "Feature",
      "geometry": null,
      "properties": {
        "areacd": "E06000004",
        "areanm": "Stockton-on-Tees",
        "period": "2011-01-01/P1Y",
        "value": 17.47,
        "source_record_ordinal": 67,
        "official_identifier": "E06000004",
        "identifier_already_present_in_source_area_ledger": true
      }
    },
    {
      "type": "Feature",
      "geometry": null,
      "properties": {
        "areacd": "E06000004",
        "areanm": "Stockton-on-Tees",
        "period": "2012-01-01/P1Y",
        "value": 19.2,
        "source_record_ordinal": 68,
        "official_identifier": "E06000004",
        "identifier_already_present_in_source_area_ledger": true
      }
    },
    {
      "type": "Feature",
      "geometry": null,
      "properties": {
        "areacd": "E06000004",
        "areanm": "Stockton-on-Tees",
        "period": "2013-01-01/P1Y",
        "value": 18.54,
        "source_record_ordinal": 69,
        "official_identifier": "E06000004",
        "identifier_already_present_in_source_area_ledger": true
      }
    },
    {
      "type": "Feature",
      "geometry": null,
      "properties": {
        "areacd": "E06000004",
        "areanm": "Stockton-on-Tees",
        "period": "2014-01-01/P1Y",
        "value": 16.04,
        "source_record_ordinal": 70,
        "official_identifier": "E06000004",
        "identifier_already_present_in_source_area_ledger": true
      }
    }
  ]
}
