{"type":"FeatureCollection","name":"height_difference_5","metadata":{"slot_id":"height_difference_5","owner":"height_difference_5","lineage_id":"height_difference_5-eb56f92ed3f0514c","page_generation":1,"schema":"AAYS_LAYER24_EVIDENCE_V1","partition":"layer24","semantic_mode_state":"ABSENT_IN_PRIOR_PHYSICAL_STATE_PRESERVED_BY_OMISSION","batch_id":"20261005T093900Z_osni_refreshed_2010_note_scope_blocked","record_policy":"Official refreshed River Basin support-note scope check only; general CRS not transferred to Belfast 2006; no Belfast tile/file, parcel binding, geometry or CRS synthesized.","fake_data":false},"features":[{"type":"Feature","geometry":null,"properties":{"slot_id":"height_difference_5","owner":"height_difference_5","lineage_id":"height_difference_5-eb56f92ed3f0514c","page_generation":1,"schema":"AAYS_LAYER24_EVIDENCE_V1","partition":"layer24","batch_id":"20261005T093900Z_osni_refreshed_2010_note_scope_blocked","source_record_id":"OSNI_REFRESHED_2010:RIVER_BASIN_NOTE_SCOPE_CHECK","source_url":"https://ckan.publishing.service.gov.uk/dataset/osni-open-data-river-basin-lidar-2010-dtms-and-dsms1","resource_page":"https://ckan.publishing.service.gov.uk/dataset/osni-open-data-river-basin-lidar-2010-dtms-and-dsms1/resource/217a7d4f-2a6f-4c5b-b9f5-c5d24644b83d","resource_id":"217a7d4f-2a6f-4c5b-b9f5-c5d24644b83d","indexed_pdf_resource_id":"6aaa6a5b-d888-43b4-9f91-184a52adf068","access_utc":"2026-10-05T09:39:00Z","required_building_state":"BUILDING_PRESENT","binding_status":"LOCAL_OPENCODE_BUILDING_PRESENT_EXACT_TILE_BIND_REQUIRED","general_coordinate_system":"Irish Grid","general_vertical_reference":"Mean Sea Level Belfast","belfast_2006_applicability":"NOT_TRANSFERRED_SCOPE_EXCLUSION","resource_transport_status":"RESOURCE_PAGE_AND_DIRECT_PDF_CACHE_MISS_SEARCH_INDEX_TEXT_ONLY","exact_tile_identifier":null,"crs":null,"evidence_slice_sha256":"9deb11e0e72d8a7c50d3afce2c530f00c2ea588e6b3103eaba9d4e0e4b907f3f","accepted_count_contribution":0,"source_area_count_contribution":0,"fake_data":false}}]}
