{"type":"FeatureCollection","features":[{"type":"Feature","id":"CHERWELL_24_00103_F_DETACHED_GARDEN_BUILDING_01","geometry":null,"properties":{"slot_id":"planned_buildings_4","owner":"planned_buildings_4","lineage_id":"pb4-8debc7c8ddf348a2","page_generation":1,"partition":"layer24","schema":"AAYS_LAYER24_EVIDENCE_V1","semantic_mode":"PLANNED_BUILDINGS_OFFICIAL_REFERENCE_DISTINCT_STRUCTURE","batch_id":"20261004T185900Z-cherwell-24-00103-f-window-001","publisher":"Cherwell District Council","source_family":"CHERWELL_PLANNING_REGISTER","source_url":"https://planningregister.cherwell.gov.uk/Planning/Display/24/00103/F","final_url":"https://planningregister.cherwell.gov.uk/Planning/Display/24/00103/F","access_utc":"2026-10-04T18:59:00Z","data_date":"2024-01-12","license":"Public planning register; document copyright/usage remains governed by council register terms","planning_reference":"24/00103/F","location":"6 Park Close Kirtlington Kidlington OX5 3HR","proposal":"Two detached garden buildings","status":"Application Permitted","geometry_status":"NOT_MATERIALIZED_LOCAL_OPENCODE","field_evidence":"Official Cherwell District Council planning-register records identify application 24/00103/F at 6 Park Close Kirtlington Kidlington OX5 3HR as Full Development, valid 12/01/2024, proposal 'Two detached garden buildings', decision Permitted, issued 08/03/2024. Official Cherwell planning-history material repeats the same reference, proposal and permitted decision. An official Kirtlington Parish Council consultation response describes the proposal as two timber garden buildings. The count of two distinct detached garden structures is therefore explicit in official records. No unverified drawing number is asserted. Geometry/materialization is deferred to local OpenCode.","evidence_slice_sha256":"4001fa56c3f6af3005111805a541061c5f5df375b4972a7c47f3f7772dd454f4","confidence":0.99,"evidence_grade":"A_OFFICIAL_LOCAL_AUTHORITY_PLANNING_REGISTER_TWO_DETACHED_GARDEN_BUILDINGS_PERMITTED","fake_data":false,"source_record_id":"CHERWELL_24_00103_F_DETACHED_GARDEN_BUILDING_01","planned_building":"detached garden building 1","official_plan_reference":"Official register entry 24/00103/F; official site planning history; official parish consultation response","official_plan_description":"Two detached garden buildings; parish response describes two timber garden buildings"}},{"type":"Feature","id":"CHERWELL_24_00103_F_DETACHED_GARDEN_BUILDING_02","geometry":null,"properties":{"slot_id":"planned_buildings_4","owner":"planned_buildings_4","lineage_id":"pb4-8debc7c8ddf348a2","page_generation":1,"partition":"layer24","schema":"AAYS_LAYER24_EVIDENCE_V1","semantic_mode":"PLANNED_BUILDINGS_OFFICIAL_REFERENCE_DISTINCT_STRUCTURE","batch_id":"20261004T185900Z-cherwell-24-00103-f-window-001","publisher":"Cherwell District Council","source_family":"CHERWELL_PLANNING_REGISTER","source_url":"https://planningregister.cherwell.gov.uk/Planning/Display/24/00103/F","final_url":"https://planningregister.cherwell.gov.uk/Planning/Display/24/00103/F","access_utc":"2026-10-04T18:59:00Z","data_date":"2024-01-12","license":"Public planning register; document copyright/usage remains governed by council register terms","planning_reference":"24/00103/F","location":"6 Park Close Kirtlington Kidlington OX5 3HR","proposal":"Two detached garden buildings","status":"Application Permitted","geometry_status":"NOT_MATERIALIZED_LOCAL_OPENCODE","field_evidence":"Official Cherwell District Council planning-register records identify application 24/00103/F at 6 Park Close Kirtlington Kidlington OX5 3HR as Full Development, valid 12/01/2024, proposal 'Two detached garden buildings', decision Permitted, issued 08/03/2024. Official Cherwell planning-history material repeats the same reference, proposal and permitted decision. An official Kirtlington Parish Council consultation response describes the proposal as two timber garden buildings. The count of two distinct detached garden structures is therefore explicit in official records. No unverified drawing number is asserted. Geometry/materialization is deferred to local OpenCode.","evidence_slice_sha256":"4001fa56c3f6af3005111805a541061c5f5df375b4972a7c47f3f7772dd454f4","confidence":0.99,"evidence_grade":"A_OFFICIAL_LOCAL_AUTHORITY_PLANNING_REGISTER_TWO_DETACHED_GARDEN_BUILDINGS_PERMITTED","fake_data":false,"source_record_id":"CHERWELL_24_00103_F_DETACHED_GARDEN_BUILDING_02","planned_building":"detached garden building 2","official_plan_reference":"Official register entry 24/00103/F; official site planning history; official parish consultation response","official_plan_description":"Two detached garden buildings; parish response describes two timber garden buildings"}}]}
