{"type":"FeatureCollection","name":"height_difference_6","features":[{"type":"Feature","geometry":{"type":"MultiPolygon","coordinates":[[[[-0.515793,51.527554],[-0.516073,51.527523],[-0.516609,51.527472],[-0.516817,51.527449],[-0.516871,51.527441],[-0.51666,51.52671],[-0.516648,51.526722],[-0.516633,51.526729],[-0.516603,51.526731],[-0.516589,51.526729],[-0.516566,51.526721],[-0.516526,51.526698],[-0.516418,51.526645],[-0.516266,51.526574],[-0.516005,51.526447],[-0.515924,51.526418],[-0.515845,51.526387],[-0.515716,51.526325],[-0.515684,51.526306],[-0.5153,51.526234],[-0.515609,51.527198],[-0.515457,51.52722],[-0.515467,51.527259],[-0.51549,51.527327],[-0.515481,51.527329],[-0.514347,51.527474],[-0.514263,51.527474],[-0.514268,51.52748],[-0.514274,51.527499],[-0.51429,51.527521],[-0.514492,51.52749],[-0.514668,51.527475],[-0.515059,51.527428],[-0.515112,51.527419],[-0.515458,51.527377],[-0.515453,51.527362],[-0.515654,51.527337],[-0.515724,51.527561],[-0.515725,51.527562],[-0.515793,51.527554]]]]},"properties":{"record_role":"source_area_title_boundary_canonical_candidate","evidence_scope":"coverage_area","coverage_area_id":"title-boundary:32994925","source_resolution":"feature-level HM Land Registry title-boundary MultiPolygon in WGS84 via Planning Data API/entity view","time_window":"start-date=2007-05-02; entry-date=2026-08-03; current record has no end-date","source_url":"https://www.planning.data.gov.uk/entity/12032994925","measurement_date":"2026-08-03","measurement_method":"MHCLG Planning Data ingestion/presentation of HM Land Registry title-boundary (Land Registry Index polygon) geometry; entity quality marked authoritative","spatial_binding_method":"LOCAL_POLYGON_INTERSECTION_REQUIRED: title-boundary canonical-candidate -> NHLE listed-building polygon -> EA Composite DSM/DTM extent/tile -> parcel raster statistics","confidence_score_0_100":95,"evidence_grade":"A_OFFICIAL_TITLE_BOUNDARY_POLYGON","field_evidence":{"dataset":"title-boundary","provider":"HM Land Registry","planning_data_entity":12032994925,"reference":"32994925","curie":"title-boundary:32994925","quality":"authoritative","typology":"geography","organisation_curie":"government-organisation:D69","geometry_type":"MultiPolygon","licence":"Open Government Licence v3.0","attribution":"HM Land Registry / Ordnance Survey as published by Planning Data","semantic_limit":"indicative title-boundary geometry; not yet footprint-confirmed and not accepted Height Difference parcel evidence"},"source_area_count_contribution":1,"accepted_count_contribution":0,"canonical_parcel_id":null,"building_presence_confirmed":false,"height_min_m":null,"height_max_m":null,"height_mean_m":null,"height_range_m":null}},{"type":"Feature","geometry":{"type":"MultiPolygon","coordinates":[[[[-0.515599,51.525293],[-0.513746,51.525144],[-0.511349,51.525612],[-0.511365,51.52562],[-0.511563,51.525735],[-0.511628,51.525778],[-0.511766,51.525862],[-0.511959,51.525975],[-0.512144,51.526081],[-0.512216,51.526116],[-0.512275,51.526143],[-0.512388,51.526191],[-0.512486,51.526228],[-0.512723,51.526306],[-0.513037,51.526413],[-0.513665,51.526727],[-0.513749,51.526766],[-0.513963,51.526844],[-0.513982,51.526849],[-0.513997,51.526851],[-0.514026,51.52685],[-0.514055,51.526842],[-0.514061,51.526839],[-0.514077,51.52683],[-0.514084,51.52682],[-0.514123,51.526696],[-0.514143,51.526643],[-0.51422,51.526476],[-0.514194,51.526469],[-0.51425,51.526328],[-0.514126,51.526307],[-0.514157,51.526224],[-0.514007,51.525883],[-0.514125,51.525867],[-0.514548,51.525804],[-0.514656,51.525895],[-0.514727,51.525877],[-0.514799,51.525862],[-0.514813,51.525861],[-0.514906,51.525808],[-0.515039,51.525726],[-0.515169,51.525638],[-0.515198,51.525615],[-0.515196,51.525503],[-0.515202,51.525427],[-0.515209,51.525382],[-0.515219,51.525348],[-0.515514,51.525351],[-0.515534,51.525353],[-0.515599,51.525293]]]]},"properties":{"record_role":"source_area_title_boundary_canonical_candidate","evidence_scope":"coverage_area","coverage_area_id":"title-boundary:33017145","source_resolution":"feature-level HM Land Registry title-boundary MultiPolygon in WGS84 via Planning Data API/entity view","time_window":"start-date=2007-05-03; entry-date=2026-08-03; current record has no end-date","source_url":"https://www.planning.data.gov.uk/entity/12033017145","measurement_date":"2026-08-03","measurement_method":"MHCLG Planning Data ingestion/presentation of HM Land Registry title-boundary (Land Registry Index polygon) geometry; entity quality marked authoritative","spatial_binding_method":"LOCAL_POLYGON_INTERSECTION_REQUIRED: title-boundary canonical-candidate -> NHLE listed-building polygon -> EA Composite DSM/DTM extent/tile -> parcel raster statistics","confidence_score_0_100":95,"evidence_grade":"A_OFFICIAL_TITLE_BOUNDARY_POLYGON","field_evidence":{"dataset":"title-boundary","provider":"HM Land Registry","planning_data_entity":12033017145,"reference":"33017145","curie":"title-boundary:33017145","quality":"authoritative","typology":"geography","organisation_curie":"government-organisation:D69","geometry_type":"MultiPolygon","licence":"Open Government Licence v3.0","attribution":"HM Land Registry / Ordnance Survey as published by Planning Data","semantic_limit":"indicative title-boundary geometry; not yet footprint-confirmed and not accepted Height Difference parcel evidence"},"source_area_count_contribution":1,"accepted_count_contribution":0,"canonical_parcel_id":null,"building_presence_confirmed":false,"height_min_m":null,"height_max_m":null,"height_mean_m":null,"height_range_m":null}}]}
