{"type":"FeatureCollection","name":"building_type_2_batch_0034","features":[{"type":"Feature","id":"42184602","geometry":{"type":"MultiPolygon","coordinates":[[[[0.637454,51.247776],[0.637476,51.247836],[0.637396,51.247848],[0.637404,51.247868],[0.637372,51.247873],[0.637343,51.24779],[0.637454,51.247776]]]]},"properties":{"slot_id":"building_type_2","lineage_id":"building_type_2-20260930T173100Z-newstart","batch_id":"batch-0034","page_generation":1,"source_entity":42184602,"source_reference":"LB119","source_dataset":"listed-building-outline","source_organisation":"Maidstone Borough Council","building_evidence_status":"BUILDING_PRESENT","parcel_status":"UNPROCESSED","canonical_parcel_id":null,"building_type":"listed_building","building_use":null,"poi_accepted":false,"field_evidence":{"footprint":"official listed-building-outline MULTIPOLYGON","type":"official dataset classification: listed-building-outline","reference":"LB119","quality":"authoritative","name":"GATEHOUSE AND GATE PIER TO NORTH SIDE OF ENTRANCE TO LEEDS CASTLE GROUNDS"},"source_url":"https://www.planning.data.gov.uk/entity/42184602","final_url":"https://www.planning.data.gov.uk/entity/42184602","access_utc":"2026-10-03T20:23:30Z","data_date":"1985-12-18","licence":"Open Government Licence v3.0","evidence_slice_sha256":"3623004ac349019382cd38c203745b0965bd70f6e812bf44b36bf285f75c2730","confidence_score_0_100":96,"evidence_grade":"A","fake_data":false,"local_spatial_join_required":true}}]}