{"features":[{"geometry":null,"properties":{"accepted_count_contribution":0,"access_utc":"2026-10-01T01:52:00Z","available_formats":["LAZ","GeoTIFF"],"binding_status":"LOCAL_OPENCODE_BUILDING_PRESENT_BIND_REQUIRED","canonical_parcel_id":null,"confidence_score_0_100":94,"crs":null,"crs_status":"NOT_EXPLICIT_IN_SOURCE_WINDOW","dataset_capture_years":[2010,2012],"dataset_role":"LiDAR DTM tile identifier evidence","evidence_grade":"A_OFFICIAL_TILE_IDENTIFIER_B_INCOMPLETE_PERTILE_METADATA","evidence_slice_sha256":"43a2dcfcb560f60c1ce8b61a2c21de8159e155540ed9307de6b1fb8cadb43830","fake_data":false,"field_evidence":{"capture_years":"official dataset summary","formats":"official dataset summary","licence":"official access constraints","resolution_m":"official dataset summary","tile_identifier":"official dataset tile list"},"final_url":"https://www.data.gov.uk/dataset/3fc21217-90c0-4f1b-bbad-065ed992826f/hes-lidar-scottish-ten-project-2010-data-acquired-from-fugro-non-commercial-government-licence","licence":"Non-Commercial Government Licence / Fugro-HES non-commercial restriction","per_tile_acquisition_date":null,"point_density_ppm":4,"raw_tile_identifier":"NT2374","required_building_state":"BUILDING_PRESENT","resolution_m":0.5,"resource_locator_url":"https://remotesensingdata.gov.scot/","site":"Edinburgh Old and New Town","source_area_count_contribution":0,"source_record_id":"HES_SCOTTISH_TEN_EDINBURGH:NT2374","source_url":"https://www.data.gov.uk/dataset/3fc21217-90c0-4f1b-bbad-065ed992826f/hes-lidar-scottish-ten-project-2010-data-acquired-from-fugro-non-commercial-government-licence","tile_identifier":"NT2374"},"type":"Feature"},{"geometry":null,"properties":{"accepted_count_contribution":0,"access_utc":"2026-10-01T01:52:00Z","available_formats":["LAZ","GeoTIFF"],"binding_status":"LOCAL_OPENCODE_BUILDING_PRESENT_BIND_REQUIRED","canonical_parcel_id":null,"confidence_score_0_100":94,"crs":null,"crs_status":"NOT_EXPLICIT_IN_SOURCE_WINDOW","dataset_capture_years":[2010,2012],"dataset_role":"LiDAR DTM tile identifier evidence","evidence_grade":"A_OFFICIAL_TILE_IDENTIFIER_B_INCOMPLETE_PERTILE_METADATA","evidence_slice_sha256":"43a2dcfcb560f60c1ce8b61a2c21de8159e155540ed9307de6b1fb8cadb43830","fake_data":false,"field_evidence":{"capture_years":"official dataset summary","formats":"official dataset summary","licence":"official access constraints","resolution_m":"official dataset summary","tile_identifier":"official dataset tile list"},"final_url":"https://www.data.gov.uk/dataset/3fc21217-90c0-4f1b-bbad-065ed992826f/hes-lidar-scottish-ten-project-2010-data-acquired-from-fugro-non-commercial-government-licence","licence":"Non-Commercial Government Licence / Fugro-HES non-commercial restriction","per_tile_acquisition_date":null,"point_density_ppm":4,"raw_tile_identifier":"NT2574","required_building_state":"BUILDING_PRESENT","resolution_m":0.5,"resource_locator_url":"https://remotesensingdata.gov.scot/","site":"Edinburgh Old and New Town","source_area_count_contribution":0,"source_record_id":"HES_SCOTTISH_TEN_EDINBURGH:NT2574","source_url":"https://www.data.gov.uk/dataset/3fc21217-90c0-4f1b-bbad-065ed992826f/hes-lidar-scottish-ten-project-2010-data-acquired-from-fugro-non-commercial-government-licence","tile_identifier":"NT2574"},"type":"Feature"},{"geometry":null,"properties":{"accepted_count_contribution":0,"access_utc":"2026-10-01T01:52:00Z","available_formats":["LAZ","GeoTIFF"],"binding_status":"LOCAL_OPENCODE_BUILDING_PRESENT_BIND_REQUIRED","canonical_parcel_id":null,"confidence_score_0_100":94,"crs":null,"crs_status":"NOT_EXPLICIT_IN_SOURCE_WINDOW","dataset_capture_years":[2010,2012],"dataset_role":"LiDAR DTM tile identifier evidence","evidence_grade":"A_OFFICIAL_TILE_IDENTIFIER_B_INCOMPLETE_PERTILE_METADATA","evidence_slice_sha256":"43a2dcfcb560f60c1ce8b61a2c21de8159e155540ed9307de6b1fb8cadb43830","fake_data":false,"field_evidence":{"capture_years":"official dataset summary","formats":"official dataset summary","licence":"official access constraints","resolution_m":"official dataset summary","tile_identifier":"official dataset tile list"},"final_url":"https://www.data.gov.uk/dataset/3fc21217-90c0-4f1b-bbad-065ed992826f/hes-lidar-scottish-ten-project-2010-data-acquired-from-fugro-non-commercial-government-licence","licence":"Non-Commercial Government Licence / Fugro-HES non-commercial restriction","per_tile_acquisition_date":null,"point_density_ppm":4,"raw_tile_identifier":"NT2674","required_building_state":"BUILDING_PRESENT","resolution_m":0.5,"resource_locator_url":"https://remotesensingdata.gov.scot/","site":"Edinburgh Old and New Town","source_area_count_contribution":0,"source_record_id":"HES_SCOTTISH_TEN_EDINBURGH:NT2674","source_url":"https://www.data.gov.uk/dataset/3fc21217-90c0-4f1b-bbad-065ed992826f/hes-lidar-scottish-ten-project-2010-data-acquired-from-fugro-non-commercial-government-licence","tile_identifier":"NT2674"},"type":"Feature"},{"geometry":null,"properties":{"accepted_count_contribution":0,"access_utc":"2026-10-01T01:52:00Z","available_formats":["LAZ","GeoTIFF"],"binding_status":"LOCAL_OPENCODE_BUILDING_PRESENT_BIND_REQUIRED","canonical_parcel_id":null,"confidence_score_0_100":94,"crs":null,"crs_status":"NOT_EXPLICIT_IN_SOURCE_WINDOW","dataset_capture_years":[2010,2012],"dataset_role":"LiDAR DTM tile identifier evidence","evidence_grade":"A_OFFICIAL_TILE_IDENTIFIER_B_INCOMPLETE_PERTILE_METADATA","evidence_slice_sha256":"43a2dcfcb560f60c1ce8b61a2c21de8159e155540ed9307de6b1fb8cadb43830","fake_data":false,"field_evidence":{"capture_years":"official dataset summary","formats":"official dataset summary","licence":"official access constraints","resolution_m":"official dataset summary","tile_identifier":"official dataset tile list"},"final_url":"https://www.data.gov.uk/dataset/3fc21217-90c0-4f1b-bbad-065ed992826f/hes-lidar-scottish-ten-project-2010-data-acquired-from-fugro-non-commercial-government-licence","licence":"Non-Commercial Government Licence / Fugro-HES non-commercial restriction","per_tile_acquisition_date":null,"point_density_ppm":4,"raw_tile_identifier":"NT2373","required_building_state":"BUILDING_PRESENT","resolution_m":0.5,"resource_locator_url":"https://remotesensingdata.gov.scot/","site":"Edinburgh Old and New Town","source_area_count_contribution":0,"source_record_id":"HES_SCOTTISH_TEN_EDINBURGH:NT2373","source_url":"https://www.data.gov.uk/dataset/3fc21217-90c0-4f1b-bbad-065ed992826f/hes-lidar-scottish-ten-project-2010-data-acquired-from-fugro-non-commercial-government-licence","tile_identifier":"NT2373"},"type":"Feature"},{"geometry":null,"properties":{"accepted_count_contribution":0,"access_utc":"2026-10-01T01:52:00Z","available_formats":["LAZ","GeoTIFF"],"binding_status":"LOCAL_OPENCODE_BUILDING_PRESENT_BIND_REQUIRED","canonical_parcel_id":null,"confidence_score_0_100":94,"crs":null,"crs_status":"NOT_EXPLICIT_IN_SOURCE_WINDOW","dataset_capture_years":[2010,2012],"dataset_role":"LiDAR DTM tile identifier evidence","evidence_grade":"A_OFFICIAL_TILE_IDENTIFIER_B_INCOMPLETE_PERTILE_METADATA","evidence_slice_sha256":"43a2dcfcb560f60c1ce8b61a2c21de8159e155540ed9307de6b1fb8cadb43830","fake_data":false,"field_evidence":{"capture_years":"official dataset summary","formats":"official dataset summary","licence":"official access constraints","resolution_m":"official dataset summary","tile_identifier":"official dataset tile list"},"final_url":"https://www.data.gov.uk/dataset/3fc21217-90c0-4f1b-bbad-065ed992826f/hes-lidar-scottish-ten-project-2010-data-acquired-from-fugro-non-commercial-government-licence","licence":"Non-Commercial Government Licence / Fugro-HES non-commercial restriction","per_tile_acquisition_date":null,"point_density_ppm":4,"raw_tile_identifier":"NT2473","required_building_state":"BUILDING_PRESENT","resolution_m":0.5,"resource_locator_url":"https://remotesensingdata.gov.scot/","site":"Edinburgh Old and New Town","source_area_count_contribution":0,"source_record_id":"HES_SCOTTISH_TEN_EDINBURGH:NT2473","source_url":"https://www.data.gov.uk/dataset/3fc21217-90c0-4f1b-bbad-065ed992826f/hes-lidar-scottish-ten-project-2010-data-acquired-from-fugro-non-commercial-government-licence","tile_identifier":"NT2473"},"type":"Feature"},{"geometry":null,"properties":{"accepted_count_contribution":0,"access_utc":"2026-10-01T01:52:00Z","available_formats":["LAZ","GeoTIFF"],"binding_status":"LOCAL_OPENCODE_BUILDING_PRESENT_BIND_REQUIRED","canonical_parcel_id":null,"confidence_score_0_100":94,"crs":null,"crs_status":"NOT_EXPLICIT_IN_SOURCE_WINDOW","dataset_capture_years":[2010,2012],"dataset_role":"LiDAR DTM tile identifier evidence","evidence_grade":"A_OFFICIAL_TILE_IDENTIFIER_B_INCOMPLETE_PERTILE_METADATA","evidence_slice_sha256":"43a2dcfcb560f60c1ce8b61a2c21de8159e155540ed9307de6b1fb8cadb43830","fake_data":false,"field_evidence":{"capture_years":"official dataset summary","formats":"official dataset summary","licence":"official access constraints","resolution_m":"official dataset summary","tile_identifier":"official dataset tile list"},"final_url":"https://www.data.gov.uk/dataset/3fc21217-90c0-4f1b-bbad-065ed992826f/hes-lidar-scottish-ten-project-2010-data-acquired-from-fugro-non-commercial-government-licence","licence":"Non-Commercial Government Licence / Fugro-HES non-commercial restriction","per_tile_acquisition_date":null,"point_density_ppm":4,"raw_tile_identifier":"NT2573","required_building_state":"BUILDING_PRESENT","resolution_m":0.5,"resource_locator_url":"https://remotesensingdata.gov.scot/","site":"Edinburgh Old and New Town","source_area_count_contribution":0,"source_record_id":"HES_SCOTTISH_TEN_EDINBURGH:NT2573","source_url":"https://www.data.gov.uk/dataset/3fc21217-90c0-4f1b-bbad-065ed992826f/hes-lidar-scottish-ten-project-2010-data-acquired-from-fugro-non-commercial-government-licence","tile_identifier":"NT2573"},"type":"Feature"},{"geometry":null,"properties":{"accepted_count_contribution":0,"access_utc":"2026-10-01T01:52:00Z","available_formats":["LAZ","GeoTIFF"],"binding_status":"LOCAL_OPENCODE_BUILDING_PRESENT_BIND_REQUIRED","canonical_parcel_id":null,"confidence_score_0_100":94,"crs":null,"crs_status":"NOT_EXPLICIT_IN_SOURCE_WINDOW","dataset_capture_years":[2010,2012],"dataset_role":"LiDAR DTM tile identifier evidence","evidence_grade":"A_OFFICIAL_TILE_IDENTIFIER_B_INCOMPLETE_PERTILE_METADATA","evidence_slice_sha256":"43a2dcfcb560f60c1ce8b61a2c21de8159e155540ed9307de6b1fb8cadb43830","fake_data":false,"field_evidence":{"capture_years":"official dataset summary","formats":"official dataset summary","licence":"official access constraints","resolution_m":"official dataset summary","tile_identifier":"official dataset tile list"},"final_url":"https://www.data.gov.uk/dataset/3fc21217-90c0-4f1b-bbad-065ed992826f/hes-lidar-scottish-ten-project-2010-data-acquired-from-fugro-non-commercial-government-licence","licence":"Non-Commercial Government Licence / Fugro-HES non-commercial restriction","per_tile_acquisition_date":null,"point_density_ppm":4,"raw_tile_identifier":"NT2673","required_building_state":"BUILDING_PRESENT","resolution_m":0.5,"resource_locator_url":"https://remotesensingdata.gov.scot/","site":"Edinburgh Old and New Town","source_area_count_contribution":0,"source_record_id":"HES_SCOTTISH_TEN_EDINBURGH:NT2673","source_url":"https://www.data.gov.uk/dataset/3fc21217-90c0-4f1b-bbad-065ed992826f/hes-lidar-scottish-ten-project-2010-data-acquired-from-fugro-non-commercial-government-licence","tile_identifier":"NT2673"},"type":"Feature"},{"geometry":null,"properties":{"accepted_count_contribution":0,"access_utc":"2026-10-01T01:52:00Z","available_formats":["LAZ","GeoTIFF"],"binding_status":"LOCAL_OPENCODE_BUILDING_PRESENT_BIND_REQUIRED","canonical_parcel_id":null,"confidence_score_0_100":94,"crs":null,"crs_status":"NOT_EXPLICIT_IN_SOURCE_WINDOW","dataset_capture_years":[2010,2012],"dataset_role":"LiDAR DTM tile identifier evidence","evidence_grade":"A_OFFICIAL_TILE_IDENTIFIER_B_INCOMPLETE_PERTILE_METADATA","evidence_slice_sha256":"43a2dcfcb560f60c1ce8b61a2c21de8159e155540ed9307de6b1fb8cadb43830","fake_data":false,"field_evidence":{"capture_years":"official dataset summary","formats":"official dataset summary","licence":"official access constraints","resolution_m":"official dataset summary","tile_identifier":"official dataset tile list"},"final_url":"https://www.data.gov.uk/dataset/3fc21217-90c0-4f1b-bbad-065ed992826f/hes-lidar-scottish-ten-project-2010-data-acquired-from-fugro-non-commercial-government-licence","licence":"Non-Commercial Government Licence / Fugro-HES non-commercial restriction","per_tile_acquisition_date":null,"point_density_ppm":4,"raw_tile_identifier":"NT2773","required_building_state":"BUILDING_PRESENT","resolution_m":0.5,"resource_locator_url":"https://remotesensingdata.gov.scot/","site":"Edinburgh Old and New Town","source_area_count_contribution":0,"source_record_id":"HES_SCOTTISH_TEN_EDINBURGH:NT2773","source_url":"https://www.data.gov.uk/dataset/3fc21217-90c0-4f1b-bbad-065ed992826f/hes-lidar-scottish-ten-project-2010-data-acquired-from-fugro-non-commercial-government-licence","tile_identifier":"NT2773"},"type":"Feature"},{"geometry":null,"properties":{"accepted_count_contribution":0,"access_utc":"2026-10-01T01:52:00Z","available_formats":["LAZ","GeoTIFF"],"binding_status":"LOCAL_OPENCODE_BUILDING_PRESENT_BIND_REQUIRED","canonical_parcel_id":null,"confidence_score_0_100":94,"crs":null,"crs_status":"NOT_EXPLICIT_IN_SOURCE_WINDOW","dataset_capture_years":[2010,2012],"dataset_role":"LiDAR DTM tile identifier evidence","evidence_grade":"A_OFFICIAL_TILE_IDENTIFIER_B_INCOMPLETE_PERTILE_METADATA","evidence_slice_sha256":"43a2dcfcb560f60c1ce8b61a2c21de8159e155540ed9307de6b1fb8cadb43830","fake_data":false,"field_evidence":{"capture_years":"official dataset summary","formats":"official dataset summary","licence":"official access constraints","resolution_m":"official dataset summary","tile_identifier":"official dataset tile list"},"final_url":"https://www.data.gov.uk/dataset/3fc21217-90c0-4f1b-bbad-065ed992826f/hes-lidar-scottish-ten-project-2010-data-acquired-from-fugro-non-commercial-government-licence","licence":"Non-Commercial Government Licence / Fugro-HES non-commercial restriction","per_tile_acquisition_date":null,"point_density_ppm":4,"raw_tile_identifier":"NT2572","required_building_state":"BUILDING_PRESENT","resolution_m":0.5,"resource_locator_url":"https://remotesensingdata.gov.scot/","site":"Edinburgh Old and New Town","source_area_count_contribution":0,"source_record_id":"HES_SCOTTISH_TEN_EDINBURGH:NT2572","source_url":"https://www.data.gov.uk/dataset/3fc21217-90c0-4f1b-bbad-065ed992826f/hes-lidar-scottish-ten-project-2010-data-acquired-from-fugro-non-commercial-government-licence","tile_identifier":"NT2572"},"type":"Feature"}],"name":"height_difference_1","type":"FeatureCollection"}
