{"type":"FeatureCollection","features":[{"type":"Feature","id":"torbay-local-plan-regulation-19-publication-version-2026:SDT3","geometry":null,"properties":{"slot_id":"future_growth_4","lineage_id":"fg4-e4c9076d6f554f00","page_generation":1,"owner":"future_growth_4","partition":"future_growth","semantic_mode":"SOURCE_AREA_EXACT_IDENTIFIER","dataset":"torbay-local-plan-regulation-19-publication-version-2026","entity":"SDT3","reference":"SDT3","quality":"authoritative","organisation":"Torbay Council","name":"Torquay Gateway (Edginswell)","source_url":"https://torbay.oc2.uk/document/16/200","final_url":"https://torbay.oc2.uk/document/16/200","access_utc":"2026-10-06T04:54:00Z","data_date":"2026-09-24","license":"not stated on source window","field_evidence":{"policy_reference":"SDT3","policy_title":"Torquay Gateway – A sustainable growth hub for homes, jobs and nature","site_name":"Torquay Gateway (Edginswell)","allocation_type":"Future Growth Area","uses":["homes","employment","education","leisure"],"plan_stage":"Torbay Local Plan Regulation 19 Publication Version","consultation_end_date":"2026-09-24","broad_location_basis":"shown indicatively on the Key Diagram and Policies Map"},"evidence_slice_sha256":"02b655d9e211155f531ef83236f86af248406f1b2e5f9279b0fbba4e38c5f786","confidence_score_0_100":99,"confidence":0.99,"evidence_grade":"A","exact_identifier_provided":true,"coverage_polygon_provided":false,"fake_data":false,"join_mode":"LOCAL_OPENCODE_SPATIAL_JOIN_PENDING","direct_parcel":false,"source_area_count_contribution":1,"planned_building_count_contribution":0}}]}