{"type":"FeatureCollection","features":[{"type":"Feature","geometry":{"type":"MultiPolygon","coordinates":[[[[-0.130048,51.515032],[-0.129819,51.515095],[-0.129628,51.515191],[-0.12884,51.515557],[-0.12864,51.515596],[-0.12843,51.515585],[-0.128803,51.516329],[-0.128919,51.516608],[-0.129475,51.516537],[-0.129538,51.516691],[-0.129508,51.516709],[-0.129048,51.516857],[-0.129456,51.517391],[-0.130702,51.517114],[-0.13079,51.51708],[-0.13115,51.517445],[-0.131247,51.517528],[-0.132255,51.518567],[-0.132908,51.519209],[-0.13351,51.519812],[-0.133724,51.520038],[-0.133822,51.520123],[-0.134892,51.519699],[-0.13621,51.519189],[-0.136949,51.518891],[-0.136364,51.518589],[-0.13628,51.518525],[-0.136211,51.518452],[-0.135871,51.517915],[-0.135329,51.517116],[-0.137374,51.516749],[-0.138828,51.516497],[-0.139637,51.516371],[-0.139553,51.516232],[-0.139507,51.516108],[-0.139513,51.51604],[-0.139592,51.515996],[-0.140739,51.515805],[-0.140798,51.515814],[-0.140848,51.515847],[-0.140962,51.516126],[-0.143067,51.515755],[-0.143508,51.516257],[-0.144235,51.516123],[-0.145191,51.515965],[-0.145396,51.515917],[-0.146127,51.515779],[-0.146948,51.515646],[-0.147346,51.515567],[-0.14837,51.515407],[-0.14885,51.515298],[-0.149115,51.515527],[-0.149634,51.51615],[-0.149668,51.516222],[-0.150558,51.516073],[-0.150142,51.515099],[-0.15168,51.51483],[-0.151973,51.515428],[-0.152307,51.515361],[-0.153235,51.515214],[-0.154294,51.51506],[-0.15425,51.514926],[-0.1552,51.51475],[-0.155082,51.514411],[-0.155086,51.51439],[-0.155126,51.514375],[-0.155852,51.514311],[-0.156186,51.514244],[-0.156309,51.514523],[-0.157976,51.514281],[-0.158037,51.514279],[-0.158157,51.514326],[-0.159344,51.514195],[-0.160973,51.513991],[-0.161043,51.513964],[-0.161097,51.513927],[-0.160373,51.513481],[-0.159933,51.513243],[-0.160696,51.513172],[-0.161243,51.513105],[-0.161377,51.513112],[-0.161738,51.5131],[-0.161984,51.513076],[-0.161797,51.513056],[-0.16174,51.513037],[-0.16167,51.513],[-0.161558,51.512899],[-0.161446,51.512834],[-0.161104,51.512547],[-0.160985,51.512458],[-0.160915,51.512421],[-0.160829,51.512393],[-0.160674,51.512381],[-0.158863,51.512614],[-0.158804,51.512595],[-0.158662,51.512521],[-0.158578,51.512456],[-0.158551,51.51242],[-0.158014,51.511235],[-0.157587,51.510606],[-0.157581,51.510741],[-0.157549,51.510822],[-0.157504,51.510866],[-0.15746,51.510901],[-0.157095,51.511012],[-0.15799,51.512744],[-0.154289,51.513396],[-0.153301,51.513597],[-0.15243,51.513745],[-0.152229,51.513364],[-0.152137,51.513156],[-0.151556,51.513254],[-0.150976,51.513362],[-0.150924,51.513277],[-0.150311,51.513397],[-0.149871,51.513472],[-0.148844,51.513688],[-0.148657,51.513325],[-0.148508,51.513071],[-0.148322,51.512682],[-0.14547,51.513248],[-0.146223,51.513988],[-0.14571,51.514196],[-0.145483,51.51399],[-0.145111,51.514052],[-0.144707,51.514135],[-0.143913,51.51428],[-0.143575,51.514329],[-0.142307,51.514601],[-0.142163,51.514599],[-0.141848,51.514625],[-0.141755,51.514351],[-0.140823,51.514683],[-0.140255,51.514011],[-0.139857,51.514128],[-0.139374,51.514246],[-0.138579,51.51447],[-0.136876,51.514908],[-0.136191,51.515118],[-0.136169,51.51509],[-0.135067,51.515412],[-0.13441,51.515585],[-0.134372,51.51551],[-0.133891,51.515609],[-0.13385,51.515608],[-0.133811,51.515597],[-0.133786,51.515575],[-0.133627,51.515294],[-0.133413,51.514972],[-0.132728,51.51515],[-0.132929,51.51545],[-0.132931,51.515473],[-0.132918,51.515496],[-0.132883,51.51552],[-0.132463,51.515654],[-0.132029,51.515752],[-0.131987,51.515755],[-0.131939,51.515751],[-0.131898,51.515738],[-0.131693,51.51544],[-0.131001,51.515622],[-0.130342,51.515814],[-0.130048,51.515032]]]]},"properties":{"slot_id":"future_growth_1","lineage_id":"future_growth_1-newstart-20260927T153100+0300","page_generation":null,"accepted_as_parcel":false,"source_area_count_contribution":1,"exact_identifier":"OSD00000001","exact_identifier_provided":true,"coverage_polygon_provided":true,"identifier_namespace":"Planning Data development-corporation-boundary reference","site_name":"Oxford Street Development Corporation","entity":560004,"dataset":"development-corporation-boundary","organisation":"Greater London Authority","start_date":"2026-01-01","entry_date":"2026-05-04","quality":"some","access_utc":"2026-10-03T22:27:00Z","data_date":"2026-05-04","source_url":"https://www.planning.data.gov.uk/entity/560004","final_url":"https://www.planning.data.gov.uk/entity/560004","geojson_url":"https://www.planning.data.gov.uk/entity/560004.geojson","legislation_url":"https://www.legislation.gov.uk/uksi/2025/1151/contents/made","license":"Open Government Licence v3.0 / Crown copyright and database right 2026","authority":"Greater London Authority","evidence_grade":"A","confidence_score_0_100":99,"evidence_scope":"exact Planning Data development-corporation-boundary entity 560004 / OSD00000001, statutory Establishment Order and official MULTIPOLYGON geometry","evidence_slice_sha256":"1e2a5ea7272893c69b63f90a32874ddadcb425d4377b4b40f5c93f15dfb53e1c","geometry_wkt_sha256":"82b7db453fd964a6292ae962eda49e1b8cf8f13432919b5f1e1ca331cd83b48c","fake_data":false,"spatial_binding_method":"official Planning Data development-corporation-boundary MULTIPOLYGON plus statutory establishment order; canonical parcel spatial join and materialization delegated to local OpenCode","planned_building_count_contribution":0}}]}