{"type":"FeatureCollection","name":"height_difference_2","features":[],"metadata":{"slot_id":"height_difference_2","lineage_id":"height_difference_2_20260930T001051Z","page_generation":1,"partition":"source_area","schema":"AAYS_LAYER24_EVIDENCE_V1","fake_data":false,"owner":"cagdas aydin","batch_id":"batch_0031_gla_listed_buildings_identifier_blocker_20261002T181100Z","cursor":"BLOCKED_GLA_LISTED_BUILDINGS_POINT_IDENTIFIER_WITHOUT_HEIGHT_DIFFERENCE_2_CANONICAL_BINDING","source_area_count":0,"accepted_count":0,"unmatched_count":1,"source_window_path":"incoming/layer24/height_difference_6/AAYS-HD6-51F65894C8971FF38061/HD6_PG1_SEQ029_GLA_LISTED_BUILDINGS_IDENTIFIER_BLOCKER_0001/","reason":"EXACT_BLOCKER: after three zero-acceptance rounds the method was materially changed to an official building-identifier schema review. A previously unused verified public no-login Greater London Authority listed-buildings FeatureServer window was processed (1 source record). It exposes official listed-building site reference, UPRN, address, borough/planning authority, easting and northing, but geometry is Point, no INSPIRE-ID field exists, and no Polygon/MultiPolygon footprint is exposed. The evaluated target belongs to height_difference_6, so the window does not establish a height_difference_2 BUILDING_PRESENT canonical parcel selector. Local OpenCode must provide a height_difference_2 canonical parcel/footprint binding or an exact official building identifier attributable to that parcel before DEM/LIDAR acceptance."}}
