{"type":"FeatureCollection","name":"security_public_safety_1_batch_exact_identifiers","features":[{"type":"Feature","geometry":null,"properties":{"slot_id":"security_public_safety_1","evidence_scope":"coverage_exact_identifier","coverage_area_id":"North West West","exact_identifier":"North West West","exact_identifier_type":"met.police.uk.operational_policing_area.official_name","coverage_area_name":"North West West","source_url":"https://www.met.police.uk/foi-ai/metropolitan-police/iopc/2022/july/iopc-learning-recommendation-IX-2919-20-Op-Gascoyne-para28a/","final_url":"https://www.met.police.uk/foi-ai/metropolitan-police/iopc/2022/july/iopc-learning-recommendation-IX-2919-20-Op-Gascoyne-para28a/","access_utc":"2026-10-07T02:50:00Z","data_date":"2022-07","data_date_basis":"Official Metropolitan Police IOPC response page path is July 2022","license":"Metropolitan Police website; explicit reuse licence not asserted in extracted source window","file_sha256":"142db0a0ff8422031d0981bdf2ad290d11276e5ca701eba21fdd876375d2b0ed","file_sha256_scope":"normalized two official operational-area name/code/base records; not raw HTML bytes","evidence_slice_sha256":"7a531edcb237ca0bde363b5db669ac2134b5cd657c7019ce6b6cbc04dcf28b57","field_evidence":{"ordinal":1,"id":"North West West","code":"NWW","base":"Wembley Police Station"},"confidence_score_0_100":100,"evidence_grade":"A_OFFICIAL_EXACT_IDENTIFIER","fake_data":false,"spatial_binding_method":"DEFERRED_TO_LOCAL_OPENCODE","canonical_parcel_id":null,"materialized_parcel_count":0,"direct_parcel_count":0}},{"type":"Feature","geometry":null,"properties":{"slot_id":"security_public_safety_1","evidence_scope":"coverage_exact_identifier","coverage_area_id":"North West East","exact_identifier":"North West East","exact_identifier_type":"met.police.uk.operational_policing_area.official_name","coverage_area_name":"North West East","source_url":"https://www.met.police.uk/foi-ai/metropolitan-police/iopc/2022/july/iopc-learning-recommendation-IX-2919-20-Op-Gascoyne-para28a/","final_url":"https://www.met.police.uk/foi-ai/metropolitan-police/iopc/2022/july/iopc-learning-recommendation-IX-2919-20-Op-Gascoyne-para28a/","access_utc":"2026-10-07T02:50:00Z","data_date":"2022-07","data_date_basis":"Official Metropolitan Police IOPC response page path is July 2022","license":"Metropolitan Police website; explicit reuse licence not asserted in extracted source window","file_sha256":"142db0a0ff8422031d0981bdf2ad290d11276e5ca701eba21fdd876375d2b0ed","file_sha256_scope":"normalized two official operational-area name/code/base records; not raw HTML bytes","evidence_slice_sha256":"4773d5d85424088efcefecdcbb40372ffbbe78c30ad2f79f2721ebe65bf27e1d","field_evidence":{"ordinal":2,"id":"North West East","code":"NWE","base":"Colindale Police Station"},"confidence_score_0_100":100,"evidence_grade":"A_OFFICIAL_EXACT_IDENTIFIER","fake_data":false,"spatial_binding_method":"DEFERRED_TO_LOCAL_OPENCODE","canonical_parcel_id":null,"materialized_parcel_count":0,"direct_parcel_count":0}}],"metadata":{"source_area_count":210,"source_area_delta_this_turn":2,"latest_evidence_window":"MET_NW_BCU_OPERATIONAL_AREAS_IOPC_2022_07_20261007T025000Z","latest_status":"2_NEW_OFFICIAL_EXACT_IDENTIFIERS_ACCEPTED","exact_blocker":"LOCAL_OPENCODE_EXACT_IDENTIFIER_TO_CANONICAL_SPATIAL_BINDING_REQUIRED","first_missing_criterion":"LOCAL_OPENCODE_EXACT_IDENTIFIER_TO_CANONICAL_SPATIAL_BINDING"}}
