{"type":"FeatureCollection","features":[{"type":"Feature","geometry":null,"properties":{"slot_id":"planned_buildings_1","lineage_id":"planned_buildings_1-0ffc4ebd6c6e4e41","semantic_mode":"DISTINCT_BUILDINGS","planned_building_id":"planning-application:RB2026/1224::DWELLING_01","building_status":"PLANNED","building_name":"Dwellinghouse 1, land rear of 69 Main Street North Anston","planning_reference":"RB2026/1224","authority":"Rotherham Metropolitan Borough Council","source_url":"https://planning.rotherham.gov.uk/detail.asp?AltRef=RB2026%2F1224","final_url":"https://planning.rotherham.gov.uk/detail.asp?AltRef=RB2026%2F1224","access_utc":"2026-10-02T00:16:00Z","source_data_date":"2026-09-02","license":"Open Government Licence v3.0","geometry_role":"official planning page exposes no machine-readable point or building footprint; geometry null; no geometry inferred","field_evidence":"Official Registered application explicitly states erection of 2 dwellinghouses and the official page states no decision.","identity_limitation":"Official source states two dwellinghouses but does not individually name or locate them; ordinal identifiers represent explicit source cardinality only.","confidence_score_0_100":98,"evidence_grade":"A","fake_data":false}},{"type":"Feature","geometry":null,"properties":{"slot_id":"planned_buildings_1","lineage_id":"planned_buildings_1-0ffc4ebd6c6e4e41","semantic_mode":"DISTINCT_BUILDINGS","planned_building_id":"planning-application:RB2026/1224::DWELLING_02","building_status":"PLANNED","building_name":"Dwellinghouse 2, land rear of 69 Main Street North Anston","planning_reference":"RB2026/1224","authority":"Rotherham Metropolitan Borough Council","source_url":"https://planning.rotherham.gov.uk/detail.asp?AltRef=RB2026%2F1224","final_url":"https://planning.rotherham.gov.uk/detail.asp?AltRef=RB2026%2F1224","access_utc":"2026-10-02T00:16:00Z","source_data_date":"2026-09-02","license":"Open Government Licence v3.0","geometry_role":"official planning page exposes no machine-readable point or building footprint; geometry null; no geometry inferred","field_evidence":"Official Registered application explicitly states erection of 2 dwellinghouses and the official page states no decision.","identity_limitation":"Official source states two dwellinghouses but does not individually name or locate them; ordinal identifiers represent explicit source cardinality only.","confidence_score_0_100":98,"evidence_grade":"A","fake_data":false}}]}
