{"type":"FeatureCollection","name":"building_type_2_batch_0012","features":[{"type":"Feature","id":"42112572","geometry":{"type":"MultiPolygon","coordinates":[[[[-1.614967,54.971953],[-1.614942,54.971946],[-1.614929,54.971963],[-1.614865,54.971947],[-1.614808,54.972026],[-1.614981,54.972069],[-1.615386,54.972174],[-1.615901,54.972303],[-1.615961,54.972225],[-1.615942,54.972218],[-1.61596,54.972191],[-1.615886,54.972173],[-1.615915,54.972131],[-1.6156,54.972069],[-1.615574,54.972114],[-1.615436,54.972088],[-1.615431,54.972094],[-1.615398,54.972085],[-1.615498,54.971933],[-1.61538,54.971913],[-1.615336,54.971976],[-1.615252,54.97196],[-1.615266,54.971941],[-1.615313,54.97195],[-1.615337,54.971916],[-1.615115,54.971886],[-1.6151,54.971882],[-1.615097,54.971944],[-1.61508,54.97194],[-1.615053,54.971975],[-1.614967,54.971953]]]]},"properties":{"slot_id":"building_type_2","lineage_id":"building_type_2-20260930T173100Z-newstart","batch_id":"batch-0012","page_generation":1,"source_entity":42112572,"source_reference":"1106378","source_dataset":"listed-building-outline","source_organisation":"Newcastle City Council","building_evidence_status":"BUILDING_PRESENT","parcel_status":"UNPROCESSED","canonical_parcel_id":null,"building_type":"listed_building","building_use":null,"poi_accepted":false,"field_evidence":{"footprint":"official listed-building-outline MULTIPOLYGON","type":"official dataset classification: listed-building-outline","reference":"1106378","quality":"authoritative","name":"NOS. 6 TO 30A EVEN - NUN STREET (SOUTH SIDE)"},"source_url":"https://www.planning.data.gov.uk/entity/42112572","final_url":"https://www.planning.data.gov.uk/entity/42112572","access_utc":"2026-10-02T00:06:28Z","data_date":"1965-11-12","licence":"Open Government Licence v3.0","evidence_slice_sha256":"750a7e3667f921c661c0d947effce23df94e149a21ab18092023164c4be70379","confidence_score_0_100":96,"evidence_grade":"A","fake_data":false,"local_spatial_join_required":true}}]}