{"type":"FeatureCollection","features":[{"type":"Feature","geometry":{"type":"MultiPolygon","coordinates":[[[[0.040345,51.39963],[0.040408,51.399437],[0.045153,51.399679],[0.045122,51.399907],[0.043609,51.399805],[0.043574,51.399829],[0.041102,51.399748],[0.040482,51.39965],[0.040345,51.39963]]]]},"properties":{"slot_id":"future_growth_ 2","lineage_id":"future_growth_ 2-newstart-20261001T203100Z","page_generation":1,"owner":"future_growth_ 2","partition":"future_growth","semantic_mode":"SOURCE_AREA_EXACT_IDENTIFIER","accepted_as_parcel":false,"source_area_count_contribution":1,"exact_identifier":"BLR2","exact_identifier_provided":true,"coverage_polygon_provided":true,"identifier_namespace":"Planning Data brownfield-site reference / London Borough of Bromley","access_utc":"2026-10-04T12:53:00Z","data_date":"2020-12-22","source_url":"https://www.planning.data.gov.uk/entity/1801960","final_url":"https://www.planning.data.gov.uk/entity/1801960","dataset_url":"https://www.planning.data.gov.uk/dataset/brownfield-site","license":"Open Government Licence v3.0","authority":"London Borough of Bromley","site_address":"Land adjacent to Bickley Station,BR1 2EB","hectares":0.9,"point":null,"maximum_net_dwellings":null,"minimum_net_dwellings":null,"planning_permission_status":"not-permissioned","confidence_score_0_100":98,"confidence":0.98,"evidence_grade":"A","evidence_scope":"official_exact_identifier_plus_official_planning_data_polygon","field_evidence":{"reference":"BLR2","site_name":"Land adjacent to Bickley StationBR1 2EB","site_address":"Land adjacent to Bickley Station,BR1 2EB","brownfield_site_entity":1801960,"brownfield_land_entity":1707463,"brownfield_site_entry_date":"2020-12-22","brownfield_land_start_date":"2017-12-31","geometry_type":"MULTIPOLYGON","polygon_dataset_quality":"some","land_dataset_quality":"authoritative","hectares":0.9,"deliverable":"yes","planning_permission_status":"not-permissioned","notes":"The site is allocated for around 30 residential units in Bromley's Draft Local Plan."},"evidence_slice_sha256":"fb50ec8fab800bb2170c52fe34622e1c2158791ff2bddcc066f6213034822ff9","fake_data":false,"spatial_binding_method":"official Planning Data MultiPolygon for Bromley BLR2 plus linked authoritative brownfield-land identifier; canonical parcel spatial join/materialization delegated to local OpenCode","planned_building_count_contribution":0}}]}