{"type":"FeatureCollection","features":[{"type":"Feature","geometry":{"type":"MultiPolygon","coordinates":[[[[-0.05263,51.466249],[-0.052671,51.466107],[-0.052532,51.46619],[-0.052527,51.466216],[-0.052541,51.466232],[-0.052621,51.466246],[-0.05263,51.466249]]]]},"properties":{"slot_id":"future_growth_3","lineage_id":"future_growth_3-newstart-20261001T203100Z","page_generation":null,"accepted_as_parcel":false,"source_area_count_contribution":1,"exact_identifier":"15-AP-0138","exact_identifier_provided":true,"coverage_polygon_provided":true,"identifier_namespace":"Planning Data brownfield-site reference","secondary_exact_identifier":"entity:1800261","source_entity":"15-AP-0138 - Land Adjacent To 134 Kimberly Avenue SE15 3XG","access_utc":"2026-10-03T01:59:07Z","data_date":"2017-12-20","source_url":"https://www.planning.data.gov.uk/entity/1800261","final_url":"https://www.planning.data.gov.uk/entity/1800261","license":"Open Government Licence v3.0; attribution © Crown copyright and database right 2026.","authority":"London Borough of Southwark","site_address":"Land Adjacent To 134 Kimberly Avenue SE15 3XG","field_evidence":{"reference":"15-AP-0138","entity":1800261,"dataset":"Brownfield site","organisation":"London Borough of Southwark","entry_date":"2017-12-20","site_name":"Land Adjacent To 134 Kimberly Avenue SE15 3XG","geometry_wkt":"MULTIPOLYGON (((-0.05263 51.466249, -0.052671 51.466107, -0.052532 51.46619, -0.052527 51.466216, -0.052541 51.466232, -0.052621 51.466246, -0.05263 51.466249)))","point":"POINT (-0.052602 51.46619)","quality":"authoritative","brownfield_site":"15-AP-0138"},"source_payload_sha256":"f6bdb865bf6bef0b4defc672c368949749e5532e2d14fa9f3f3c32f3e8a41f8a","source_payload_sha256_basis":"canonicalized official Planning Data brownfield-site entity evidence fields","evidence_slice_sha256":"c993fae4bb382c1b34b8c3d269dc8733a2edf0aa5648dc567ba9886baa955289","evidence_grade":"A","confidence_score_0_100":99,"evidence_scope":"official_authoritative_brownfield_site_multipolygon_boundary","fake_data":false,"spatial_binding_method":"official Planning Data brownfield-site MultiPolygon boundary entity 1800261 / reference 15-AP-0138; canonical parcel spatial join and materialization delegated to local OpenCode","planned_building_count_contribution":0}}]}