{"type":"FeatureCollection","features":[{"type":"Feature","geometry":null,"properties":{"slot_id":"future_growth_7","lineage_id":"future_growth_7_open_source_v2_20260813","page_generation":null,"batch_id":"batch_20261002T003400Z_lpb4211065","official_entity_id":4211065,"official_reference":"E60000008-E60000009","dataset":"local-plan-boundary","organisation":"Gateshead and Newcastle Local Planning Group","source_url":"https://www.planning.data.gov.uk/entity/4211065","final_url":"https://www.planning.data.gov.uk/entity/4211065","geojson_download_url":"https://www.planning.data.gov.uk/entity/4211065.geojson","accessed_utc":"2026-10-02T00:34:00Z","data_date":"2026-03-18","licence":"Open Government Licence v3.0","source_sha256":"03bf410593df927760ea6ee8ffa1467e6f9519f8e2df72dcb65880fe9b4a75ee","source_sha256_basis":"canonical_official_field_evidence_json","field_evidence":{"entry-date":"2026-03-18","start-date":"","end-date":"","entity":4211065,"name":"Gateshead and Newcastle Local Planning Group","dataset":"local-plan-boundary","typology":"geography","reference":"E60000008-E60000009","prefix":"local-plan-boundary","organisation-entity":600001,"geometry":"Official entity page provides Download geojson; full geometry not materialized here.","point":"POINT (-1.671773 54.967509)","quality":"authoritative","organisations":"local-authority:GAT;local-authority:NET","local-planning-authorities":"E60000008;E60000009"},"evidence_slice_sha256":"f5890577b963b95fb297c91e3c13cfaa0cc90869486334a80daaee4249b1a7d9","evidence_grade":"A_EXACT_OFFICIAL_IDENTIFIER","confidence_score_0_100":99,"official_geometry_available":true,"point_not_used_as_coverage":true,"fake_data":false}}]}
