{"type":"FeatureCollection","name":"security_public_safety_1_batch_exact_identifiers","features":[{"type":"Feature","geometry":null,"properties":{"exact_identifier":"Beckenham Town and Copers Cope","coverage_area_name":"Beckenham Town and Copers Cope","exact_identifier_type":"met.police.uk.safer_neighbourhood_team.official_name"}},{"type":"Feature","geometry":null,"properties":{"exact_identifier":"Bickley and Sundridge","coverage_area_name":"Bickley and Sundridge","exact_identifier_type":"met.police.uk.safer_neighbourhood_team.official_name"}},{"type":"Feature","geometry":null,"properties":{"exact_identifier":"Biggin Hill","coverage_area_name":"Biggin Hill","exact_identifier_type":"met.police.uk.safer_neighbourhood_team.official_name"}},{"type":"Feature","geometry":null,"properties":{"exact_identifier":"Bromley Common and Holwood","coverage_area_name":"Bromley Common and Holwood","exact_identifier_type":"met.police.uk.safer_neighbourhood_team.official_name"}},{"type":"Feature","geometry":null,"properties":{"exact_identifier":"Bromley Town","coverage_area_name":"Bromley Town","exact_identifier_type":"met.police.uk.safer_neighbourhood_team.official_name"}},{"type":"Feature","geometry":null,"properties":{"exact_identifier":"Chelsfield","coverage_area_name":"Chelsfield","exact_identifier_type":"met.police.uk.safer_neighbourhood_team.official_name"}},{"type":"Feature","geometry":null,"properties":{"exact_identifier":"Chislehurst","coverage_area_name":"Chislehurst","exact_identifier_type":"met.police.uk.safer_neighbourhood_team.official_name"}},{"type":"Feature","geometry":null,"properties":{"exact_identifier":"Clock House","coverage_area_name":"Clock House","exact_identifier_type":"met.police.uk.safer_neighbourhood_team.official_name"}},{"type":"Feature","geometry":null,"properties":{"exact_identifier":"Crystal Palace and Anerley","coverage_area_name":"Crystal Palace and Anerley","exact_identifier_type":"met.police.uk.safer_neighbourhood_team.official_name"}},{"type":"Feature","geometry":null,"properties":{"exact_identifier":"Darwin","coverage_area_name":"Darwin","exact_identifier_type":"met.police.uk.safer_neighbourhood_team.official_name"}},{"type":"Feature","geometry":null,"properties":{"exact_identifier":"Farnborough and Crofton","coverage_area_name":"Farnborough and Crofton","exact_identifier_type":"met.police.uk.safer_neighbourhood_team.official_name"}},{"type":"Feature","geometry":null,"properties":{"exact_identifier":"Hayes and Coney Hall","coverage_area_name":"Hayes and Coney Hall","exact_identifier_type":"met.police.uk.safer_neighbourhood_team.official_name"}},{"type":"Feature","geometry":null,"properties":{"exact_identifier":"Kelsey and Eden Park","coverage_area_name":"Kelsey and Eden Park","exact_identifier_type":"met.police.uk.safer_neighbourhood_team.official_name"}},{"type":"Feature","geometry":null,"properties":{"exact_identifier":"Mottingham","coverage_area_name":"Mottingham","exact_identifier_type":"met.police.uk.safer_neighbourhood_team.official_name"}},{"type":"Feature","geometry":null,"properties":{"exact_identifier":"Orpington","coverage_area_name":"Orpington","exact_identifier_type":"met.police.uk.safer_neighbourhood_team.official_name"}},{"type":"Feature","geometry":null,"properties":{"exact_identifier":"Penge and Cator","coverage_area_name":"Penge and Cator","exact_identifier_type":"met.police.uk.safer_neighbourhood_team.official_name"}},{"type":"Feature","geometry":null,"properties":{"exact_identifier":"Petts Wood and Knoll","coverage_area_name":"Petts Wood and Knoll","exact_identifier_type":"met.police.uk.safer_neighbourhood_team.official_name"}},{"type":"Feature","geometry":null,"properties":{"exact_identifier":"Plaistow","coverage_area_name":"Plaistow","exact_identifier_type":"met.police.uk.safer_neighbourhood_team.official_name"}},{"type":"Feature","geometry":null,"properties":{"exact_identifier":"Shortlands and Park Langley","coverage_area_name":"Shortlands and Park Langley","exact_identifier_type":"met.police.uk.safer_neighbourhood_team.official_name"}},{"type":"Feature","geometry":null,"properties":{"exact_identifier":"St Mary Cray","coverage_area_name":"St Mary Cray","exact_identifier_type":"met.police.uk.safer_neighbourhood_team.official_name"}},{"type":"Feature","geometry":null,"properties":{"exact_identifier":"St Paul's Cray","coverage_area_name":"St Paul's Cray","exact_identifier_type":"met.police.uk.safer_neighbourhood_team.official_name"}},{"type":"Feature","geometry":null,"properties":{"exact_identifier":"West Wickham","coverage_area_name":"West Wickham","exact_identifier_type":"met.police.uk.safer_neighbourhood_team.official_name"}}],"metadata":{"source_area_count":371,"source_area_delta_this_turn":22,"latest_evidence_window":"MET_POLICE_BROMLEY_SNT_CURRENT_20261006T091500Z","exact_blocker":"LOCAL_OPENCODE_EXACT_IDENTIFIER_TO_CANONICAL_SPATIAL_BINDING_REQUIRED","first_missing_criterion":"LOCAL_OPENCODE_EXACT_IDENTIFIER_TO_CANONICAL_SPATIAL_BINDING","prior_cumulative_records_sha":"a9950ee2fb6b87724edaaa438aaa559db447ab09","record_scope":"CURRENT_BATCH_DELTA"}}
