{
  "type": "FeatureCollection",
  "features": [
    {
      "type": "Feature",
      "id": "planning-data:brownfield-site:WBR/18/0012",
      "geometry": {
        "type": "MultiPolygon",
        "coordinates": [
          [
            [
              [
                -0.152778,
                51.444136
              ],
              [
                -0.152541,
                51.444013
              ],
              [
                -0.15251,
                51.444052
              ],
              [
                -0.152735,
                51.444168
              ],
              [
                -0.152732,
                51.44417
              ],
              [
                -0.152825,
                51.444219
              ],
              [
                -0.152873,
                51.444185
              ],
              [
                -0.152778,
                51.444136
              ]
            ]
          ]
        ]
      },
      "properties": {
        "semantic_identity": "planning-data:brownfield-site:WBR/18/0012",
        "source_area_id": "planning-data:brownfield-site:WBR/18/0012",
        "source_area_type": "brownfield-site",
        "source_reference": "WBR/18/0012",
        "source_entity": 1800349,
        "source_name": "Upper floors, 182 Balham High Road",
        "source_dataset": "brownfield-site",
        "organisation": "London Borough of Wandsworth",
        "organisation_entity": "local-authority:WND",
        "data_date": "2020-12-22",
        "entry_date": "2020-12-22",
        "source_url": "https://www.planning.data.gov.uk/entity/1800349",
        "final_url": "https://www.planning.data.gov.uk/entity/1800349",
        "source_geometry_wkt_sha256": "86307feb395643c43e604f8cb5ebcd631f699be696901fb152eb9d7ed37a691d",
        "evidence_slice_sha256": "460a61d0f68e4b0783bf8fede1c0985e008c2cc72702e768ef91e26edfdd1cc3",
        "license": "Open Government Licence v3.0",
        "evidence_grade": "B",
        "confidence": 0.78,
        "source_quality": "some",
        "semantic_mode": "AREA_JOIN",
        "canonical_binding_status": "NOT_ATTEMPTED_LOCAL_OPENCODE",
        "fake_data": false
      }
    }
  ]
}
