{"type":"FeatureCollection","features":[{"type":"Feature","geometry":null,"properties":{"source_id":"National_LIDAR_Programme_index_catalogue/FeatureServer/0","source_window_url":"https://environment.data.gov.uk/KB6uNVj5ZcJr7jUP/ArcGIS/rest/services/National_LIDAR_Programme_Catalogues/FeatureServer/0","layer_name":"National_LIDAR_Programme_index_catalogue","coverage_geometry_type":"esriGeometryPolygon","crs":"EPSG:27700","tile_identifier_field":"tilename","dtm_field":"dtm_fn","resolution_field":"resolution","survey_start_field":"sd_flown","survey_end_field":"ed_flown","binding_status":"UNMATCHED_TO_BUILDING_PRESENT_CANONICAL_PARCEL","fake_data":false}}],"metadata":{"slot_id":"height_difference_2","lineage_id":"height_difference_2_20260930T001051Z","partition":"source_area","semantic_mode":"UNCHANGED_NOT_MATERIALIZED","source_area_count":1,"accepted_count":0,"duplicate_count":0,"rejected_count":0,"unmatched_count":1,"cursor":"NATIONAL_LIDAR_INDEX_FEATURESERVER_LAYER0_CURSOR","fake_data":false}}
