{"type":"FeatureCollection","features":[{"type":"Feature","geometry":{"type":"MultiPolygon","coordinates":[[[[-1.133864,53.524431],[-1.13387,53.524434],[-1.133828,53.524466],[-1.133925,53.524517],[-1.133979,53.524526],[-1.134022,53.524518],[-1.13405,53.524501],[-1.134287,53.524429],[-1.134249,53.524388],[-1.134236,53.524391],[-1.134214,53.524368],[-1.134208,53.524371],[-1.134159,53.524321],[-1.134192,53.524293],[-1.134105,53.524249],[-1.133864,53.524431]]]]},"properties":{"slot_id":"future_growth_3","lineage_id":"future_growth_3-newstart-20261001T203100Z","page_generation":null,"accepted_as_parcel":false,"source_area_count_contribution":1,"exact_identifier":"61","exact_identifier_provided":true,"coverage_polygon_provided":true,"identifier_namespace":"Planning Data brownfield-site reference","secondary_exact_identifier":"entity:1802728","source_entity":"61 - 18 - 21 Baxter Gate, Doncaster, DN1 1LD","access_utc":"2026-10-03T04:22:07Z","data_date":"2025-12-03","source_url":"https://www.planning.data.gov.uk/entity/1802728","final_url":"https://www.planning.data.gov.uk/entity/1802728","license":"Open Government Licence v3.0; attribution © Crown copyright and database right 2026.","authority":"Doncaster Metropolitan Borough Council","site_address":"18 - 21 Baxter Gate, Doncaster, DN1 1LD","field_evidence":{"reference":"61","entity":1802728,"dataset":"brownfield-site","organisation":"Doncaster Metropolitan Borough Council","organisation_entity":"109","entry_date":"2025-12-03","site_name":"18 - 21 Baxter Gate, Doncaster, DN1 1LD","geometry":"MULTIPOLYGON (((-1.133864 53.524431, -1.13387 53.524434, -1.133828 53.524466, -1.133925 53.524517, -1.133979 53.524526, -1.134022 53.524518, -1.13405 53.524501, -1.134287 53.524429, -1.134249 53.524388, -1.134236 53.524391, -1.134214 53.524368, -1.134208 53.524371, -1.134159 53.524321, -1.134192 53.524293, -1.134105 53.524249, -1.133864 53.524431)))","point":"POINT (-1.134057 53.524406)","quality":"authoritative","brownfield_site":"61"},"source_payload_sha256":"02f8a25eaa4d29d9350a9c8af38299d04c3955b8a765b945074eb29969563ee2","source_payload_sha256_basis":"canonicalized official Planning Data Doncaster brownfield-site 61 evidence fields","evidence_slice_sha256":"c56a9cbcd3a6ee6d34ca10e8e34d66271d554bf43a9879dbe35be31b956fec99","evidence_grade":"A","confidence_score_0_100":99,"evidence_scope":"official_polygon_from_authoritative_planning_data_brownfield_site","fake_data":false,"spatial_binding_method":"official Planning Data brownfield-site 61 / entity 1802728 MultiPolygon boundary; canonical parcel spatial join and materialization delegated to local OpenCode","planned_building_count_contribution":0}}]}