{"type":"FeatureCollection","features":[{"type":"Feature","geometry":null,"properties":{"slot_id":"future_growth_ 2","lineage_id":"future_growth_ 2-newstart-20261001T203100Z","page_generation":1,"owner":"future_growth_ 2","partition":"future_growth","semantic_mode":"SOURCE_AREA_EXACT_IDENTIFIER","accepted_as_parcel":false,"source_area_count_contribution":1,"exact_identifier":"MX2-35","exact_identifier_provided":true,"coverage_polygon_provided":false,"identifier_namespace":"Leeds Site Allocations Plan allocation reference","access_utc":"2026-10-02T04:09:00Z","data_date":"2024-01-17","source_url":"https://www.leeds.gov.uk/planning/planning-policy/supplementary-planning-documents-and-guidance/temple-district/temple-district-planning-brief","final_url":"https://www.leeds.gov.uk/planning/planning-policy/supplementary-planning-documents-and-guidance/temple-district/temple-district-planning-brief","dataset_url":"https://www.leeds.gov.uk/planning/planning-policy/adopted-local-plan/site-allocations-plan","license":"not stated on source page","authority":"Leeds City Council","site_address":"Temple Works","hectares":11.37,"point":null,"maximum_net_dwellings":1000,"minimum_net_dwellings":null,"planning_permission_status":null,"confidence_score_0_100":99,"confidence":0.99,"evidence_grade":"A","evidence_scope":"official_exact_identifier","field_evidence":{"adopted_plan_date":"2024-01-17","allocation":"mixed use","employment_land_hectares":3.1,"plan":"Leeds Site Allocations Plan","reference":"MX2-35","residential_units":1000,"site_area_hectares":11.37,"site_name":"Temple Works","source_section":"Temple District planning brief, Appendix 2: Site Allocations Plan"},"evidence_slice_sha256":"141086205bf132607ea99d23fef4af8b09d7ca1d8adb384c5e6e005141e0257e","fake_data":false,"spatial_binding_method":"exact official Leeds Site Allocations Plan allocation identifier; canonical parcel spatial join/materialization delegated to local OpenCode","planned_building_count_contribution":0}}]}