{"type":"FeatureCollection","features":[{"type":"Feature","geometry":{"type":"MultiPolygon","coordinates":[[[[-0.045003,51.425468],[-0.044953,51.425336],[-0.045441,51.425263],[-0.045419,51.425179],[-0.044754,51.425269],[-0.0448,51.425414],[-0.044819,51.425468],[-0.044854,51.425466],[-0.044863,51.425474],[-0.044931,51.425464],[-0.044935,51.425473],[-0.045003,51.425468]]]]},"properties":{"slot_id":"future_growth_ 2","lineage_id":"future_growth_ 2-newstart-20261001T203100Z","page_generation":1,"owner":"future_growth_ 2","partition":"future_growth","semantic_mode":"SOURCE_AREA_EXACT_IDENTIFIER","accepted_as_parcel":false,"source_area_count_contribution":1,"exact_identifier":"SD004","exact_identifier_provided":true,"coverage_polygon_provided":true,"identifier_namespace":"brownfield-site reference","entity_id":1800176,"access_utc":"2026-10-01T21:28:41Z","data_date":"2020-12-22","source_url":"https://www.planning.data.gov.uk/entity/1800176","final_url":"https://www.planning.data.gov.uk/entity/1800176","dataset_url":"https://www.planning.data.gov.uk/dataset/brownfield-site","license":"Open Government Licence v3.0","authority":"London Borough of Lewisham","site_address":"154-158 Sydenham Road","hectares":null,"point":"POINT (-0.04504 51.425306)","maximum_net_dwellings":null,"minimum_net_dwellings":null,"planning_permission_status":null,"confidence_score_0_100":95,"confidence":0.95,"evidence_grade":"B","evidence_scope":"official_polygon_and_exact_identifier","field_evidence":{"reference":"SD004","curie":"brownfield-site:SD004","organisation":"London Borough of Lewisham","entry_date":"2020-12-22","geometry":"MULTIPOLYGON (((-0.045003 51.425468, -0.044953 51.425336, -0.045441 51.425263, -0.045419 51.425179, -0.044754 51.425269, -0.0448 51.425414, -0.044819 51.425468, -0.044854 51.425466, -0.044863 51.425474, -0.044931 51.425464, -0.044935 51.425473, -0.045003 51.425468)))","point":"POINT (-0.04504 51.425306)","quality":"some","organisation_curie":"local-authority:LEW"},"evidence_slice_sha256":"420613a833f93d168e30d23cc54f851bfc01baf28df62aaf27bbcb3691c47aa8","fake_data":false,"spatial_binding_method":"official MULTIPOLYGON coverage and exact identifier; canonical parcel spatial join/materialization delegated to local OpenCode","planned_building_count_contribution":0}}]}