{"type":"FeatureCollection","features":[{"type":"Feature","geometry":null,"properties":{"slot_id":"future_growth_1","lineage_id":"future_growth_1-newstart-20260927T153100+0300","page_generation":null,"accepted_as_parcel":false,"source_area_count_contribution":1,"exact_identifier":"CJ4","exact_identifier_provided":true,"coverage_polygon_provided":false,"identifier_namespace":"Wandsworth Local Plan 2023-2038 site allocation","site_name":"Land at Clapham Junction Station, SW11","access_utc":"2026-10-04T21:17:00Z","data_date":"2023-07-19","source_url":"https://www.wandsworth.gov.uk/about-the-local-plan/","final_url":"https://www.wandsworth.gov.uk/about-the-local-plan/","plan_pdf_url":"https://www.wandsworth.gov.uk/media/10136/wandsworth_local_plan_2023_38.pdf","gis_url":"https://services.arcgis.com/drifeOPKLpgnJ8Qa/arcgis/rest/services/planning_local_plan_data_32/FeatureServer/26","license":"Publicly accessible Wandsworth Borough Council statutory planning documents and Planning Local Plan Data service; layer-specific reuse licence not stated in the public service metadata","authority":"London Borough of Wandsworth","site_area_hectares":3.07,"site_allocation":"Safeguarding of station including Crossrail 2 surface works and mixed-use development including residential, commercial and other appropriate town centre uses","feature_service_layer_id":26,"feature_service_layer_name":"Site Specific Allocations","feature_service_spatial_reference_epsg":27700,"evidence_grade":"A","confidence_score_0_100":99,"evidence_scope":"exact adopted Wandsworth Local Plan site allocation CJ4 plus public Planning Local Plan Data polygon layer 26","evidence_slice_sha256":"3ba548d2d25c4c6e780fb60d11a1fdcb0f199108af454500f0fd948a7f694da5","fake_data":false,"spatial_binding_method":"official CJ4 statutory site-allocation identifier plus public Site Specific Allocations polygon layer 26; exact feature extraction, canonical parcel spatial join and materialization delegated to local OpenCode","planned_building_count_contribution":0}}]}
