{
  "type": "FeatureCollection",
  "name": "ONSDIGITAL_GEOSCRIPTS_LTLA25_EXACTID_ROWS_001_050",
  "features": [
    {
      "type": "Feature",
      "id": "E06000001",
      "geometry": null,
      "properties": {
        "slot_id": "gas_emissions_6",
        "lineage_id": "LOCAL-NEW-92271296-1318-4c0c-a293-d0d4ebc2d06b",
        "page_generation": 1,
        "semantic_mode": "AREA_JOIN",
        "partition": {
          "start": 76904,
          "end": 92283,
          "count": 15380
        },
        "evidence_scope": "coverage_area",
        "coverage_area_id": "E06000001",
        "coverage_area_name": "Hartlepool",
        "coverage_area_identifier_scheme": "ONS_GSS_LTLA25",
        "source_area_record": true,
        "accepted_parcel_record": false,
        "spatial_binding_method": "EXACT_OFFICIAL_IDENTIFIER",
        "source_row_cursor": 1,
        "source_url": "https://raw.githubusercontent.com/ONSdigital/geo-scripts/7ee374970b457a0e7d2228f96c63f078ab1825f3/output/lists/ltla25.csv",
        "final_url": "https://raw.githubusercontent.com/ONSdigital/geo-scripts/7ee374970b457a0e7d2228f96c63f078ab1825f3/output/lists/ltla25.csv",
        "source_access_utc": "2026-10-02T00:54:00Z",
        "source_blob_sha": "027bdb35137971def122ee4801bd36deda0b1000",
        "source_file_sha256": "839fc150dbf4c39af09218d4fb258f3f96f3c23cf361353192fddc358780f7e1",
        "field_evidence": {
          "areacd": "E06000001",
          "areanm": "Hartlepool"
        },
        "evidence_slice_sha256": "6e54f53e3587dde86b8c926662410c7d3501392e523c2a093719bfe6bb489a04",
        "confidence_score_0_100": 96,
        "evidence_grade": "A",
        "licence": "ONS Geography licensing terms / Open Government Licence v3.0",
        "licence_evidence_url": "https://www.ons.gov.uk/methodology/geography/licences",
        "fake_data": false,
        "local_spatial_join_status": "DEFERRED_TO_LOCAL_OPENCODE"
      }
    },
    {
      "type": "Feature",
      "id": "E06000002",
      "geometry": null,
      "properties": {
        "slot_id": "gas_emissions_6",
        "lineage_id": "LOCAL-NEW-92271296-1318-4c0c-a293-d0d4ebc2d06b",
        "page_generation": 1,
        "semantic_mode": "AREA_JOIN",
        "partition": {
          "start": 76904,
          "end": 92283,
          "count": 15380
        },
        "evidence_scope": "coverage_area",
        "coverage_area_id": "E06000002",
        "coverage_area_name": "Middlesbrough",
        "coverage_area_identifier_scheme": "ONS_GSS_LTLA25",
        "source_area_record": true,
        "accepted_parcel_record": false,
        "spatial_binding_method": "EXACT_OFFICIAL_IDENTIFIER",
        "source_row_cursor": 2,
        "source_url": "https://raw.githubusercontent.com/ONSdigital/geo-scripts/7ee374970b457a0e7d2228f96c63f078ab1825f3/output/lists/ltla25.csv",
        "final_url": "https://raw.githubusercontent.com/ONSdigital/geo-scripts/7ee374970b457a0e7d2228f96c63f078ab1825f3/output/lists/ltla25.csv",
        "source_access_utc": "2026-10-02T00:54:00Z",
        "source_blob_sha": "027bdb35137971def122ee4801bd36deda0b1000",
        "source_file_sha256": "839fc150dbf4c39af09218d4fb258f3f96f3c23cf361353192fddc358780f7e1",
        "field_evidence": {
          "areacd": "E06000002",
          "areanm": "Middlesbrough"
        },
        "evidence_slice_sha256": "6e54f53e3587dde86b8c926662410c7d3501392e523c2a093719bfe6bb489a04",
        "confidence_score_0_100": 96,
        "evidence_grade": "A",
        "licence": "ONS Geography licensing terms / Open Government Licence v3.0",
        "licence_evidence_url": "https://www.ons.gov.uk/methodology/geography/licences",
        "fake_data": false,
        "local_spatial_join_status": "DEFERRED_TO_LOCAL_OPENCODE"
      }
    },
    {
      "type": "Feature",
      "id": "E06000003",
      "geometry": null,
      "properties": {
        "slot_id": "gas_emissions_6",
        "lineage_id": "LOCAL-NEW-92271296-1318-4c0c-a293-d0d4ebc2d06b",
        "page_generation": 1,
        "semantic_mode": "AREA_JOIN",
        "partition": {
          "start": 76904,
          "end": 92283,
          "count": 15380
        },
        "evidence_scope": "coverage_area",
        "coverage_area_id": "E06000003",
        "coverage_area_name": "Redcar and Cleveland",
        "coverage_area_identifier_scheme": "ONS_GSS_LTLA25",
        "source_area_record": true,
        "accepted_parcel_record": false,
        "spatial_binding_method": "EXACT_OFFICIAL_IDENTIFIER",
        "source_row_cursor": 3,
        "source_url": "https://raw.githubusercontent.com/ONSdigital/geo-scripts/7ee374970b457a0e7d2228f96c63f078ab1825f3/output/lists/ltla25.csv",
        "final_url": "https://raw.githubusercontent.com/ONSdigital/geo-scripts/7ee374970b457a0e7d2228f96c63f078ab1825f3/output/lists/ltla25.csv",
        "source_access_utc": "2026-10-02T00:54:00Z",
        "source_blob_sha": "027bdb35137971def122ee4801bd36deda0b1000",
        "source_file_sha256": "839fc150dbf4c39af09218d4fb258f3f96f3c23cf361353192fddc358780f7e1",
        "field_evidence": {
          "areacd": "E06000003",
          "areanm": "Redcar and Cleveland"
        },
        "evidence_slice_sha256": "6e54f53e3587dde86b8c926662410c7d3501392e523c2a093719bfe6bb489a04",
        "confidence_score_0_100": 96,
        "evidence_grade": "A",
        "licence": "ONS Geography licensing terms / Open Government Licence v3.0",
        "licence_evidence_url": "https://www.ons.gov.uk/methodology/geography/licences",
        "fake_data": false,
        "local_spatial_join_status": "DEFERRED_TO_LOCAL_OPENCODE"
      }
    },
    {
      "type": "Feature",
      "id": "E06000004",
      "geometry": null,
      "properties": {
        "slot_id": "gas_emissions_6",
        "lineage_id": "LOCAL-NEW-92271296-1318-4c0c-a293-d0d4ebc2d06b",
        "page_generation": 1,
        "semantic_mode": "AREA_JOIN",
        "partition": {
          "start": 76904,
          "end": 92283,
          "count": 15380
        },
        "evidence_scope": "coverage_area",
        "coverage_area_id": "E06000004",
        "coverage_area_name": "Stockton-on-Tees",
        "coverage_area_identifier_scheme": "ONS_GSS_LTLA25",
        "source_area_record": true,
        "accepted_parcel_record": false,
        "spatial_binding_method": "EXACT_OFFICIAL_IDENTIFIER",
        "source_row_cursor": 4,
        "source_url": "https://raw.githubusercontent.com/ONSdigital/geo-scripts/7ee374970b457a0e7d2228f96c63f078ab1825f3/output/lists/ltla25.csv",
        "final_url": "https://raw.githubusercontent.com/ONSdigital/geo-scripts/7ee374970b457a0e7d2228f96c63f078ab1825f3/output/lists/ltla25.csv",
        "source_access_utc": "2026-10-02T00:54:00Z",
        "source_blob_sha": "027bdb35137971def122ee4801bd36deda0b1000",
        "source_file_sha256": "839fc150dbf4c39af09218d4fb258f3f96f3c23cf361353192fddc358780f7e1",
        "field_evidence": {
          "areacd": "E06000004",
          "areanm": "Stockton-on-Tees"
        },
        "evidence_slice_sha256": "6e54f53e3587dde86b8c926662410c7d3501392e523c2a093719bfe6bb489a04",
        "confidence_score_0_100": 96,
        "evidence_grade": "A",
        "licence": "ONS Geography licensing terms / Open Government Licence v3.0",
        "licence_evidence_url": "https://www.ons.gov.uk/methodology/geography/licences",
        "fake_data": false,
        "local_spatial_join_status": "DEFERRED_TO_LOCAL_OPENCODE"
      }
    },
    {
      "type": "Feature",
      "id": "E06000005",
      "geometry": null,
      "properties": {
        "slot_id": "gas_emissions_6",
        "lineage_id": "LOCAL-NEW-92271296-1318-4c0c-a293-d0d4ebc2d06b",
        "page_generation": 1,
        "semantic_mode": "AREA_JOIN",
        "partition": {
          "start": 76904,
          "end": 92283,
          "count": 15380
        },
        "evidence_scope": "coverage_area",
        "coverage_area_id": "E06000005",
        "coverage_area_name": "Darlington",
        "coverage_area_identifier_scheme": "ONS_GSS_LTLA25",
        "source_area_record": true,
        "accepted_parcel_record": false,
        "spatial_binding_method": "EXACT_OFFICIAL_IDENTIFIER",
        "source_row_cursor": 5,
        "source_url": "https://raw.githubusercontent.com/ONSdigital/geo-scripts/7ee374970b457a0e7d2228f96c63f078ab1825f3/output/lists/ltla25.csv",
        "final_url": "https://raw.githubusercontent.com/ONSdigital/geo-scripts/7ee374970b457a0e7d2228f96c63f078ab1825f3/output/lists/ltla25.csv",
        "source_access_utc": "2026-10-02T00:54:00Z",
        "source_blob_sha": "027bdb35137971def122ee4801bd36deda0b1000",
        "source_file_sha256": "839fc150dbf4c39af09218d4fb258f3f96f3c23cf361353192fddc358780f7e1",
        "field_evidence": {
          "areacd": "E06000005",
          "areanm": "Darlington"
        },
        "evidence_slice_sha256": "6e54f53e3587dde86b8c926662410c7d3501392e523c2a093719bfe6bb489a04",
        "confidence_score_0_100": 96,
        "evidence_grade": "A",
        "licence": "ONS Geography licensing terms / Open Government Licence v3.0",
        "licence_evidence_url": "https://www.ons.gov.uk/methodology/geography/licences",
        "fake_data": false,
        "local_spatial_join_status": "DEFERRED_TO_LOCAL_OPENCODE"
      }
    },
    {
      "type": "Feature",
      "id": "E06000006",
      "geometry": null,
      "properties": {
        "slot_id": "gas_emissions_6",
        "lineage_id": "LOCAL-NEW-92271296-1318-4c0c-a293-d0d4ebc2d06b",
        "page_generation": 1,
        "semantic_mode": "AREA_JOIN",
        "partition": {
          "start": 76904,
          "end": 92283,
          "count": 15380
        },
        "evidence_scope": "coverage_area",
        "coverage_area_id": "E06000006",
        "coverage_area_name": "Halton",
        "coverage_area_identifier_scheme": "ONS_GSS_LTLA25",
        "source_area_record": true,
        "accepted_parcel_record": false,
        "spatial_binding_method": "EXACT_OFFICIAL_IDENTIFIER",
        "source_row_cursor": 6,
        "source_url": "https://raw.githubusercontent.com/ONSdigital/geo-scripts/7ee374970b457a0e7d2228f96c63f078ab1825f3/output/lists/ltla25.csv",
        "final_url": "https://raw.githubusercontent.com/ONSdigital/geo-scripts/7ee374970b457a0e7d2228f96c63f078ab1825f3/output/lists/ltla25.csv",
        "source_access_utc": "2026-10-02T00:54:00Z",
        "source_blob_sha": "027bdb35137971def122ee4801bd36deda0b1000",
        "source_file_sha256": "839fc150dbf4c39af09218d4fb258f3f96f3c23cf361353192fddc358780f7e1",
        "field_evidence": {
          "areacd": "E06000006",
          "areanm": "Halton"
        },
        "evidence_slice_sha256": "6e54f53e3587dde86b8c926662410c7d3501392e523c2a093719bfe6bb489a04",
        "confidence_score_0_100": 96,
        "evidence_grade": "A",
        "licence": "ONS Geography licensing terms / Open Government Licence v3.0",
        "licence_evidence_url": "https://www.ons.gov.uk/methodology/geography/licences",
        "fake_data": false,
        "local_spatial_join_status": "DEFERRED_TO_LOCAL_OPENCODE"
      }
    },
    {
      "type": "Feature",
      "id": "E06000007",
      "geometry": null,
      "properties": {
        "slot_id": "gas_emissions_6",
        "lineage_id": "LOCAL-NEW-92271296-1318-4c0c-a293-d0d4ebc2d06b",
        "page_generation": 1,
        "semantic_mode": "AREA_JOIN",
        "partition": {
          "start": 76904,
          "end": 92283,
          "count": 15380
        },
        "evidence_scope": "coverage_area",
        "coverage_area_id": "E06000007",
        "coverage_area_name": "Warrington",
        "coverage_area_identifier_scheme": "ONS_GSS_LTLA25",
        "source_area_record": true,
        "accepted_parcel_record": false,
        "spatial_binding_method": "EXACT_OFFICIAL_IDENTIFIER",
        "source_row_cursor": 7,
        "source_url": "https://raw.githubusercontent.com/ONSdigital/geo-scripts/7ee374970b457a0e7d2228f96c63f078ab1825f3/output/lists/ltla25.csv",
        "final_url": "https://raw.githubusercontent.com/ONSdigital/geo-scripts/7ee374970b457a0e7d2228f96c63f078ab1825f3/output/lists/ltla25.csv",
        "source_access_utc": "2026-10-02T00:54:00Z",
        "source_blob_sha": "027bdb35137971def122ee4801bd36deda0b1000",
        "source_file_sha256": "839fc150dbf4c39af09218d4fb258f3f96f3c23cf361353192fddc358780f7e1",
        "field_evidence": {
          "areacd": "E06000007",
          "areanm": "Warrington"
        },
        "evidence_slice_sha256": "6e54f53e3587dde86b8c926662410c7d3501392e523c2a093719bfe6bb489a04",
        "confidence_score_0_100": 96,
        "evidence_grade": "A",
        "licence": "ONS Geography licensing terms / Open Government Licence v3.0",
        "licence_evidence_url": "https://www.ons.gov.uk/methodology/geography/licences",
        "fake_data": false,
        "local_spatial_join_status": "DEFERRED_TO_LOCAL_OPENCODE"
      }
    },
    {
      "type": "Feature",
      "id": "E06000008",
      "geometry": null,
      "properties": {
        "slot_id": "gas_emissions_6",
        "lineage_id": "LOCAL-NEW-92271296-1318-4c0c-a293-d0d4ebc2d06b",
        "page_generation": 1,
        "semantic_mode": "AREA_JOIN",
        "partition": {
          "start": 76904,
          "end": 92283,
          "count": 15380
        },
        "evidence_scope": "coverage_area",
        "coverage_area_id": "E06000008",
        "coverage_area_name": "Blackburn with Darwen",
        "coverage_area_identifier_scheme": "ONS_GSS_LTLA25",
        "source_area_record": true,
        "accepted_parcel_record": false,
        "spatial_binding_method": "EXACT_OFFICIAL_IDENTIFIER",
        "source_row_cursor": 8,
        "source_url": "https://raw.githubusercontent.com/ONSdigital/geo-scripts/7ee374970b457a0e7d2228f96c63f078ab1825f3/output/lists/ltla25.csv",
        "final_url": "https://raw.githubusercontent.com/ONSdigital/geo-scripts/7ee374970b457a0e7d2228f96c63f078ab1825f3/output/lists/ltla25.csv",
        "source_access_utc": "2026-10-02T00:54:00Z",
        "source_blob_sha": "027bdb35137971def122ee4801bd36deda0b1000",
        "source_file_sha256": "839fc150dbf4c39af09218d4fb258f3f96f3c23cf361353192fddc358780f7e1",
        "field_evidence": {
          "areacd": "E06000008",
          "areanm": "Blackburn with Darwen"
        },
        "evidence_slice_sha256": "6e54f53e3587dde86b8c926662410c7d3501392e523c2a093719bfe6bb489a04",
        "confidence_score_0_100": 96,
        "evidence_grade": "A",
        "licence": "ONS Geography licensing terms / Open Government Licence v3.0",
        "licence_evidence_url": "https://www.ons.gov.uk/methodology/geography/licences",
        "fake_data": false,
        "local_spatial_join_status": "DEFERRED_TO_LOCAL_OPENCODE"
      }
    },
    {
      "type": "Feature",
      "id": "E06000009",
      "geometry": null,
      "properties": {
        "slot_id": "gas_emissions_6",
        "lineage_id": "LOCAL-NEW-92271296-1318-4c0c-a293-d0d4ebc2d06b",
        "page_generation": 1,
        "semantic_mode": "AREA_JOIN",
        "partition": {
          "start": 76904,
          "end": 92283,
          "count": 15380
        },
        "evidence_scope": "coverage_area",
        "coverage_area_id": "E06000009",
        "coverage_area_name": "Blackpool",
        "coverage_area_identifier_scheme": "ONS_GSS_LTLA25",
        "source_area_record": true,
        "accepted_parcel_record": false,
        "spatial_binding_method": "EXACT_OFFICIAL_IDENTIFIER",
        "source_row_cursor": 9,
        "source_url": "https://raw.githubusercontent.com/ONSdigital/geo-scripts/7ee374970b457a0e7d2228f96c63f078ab1825f3/output/lists/ltla25.csv",
        "final_url": "https://raw.githubusercontent.com/ONSdigital/geo-scripts/7ee374970b457a0e7d2228f96c63f078ab1825f3/output/lists/ltla25.csv",
        "source_access_utc": "2026-10-02T00:54:00Z",
        "source_blob_sha": "027bdb35137971def122ee4801bd36deda0b1000",
        "source_file_sha256": "839fc150dbf4c39af09218d4fb258f3f96f3c23cf361353192fddc358780f7e1",
        "field_evidence": {
          "areacd": "E06000009",
          "areanm": "Blackpool"
        },
        "evidence_slice_sha256": "6e54f53e3587dde86b8c926662410c7d3501392e523c2a093719bfe6bb489a04",
        "confidence_score_0_100": 96,
        "evidence_grade": "A",
        "licence": "ONS Geography licensing terms / Open Government Licence v3.0",
        "licence_evidence_url": "https://www.ons.gov.uk/methodology/geography/licences",
        "fake_data": false,
        "local_spatial_join_status": "DEFERRED_TO_LOCAL_OPENCODE"
      }
    },
    {
      "type": "Feature",
      "id": "E06000010",
      "geometry": null,
      "properties": {
        "slot_id": "gas_emissions_6",
        "lineage_id": "LOCAL-NEW-92271296-1318-4c0c-a293-d0d4ebc2d06b",
        "page_generation": 1,
        "semantic_mode": "AREA_JOIN",
        "partition": {
          "start": 76904,
          "end": 92283,
          "count": 15380
        },
        "evidence_scope": "coverage_area",
        "coverage_area_id": "E06000010",
        "coverage_area_name": "\"Kingston upon Hull, City of\"",
        "coverage_area_identifier_scheme": "ONS_GSS_LTLA25",
        "source_area_record": true,
        "accepted_parcel_record": false,
        "spatial_binding_method": "EXACT_OFFICIAL_IDENTIFIER",
        "source_row_cursor": 10,
        "source_url": "https://raw.githubusercontent.com/ONSdigital/geo-scripts/7ee374970b457a0e7d2228f96c63f078ab1825f3/output/lists/ltla25.csv",
        "final_url": "https://raw.githubusercontent.com/ONSdigital/geo-scripts/7ee374970b457a0e7d2228f96c63f078ab1825f3/output/lists/ltla25.csv",
        "source_access_utc": "2026-10-02T00:54:00Z",
        "source_blob_sha": "027bdb35137971def122ee4801bd36deda0b1000",
        "source_file_sha256": "839fc150dbf4c39af09218d4fb258f3f96f3c23cf361353192fddc358780f7e1",
        "field_evidence": {
          "areacd": "E06000010",
          "areanm": "\"Kingston upon Hull, City of\""
        },
        "evidence_slice_sha256": "6e54f53e3587dde86b8c926662410c7d3501392e523c2a093719bfe6bb489a04",
        "confidence_score_0_100": 96,
        "evidence_grade": "A",
        "licence": "ONS Geography licensing terms / Open Government Licence v3.0",
        "licence_evidence_url": "https://www.ons.gov.uk/methodology/geography/licences",
        "fake_data": false,
        "local_spatial_join_status": "DEFERRED_TO_LOCAL_OPENCODE"
      }
    },
    {
      "type": "Feature",
      "id": "E06000011",
      "geometry": null,
      "properties": {
        "slot_id": "gas_emissions_6",
        "lineage_id": "LOCAL-NEW-92271296-1318-4c0c-a293-d0d4ebc2d06b",
        "page_generation": 1,
        "semantic_mode": "AREA_JOIN",
        "partition": {
          "start": 76904,
          "end": 92283,
          "count": 15380
        },
        "evidence_scope": "coverage_area",
        "coverage_area_id": "E06000011",
        "coverage_area_name": "East Riding of Yorkshire",
        "coverage_area_identifier_scheme": "ONS_GSS_LTLA25",
        "source_area_record": true,
        "accepted_parcel_record": false,
        "spatial_binding_method": "EXACT_OFFICIAL_IDENTIFIER",
        "source_row_cursor": 11,
        "source_url": "https://raw.githubusercontent.com/ONSdigital/geo-scripts/7ee374970b457a0e7d2228f96c63f078ab1825f3/output/lists/ltla25.csv",
        "final_url": "https://raw.githubusercontent.com/ONSdigital/geo-scripts/7ee374970b457a0e7d2228f96c63f078ab1825f3/output/lists/ltla25.csv",
        "source_access_utc": "2026-10-02T00:54:00Z",
        "source_blob_sha": "027bdb35137971def122ee4801bd36deda0b1000",
        "source_file_sha256": "839fc150dbf4c39af09218d4fb258f3f96f3c23cf361353192fddc358780f7e1",
        "field_evidence": {
          "areacd": "E06000011",
          "areanm": "East Riding of Yorkshire"
        },
        "evidence_slice_sha256": "6e54f53e3587dde86b8c926662410c7d3501392e523c2a093719bfe6bb489a04",
        "confidence_score_0_100": 96,
        "evidence_grade": "A",
        "licence": "ONS Geography licensing terms / Open Government Licence v3.0",
        "licence_evidence_url": "https://www.ons.gov.uk/methodology/geography/licences",
        "fake_data": false,
        "local_spatial_join_status": "DEFERRED_TO_LOCAL_OPENCODE"
      }
    },
    {
      "type": "Feature",
      "id": "E06000012",
      "geometry": null,
      "properties": {
        "slot_id": "gas_emissions_6",
        "lineage_id": "LOCAL-NEW-92271296-1318-4c0c-a293-d0d4ebc2d06b",
        "page_generation": 1,
        "semantic_mode": "AREA_JOIN",
        "partition": {
          "start": 76904,
          "end": 92283,
          "count": 15380
        },
        "evidence_scope": "coverage_area",
        "coverage_area_id": "E06000012",
        "coverage_area_name": "North East Lincolnshire",
        "coverage_area_identifier_scheme": "ONS_GSS_LTLA25",
        "source_area_record": true,
        "accepted_parcel_record": false,
        "spatial_binding_method": "EXACT_OFFICIAL_IDENTIFIER",
        "source_row_cursor": 12,
        "source_url": "https://raw.githubusercontent.com/ONSdigital/geo-scripts/7ee374970b457a0e7d2228f96c63f078ab1825f3/output/lists/ltla25.csv",
        "final_url": "https://raw.githubusercontent.com/ONSdigital/geo-scripts/7ee374970b457a0e7d2228f96c63f078ab1825f3/output/lists/ltla25.csv",
        "source_access_utc": "2026-10-02T00:54:00Z",
        "source_blob_sha": "027bdb35137971def122ee4801bd36deda0b1000",
        "source_file_sha256": "839fc150dbf4c39af09218d4fb258f3f96f3c23cf361353192fddc358780f7e1",
        "field_evidence": {
          "areacd": "E06000012",
          "areanm": "North East Lincolnshire"
        },
        "evidence_slice_sha256": "6e54f53e3587dde86b8c926662410c7d3501392e523c2a093719bfe6bb489a04",
        "confidence_score_0_100": 96,
        "evidence_grade": "A",
        "licence": "ONS Geography licensing terms / Open Government Licence v3.0",
        "licence_evidence_url": "https://www.ons.gov.uk/methodology/geography/licences",
        "fake_data": false,
        "local_spatial_join_status": "DEFERRED_TO_LOCAL_OPENCODE"
      }
    },
    {
      "type": "Feature",
      "id": "E06000013",
      "geometry": null,
      "properties": {
        "slot_id": "gas_emissions_6",
        "lineage_id": "LOCAL-NEW-92271296-1318-4c0c-a293-d0d4ebc2d06b",
        "page_generation": 1,
        "semantic_mode": "AREA_JOIN",
        "partition": {
          "start": 76904,
          "end": 92283,
          "count": 15380
        },
        "evidence_scope": "coverage_area",
        "coverage_area_id": "E06000013",
        "coverage_area_name": "North Lincolnshire",
        "coverage_area_identifier_scheme": "ONS_GSS_LTLA25",
        "source_area_record": true,
        "accepted_parcel_record": false,
        "spatial_binding_method": "EXACT_OFFICIAL_IDENTIFIER",
        "source_row_cursor": 13,
        "source_url": "https://raw.githubusercontent.com/ONSdigital/geo-scripts/7ee374970b457a0e7d2228f96c63f078ab1825f3/output/lists/ltla25.csv",
        "final_url": "https://raw.githubusercontent.com/ONSdigital/geo-scripts/7ee374970b457a0e7d2228f96c63f078ab1825f3/output/lists/ltla25.csv",
        "source_access_utc": "2026-10-02T00:54:00Z",
        "source_blob_sha": "027bdb35137971def122ee4801bd36deda0b1000",
        "source_file_sha256": "839fc150dbf4c39af09218d4fb258f3f96f3c23cf361353192fddc358780f7e1",
        "field_evidence": {
          "areacd": "E06000013",
          "areanm": "North Lincolnshire"
        },
        "evidence_slice_sha256": "6e54f53e3587dde86b8c926662410c7d3501392e523c2a093719bfe6bb489a04",
        "confidence_score_0_100": 96,
        "evidence_grade": "A",
        "licence": "ONS Geography licensing terms / Open Government Licence v3.0",
        "licence_evidence_url": "https://www.ons.gov.uk/methodology/geography/licences",
        "fake_data": false,
        "local_spatial_join_status": "DEFERRED_TO_LOCAL_OPENCODE"
      }
    },
    {
      "type": "Feature",
      "id": "E06000014",
      "geometry": null,
      "properties": {
        "slot_id": "gas_emissions_6",
        "lineage_id": "LOCAL-NEW-92271296-1318-4c0c-a293-d0d4ebc2d06b",
        "page_generation": 1,
        "semantic_mode": "AREA_JOIN",
        "partition": {
          "start": 76904,
          "end": 92283,
          "count": 15380
        },
        "evidence_scope": "coverage_area",
        "coverage_area_id": "E06000014",
        "coverage_area_name": "York",
        "coverage_area_identifier_scheme": "ONS_GSS_LTLA25",
        "source_area_record": true,
        "accepted_parcel_record": false,
        "spatial_binding_method": "EXACT_OFFICIAL_IDENTIFIER",
        "source_row_cursor": 14,
        "source_url": "https://raw.githubusercontent.com/ONSdigital/geo-scripts/7ee374970b457a0e7d2228f96c63f078ab1825f3/output/lists/ltla25.csv",
        "final_url": "https://raw.githubusercontent.com/ONSdigital/geo-scripts/7ee374970b457a0e7d2228f96c63f078ab1825f3/output/lists/ltla25.csv",
        "source_access_utc": "2026-10-02T00:54:00Z",
        "source_blob_sha": "027bdb35137971def122ee4801bd36deda0b1000",
        "source_file_sha256": "839fc150dbf4c39af09218d4fb258f3f96f3c23cf361353192fddc358780f7e1",
        "field_evidence": {
          "areacd": "E06000014",
          "areanm": "York"
        },
        "evidence_slice_sha256": "6e54f53e3587dde86b8c926662410c7d3501392e523c2a093719bfe6bb489a04",
        "confidence_score_0_100": 96,
        "evidence_grade": "A",
        "licence": "ONS Geography licensing terms / Open Government Licence v3.0",
        "licence_evidence_url": "https://www.ons.gov.uk/methodology/geography/licences",
        "fake_data": false,
        "local_spatial_join_status": "DEFERRED_TO_LOCAL_OPENCODE"
      }
    },
    {
      "type": "Feature",
      "id": "E06000015",
      "geometry": null,
      "properties": {
        "slot_id": "gas_emissions_6",
        "lineage_id": "LOCAL-NEW-92271296-1318-4c0c-a293-d0d4ebc2d06b",
        "page_generation": 1,
        "semantic_mode": "AREA_JOIN",
        "partition": {
          "start": 76904,
          "end": 92283,
          "count": 15380
        },
        "evidence_scope": "coverage_area",
        "coverage_area_id": "E06000015",
        "coverage_area_name": "Derby",
        "coverage_area_identifier_scheme": "ONS_GSS_LTLA25",
        "source_area_record": true,
        "accepted_parcel_record": false,
        "spatial_binding_method": "EXACT_OFFICIAL_IDENTIFIER",
        "source_row_cursor": 15,
        "source_url": "https://raw.githubusercontent.com/ONSdigital/geo-scripts/7ee374970b457a0e7d2228f96c63f078ab1825f3/output/lists/ltla25.csv",
        "final_url": "https://raw.githubusercontent.com/ONSdigital/geo-scripts/7ee374970b457a0e7d2228f96c63f078ab1825f3/output/lists/ltla25.csv",
        "source_access_utc": "2026-10-02T00:54:00Z",
        "source_blob_sha": "027bdb35137971def122ee4801bd36deda0b1000",
        "source_file_sha256": "839fc150dbf4c39af09218d4fb258f3f96f3c23cf361353192fddc358780f7e1",
        "field_evidence": {
          "areacd": "E06000015",
          "areanm": "Derby"
        },
        "evidence_slice_sha256": "6e54f53e3587dde86b8c926662410c7d3501392e523c2a093719bfe6bb489a04",
        "confidence_score_0_100": 96,
        "evidence_grade": "A",
        "licence": "ONS Geography licensing terms / Open Government Licence v3.0",
        "licence_evidence_url": "https://www.ons.gov.uk/methodology/geography/licences",
        "fake_data": false,
        "local_spatial_join_status": "DEFERRED_TO_LOCAL_OPENCODE"
      }
    },
    {
      "type": "Feature",
      "id": "E06000016",
      "geometry": null,
      "properties": {
        "slot_id": "gas_emissions_6",
        "lineage_id": "LOCAL-NEW-92271296-1318-4c0c-a293-d0d4ebc2d06b",
        "page_generation": 1,
        "semantic_mode": "AREA_JOIN",
        "partition": {
          "start": 76904,
          "end": 92283,
          "count": 15380
        },
        "evidence_scope": "coverage_area",
        "coverage_area_id": "E06000016",
        "coverage_area_name": "Leicester",
        "coverage_area_identifier_scheme": "ONS_GSS_LTLA25",
        "source_area_record": true,
        "accepted_parcel_record": false,
        "spatial_binding_method": "EXACT_OFFICIAL_IDENTIFIER",
        "source_row_cursor": 16,
        "source_url": "https://raw.githubusercontent.com/ONSdigital/geo-scripts/7ee374970b457a0e7d2228f96c63f078ab1825f3/output/lists/ltla25.csv",
        "final_url": "https://raw.githubusercontent.com/ONSdigital/geo-scripts/7ee374970b457a0e7d2228f96c63f078ab1825f3/output/lists/ltla25.csv",
        "source_access_utc": "2026-10-02T00:54:00Z",
        "source_blob_sha": "027bdb35137971def122ee4801bd36deda0b1000",
        "source_file_sha256": "839fc150dbf4c39af09218d4fb258f3f96f3c23cf361353192fddc358780f7e1",
        "field_evidence": {
          "areacd": "E06000016",
          "areanm": "Leicester"
        },
        "evidence_slice_sha256": "6e54f53e3587dde86b8c926662410c7d3501392e523c2a093719bfe6bb489a04",
        "confidence_score_0_100": 96,
        "evidence_grade": "A",
        "licence": "ONS Geography licensing terms / Open Government Licence v3.0",
        "licence_evidence_url": "https://www.ons.gov.uk/methodology/geography/licences",
        "fake_data": false,
        "local_spatial_join_status": "DEFERRED_TO_LOCAL_OPENCODE"
      }
    },
    {
      "type": "Feature",
      "id": "E06000017",
      "geometry": null,
      "properties": {
        "slot_id": "gas_emissions_6",
        "lineage_id": "LOCAL-NEW-92271296-1318-4c0c-a293-d0d4ebc2d06b",
        "page_generation": 1,
        "semantic_mode": "AREA_JOIN",
        "partition": {
          "start": 76904,
          "end": 92283,
          "count": 15380
        },
        "evidence_scope": "coverage_area",
        "coverage_area_id": "E06000017",
        "coverage_area_name": "Rutland",
        "coverage_area_identifier_scheme": "ONS_GSS_LTLA25",
        "source_area_record": true,
        "accepted_parcel_record": false,
        "spatial_binding_method": "EXACT_OFFICIAL_IDENTIFIER",
        "source_row_cursor": 17,
        "source_url": "https://raw.githubusercontent.com/ONSdigital/geo-scripts/7ee374970b457a0e7d2228f96c63f078ab1825f3/output/lists/ltla25.csv",
        "final_url": "https://raw.githubusercontent.com/ONSdigital/geo-scripts/7ee374970b457a0e7d2228f96c63f078ab1825f3/output/lists/ltla25.csv",
        "source_access_utc": "2026-10-02T00:54:00Z",
        "source_blob_sha": "027bdb35137971def122ee4801bd36deda0b1000",
        "source_file_sha256": "839fc150dbf4c39af09218d4fb258f3f96f3c23cf361353192fddc358780f7e1",
        "field_evidence": {
          "areacd": "E06000017",
          "areanm": "Rutland"
        },
        "evidence_slice_sha256": "6e54f53e3587dde86b8c926662410c7d3501392e523c2a093719bfe6bb489a04",
        "confidence_score_0_100": 96,
        "evidence_grade": "A",
        "licence": "ONS Geography licensing terms / Open Government Licence v3.0",
        "licence_evidence_url": "https://www.ons.gov.uk/methodology/geography/licences",
        "fake_data": false,
        "local_spatial_join_status": "DEFERRED_TO_LOCAL_OPENCODE"
      }
    },
    {
      "type": "Feature",
      "id": "E06000018",
      "geometry": null,
      "properties": {
        "slot_id": "gas_emissions_6",
        "lineage_id": "LOCAL-NEW-92271296-1318-4c0c-a293-d0d4ebc2d06b",
        "page_generation": 1,
        "semantic_mode": "AREA_JOIN",
        "partition": {
          "start": 76904,
          "end": 92283,
          "count": 15380
        },
        "evidence_scope": "coverage_area",
        "coverage_area_id": "E06000018",
        "coverage_area_name": "Nottingham",
        "coverage_area_identifier_scheme": "ONS_GSS_LTLA25",
        "source_area_record": true,
        "accepted_parcel_record": false,
        "spatial_binding_method": "EXACT_OFFICIAL_IDENTIFIER",
        "source_row_cursor": 18,
        "source_url": "https://raw.githubusercontent.com/ONSdigital/geo-scripts/7ee374970b457a0e7d2228f96c63f078ab1825f3/output/lists/ltla25.csv",
        "final_url": "https://raw.githubusercontent.com/ONSdigital/geo-scripts/7ee374970b457a0e7d2228f96c63f078ab1825f3/output/lists/ltla25.csv",
        "source_access_utc": "2026-10-02T00:54:00Z",
        "source_blob_sha": "027bdb35137971def122ee4801bd36deda0b1000",
        "source_file_sha256": "839fc150dbf4c39af09218d4fb258f3f96f3c23cf361353192fddc358780f7e1",
        "field_evidence": {
          "areacd": "E06000018",
          "areanm": "Nottingham"
        },
        "evidence_slice_sha256": "6e54f53e3587dde86b8c926662410c7d3501392e523c2a093719bfe6bb489a04",
        "confidence_score_0_100": 96,
        "evidence_grade": "A",
        "licence": "ONS Geography licensing terms / Open Government Licence v3.0",
        "licence_evidence_url": "https://www.ons.gov.uk/methodology/geography/licences",
        "fake_data": false,
        "local_spatial_join_status": "DEFERRED_TO_LOCAL_OPENCODE"
      }
    },
    {
      "type": "Feature",
      "id": "E06000019",
      "geometry": null,
      "properties": {
        "slot_id": "gas_emissions_6",
        "lineage_id": "LOCAL-NEW-92271296-1318-4c0c-a293-d0d4ebc2d06b",
        "page_generation": 1,
        "semantic_mode": "AREA_JOIN",
        "partition": {
          "start": 76904,
          "end": 92283,
          "count": 15380
        },
        "evidence_scope": "coverage_area",
        "coverage_area_id": "E06000019",
        "coverage_area_name": "\"Herefordshire, County of\"",
        "coverage_area_identifier_scheme": "ONS_GSS_LTLA25",
        "source_area_record": true,
        "accepted_parcel_record": false,
        "spatial_binding_method": "EXACT_OFFICIAL_IDENTIFIER",
        "source_row_cursor": 19,
        "source_url": "https://raw.githubusercontent.com/ONSdigital/geo-scripts/7ee374970b457a0e7d2228f96c63f078ab1825f3/output/lists/ltla25.csv",
        "final_url": "https://raw.githubusercontent.com/ONSdigital/geo-scripts/7ee374970b457a0e7d2228f96c63f078ab1825f3/output/lists/ltla25.csv",
        "source_access_utc": "2026-10-02T00:54:00Z",
        "source_blob_sha": "027bdb35137971def122ee4801bd36deda0b1000",
        "source_file_sha256": "839fc150dbf4c39af09218d4fb258f3f96f3c23cf361353192fddc358780f7e1",
        "field_evidence": {
          "areacd": "E06000019",
          "areanm": "\"Herefordshire, County of\""
        },
        "evidence_slice_sha256": "6e54f53e3587dde86b8c926662410c7d3501392e523c2a093719bfe6bb489a04",
        "confidence_score_0_100": 96,
        "evidence_grade": "A",
        "licence": "ONS Geography licensing terms / Open Government Licence v3.0",
        "licence_evidence_url": "https://www.ons.gov.uk/methodology/geography/licences",
        "fake_data": false,
        "local_spatial_join_status": "DEFERRED_TO_LOCAL_OPENCODE"
      }
    },
    {
      "type": "Feature",
      "id": "E06000020",
      "geometry": null,
      "properties": {
        "slot_id": "gas_emissions_6",
        "lineage_id": "LOCAL-NEW-92271296-1318-4c0c-a293-d0d4ebc2d06b",
        "page_generation": 1,
        "semantic_mode": "AREA_JOIN",
        "partition": {
          "start": 76904,
          "end": 92283,
          "count": 15380
        },
        "evidence_scope": "coverage_area",
        "coverage_area_id": "E06000020",
        "coverage_area_name": "Telford and Wrekin",
        "coverage_area_identifier_scheme": "ONS_GSS_LTLA25",
        "source_area_record": true,
        "accepted_parcel_record": false,
        "spatial_binding_method": "EXACT_OFFICIAL_IDENTIFIER",
        "source_row_cursor": 20,
        "source_url": "https://raw.githubusercontent.com/ONSdigital/geo-scripts/7ee374970b457a0e7d2228f96c63f078ab1825f3/output/lists/ltla25.csv",
        "final_url": "https://raw.githubusercontent.com/ONSdigital/geo-scripts/7ee374970b457a0e7d2228f96c63f078ab1825f3/output/lists/ltla25.csv",
        "source_access_utc": "2026-10-02T00:54:00Z",
        "source_blob_sha": "027bdb35137971def122ee4801bd36deda0b1000",
        "source_file_sha256": "839fc150dbf4c39af09218d4fb258f3f96f3c23cf361353192fddc358780f7e1",
        "field_evidence": {
          "areacd": "E06000020",
          "areanm": "Telford and Wrekin"
        },
        "evidence_slice_sha256": "6e54f53e3587dde86b8c926662410c7d3501392e523c2a093719bfe6bb489a04",
        "confidence_score_0_100": 96,
        "evidence_grade": "A",
        "licence": "ONS Geography licensing terms / Open Government Licence v3.0",
        "licence_evidence_url": "https://www.ons.gov.uk/methodology/geography/licences",
        "fake_data": false,
        "local_spatial_join_status": "DEFERRED_TO_LOCAL_OPENCODE"
      }
    },
    {
      "type": "Feature",
      "id": "E06000021",
      "geometry": null,
      "properties": {
        "slot_id": "gas_emissions_6",
        "lineage_id": "LOCAL-NEW-92271296-1318-4c0c-a293-d0d4ebc2d06b",
        "page_generation": 1,
        "semantic_mode": "AREA_JOIN",
        "partition": {
          "start": 76904,
          "end": 92283,
          "count": 15380
        },
        "evidence_scope": "coverage_area",
        "coverage_area_id": "E06000021",
        "coverage_area_name": "Stoke-on-Trent",
        "coverage_area_identifier_scheme": "ONS_GSS_LTLA25",
        "source_area_record": true,
        "accepted_parcel_record": false,
        "spatial_binding_method": "EXACT_OFFICIAL_IDENTIFIER",
        "source_row_cursor": 21,
        "source_url": "https://raw.githubusercontent.com/ONSdigital/geo-scripts/7ee374970b457a0e7d2228f96c63f078ab1825f3/output/lists/ltla25.csv",
        "final_url": "https://raw.githubusercontent.com/ONSdigital/geo-scripts/7ee374970b457a0e7d2228f96c63f078ab1825f3/output/lists/ltla25.csv",
        "source_access_utc": "2026-10-02T00:54:00Z",
        "source_blob_sha": "027bdb35137971def122ee4801bd36deda0b1000",
        "source_file_sha256": "839fc150dbf4c39af09218d4fb258f3f96f3c23cf361353192fddc358780f7e1",
        "field_evidence": {
          "areacd": "E06000021",
          "areanm": "Stoke-on-Trent"
        },
        "evidence_slice_sha256": "6e54f53e3587dde86b8c926662410c7d3501392e523c2a093719bfe6bb489a04",
        "confidence_score_0_100": 96,
        "evidence_grade": "A",
        "licence": "ONS Geography licensing terms / Open Government Licence v3.0",
        "licence_evidence_url": "https://www.ons.gov.uk/methodology/geography/licences",
        "fake_data": false,
        "local_spatial_join_status": "DEFERRED_TO_LOCAL_OPENCODE"
      }
    },
    {
      "type": "Feature",
      "id": "E06000022",
      "geometry": null,
      "properties": {
        "slot_id": "gas_emissions_6",
        "lineage_id": "LOCAL-NEW-92271296-1318-4c0c-a293-d0d4ebc2d06b",
        "page_generation": 1,
        "semantic_mode": "AREA_JOIN",
        "partition": {
          "start": 76904,
          "end": 92283,
          "count": 15380
        },
        "evidence_scope": "coverage_area",
        "coverage_area_id": "E06000022",
        "coverage_area_name": "Bath and North East Somerset",
        "coverage_area_identifier_scheme": "ONS_GSS_LTLA25",
        "source_area_record": true,
        "accepted_parcel_record": false,
        "spatial_binding_method": "EXACT_OFFICIAL_IDENTIFIER",
        "source_row_cursor": 22,
        "source_url": "https://raw.githubusercontent.com/ONSdigital/geo-scripts/7ee374970b457a0e7d2228f96c63f078ab1825f3/output/lists/ltla25.csv",
        "final_url": "https://raw.githubusercontent.com/ONSdigital/geo-scripts/7ee374970b457a0e7d2228f96c63f078ab1825f3/output/lists/ltla25.csv",
        "source_access_utc": "2026-10-02T00:54:00Z",
        "source_blob_sha": "027bdb35137971def122ee4801bd36deda0b1000",
        "source_file_sha256": "839fc150dbf4c39af09218d4fb258f3f96f3c23cf361353192fddc358780f7e1",
        "field_evidence": {
          "areacd": "E06000022",
          "areanm": "Bath and North East Somerset"
        },
        "evidence_slice_sha256": "6e54f53e3587dde86b8c926662410c7d3501392e523c2a093719bfe6bb489a04",
        "confidence_score_0_100": 96,
        "evidence_grade": "A",
        "licence": "ONS Geography licensing terms / Open Government Licence v3.0",
        "licence_evidence_url": "https://www.ons.gov.uk/methodology/geography/licences",
        "fake_data": false,
        "local_spatial_join_status": "DEFERRED_TO_LOCAL_OPENCODE"
      }
    },
    {
      "type": "Feature",
      "id": "E06000023",
      "geometry": null,
      "properties": {
        "slot_id": "gas_emissions_6",
        "lineage_id": "LOCAL-NEW-92271296-1318-4c0c-a293-d0d4ebc2d06b",
        "page_generation": 1,
        "semantic_mode": "AREA_JOIN",
        "partition": {
          "start": 76904,
          "end": 92283,
          "count": 15380
        },
        "evidence_scope": "coverage_area",
        "coverage_area_id": "E06000023",
        "coverage_area_name": "\"Bristol, City of\"",
        "coverage_area_identifier_scheme": "ONS_GSS_LTLA25",
        "source_area_record": true,
        "accepted_parcel_record": false,
        "spatial_binding_method": "EXACT_OFFICIAL_IDENTIFIER",
        "source_row_cursor": 23,
        "source_url": "https://raw.githubusercontent.com/ONSdigital/geo-scripts/7ee374970b457a0e7d2228f96c63f078ab1825f3/output/lists/ltla25.csv",
        "final_url": "https://raw.githubusercontent.com/ONSdigital/geo-scripts/7ee374970b457a0e7d2228f96c63f078ab1825f3/output/lists/ltla25.csv",
        "source_access_utc": "2026-10-02T00:54:00Z",
        "source_blob_sha": "027bdb35137971def122ee4801bd36deda0b1000",
        "source_file_sha256": "839fc150dbf4c39af09218d4fb258f3f96f3c23cf361353192fddc358780f7e1",
        "field_evidence": {
          "areacd": "E06000023",
          "areanm": "\"Bristol, City of\""
        },
        "evidence_slice_sha256": "6e54f53e3587dde86b8c926662410c7d3501392e523c2a093719bfe6bb489a04",
        "confidence_score_0_100": 96,
        "evidence_grade": "A",
        "licence": "ONS Geography licensing terms / Open Government Licence v3.0",
        "licence_evidence_url": "https://www.ons.gov.uk/methodology/geography/licences",
        "fake_data": false,
        "local_spatial_join_status": "DEFERRED_TO_LOCAL_OPENCODE"
      }
    },
    {
      "type": "Feature",
      "id": "E06000024",
      "geometry": null,
      "properties": {
        "slot_id": "gas_emissions_6",
        "lineage_id": "LOCAL-NEW-92271296-1318-4c0c-a293-d0d4ebc2d06b",
        "page_generation": 1,
        "semantic_mode": "AREA_JOIN",
        "partition": {
          "start": 76904,
          "end": 92283,
          "count": 15380
        },
        "evidence_scope": "coverage_area",
        "coverage_area_id": "E06000024",
        "coverage_area_name": "North Somerset",
        "coverage_area_identifier_scheme": "ONS_GSS_LTLA25",
        "source_area_record": true,
        "accepted_parcel_record": false,
        "spatial_binding_method": "EXACT_OFFICIAL_IDENTIFIER",
        "source_row_cursor": 24,
        "source_url": "https://raw.githubusercontent.com/ONSdigital/geo-scripts/7ee374970b457a0e7d2228f96c63f078ab1825f3/output/lists/ltla25.csv",
        "final_url": "https://raw.githubusercontent.com/ONSdigital/geo-scripts/7ee374970b457a0e7d2228f96c63f078ab1825f3/output/lists/ltla25.csv",
        "source_access_utc": "2026-10-02T00:54:00Z",
        "source_blob_sha": "027bdb35137971def122ee4801bd36deda0b1000",
        "source_file_sha256": "839fc150dbf4c39af09218d4fb258f3f96f3c23cf361353192fddc358780f7e1",
        "field_evidence": {
          "areacd": "E06000024",
          "areanm": "North Somerset"
        },
        "evidence_slice_sha256": "6e54f53e3587dde86b8c926662410c7d3501392e523c2a093719bfe6bb489a04",
        "confidence_score_0_100": 96,
        "evidence_grade": "A",
        "licence": "ONS Geography licensing terms / Open Government Licence v3.0",
        "licence_evidence_url": "https://www.ons.gov.uk/methodology/geography/licences",
        "fake_data": false,
        "local_spatial_join_status": "DEFERRED_TO_LOCAL_OPENCODE"
      }
    },
    {
      "type": "Feature",
      "id": "E06000025",
      "geometry": null,
      "properties": {
        "slot_id": "gas_emissions_6",
        "lineage_id": "LOCAL-NEW-92271296-1318-4c0c-a293-d0d4ebc2d06b",
        "page_generation": 1,
        "semantic_mode": "AREA_JOIN",
        "partition": {
          "start": 76904,
          "end": 92283,
          "count": 15380
        },
        "evidence_scope": "coverage_area",
        "coverage_area_id": "E06000025",
        "coverage_area_name": "South Gloucestershire",
        "coverage_area_identifier_scheme": "ONS_GSS_LTLA25",
        "source_area_record": true,
        "accepted_parcel_record": false,
        "spatial_binding_method": "EXACT_OFFICIAL_IDENTIFIER",
        "source_row_cursor": 25,
        "source_url": "https://raw.githubusercontent.com/ONSdigital/geo-scripts/7ee374970b457a0e7d2228f96c63f078ab1825f3/output/lists/ltla25.csv",
        "final_url": "https://raw.githubusercontent.com/ONSdigital/geo-scripts/7ee374970b457a0e7d2228f96c63f078ab1825f3/output/lists/ltla25.csv",
        "source_access_utc": "2026-10-02T00:54:00Z",
        "source_blob_sha": "027bdb35137971def122ee4801bd36deda0b1000",
        "source_file_sha256": "839fc150dbf4c39af09218d4fb258f3f96f3c23cf361353192fddc358780f7e1",
        "field_evidence": {
          "areacd": "E06000025",
          "areanm": "South Gloucestershire"
        },
        "evidence_slice_sha256": "6e54f53e3587dde86b8c926662410c7d3501392e523c2a093719bfe6bb489a04",
        "confidence_score_0_100": 96,
        "evidence_grade": "A",
        "licence": "ONS Geography licensing terms / Open Government Licence v3.0",
        "licence_evidence_url": "https://www.ons.gov.uk/methodology/geography/licences",
        "fake_data": false,
        "local_spatial_join_status": "DEFERRED_TO_LOCAL_OPENCODE"
      }
    },
    {
      "type": "Feature",
      "id": "E06000026",
      "geometry": null,
      "properties": {
        "slot_id": "gas_emissions_6",
        "lineage_id": "LOCAL-NEW-92271296-1318-4c0c-a293-d0d4ebc2d06b",
        "page_generation": 1,
        "semantic_mode": "AREA_JOIN",
        "partition": {
          "start": 76904,
          "end": 92283,
          "count": 15380
        },
        "evidence_scope": "coverage_area",
        "coverage_area_id": "E06000026",
        "coverage_area_name": "Plymouth",
        "coverage_area_identifier_scheme": "ONS_GSS_LTLA25",
        "source_area_record": true,
        "accepted_parcel_record": false,
        "spatial_binding_method": "EXACT_OFFICIAL_IDENTIFIER",
        "source_row_cursor": 26,
        "source_url": "https://raw.githubusercontent.com/ONSdigital/geo-scripts/7ee374970b457a0e7d2228f96c63f078ab1825f3/output/lists/ltla25.csv",
        "final_url": "https://raw.githubusercontent.com/ONSdigital/geo-scripts/7ee374970b457a0e7d2228f96c63f078ab1825f3/output/lists/ltla25.csv",
        "source_access_utc": "2026-10-02T00:54:00Z",
        "source_blob_sha": "027bdb35137971def122ee4801bd36deda0b1000",
        "source_file_sha256": "839fc150dbf4c39af09218d4fb258f3f96f3c23cf361353192fddc358780f7e1",
        "field_evidence": {
          "areacd": "E06000026",
          "areanm": "Plymouth"
        },
        "evidence_slice_sha256": "6e54f53e3587dde86b8c926662410c7d3501392e523c2a093719bfe6bb489a04",
        "confidence_score_0_100": 96,
        "evidence_grade": "A",
        "licence": "ONS Geography licensing terms / Open Government Licence v3.0",
        "licence_evidence_url": "https://www.ons.gov.uk/methodology/geography/licences",
        "fake_data": false,
        "local_spatial_join_status": "DEFERRED_TO_LOCAL_OPENCODE"
      }
    },
    {
      "type": "Feature",
      "id": "E06000027",
      "geometry": null,
      "properties": {
        "slot_id": "gas_emissions_6",
        "lineage_id": "LOCAL-NEW-92271296-1318-4c0c-a293-d0d4ebc2d06b",
        "page_generation": 1,
        "semantic_mode": "AREA_JOIN",
        "partition": {
          "start": 76904,
          "end": 92283,
          "count": 15380
        },
        "evidence_scope": "coverage_area",
        "coverage_area_id": "E06000027",
        "coverage_area_name": "Torbay",
        "coverage_area_identifier_scheme": "ONS_GSS_LTLA25",
        "source_area_record": true,
        "accepted_parcel_record": false,
        "spatial_binding_method": "EXACT_OFFICIAL_IDENTIFIER",
        "source_row_cursor": 27,
        "source_url": "https://raw.githubusercontent.com/ONSdigital/geo-scripts/7ee374970b457a0e7d2228f96c63f078ab1825f3/output/lists/ltla25.csv",
        "final_url": "https://raw.githubusercontent.com/ONSdigital/geo-scripts/7ee374970b457a0e7d2228f96c63f078ab1825f3/output/lists/ltla25.csv",
        "source_access_utc": "2026-10-02T00:54:00Z",
        "source_blob_sha": "027bdb35137971def122ee4801bd36deda0b1000",
        "source_file_sha256": "839fc150dbf4c39af09218d4fb258f3f96f3c23cf361353192fddc358780f7e1",
        "field_evidence": {
          "areacd": "E06000027",
          "areanm": "Torbay"
        },
        "evidence_slice_sha256": "6e54f53e3587dde86b8c926662410c7d3501392e523c2a093719bfe6bb489a04",
        "confidence_score_0_100": 96,
        "evidence_grade": "A",
        "licence": "ONS Geography licensing terms / Open Government Licence v3.0",
        "licence_evidence_url": "https://www.ons.gov.uk/methodology/geography/licences",
        "fake_data": false,
        "local_spatial_join_status": "DEFERRED_TO_LOCAL_OPENCODE"
      }
    },
    {
      "type": "Feature",
      "id": "E06000030",
      "geometry": null,
      "properties": {
        "slot_id": "gas_emissions_6",
        "lineage_id": "LOCAL-NEW-92271296-1318-4c0c-a293-d0d4ebc2d06b",
        "page_generation": 1,
        "semantic_mode": "AREA_JOIN",
        "partition": {
          "start": 76904,
          "end": 92283,
          "count": 15380
        },
        "evidence_scope": "coverage_area",
        "coverage_area_id": "E06000030",
        "coverage_area_name": "Swindon",
        "coverage_area_identifier_scheme": "ONS_GSS_LTLA25",
        "source_area_record": true,
        "accepted_parcel_record": false,
        "spatial_binding_method": "EXACT_OFFICIAL_IDENTIFIER",
        "source_row_cursor": 28,
        "source_url": "https://raw.githubusercontent.com/ONSdigital/geo-scripts/7ee374970b457a0e7d2228f96c63f078ab1825f3/output/lists/ltla25.csv",
        "final_url": "https://raw.githubusercontent.com/ONSdigital/geo-scripts/7ee374970b457a0e7d2228f96c63f078ab1825f3/output/lists/ltla25.csv",
        "source_access_utc": "2026-10-02T00:54:00Z",
        "source_blob_sha": "027bdb35137971def122ee4801bd36deda0b1000",
        "source_file_sha256": "839fc150dbf4c39af09218d4fb258f3f96f3c23cf361353192fddc358780f7e1",
        "field_evidence": {
          "areacd": "E06000030",
          "areanm": "Swindon"
        },
        "evidence_slice_sha256": "6e54f53e3587dde86b8c926662410c7d3501392e523c2a093719bfe6bb489a04",
        "confidence_score_0_100": 96,
        "evidence_grade": "A",
        "licence": "ONS Geography licensing terms / Open Government Licence v3.0",
        "licence_evidence_url": "https://www.ons.gov.uk/methodology/geography/licences",
        "fake_data": false,
        "local_spatial_join_status": "DEFERRED_TO_LOCAL_OPENCODE"
      }
    },
    {
      "type": "Feature",
      "id": "E06000031",
      "geometry": null,
      "properties": {
        "slot_id": "gas_emissions_6",
        "lineage_id": "LOCAL-NEW-92271296-1318-4c0c-a293-d0d4ebc2d06b",
        "page_generation": 1,
        "semantic_mode": "AREA_JOIN",
        "partition": {
          "start": 76904,
          "end": 92283,
          "count": 15380
        },
        "evidence_scope": "coverage_area",
        "coverage_area_id": "E06000031",
        "coverage_area_name": "Peterborough",
        "coverage_area_identifier_scheme": "ONS_GSS_LTLA25",
        "source_area_record": true,
        "accepted_parcel_record": false,
        "spatial_binding_method": "EXACT_OFFICIAL_IDENTIFIER",
        "source_row_cursor": 29,
        "source_url": "https://raw.githubusercontent.com/ONSdigital/geo-scripts/7ee374970b457a0e7d2228f96c63f078ab1825f3/output/lists/ltla25.csv",
        "final_url": "https://raw.githubusercontent.com/ONSdigital/geo-scripts/7ee374970b457a0e7d2228f96c63f078ab1825f3/output/lists/ltla25.csv",
        "source_access_utc": "2026-10-02T00:54:00Z",
        "source_blob_sha": "027bdb35137971def122ee4801bd36deda0b1000",
        "source_file_sha256": "839fc150dbf4c39af09218d4fb258f3f96f3c23cf361353192fddc358780f7e1",
        "field_evidence": {
          "areacd": "E06000031",
          "areanm": "Peterborough"
        },
        "evidence_slice_sha256": "6e54f53e3587dde86b8c926662410c7d3501392e523c2a093719bfe6bb489a04",
        "confidence_score_0_100": 96,
        "evidence_grade": "A",
        "licence": "ONS Geography licensing terms / Open Government Licence v3.0",
        "licence_evidence_url": "https://www.ons.gov.uk/methodology/geography/licences",
        "fake_data": false,
        "local_spatial_join_status": "DEFERRED_TO_LOCAL_OPENCODE"
      }
    },
    {
      "type": "Feature",
      "id": "E06000032",
      "geometry": null,
      "properties": {
        "slot_id": "gas_emissions_6",
        "lineage_id": "LOCAL-NEW-92271296-1318-4c0c-a293-d0d4ebc2d06b",
        "page_generation": 1,
        "semantic_mode": "AREA_JOIN",
        "partition": {
          "start": 76904,
          "end": 92283,
          "count": 15380
        },
        "evidence_scope": "coverage_area",
        "coverage_area_id": "E06000032",
        "coverage_area_name": "Luton",
        "coverage_area_identifier_scheme": "ONS_GSS_LTLA25",
        "source_area_record": true,
        "accepted_parcel_record": false,
        "spatial_binding_method": "EXACT_OFFICIAL_IDENTIFIER",
        "source_row_cursor": 30,
        "source_url": "https://raw.githubusercontent.com/ONSdigital/geo-scripts/7ee374970b457a0e7d2228f96c63f078ab1825f3/output/lists/ltla25.csv",
        "final_url": "https://raw.githubusercontent.com/ONSdigital/geo-scripts/7ee374970b457a0e7d2228f96c63f078ab1825f3/output/lists/ltla25.csv",
        "source_access_utc": "2026-10-02T00:54:00Z",
        "source_blob_sha": "027bdb35137971def122ee4801bd36deda0b1000",
        "source_file_sha256": "839fc150dbf4c39af09218d4fb258f3f96f3c23cf361353192fddc358780f7e1",
        "field_evidence": {
          "areacd": "E06000032",
          "areanm": "Luton"
        },
        "evidence_slice_sha256": "6e54f53e3587dde86b8c926662410c7d3501392e523c2a093719bfe6bb489a04",
        "confidence_score_0_100": 96,
        "evidence_grade": "A",
        "licence": "ONS Geography licensing terms / Open Government Licence v3.0",
        "licence_evidence_url": "https://www.ons.gov.uk/methodology/geography/licences",
        "fake_data": false,
        "local_spatial_join_status": "DEFERRED_TO_LOCAL_OPENCODE"
      }
    },
    {
      "type": "Feature",
      "id": "E06000033",
      "geometry": null,
      "properties": {
        "slot_id": "gas_emissions_6",
        "lineage_id": "LOCAL-NEW-92271296-1318-4c0c-a293-d0d4ebc2d06b",
        "page_generation": 1,
        "semantic_mode": "AREA_JOIN",
        "partition": {
          "start": 76904,
          "end": 92283,
          "count": 15380
        },
        "evidence_scope": "coverage_area",
        "coverage_area_id": "E06000033",
        "coverage_area_name": "Southend-on-Sea",
        "coverage_area_identifier_scheme": "ONS_GSS_LTLA25",
        "source_area_record": true,
        "accepted_parcel_record": false,
        "spatial_binding_method": "EXACT_OFFICIAL_IDENTIFIER",
        "source_row_cursor": 31,
        "source_url": "https://raw.githubusercontent.com/ONSdigital/geo-scripts/7ee374970b457a0e7d2228f96c63f078ab1825f3/output/lists/ltla25.csv",
        "final_url": "https://raw.githubusercontent.com/ONSdigital/geo-scripts/7ee374970b457a0e7d2228f96c63f078ab1825f3/output/lists/ltla25.csv",
        "source_access_utc": "2026-10-02T00:54:00Z",
        "source_blob_sha": "027bdb35137971def122ee4801bd36deda0b1000",
        "source_file_sha256": "839fc150dbf4c39af09218d4fb258f3f96f3c23cf361353192fddc358780f7e1",
        "field_evidence": {
          "areacd": "E06000033",
          "areanm": "Southend-on-Sea"
        },
        "evidence_slice_sha256": "6e54f53e3587dde86b8c926662410c7d3501392e523c2a093719bfe6bb489a04",
        "confidence_score_0_100": 96,
        "evidence_grade": "A",
        "licence": "ONS Geography licensing terms / Open Government Licence v3.0",
        "licence_evidence_url": "https://www.ons.gov.uk/methodology/geography/licences",
        "fake_data": false,
        "local_spatial_join_status": "DEFERRED_TO_LOCAL_OPENCODE"
      }
    },
    {
      "type": "Feature",
      "id": "E06000034",
      "geometry": null,
      "properties": {
        "slot_id": "gas_emissions_6",
        "lineage_id": "LOCAL-NEW-92271296-1318-4c0c-a293-d0d4ebc2d06b",
        "page_generation": 1,
        "semantic_mode": "AREA_JOIN",
        "partition": {
          "start": 76904,
          "end": 92283,
          "count": 15380
        },
        "evidence_scope": "coverage_area",
        "coverage_area_id": "E06000034",
        "coverage_area_name": "Thurrock",
        "coverage_area_identifier_scheme": "ONS_GSS_LTLA25",
        "source_area_record": true,
        "accepted_parcel_record": false,
        "spatial_binding_method": "EXACT_OFFICIAL_IDENTIFIER",
        "source_row_cursor": 32,
        "source_url": "https://raw.githubusercontent.com/ONSdigital/geo-scripts/7ee374970b457a0e7d2228f96c63f078ab1825f3/output/lists/ltla25.csv",
        "final_url": "https://raw.githubusercontent.com/ONSdigital/geo-scripts/7ee374970b457a0e7d2228f96c63f078ab1825f3/output/lists/ltla25.csv",
        "source_access_utc": "2026-10-02T00:54:00Z",
        "source_blob_sha": "027bdb35137971def122ee4801bd36deda0b1000",
        "source_file_sha256": "839fc150dbf4c39af09218d4fb258f3f96f3c23cf361353192fddc358780f7e1",
        "field_evidence": {
          "areacd": "E06000034",
          "areanm": "Thurrock"
        },
        "evidence_slice_sha256": "6e54f53e3587dde86b8c926662410c7d3501392e523c2a093719bfe6bb489a04",
        "confidence_score_0_100": 96,
        "evidence_grade": "A",
        "licence": "ONS Geography licensing terms / Open Government Licence v3.0",
        "licence_evidence_url": "https://www.ons.gov.uk/methodology/geography/licences",
        "fake_data": false,
        "local_spatial_join_status": "DEFERRED_TO_LOCAL_OPENCODE"
      }
    },
    {
      "type": "Feature",
      "id": "E06000035",
      "geometry": null,
      "properties": {
        "slot_id": "gas_emissions_6",
        "lineage_id": "LOCAL-NEW-92271296-1318-4c0c-a293-d0d4ebc2d06b",
        "page_generation": 1,
        "semantic_mode": "AREA_JOIN",
        "partition": {
          "start": 76904,
          "end": 92283,
          "count": 15380
        },
        "evidence_scope": "coverage_area",
        "coverage_area_id": "E06000035",
        "coverage_area_name": "Medway",
        "coverage_area_identifier_scheme": "ONS_GSS_LTLA25",
        "source_area_record": true,
        "accepted_parcel_record": false,
        "spatial_binding_method": "EXACT_OFFICIAL_IDENTIFIER",
        "source_row_cursor": 33,
        "source_url": "https://raw.githubusercontent.com/ONSdigital/geo-scripts/7ee374970b457a0e7d2228f96c63f078ab1825f3/output/lists/ltla25.csv",
        "final_url": "https://raw.githubusercontent.com/ONSdigital/geo-scripts/7ee374970b457a0e7d2228f96c63f078ab1825f3/output/lists/ltla25.csv",
        "source_access_utc": "2026-10-02T00:54:00Z",
        "source_blob_sha": "027bdb35137971def122ee4801bd36deda0b1000",
        "source_file_sha256": "839fc150dbf4c39af09218d4fb258f3f96f3c23cf361353192fddc358780f7e1",
        "field_evidence": {
          "areacd": "E06000035",
          "areanm": "Medway"
        },
        "evidence_slice_sha256": "6e54f53e3587dde86b8c926662410c7d3501392e523c2a093719bfe6bb489a04",
        "confidence_score_0_100": 96,
        "evidence_grade": "A",
        "licence": "ONS Geography licensing terms / Open Government Licence v3.0",
        "licence_evidence_url": "https://www.ons.gov.uk/methodology/geography/licences",
        "fake_data": false,
        "local_spatial_join_status": "DEFERRED_TO_LOCAL_OPENCODE"
      }
    },
    {
      "type": "Feature",
      "id": "E06000036",
      "geometry": null,
      "properties": {
        "slot_id": "gas_emissions_6",
        "lineage_id": "LOCAL-NEW-92271296-1318-4c0c-a293-d0d4ebc2d06b",
        "page_generation": 1,
        "semantic_mode": "AREA_JOIN",
        "partition": {
          "start": 76904,
          "end": 92283,
          "count": 15380
        },
        "evidence_scope": "coverage_area",
        "coverage_area_id": "E06000036",
        "coverage_area_name": "Bracknell Forest",
        "coverage_area_identifier_scheme": "ONS_GSS_LTLA25",
        "source_area_record": true,
        "accepted_parcel_record": false,
        "spatial_binding_method": "EXACT_OFFICIAL_IDENTIFIER",
        "source_row_cursor": 34,
        "source_url": "https://raw.githubusercontent.com/ONSdigital/geo-scripts/7ee374970b457a0e7d2228f96c63f078ab1825f3/output/lists/ltla25.csv",
        "final_url": "https://raw.githubusercontent.com/ONSdigital/geo-scripts/7ee374970b457a0e7d2228f96c63f078ab1825f3/output/lists/ltla25.csv",
        "source_access_utc": "2026-10-02T00:54:00Z",
        "source_blob_sha": "027bdb35137971def122ee4801bd36deda0b1000",
        "source_file_sha256": "839fc150dbf4c39af09218d4fb258f3f96f3c23cf361353192fddc358780f7e1",
        "field_evidence": {
          "areacd": "E06000036",
          "areanm": "Bracknell Forest"
        },
        "evidence_slice_sha256": "6e54f53e3587dde86b8c926662410c7d3501392e523c2a093719bfe6bb489a04",
        "confidence_score_0_100": 96,
        "evidence_grade": "A",
        "licence": "ONS Geography licensing terms / Open Government Licence v3.0",
        "licence_evidence_url": "https://www.ons.gov.uk/methodology/geography/licences",
        "fake_data": false,
        "local_spatial_join_status": "DEFERRED_TO_LOCAL_OPENCODE"
      }
    },
    {
      "type": "Feature",
      "id": "E06000037",
      "geometry": null,
      "properties": {
        "slot_id": "gas_emissions_6",
        "lineage_id": "LOCAL-NEW-92271296-1318-4c0c-a293-d0d4ebc2d06b",
        "page_generation": 1,
        "semantic_mode": "AREA_JOIN",
        "partition": {
          "start": 76904,
          "end": 92283,
          "count": 15380
        },
        "evidence_scope": "coverage_area",
        "coverage_area_id": "E06000037",
        "coverage_area_name": "West Berkshire",
        "coverage_area_identifier_scheme": "ONS_GSS_LTLA25",
        "source_area_record": true,
        "accepted_parcel_record": false,
        "spatial_binding_method": "EXACT_OFFICIAL_IDENTIFIER",
        "source_row_cursor": 35,
        "source_url": "https://raw.githubusercontent.com/ONSdigital/geo-scripts/7ee374970b457a0e7d2228f96c63f078ab1825f3/output/lists/ltla25.csv",
        "final_url": "https://raw.githubusercontent.com/ONSdigital/geo-scripts/7ee374970b457a0e7d2228f96c63f078ab1825f3/output/lists/ltla25.csv",
        "source_access_utc": "2026-10-02T00:54:00Z",
        "source_blob_sha": "027bdb35137971def122ee4801bd36deda0b1000",
        "source_file_sha256": "839fc150dbf4c39af09218d4fb258f3f96f3c23cf361353192fddc358780f7e1",
        "field_evidence": {
          "areacd": "E06000037",
          "areanm": "West Berkshire"
        },
        "evidence_slice_sha256": "6e54f53e3587dde86b8c926662410c7d3501392e523c2a093719bfe6bb489a04",
        "confidence_score_0_100": 96,
        "evidence_grade": "A",
        "licence": "ONS Geography licensing terms / Open Government Licence v3.0",
        "licence_evidence_url": "https://www.ons.gov.uk/methodology/geography/licences",
        "fake_data": false,
        "local_spatial_join_status": "DEFERRED_TO_LOCAL_OPENCODE"
      }
    },
    {
      "type": "Feature",
      "id": "E06000038",
      "geometry": null,
      "properties": {
        "slot_id": "gas_emissions_6",
        "lineage_id": "LOCAL-NEW-92271296-1318-4c0c-a293-d0d4ebc2d06b",
        "page_generation": 1,
        "semantic_mode": "AREA_JOIN",
        "partition": {
          "start": 76904,
          "end": 92283,
          "count": 15380
        },
        "evidence_scope": "coverage_area",
        "coverage_area_id": "E06000038",
        "coverage_area_name": "Reading",
        "coverage_area_identifier_scheme": "ONS_GSS_LTLA25",
        "source_area_record": true,
        "accepted_parcel_record": false,
        "spatial_binding_method": "EXACT_OFFICIAL_IDENTIFIER",
        "source_row_cursor": 36,
        "source_url": "https://raw.githubusercontent.com/ONSdigital/geo-scripts/7ee374970b457a0e7d2228f96c63f078ab1825f3/output/lists/ltla25.csv",
        "final_url": "https://raw.githubusercontent.com/ONSdigital/geo-scripts/7ee374970b457a0e7d2228f96c63f078ab1825f3/output/lists/ltla25.csv",
        "source_access_utc": "2026-10-02T00:54:00Z",
        "source_blob_sha": "027bdb35137971def122ee4801bd36deda0b1000",
        "source_file_sha256": "839fc150dbf4c39af09218d4fb258f3f96f3c23cf361353192fddc358780f7e1",
        "field_evidence": {
          "areacd": "E06000038",
          "areanm": "Reading"
        },
        "evidence_slice_sha256": "6e54f53e3587dde86b8c926662410c7d3501392e523c2a093719bfe6bb489a04",
        "confidence_score_0_100": 96,
        "evidence_grade": "A",
        "licence": "ONS Geography licensing terms / Open Government Licence v3.0",
        "licence_evidence_url": "https://www.ons.gov.uk/methodology/geography/licences",
        "fake_data": false,
        "local_spatial_join_status": "DEFERRED_TO_LOCAL_OPENCODE"
      }
    },
    {
      "type": "Feature",
      "id": "E06000039",
      "geometry": null,
      "properties": {
        "slot_id": "gas_emissions_6",
        "lineage_id": "LOCAL-NEW-92271296-1318-4c0c-a293-d0d4ebc2d06b",
        "page_generation": 1,
        "semantic_mode": "AREA_JOIN",
        "partition": {
          "start": 76904,
          "end": 92283,
          "count": 15380
        },
        "evidence_scope": "coverage_area",
        "coverage_area_id": "E06000039",
        "coverage_area_name": "Slough",
        "coverage_area_identifier_scheme": "ONS_GSS_LTLA25",
        "source_area_record": true,
        "accepted_parcel_record": false,
        "spatial_binding_method": "EXACT_OFFICIAL_IDENTIFIER",
        "source_row_cursor": 37,
        "source_url": "https://raw.githubusercontent.com/ONSdigital/geo-scripts/7ee374970b457a0e7d2228f96c63f078ab1825f3/output/lists/ltla25.csv",
        "final_url": "https://raw.githubusercontent.com/ONSdigital/geo-scripts/7ee374970b457a0e7d2228f96c63f078ab1825f3/output/lists/ltla25.csv",
        "source_access_utc": "2026-10-02T00:54:00Z",
        "source_blob_sha": "027bdb35137971def122ee4801bd36deda0b1000",
        "source_file_sha256": "839fc150dbf4c39af09218d4fb258f3f96f3c23cf361353192fddc358780f7e1",
        "field_evidence": {
          "areacd": "E06000039",
          "areanm": "Slough"
        },
        "evidence_slice_sha256": "6e54f53e3587dde86b8c926662410c7d3501392e523c2a093719bfe6bb489a04",
        "confidence_score_0_100": 96,
        "evidence_grade": "A",
        "licence": "ONS Geography licensing terms / Open Government Licence v3.0",
        "licence_evidence_url": "https://www.ons.gov.uk/methodology/geography/licences",
        "fake_data": false,
        "local_spatial_join_status": "DEFERRED_TO_LOCAL_OPENCODE"
      }
    },
    {
      "type": "Feature",
      "id": "E06000040",
      "geometry": null,
      "properties": {
        "slot_id": "gas_emissions_6",
        "lineage_id": "LOCAL-NEW-92271296-1318-4c0c-a293-d0d4ebc2d06b",
        "page_generation": 1,
        "semantic_mode": "AREA_JOIN",
        "partition": {
          "start": 76904,
          "end": 92283,
          "count": 15380
        },
        "evidence_scope": "coverage_area",
        "coverage_area_id": "E06000040",
        "coverage_area_name": "Windsor and Maidenhead",
        "coverage_area_identifier_scheme": "ONS_GSS_LTLA25",
        "source_area_record": true,
        "accepted_parcel_record": false,
        "spatial_binding_method": "EXACT_OFFICIAL_IDENTIFIER",
        "source_row_cursor": 38,
        "source_url": "https://raw.githubusercontent.com/ONSdigital/geo-scripts/7ee374970b457a0e7d2228f96c63f078ab1825f3/output/lists/ltla25.csv",
        "final_url": "https://raw.githubusercontent.com/ONSdigital/geo-scripts/7ee374970b457a0e7d2228f96c63f078ab1825f3/output/lists/ltla25.csv",
        "source_access_utc": "2026-10-02T00:54:00Z",
        "source_blob_sha": "027bdb35137971def122ee4801bd36deda0b1000",
        "source_file_sha256": "839fc150dbf4c39af09218d4fb258f3f96f3c23cf361353192fddc358780f7e1",
        "field_evidence": {
          "areacd": "E06000040",
          "areanm": "Windsor and Maidenhead"
        },
        "evidence_slice_sha256": "6e54f53e3587dde86b8c926662410c7d3501392e523c2a093719bfe6bb489a04",
        "confidence_score_0_100": 96,
        "evidence_grade": "A",
        "licence": "ONS Geography licensing terms / Open Government Licence v3.0",
        "licence_evidence_url": "https://www.ons.gov.uk/methodology/geography/licences",
        "fake_data": false,
        "local_spatial_join_status": "DEFERRED_TO_LOCAL_OPENCODE"
      }
    },
    {
      "type": "Feature",
      "id": "E06000041",
      "geometry": null,
      "properties": {
        "slot_id": "gas_emissions_6",
        "lineage_id": "LOCAL-NEW-92271296-1318-4c0c-a293-d0d4ebc2d06b",
        "page_generation": 1,
        "semantic_mode": "AREA_JOIN",
        "partition": {
          "start": 76904,
          "end": 92283,
          "count": 15380
        },
        "evidence_scope": "coverage_area",
        "coverage_area_id": "E06000041",
        "coverage_area_name": "Wokingham",
        "coverage_area_identifier_scheme": "ONS_GSS_LTLA25",
        "source_area_record": true,
        "accepted_parcel_record": false,
        "spatial_binding_method": "EXACT_OFFICIAL_IDENTIFIER",
        "source_row_cursor": 39,
        "source_url": "https://raw.githubusercontent.com/ONSdigital/geo-scripts/7ee374970b457a0e7d2228f96c63f078ab1825f3/output/lists/ltla25.csv",
        "final_url": "https://raw.githubusercontent.com/ONSdigital/geo-scripts/7ee374970b457a0e7d2228f96c63f078ab1825f3/output/lists/ltla25.csv",
        "source_access_utc": "2026-10-02T00:54:00Z",
        "source_blob_sha": "027bdb35137971def122ee4801bd36deda0b1000",
        "source_file_sha256": "839fc150dbf4c39af09218d4fb258f3f96f3c23cf361353192fddc358780f7e1",
        "field_evidence": {
          "areacd": "E06000041",
          "areanm": "Wokingham"
        },
        "evidence_slice_sha256": "6e54f53e3587dde86b8c926662410c7d3501392e523c2a093719bfe6bb489a04",
        "confidence_score_0_100": 96,
        "evidence_grade": "A",
        "licence": "ONS Geography licensing terms / Open Government Licence v3.0",
        "licence_evidence_url": "https://www.ons.gov.uk/methodology/geography/licences",
        "fake_data": false,
        "local_spatial_join_status": "DEFERRED_TO_LOCAL_OPENCODE"
      }
    },
    {
      "type": "Feature",
      "id": "E06000042",
      "geometry": null,
      "properties": {
        "slot_id": "gas_emissions_6",
        "lineage_id": "LOCAL-NEW-92271296-1318-4c0c-a293-d0d4ebc2d06b",
        "page_generation": 1,
        "semantic_mode": "AREA_JOIN",
        "partition": {
          "start": 76904,
          "end": 92283,
          "count": 15380
        },
        "evidence_scope": "coverage_area",
        "coverage_area_id": "E06000042",
        "coverage_area_name": "Milton Keynes",
        "coverage_area_identifier_scheme": "ONS_GSS_LTLA25",
        "source_area_record": true,
        "accepted_parcel_record": false,
        "spatial_binding_method": "EXACT_OFFICIAL_IDENTIFIER",
        "source_row_cursor": 40,
        "source_url": "https://raw.githubusercontent.com/ONSdigital/geo-scripts/7ee374970b457a0e7d2228f96c63f078ab1825f3/output/lists/ltla25.csv",
        "final_url": "https://raw.githubusercontent.com/ONSdigital/geo-scripts/7ee374970b457a0e7d2228f96c63f078ab1825f3/output/lists/ltla25.csv",
        "source_access_utc": "2026-10-02T00:54:00Z",
        "source_blob_sha": "027bdb35137971def122ee4801bd36deda0b1000",
        "source_file_sha256": "839fc150dbf4c39af09218d4fb258f3f96f3c23cf361353192fddc358780f7e1",
        "field_evidence": {
          "areacd": "E06000042",
          "areanm": "Milton Keynes"
        },
        "evidence_slice_sha256": "6e54f53e3587dde86b8c926662410c7d3501392e523c2a093719bfe6bb489a04",
        "confidence_score_0_100": 96,
        "evidence_grade": "A",
        "licence": "ONS Geography licensing terms / Open Government Licence v3.0",
        "licence_evidence_url": "https://www.ons.gov.uk/methodology/geography/licences",
        "fake_data": false,
        "local_spatial_join_status": "DEFERRED_TO_LOCAL_OPENCODE"
      }
    },
    {
      "type": "Feature",
      "id": "E06000043",
      "geometry": null,
      "properties": {
        "slot_id": "gas_emissions_6",
        "lineage_id": "LOCAL-NEW-92271296-1318-4c0c-a293-d0d4ebc2d06b",
        "page_generation": 1,
        "semantic_mode": "AREA_JOIN",
        "partition": {
          "start": 76904,
          "end": 92283,
          "count": 15380
        },
        "evidence_scope": "coverage_area",
        "coverage_area_id": "E06000043",
        "coverage_area_name": "Brighton and Hove",
        "coverage_area_identifier_scheme": "ONS_GSS_LTLA25",
        "source_area_record": true,
        "accepted_parcel_record": false,
        "spatial_binding_method": "EXACT_OFFICIAL_IDENTIFIER",
        "source_row_cursor": 41,
        "source_url": "https://raw.githubusercontent.com/ONSdigital/geo-scripts/7ee374970b457a0e7d2228f96c63f078ab1825f3/output/lists/ltla25.csv",
        "final_url": "https://raw.githubusercontent.com/ONSdigital/geo-scripts/7ee374970b457a0e7d2228f96c63f078ab1825f3/output/lists/ltla25.csv",
        "source_access_utc": "2026-10-02T00:54:00Z",
        "source_blob_sha": "027bdb35137971def122ee4801bd36deda0b1000",
        "source_file_sha256": "839fc150dbf4c39af09218d4fb258f3f96f3c23cf361353192fddc358780f7e1",
        "field_evidence": {
          "areacd": "E06000043",
          "areanm": "Brighton and Hove"
        },
        "evidence_slice_sha256": "6e54f53e3587dde86b8c926662410c7d3501392e523c2a093719bfe6bb489a04",
        "confidence_score_0_100": 96,
        "evidence_grade": "A",
        "licence": "ONS Geography licensing terms / Open Government Licence v3.0",
        "licence_evidence_url": "https://www.ons.gov.uk/methodology/geography/licences",
        "fake_data": false,
        "local_spatial_join_status": "DEFERRED_TO_LOCAL_OPENCODE"
      }
    },
    {
      "type": "Feature",
      "id": "E06000044",
      "geometry": null,
      "properties": {
        "slot_id": "gas_emissions_6",
        "lineage_id": "LOCAL-NEW-92271296-1318-4c0c-a293-d0d4ebc2d06b",
        "page_generation": 1,
        "semantic_mode": "AREA_JOIN",
        "partition": {
          "start": 76904,
          "end": 92283,
          "count": 15380
        },
        "evidence_scope": "coverage_area",
        "coverage_area_id": "E06000044",
        "coverage_area_name": "Portsmouth",
        "coverage_area_identifier_scheme": "ONS_GSS_LTLA25",
        "source_area_record": true,
        "accepted_parcel_record": false,
        "spatial_binding_method": "EXACT_OFFICIAL_IDENTIFIER",
        "source_row_cursor": 42,
        "source_url": "https://raw.githubusercontent.com/ONSdigital/geo-scripts/7ee374970b457a0e7d2228f96c63f078ab1825f3/output/lists/ltla25.csv",
        "final_url": "https://raw.githubusercontent.com/ONSdigital/geo-scripts/7ee374970b457a0e7d2228f96c63f078ab1825f3/output/lists/ltla25.csv",
        "source_access_utc": "2026-10-02T00:54:00Z",
        "source_blob_sha": "027bdb35137971def122ee4801bd36deda0b1000",
        "source_file_sha256": "839fc150dbf4c39af09218d4fb258f3f96f3c23cf361353192fddc358780f7e1",
        "field_evidence": {
          "areacd": "E06000044",
          "areanm": "Portsmouth"
        },
        "evidence_slice_sha256": "6e54f53e3587dde86b8c926662410c7d3501392e523c2a093719bfe6bb489a04",
        "confidence_score_0_100": 96,
        "evidence_grade": "A",
        "licence": "ONS Geography licensing terms / Open Government Licence v3.0",
        "licence_evidence_url": "https://www.ons.gov.uk/methodology/geography/licences",
        "fake_data": false,
        "local_spatial_join_status": "DEFERRED_TO_LOCAL_OPENCODE"
      }
    },
    {
      "type": "Feature",
      "id": "E06000045",
      "geometry": null,
      "properties": {
        "slot_id": "gas_emissions_6",
        "lineage_id": "LOCAL-NEW-92271296-1318-4c0c-a293-d0d4ebc2d06b",
        "page_generation": 1,
        "semantic_mode": "AREA_JOIN",
        "partition": {
          "start": 76904,
          "end": 92283,
          "count": 15380
        },
        "evidence_scope": "coverage_area",
        "coverage_area_id": "E06000045",
        "coverage_area_name": "Southampton",
        "coverage_area_identifier_scheme": "ONS_GSS_LTLA25",
        "source_area_record": true,
        "accepted_parcel_record": false,
        "spatial_binding_method": "EXACT_OFFICIAL_IDENTIFIER",
        "source_row_cursor": 43,
        "source_url": "https://raw.githubusercontent.com/ONSdigital/geo-scripts/7ee374970b457a0e7d2228f96c63f078ab1825f3/output/lists/ltla25.csv",
        "final_url": "https://raw.githubusercontent.com/ONSdigital/geo-scripts/7ee374970b457a0e7d2228f96c63f078ab1825f3/output/lists/ltla25.csv",
        "source_access_utc": "2026-10-02T00:54:00Z",
        "source_blob_sha": "027bdb35137971def122ee4801bd36deda0b1000",
        "source_file_sha256": "839fc150dbf4c39af09218d4fb258f3f96f3c23cf361353192fddc358780f7e1",
        "field_evidence": {
          "areacd": "E06000045",
          "areanm": "Southampton"
        },
        "evidence_slice_sha256": "6e54f53e3587dde86b8c926662410c7d3501392e523c2a093719bfe6bb489a04",
        "confidence_score_0_100": 96,
        "evidence_grade": "A",
        "licence": "ONS Geography licensing terms / Open Government Licence v3.0",
        "licence_evidence_url": "https://www.ons.gov.uk/methodology/geography/licences",
        "fake_data": false,
        "local_spatial_join_status": "DEFERRED_TO_LOCAL_OPENCODE"
      }
    },
    {
      "type": "Feature",
      "id": "E06000046",
      "geometry": null,
      "properties": {
        "slot_id": "gas_emissions_6",
        "lineage_id": "LOCAL-NEW-92271296-1318-4c0c-a293-d0d4ebc2d06b",
        "page_generation": 1,
        "semantic_mode": "AREA_JOIN",
        "partition": {
          "start": 76904,
          "end": 92283,
          "count": 15380
        },
        "evidence_scope": "coverage_area",
        "coverage_area_id": "E06000046",
        "coverage_area_name": "Isle of Wight",
        "coverage_area_identifier_scheme": "ONS_GSS_LTLA25",
        "source_area_record": true,
        "accepted_parcel_record": false,
        "spatial_binding_method": "EXACT_OFFICIAL_IDENTIFIER",
        "source_row_cursor": 44,
        "source_url": "https://raw.githubusercontent.com/ONSdigital/geo-scripts/7ee374970b457a0e7d2228f96c63f078ab1825f3/output/lists/ltla25.csv",
        "final_url": "https://raw.githubusercontent.com/ONSdigital/geo-scripts/7ee374970b457a0e7d2228f96c63f078ab1825f3/output/lists/ltla25.csv",
        "source_access_utc": "2026-10-02T00:54:00Z",
        "source_blob_sha": "027bdb35137971def122ee4801bd36deda0b1000",
        "source_file_sha256": "839fc150dbf4c39af09218d4fb258f3f96f3c23cf361353192fddc358780f7e1",
        "field_evidence": {
          "areacd": "E06000046",
          "areanm": "Isle of Wight"
        },
        "evidence_slice_sha256": "6e54f53e3587dde86b8c926662410c7d3501392e523c2a093719bfe6bb489a04",
        "confidence_score_0_100": 96,
        "evidence_grade": "A",
        "licence": "ONS Geography licensing terms / Open Government Licence v3.0",
        "licence_evidence_url": "https://www.ons.gov.uk/methodology/geography/licences",
        "fake_data": false,
        "local_spatial_join_status": "DEFERRED_TO_LOCAL_OPENCODE"
      }
    },
    {
      "type": "Feature",
      "id": "E06000047",
      "geometry": null,
      "properties": {
        "slot_id": "gas_emissions_6",
        "lineage_id": "LOCAL-NEW-92271296-1318-4c0c-a293-d0d4ebc2d06b",
        "page_generation": 1,
        "semantic_mode": "AREA_JOIN",
        "partition": {
          "start": 76904,
          "end": 92283,
          "count": 15380
        },
        "evidence_scope": "coverage_area",
        "coverage_area_id": "E06000047",
        "coverage_area_name": "County Durham",
        "coverage_area_identifier_scheme": "ONS_GSS_LTLA25",
        "source_area_record": true,
        "accepted_parcel_record": false,
        "spatial_binding_method": "EXACT_OFFICIAL_IDENTIFIER",
        "source_row_cursor": 45,
        "source_url": "https://raw.githubusercontent.com/ONSdigital/geo-scripts/7ee374970b457a0e7d2228f96c63f078ab1825f3/output/lists/ltla25.csv",
        "final_url": "https://raw.githubusercontent.com/ONSdigital/geo-scripts/7ee374970b457a0e7d2228f96c63f078ab1825f3/output/lists/ltla25.csv",
        "source_access_utc": "2026-10-02T00:54:00Z",
        "source_blob_sha": "027bdb35137971def122ee4801bd36deda0b1000",
        "source_file_sha256": "839fc150dbf4c39af09218d4fb258f3f96f3c23cf361353192fddc358780f7e1",
        "field_evidence": {
          "areacd": "E06000047",
          "areanm": "County Durham"
        },
        "evidence_slice_sha256": "6e54f53e3587dde86b8c926662410c7d3501392e523c2a093719bfe6bb489a04",
        "confidence_score_0_100": 96,
        "evidence_grade": "A",
        "licence": "ONS Geography licensing terms / Open Government Licence v3.0",
        "licence_evidence_url": "https://www.ons.gov.uk/methodology/geography/licences",
        "fake_data": false,
        "local_spatial_join_status": "DEFERRED_TO_LOCAL_OPENCODE"
      }
    },
    {
      "type": "Feature",
      "id": "E06000049",
      "geometry": null,
      "properties": {
        "slot_id": "gas_emissions_6",
        "lineage_id": "LOCAL-NEW-92271296-1318-4c0c-a293-d0d4ebc2d06b",
        "page_generation": 1,
        "semantic_mode": "AREA_JOIN",
        "partition": {
          "start": 76904,
          "end": 92283,
          "count": 15380
        },
        "evidence_scope": "coverage_area",
        "coverage_area_id": "E06000049",
        "coverage_area_name": "Cheshire East",
        "coverage_area_identifier_scheme": "ONS_GSS_LTLA25",
        "source_area_record": true,
        "accepted_parcel_record": false,
        "spatial_binding_method": "EXACT_OFFICIAL_IDENTIFIER",
        "source_row_cursor": 46,
        "source_url": "https://raw.githubusercontent.com/ONSdigital/geo-scripts/7ee374970b457a0e7d2228f96c63f078ab1825f3/output/lists/ltla25.csv",
        "final_url": "https://raw.githubusercontent.com/ONSdigital/geo-scripts/7ee374970b457a0e7d2228f96c63f078ab1825f3/output/lists/ltla25.csv",
        "source_access_utc": "2026-10-02T00:54:00Z",
        "source_blob_sha": "027bdb35137971def122ee4801bd36deda0b1000",
        "source_file_sha256": "839fc150dbf4c39af09218d4fb258f3f96f3c23cf361353192fddc358780f7e1",
        "field_evidence": {
          "areacd": "E06000049",
          "areanm": "Cheshire East"
        },
        "evidence_slice_sha256": "6e54f53e3587dde86b8c926662410c7d3501392e523c2a093719bfe6bb489a04",
        "confidence_score_0_100": 96,
        "evidence_grade": "A",
        "licence": "ONS Geography licensing terms / Open Government Licence v3.0",
        "licence_evidence_url": "https://www.ons.gov.uk/methodology/geography/licences",
        "fake_data": false,
        "local_spatial_join_status": "DEFERRED_TO_LOCAL_OPENCODE"
      }
    },
    {
      "type": "Feature",
      "id": "E06000050",
      "geometry": null,
      "properties": {
        "slot_id": "gas_emissions_6",
        "lineage_id": "LOCAL-NEW-92271296-1318-4c0c-a293-d0d4ebc2d06b",
        "page_generation": 1,
        "semantic_mode": "AREA_JOIN",
        "partition": {
          "start": 76904,
          "end": 92283,
          "count": 15380
        },
        "evidence_scope": "coverage_area",
        "coverage_area_id": "E06000050",
        "coverage_area_name": "Cheshire West and Chester",
        "coverage_area_identifier_scheme": "ONS_GSS_LTLA25",
        "source_area_record": true,
        "accepted_parcel_record": false,
        "spatial_binding_method": "EXACT_OFFICIAL_IDENTIFIER",
        "source_row_cursor": 47,
        "source_url": "https://raw.githubusercontent.com/ONSdigital/geo-scripts/7ee374970b457a0e7d2228f96c63f078ab1825f3/output/lists/ltla25.csv",
        "final_url": "https://raw.githubusercontent.com/ONSdigital/geo-scripts/7ee374970b457a0e7d2228f96c63f078ab1825f3/output/lists/ltla25.csv",
        "source_access_utc": "2026-10-02T00:54:00Z",
        "source_blob_sha": "027bdb35137971def122ee4801bd36deda0b1000",
        "source_file_sha256": "839fc150dbf4c39af09218d4fb258f3f96f3c23cf361353192fddc358780f7e1",
        "field_evidence": {
          "areacd": "E06000050",
          "areanm": "Cheshire West and Chester"
        },
        "evidence_slice_sha256": "6e54f53e3587dde86b8c926662410c7d3501392e523c2a093719bfe6bb489a04",
        "confidence_score_0_100": 96,
        "evidence_grade": "A",
        "licence": "ONS Geography licensing terms / Open Government Licence v3.0",
        "licence_evidence_url": "https://www.ons.gov.uk/methodology/geography/licences",
        "fake_data": false,
        "local_spatial_join_status": "DEFERRED_TO_LOCAL_OPENCODE"
      }
    },
    {
      "type": "Feature",
      "id": "E06000051",
      "geometry": null,
      "properties": {
        "slot_id": "gas_emissions_6",
        "lineage_id": "LOCAL-NEW-92271296-1318-4c0c-a293-d0d4ebc2d06b",
        "page_generation": 1,
        "semantic_mode": "AREA_JOIN",
        "partition": {
          "start": 76904,
          "end": 92283,
          "count": 15380
        },
        "evidence_scope": "coverage_area",
        "coverage_area_id": "E06000051",
        "coverage_area_name": "Shropshire",
        "coverage_area_identifier_scheme": "ONS_GSS_LTLA25",
        "source_area_record": true,
        "accepted_parcel_record": false,
        "spatial_binding_method": "EXACT_OFFICIAL_IDENTIFIER",
        "source_row_cursor": 48,
        "source_url": "https://raw.githubusercontent.com/ONSdigital/geo-scripts/7ee374970b457a0e7d2228f96c63f078ab1825f3/output/lists/ltla25.csv",
        "final_url": "https://raw.githubusercontent.com/ONSdigital/geo-scripts/7ee374970b457a0e7d2228f96c63f078ab1825f3/output/lists/ltla25.csv",
        "source_access_utc": "2026-10-02T00:54:00Z",
        "source_blob_sha": "027bdb35137971def122ee4801bd36deda0b1000",
        "source_file_sha256": "839fc150dbf4c39af09218d4fb258f3f96f3c23cf361353192fddc358780f7e1",
        "field_evidence": {
          "areacd": "E06000051",
          "areanm": "Shropshire"
        },
        "evidence_slice_sha256": "6e54f53e3587dde86b8c926662410c7d3501392e523c2a093719bfe6bb489a04",
        "confidence_score_0_100": 96,
        "evidence_grade": "A",
        "licence": "ONS Geography licensing terms / Open Government Licence v3.0",
        "licence_evidence_url": "https://www.ons.gov.uk/methodology/geography/licences",
        "fake_data": false,
        "local_spatial_join_status": "DEFERRED_TO_LOCAL_OPENCODE"
      }
    },
    {
      "type": "Feature",
      "id": "E06000052",
      "geometry": null,
      "properties": {
        "slot_id": "gas_emissions_6",
        "lineage_id": "LOCAL-NEW-92271296-1318-4c0c-a293-d0d4ebc2d06b",
        "page_generation": 1,
        "semantic_mode": "AREA_JOIN",
        "partition": {
          "start": 76904,
          "end": 92283,
          "count": 15380
        },
        "evidence_scope": "coverage_area",
        "coverage_area_id": "E06000052",
        "coverage_area_name": "Cornwall",
        "coverage_area_identifier_scheme": "ONS_GSS_LTLA25",
        "source_area_record": true,
        "accepted_parcel_record": false,
        "spatial_binding_method": "EXACT_OFFICIAL_IDENTIFIER",
        "source_row_cursor": 49,
        "source_url": "https://raw.githubusercontent.com/ONSdigital/geo-scripts/7ee374970b457a0e7d2228f96c63f078ab1825f3/output/lists/ltla25.csv",
        "final_url": "https://raw.githubusercontent.com/ONSdigital/geo-scripts/7ee374970b457a0e7d2228f96c63f078ab1825f3/output/lists/ltla25.csv",
        "source_access_utc": "2026-10-02T00:54:00Z",
        "source_blob_sha": "027bdb35137971def122ee4801bd36deda0b1000",
        "source_file_sha256": "839fc150dbf4c39af09218d4fb258f3f96f3c23cf361353192fddc358780f7e1",
        "field_evidence": {
          "areacd": "E06000052",
          "areanm": "Cornwall"
        },
        "evidence_slice_sha256": "6e54f53e3587dde86b8c926662410c7d3501392e523c2a093719bfe6bb489a04",
        "confidence_score_0_100": 96,
        "evidence_grade": "A",
        "licence": "ONS Geography licensing terms / Open Government Licence v3.0",
        "licence_evidence_url": "https://www.ons.gov.uk/methodology/geography/licences",
        "fake_data": false,
        "local_spatial_join_status": "DEFERRED_TO_LOCAL_OPENCODE"
      }
    },
    {
      "type": "Feature",
      "id": "E06000053",
      "geometry": null,
      "properties": {
        "slot_id": "gas_emissions_6",
        "lineage_id": "LOCAL-NEW-92271296-1318-4c0c-a293-d0d4ebc2d06b",
        "page_generation": 1,
        "semantic_mode": "AREA_JOIN",
        "partition": {
          "start": 76904,
          "end": 92283,
          "count": 15380
        },
        "evidence_scope": "coverage_area",
        "coverage_area_id": "E06000053",
        "coverage_area_name": "Isles of Scilly",
        "coverage_area_identifier_scheme": "ONS_GSS_LTLA25",
        "source_area_record": true,
        "accepted_parcel_record": false,
        "spatial_binding_method": "EXACT_OFFICIAL_IDENTIFIER",
        "source_row_cursor": 50,
        "source_url": "https://raw.githubusercontent.com/ONSdigital/geo-scripts/7ee374970b457a0e7d2228f96c63f078ab1825f3/output/lists/ltla25.csv",
        "final_url": "https://raw.githubusercontent.com/ONSdigital/geo-scripts/7ee374970b457a0e7d2228f96c63f078ab1825f3/output/lists/ltla25.csv",
        "source_access_utc": "2026-10-02T00:54:00Z",
        "source_blob_sha": "027bdb35137971def122ee4801bd36deda0b1000",
        "source_file_sha256": "839fc150dbf4c39af09218d4fb258f3f96f3c23cf361353192fddc358780f7e1",
        "field_evidence": {
          "areacd": "E06000053",
          "areanm": "Isles of Scilly"
        },
        "evidence_slice_sha256": "6e54f53e3587dde86b8c926662410c7d3501392e523c2a093719bfe6bb489a04",
        "confidence_score_0_100": 96,
        "evidence_grade": "A",
        "licence": "ONS Geography licensing terms / Open Government Licence v3.0",
        "licence_evidence_url": "https://www.ons.gov.uk/methodology/geography/licences",
        "fake_data": false,
        "local_spatial_join_status": "DEFERRED_TO_LOCAL_OPENCODE"
      }
    }
  ]
}
