{"type":"FeatureCollection","name":"building_type_9_20261009T060648Z_TRAFFORD_COUNCIL_LIBRARY_POLYGONS_13","features":[{"type":"Feature","id":"trafford-library-archive-M169AX-old-trafford-library-at-limelight","geometry":{"type":"Polygon","coordinates":[[[-2.261899,53.461494],[-2.262025,53.461419],[-2.261923,53.461357],[-2.261794,53.461432],[-2.261899,53.461494]]]},"properties":{"slot_id":"building_type_9","lineage_id":"building_type_9-20261001T200900Z-newstart","page_generation":1,"batch_id":"20261009T060648Z_TRAFFORD_COUNCIL_LIBRARY_POLYGONS_13","source_entity":"trafford-library-archive-M169AX-old-trafford-library-at-limelight","source_reference":"Old Trafford Library at Limelight|M16 9AX","source_dataset":"Trafford Council archived library polygon dataset","source_organisation":"Trafford Council via Trafford Data Lab","building_evidence_status":"BUILDING_PRESENT","parcel_status":"UNPROCESSED","canonical_parcel_id":null,"building_type":"library","building_use":"library_or_local_studies_centre_as_of_2018_06","poi_accepted":false,"field_evidence":{"footprint":"Trafford Council internal library polygons, documented as polygon geometry and matched to council library Point within each polygon; physical-building delineation assumed from archive but exact survey method not documented","type":"Named Trafford library/centre supplied in official council dataset Name and Address","use":"Named library function in original council archived dataset, published 2018-06-06; no assertion of current use","point_url":"https://github.com/traffordDataLab/open_data/blob/82d7d561d5238d819a956f1c5731317759f20162/libraries/archive/trafford_libraries_points.geojson","point_file_sha256":"f58f055fc2d7f5f365c264c11697ef622c9f516e45d56ee28f4658f83063d2b7","point_in_polygon":true,"source_name":"Old Trafford Library at Limelight","source_postcode":"M16 9AX","source_address":"Shrewsbury Street, Old Trafford"},"source_url":"https://github.com/traffordDataLab/open_data/blob/82d7d561d5238d819a956f1c5731317759f20162/libraries/archive/trafford_libraries_polygons.geojson","final_url":"https://github.com/traffordDataLab/open_data/blob/82d7d561d5238d819a956f1c5731317759f20162/libraries/archive/trafford_libraries_polygons.geojson","http_status":null,"http_status_note":"GitHub public-file connector read, numeric HTTP status unavailable","access_utc":"2026-10-09T06:06:48.600Z","data_date":"2018-06-06 (initial public dataset commit; survey date undocumented)","licence":"Open Government Licence v3.0; Trafford Council public-sector library data","source_sha256":"78e6cff070ce4af4abf89598a57ce6119036cf65c50d46e46f91f9684c612a21","source_sha256_scope":"full GeoJSON source file at pinned Git blob","evidence_slice_sha256":"895c37b827bcaf34672068874b824593d9ee467e8b527dcc977ceb79ab511702","confidence_score_0_100":72,"evidence_grade":"C","fake_data":false,"local_spatial_join_required":true}},{"type":"Feature","id":"trafford-library-archive-WA156QQ-timperley-library","geometry":{"type":"Polygon","coordinates":[[[-2.328705,53.402092],[-2.328646,53.402189],[-2.328455,53.402149],[-2.32852,53.40205],[-2.328705,53.402092]]]},"properties":{"slot_id":"building_type_9","lineage_id":"building_type_9-20261001T200900Z-newstart","page_generation":1,"batch_id":"20261009T060648Z_TRAFFORD_COUNCIL_LIBRARY_POLYGONS_13","source_entity":"trafford-library-archive-WA156QQ-timperley-library","source_reference":"Timperley Library|WA15 6QQ","source_dataset":"Trafford Council archived library polygon dataset","source_organisation":"Trafford Council via Trafford Data Lab","building_evidence_status":"BUILDING_PRESENT","parcel_status":"UNPROCESSED","canonical_parcel_id":null,"building_type":"library","building_use":"library_or_local_studies_centre_as_of_2018_06","poi_accepted":false,"field_evidence":{"footprint":"Trafford Council internal library polygons, documented as polygon geometry and matched to council library Point within each polygon; physical-building delineation assumed from archive but exact survey method not documented","type":"Named Trafford library/centre supplied in official council dataset Name and Address","use":"Named library function in original council archived dataset, published 2018-06-06; no assertion of current use","point_url":"https://github.com/traffordDataLab/open_data/blob/82d7d561d5238d819a956f1c5731317759f20162/libraries/archive/trafford_libraries_points.geojson","point_file_sha256":"f58f055fc2d7f5f365c264c11697ef622c9f516e45d56ee28f4658f83063d2b7","point_in_polygon":true,"source_name":"Timperley Library","source_postcode":"WA15 6QQ","source_address":"Riddings Community Centre, 121 Park Road, Timperley"},"source_url":"https://github.com/traffordDataLab/open_data/blob/82d7d561d5238d819a956f1c5731317759f20162/libraries/archive/trafford_libraries_polygons.geojson","final_url":"https://github.com/traffordDataLab/open_data/blob/82d7d561d5238d819a956f1c5731317759f20162/libraries/archive/trafford_libraries_polygons.geojson","http_status":null,"http_status_note":"GitHub public-file connector read, numeric HTTP status unavailable","access_utc":"2026-10-09T06:06:48.600Z","data_date":"2018-06-06 (initial public dataset commit; survey date undocumented)","licence":"Open Government Licence v3.0; Trafford Council public-sector library data","source_sha256":"78e6cff070ce4af4abf89598a57ce6119036cf65c50d46e46f91f9684c612a21","source_sha256_scope":"full GeoJSON source file at pinned Git blob","evidence_slice_sha256":"8999dcb19de1fb109c70570165e9f3434014b88b4e96424e12af9bf9c7a5dca8","confidence_score_0_100":72,"evidence_grade":"C","fake_data":false,"local_spatial_join_required":true}},{"type":"Feature","id":"trafford-library-archive-M329PL-lostock-library","geometry":{"type":"Polygon","coordinates":[[[-2.330588,53.454808],[-2.330671,53.454897],[-2.330335,53.455003],[-2.330252,53.454912],[-2.330303,53.454891],[-2.330233,53.454805],[-2.330456,53.454744],[-2.330526,53.454824],[-2.330588,53.454808]]]},"properties":{"slot_id":"building_type_9","lineage_id":"building_type_9-20261001T200900Z-newstart","page_generation":1,"batch_id":"20261009T060648Z_TRAFFORD_COUNCIL_LIBRARY_POLYGONS_13","source_entity":"trafford-library-archive-M329PL-lostock-library","source_reference":"Lostock Library|M32 9PL","source_dataset":"Trafford Council archived library polygon dataset","source_organisation":"Trafford Council via Trafford Data Lab","building_evidence_status":"BUILDING_PRESENT","parcel_status":"UNPROCESSED","canonical_parcel_id":null,"building_type":"library","building_use":"library_or_local_studies_centre_as_of_2018_06","poi_accepted":false,"field_evidence":{"footprint":"Trafford Council internal library polygons, documented as polygon geometry and matched to council library Point within each polygon; physical-building delineation assumed from archive but exact survey method not documented","type":"Named Trafford library/centre supplied in official council dataset Name and Address","use":"Named library function in original council archived dataset, published 2018-06-06; no assertion of current use","point_url":"https://github.com/traffordDataLab/open_data/blob/82d7d561d5238d819a956f1c5731317759f20162/libraries/archive/trafford_libraries_points.geojson","point_file_sha256":"f58f055fc2d7f5f365c264c11697ef622c9f516e45d56ee28f4658f83063d2b7","point_in_polygon":true,"source_name":"Lostock Library","source_postcode":"M32 9PL","source_address":"Selby Road, Stretford"},"source_url":"https://github.com/traffordDataLab/open_data/blob/82d7d561d5238d819a956f1c5731317759f20162/libraries/archive/trafford_libraries_polygons.geojson","final_url":"https://github.com/traffordDataLab/open_data/blob/82d7d561d5238d819a956f1c5731317759f20162/libraries/archive/trafford_libraries_polygons.geojson","http_status":null,"http_status_note":"GitHub public-file connector read, numeric HTTP status unavailable","access_utc":"2026-10-09T06:06:48.600Z","data_date":"2018-06-06 (initial public dataset commit; survey date undocumented)","licence":"Open Government Licence v3.0; Trafford Council public-sector library data","source_sha256":"78e6cff070ce4af4abf89598a57ce6119036cf65c50d46e46f91f9684c612a21","source_sha256_scope":"full GeoJSON source file at pinned Git blob","evidence_slice_sha256":"fb9c30d74c21963981271a7406c4919d77e6f2ab71d1226289724755957d31ce","confidence_score_0_100":72,"evidence_grade":"C","fake_data":false,"local_spatial_join_required":true}},{"type":"Feature","id":"trafford-library-archive-M337ZF-sale-library","geometry":{"type":"Polygon","coordinates":[[[-2.320071,53.425166],[-2.31997,53.425484],[-2.3197,53.425473],[-2.319781,53.425201],[-2.320071,53.425166]]]},"properties":{"slot_id":"building_type_9","lineage_id":"building_type_9-20261001T200900Z-newstart","page_generation":1,"batch_id":"20261009T060648Z_TRAFFORD_COUNCIL_LIBRARY_POLYGONS_13","source_entity":"trafford-library-archive-M337ZF-sale-library","source_reference":"Sale Library|M33 7ZF","source_dataset":"Trafford Council archived library polygon dataset","source_organisation":"Trafford Council via Trafford Data Lab","building_evidence_status":"BUILDING_PRESENT","parcel_status":"UNPROCESSED","canonical_parcel_id":null,"building_type":"library","building_use":"library_or_local_studies_centre_as_of_2018_06","poi_accepted":false,"field_evidence":{"footprint":"Trafford Council internal library polygons, documented as polygon geometry and matched to council library Point within each polygon; physical-building delineation assumed from archive but exact survey method not documented","type":"Named Trafford library/centre supplied in official council dataset Name and Address","use":"Named library function in original council archived dataset, published 2018-06-06; no assertion of current use","point_url":"https://github.com/traffordDataLab/open_data/blob/82d7d561d5238d819a956f1c5731317759f20162/libraries/archive/trafford_libraries_points.geojson","point_file_sha256":"f58f055fc2d7f5f365c264c11697ef622c9f516e45d56ee28f4658f83063d2b7","point_in_polygon":true,"source_name":"Sale Library","source_postcode":"M33 7ZF","source_address":"Sale Waterside, Sale"},"source_url":"https://github.com/traffordDataLab/open_data/blob/82d7d561d5238d819a956f1c5731317759f20162/libraries/archive/trafford_libraries_polygons.geojson","final_url":"https://github.com/traffordDataLab/open_data/blob/82d7d561d5238d819a956f1c5731317759f20162/libraries/archive/trafford_libraries_polygons.geojson","http_status":null,"http_status_note":"GitHub public-file connector read, numeric HTTP status unavailable","access_utc":"2026-10-09T06:06:48.600Z","data_date":"2018-06-06 (initial public dataset commit; survey date undocumented)","licence":"Open Government Licence v3.0; Trafford Council public-sector library data","source_sha256":"78e6cff070ce4af4abf89598a57ce6119036cf65c50d46e46f91f9684c612a21","source_sha256_scope":"full GeoJSON source file at pinned Git blob","evidence_slice_sha256":"a950a1c89ceeff0338707e9fe3dc2cafaa463cb2b86a5fe61a141f806162c107","confidence_score_0_100":72,"evidence_grade":"C","fake_data":false,"local_spatial_join_required":true}},{"type":"Feature","id":"trafford-library-archive-M337ZF-trafford-local-studies-centre","geometry":{"type":"Polygon","coordinates":[[[-2.319966,53.425489],[-2.319924,53.425613],[-2.319678,53.425591],[-2.319696,53.42547],[-2.319966,53.425489]]]},"properties":{"slot_id":"building_type_9","lineage_id":"building_type_9-20261001T200900Z-newstart","page_generation":1,"batch_id":"20261009T060648Z_TRAFFORD_COUNCIL_LIBRARY_POLYGONS_13","source_entity":"trafford-library-archive-M337ZF-trafford-local-studies-centre","source_reference":"Trafford Local Studies Centre|M33 7ZF","source_dataset":"Trafford Council archived library polygon dataset","source_organisation":"Trafford Council via Trafford Data Lab","building_evidence_status":"BUILDING_PRESENT","parcel_status":"UNPROCESSED","canonical_parcel_id":null,"building_type":"library","building_use":"library_or_local_studies_centre_as_of_2018_06","poi_accepted":false,"field_evidence":{"footprint":"Trafford Council internal library polygons, documented as polygon geometry and matched to council library Point within each polygon; physical-building delineation assumed from archive but exact survey method not documented","type":"Named Trafford library/centre supplied in official council dataset Name and Address","use":"Named library function in original council archived dataset, published 2018-06-06; no assertion of current use","point_url":"https://github.com/traffordDataLab/open_data/blob/82d7d561d5238d819a956f1c5731317759f20162/libraries/archive/trafford_libraries_points.geojson","point_file_sha256":"f58f055fc2d7f5f365c264c11697ef622c9f516e45d56ee28f4658f83063d2b7","point_in_polygon":true,"source_name":"Trafford Local Studies Centre","source_postcode":"M33 7ZF","source_address":"Sale Waterside, Sale"},"source_url":"https://github.com/traffordDataLab/open_data/blob/82d7d561d5238d819a956f1c5731317759f20162/libraries/archive/trafford_libraries_polygons.geojson","final_url":"https://github.com/traffordDataLab/open_data/blob/82d7d561d5238d819a956f1c5731317759f20162/libraries/archive/trafford_libraries_polygons.geojson","http_status":null,"http_status_note":"GitHub public-file connector read, numeric HTTP status unavailable","access_utc":"2026-10-09T06:06:48.600Z","data_date":"2018-06-06 (initial public dataset commit; survey date undocumented)","licence":"Open Government Licence v3.0; Trafford Council public-sector library data","source_sha256":"78e6cff070ce4af4abf89598a57ce6119036cf65c50d46e46f91f9684c612a21","source_sha256_scope":"full GeoJSON source file at pinned Git blob","evidence_slice_sha256":"37765a45a8f4f164a4310433401afb4705df74bb764cf1c606253496bc930374","confidence_score_0_100":72,"evidence_grade":"C","fake_data":false,"local_spatial_join_required":true}},{"type":"Feature","id":"trafford-library-archive-M328AP-stretford-library","geometry":{"type":"Polygon","coordinates":[[[-2.312727,53.445943],[-2.312721,53.446211],[-2.312316,53.446209],[-2.312319,53.445989],[-2.312362,53.445957],[-2.312426,53.445957],[-2.312432,53.445943],[-2.312727,53.445943]]]},"properties":{"slot_id":"building_type_9","lineage_id":"building_type_9-20261001T200900Z-newstart","page_generation":1,"batch_id":"20261009T060648Z_TRAFFORD_COUNCIL_LIBRARY_POLYGONS_13","source_entity":"trafford-library-archive-M328AP-stretford-library","source_reference":"Stretford Library|M32 8AP","source_dataset":"Trafford Council archived library polygon dataset","source_organisation":"Trafford Council via Trafford Data Lab","building_evidence_status":"BUILDING_PRESENT","parcel_status":"UNPROCESSED","canonical_parcel_id":null,"building_type":"library","building_use":"library_or_local_studies_centre_as_of_2018_06","poi_accepted":false,"field_evidence":{"footprint":"Trafford Council internal library polygons, documented as polygon geometry and matched to council library Point within each polygon; physical-building delineation assumed from archive but exact survey method not documented","type":"Named Trafford library/centre supplied in official council dataset Name and Address","use":"Named library function in original council archived dataset, published 2018-06-06; no assertion of current use","point_url":"https://github.com/traffordDataLab/open_data/blob/82d7d561d5238d819a956f1c5731317759f20162/libraries/archive/trafford_libraries_points.geojson","point_file_sha256":"f58f055fc2d7f5f365c264c11697ef622c9f516e45d56ee28f4658f83063d2b7","point_in_polygon":true,"source_name":"Stretford Library","source_postcode":"M32 8AP","source_address":"Kingsway, Stretford"},"source_url":"https://github.com/traffordDataLab/open_data/blob/82d7d561d5238d819a956f1c5731317759f20162/libraries/archive/trafford_libraries_polygons.geojson","final_url":"https://github.com/traffordDataLab/open_data/blob/82d7d561d5238d819a956f1c5731317759f20162/libraries/archive/trafford_libraries_polygons.geojson","http_status":null,"http_status_note":"GitHub public-file connector read, numeric HTTP status unavailable","access_utc":"2026-10-09T06:06:48.600Z","data_date":"2018-06-06 (initial public dataset commit; survey date undocumented)","licence":"Open Government Licence v3.0; Trafford Council public-sector library data","source_sha256":"78e6cff070ce4af4abf89598a57ce6119036cf65c50d46e46f91f9684c612a21","source_sha256_scope":"full GeoJSON source file at pinned Git blob","evidence_slice_sha256":"13e8fd6a1de4fb1c9a53101932632a2da26ca2a977885e72392b1baf1ca0e659","confidence_score_0_100":72,"evidence_grade":"C","fake_data":false,"local_spatial_join_required":true}},{"type":"Feature","id":"trafford-library-archive-M410NA-urmston-library","geometry":{"type":"Polygon","coordinates":[[[-2.353578,53.449517],[-2.353627,53.449624],[-2.353467,53.449646],[-2.353448,53.449602],[-2.353469,53.449598],[-2.353445,53.449538],[-2.353578,53.449517]]]},"properties":{"slot_id":"building_type_9","lineage_id":"building_type_9-20261001T200900Z-newstart","page_generation":1,"batch_id":"20261009T060648Z_TRAFFORD_COUNCIL_LIBRARY_POLYGONS_13","source_entity":"trafford-library-archive-M410NA-urmston-library","source_reference":"Urmston Library|M41 0NA","source_dataset":"Trafford Council archived library polygon dataset","source_organisation":"Trafford Council via Trafford Data Lab","building_evidence_status":"BUILDING_PRESENT","parcel_status":"UNPROCESSED","canonical_parcel_id":null,"building_type":"library","building_use":"library_or_local_studies_centre_as_of_2018_06","poi_accepted":false,"field_evidence":{"footprint":"Trafford Council internal library polygons, documented as polygon geometry and matched to council library Point within each polygon; physical-building delineation assumed from archive but exact survey method not documented","type":"Named Trafford library/centre supplied in official council dataset Name and Address","use":"Named library function in original council archived dataset, published 2018-06-06; no assertion of current use","point_url":"https://github.com/traffordDataLab/open_data/blob/82d7d561d5238d819a956f1c5731317759f20162/libraries/archive/trafford_libraries_points.geojson","point_file_sha256":"f58f055fc2d7f5f365c264c11697ef622c9f516e45d56ee28f4658f83063d2b7","point_in_polygon":true,"source_name":"Urmston Library","source_postcode":"M41 0NA","source_address":"Unit 3, Golden Way, Urmston"},"source_url":"https://github.com/traffordDataLab/open_data/blob/82d7d561d5238d819a956f1c5731317759f20162/libraries/archive/trafford_libraries_polygons.geojson","final_url":"https://github.com/traffordDataLab/open_data/blob/82d7d561d5238d819a956f1c5731317759f20162/libraries/archive/trafford_libraries_polygons.geojson","http_status":null,"http_status_note":"GitHub public-file connector read, numeric HTTP status unavailable","access_utc":"2026-10-09T06:06:48.600Z","data_date":"2018-06-06 (initial public dataset commit; survey date undocumented)","licence":"Open Government Licence v3.0; Trafford Council public-sector library data","source_sha256":"78e6cff070ce4af4abf89598a57ce6119036cf65c50d46e46f91f9684c612a21","source_sha256_scope":"full GeoJSON source file at pinned Git blob","evidence_slice_sha256":"8f783c7256830d9b6b35cad2cd574ae358940716e2eaec34fcf6cb443a6cee81","confidence_score_0_100":72,"evidence_grade":"C","fake_data":false,"local_spatial_join_required":true}},{"type":"Feature","id":"trafford-library-archive-M334ND-coppice-library","geometry":{"type":"Polygon","coordinates":[[[-2.351179,53.414279],[-2.351098,53.414283],[-2.351093,53.414253],[-2.351007,53.414258],[-2.350991,53.414157],[-2.351061,53.414155],[-2.351058,53.414115],[-2.350972,53.414119],[-2.350935,53.413924],[-2.351015,53.41392],[-2.351023,53.413972],[-2.351342,53.413959],[-2.351367,53.414087],[-2.351149,53.414101],[-2.351155,53.414135],[-2.351321,53.414128],[-2.351337,53.414224],[-2.351179,53.41424],[-2.351179,53.414279]]]},"properties":{"slot_id":"building_type_9","lineage_id":"building_type_9-20261001T200900Z-newstart","page_generation":1,"batch_id":"20261009T060648Z_TRAFFORD_COUNCIL_LIBRARY_POLYGONS_13","source_entity":"trafford-library-archive-M334ND-coppice-library","source_reference":"Coppice Library|M33 4ND","source_dataset":"Trafford Council archived library polygon dataset","source_organisation":"Trafford Council via Trafford Data Lab","building_evidence_status":"BUILDING_PRESENT","parcel_status":"UNPROCESSED","canonical_parcel_id":null,"building_type":"library","building_use":"library_or_local_studies_centre_as_of_2018_06","poi_accepted":false,"field_evidence":{"footprint":"Trafford Council internal library polygons, documented as polygon geometry and matched to council library Point within each polygon; physical-building delineation assumed from archive but exact survey method not documented","type":"Named Trafford library/centre supplied in official council dataset Name and Address","use":"Named library function in original council archived dataset, published 2018-06-06; no assertion of current use","point_url":"https://github.com/traffordDataLab/open_data/blob/82d7d561d5238d819a956f1c5731317759f20162/libraries/archive/trafford_libraries_points.geojson","point_file_sha256":"f58f055fc2d7f5f365c264c11697ef622c9f516e45d56ee28f4658f83063d2b7","point_in_polygon":true,"source_name":"Coppice Library","source_postcode":"M33 4ND","source_address":"Coppice Avenue, Sale"},"source_url":"https://github.com/traffordDataLab/open_data/blob/82d7d561d5238d819a956f1c5731317759f20162/libraries/archive/trafford_libraries_polygons.geojson","final_url":"https://github.com/traffordDataLab/open_data/blob/82d7d561d5238d819a956f1c5731317759f20162/libraries/archive/trafford_libraries_polygons.geojson","http_status":null,"http_status_note":"GitHub public-file connector read, numeric HTTP status unavailable","access_utc":"2026-10-09T06:06:48.600Z","data_date":"2018-06-06 (initial public dataset commit; survey date undocumented)","licence":"Open Government Licence v3.0; Trafford Council public-sector library data","source_sha256":"78e6cff070ce4af4abf89598a57ce6119036cf65c50d46e46f91f9684c612a21","source_sha256_scope":"full GeoJSON source file at pinned Git blob","evidence_slice_sha256":"aa50306494db248ba1335db3c2d7f80f5d41566736323bd5ac2e8dae78857dde","confidence_score_0_100":72,"evidence_grade":"C","fake_data":false,"local_spatial_join_required":true}},{"type":"Feature","id":"trafford-library-archive-M418GN-woodsend-library","geometry":{"type":"Polygon","coordinates":[[[-2.393389,53.453332],[-2.39323,53.453439],[-2.393214,53.453433],[-2.393147,53.453477],[-2.39297,53.453391],[-2.39304,53.453346],[-2.393024,53.453337],[-2.39319,53.453231],[-2.393389,53.453332]]]},"properties":{"slot_id":"building_type_9","lineage_id":"building_type_9-20261001T200900Z-newstart","page_generation":1,"batch_id":"20261009T060648Z_TRAFFORD_COUNCIL_LIBRARY_POLYGONS_13","source_entity":"trafford-library-archive-M418GN-woodsend-library","source_reference":"Woodsend Library|M41 8GN","source_dataset":"Trafford Council archived library polygon dataset","source_organisation":"Trafford Council via Trafford Data Lab","building_evidence_status":"BUILDING_PRESENT","parcel_status":"UNPROCESSED","canonical_parcel_id":null,"building_type":"library","building_use":"library_or_local_studies_centre_as_of_2018_06","poi_accepted":false,"field_evidence":{"footprint":"Trafford Council internal library polygons, documented as polygon geometry and matched to council library Point within each polygon; physical-building delineation assumed from archive but exact survey method not documented","type":"Named Trafford library/centre supplied in official council dataset Name and Address","use":"Named library function in original council archived dataset, published 2018-06-06; no assertion of current use","point_url":"https://github.com/traffordDataLab/open_data/blob/82d7d561d5238d819a956f1c5731317759f20162/libraries/archive/trafford_libraries_points.geojson","point_file_sha256":"f58f055fc2d7f5f365c264c11697ef622c9f516e45d56ee28f4658f83063d2b7","point_in_polygon":true,"source_name":"Woodsend Library","source_postcode":"M41 8GN","source_address":"Woodsend Road, Flixton"},"source_url":"https://github.com/traffordDataLab/open_data/blob/82d7d561d5238d819a956f1c5731317759f20162/libraries/archive/trafford_libraries_polygons.geojson","final_url":"https://github.com/traffordDataLab/open_data/blob/82d7d561d5238d819a956f1c5731317759f20162/libraries/archive/trafford_libraries_polygons.geojson","http_status":null,"http_status_note":"GitHub public-file connector read, numeric HTTP status unavailable","access_utc":"2026-10-09T06:06:48.600Z","data_date":"2018-06-06 (initial public dataset commit; survey date undocumented)","licence":"Open Government Licence v3.0; Trafford Council public-sector library data","source_sha256":"78e6cff070ce4af4abf89598a57ce6119036cf65c50d46e46f91f9684c612a21","source_sha256_scope":"full GeoJSON source file at pinned Git blob","evidence_slice_sha256":"bc172a104538f0da326f07029c9bf4cd47137ff94d887dd7553dc67195dbf8f1","confidence_score_0_100":72,"evidence_grade":"C","fake_data":false,"local_spatial_join_required":true}},{"type":"Feature","id":"trafford-library-archive-WA141EJ-altrincham-library","geometry":{"type":"Polygon","coordinates":[[[-2.348177,53.387792],[-2.348279,53.387696],[-2.348279,53.387664],[-2.348333,53.387651],[-2.348574,53.387757],[-2.348446,53.387878],[-2.348177,53.387792]]]},"properties":{"slot_id":"building_type_9","lineage_id":"building_type_9-20261001T200900Z-newstart","page_generation":1,"batch_id":"20261009T060648Z_TRAFFORD_COUNCIL_LIBRARY_POLYGONS_13","source_entity":"trafford-library-archive-WA141EJ-altrincham-library","source_reference":"Altrincham Library|WA14 1EJ","source_dataset":"Trafford Council archived library polygon dataset","source_organisation":"Trafford Council via Trafford Data Lab","building_evidence_status":"BUILDING_PRESENT","parcel_status":"UNPROCESSED","canonical_parcel_id":null,"building_type":"library","building_use":"library_or_local_studies_centre_as_of_2018_06","poi_accepted":false,"field_evidence":{"footprint":"Trafford Council internal library polygons, documented as polygon geometry and matched to council library Point within each polygon; physical-building delineation assumed from archive but exact survey method not documented","type":"Named Trafford library/centre supplied in official council dataset Name and Address","use":"Named library function in original council archived dataset, published 2018-06-06; no assertion of current use","point_url":"https://github.com/traffordDataLab/open_data/blob/82d7d561d5238d819a956f1c5731317759f20162/libraries/archive/trafford_libraries_points.geojson","point_file_sha256":"f58f055fc2d7f5f365c264c11697ef622c9f516e45d56ee28f4658f83063d2b7","point_in_polygon":true,"source_name":"Altrincham Library","source_postcode":"WA14 1EJ","source_address":"20 Stamford New Road, Altrincham"},"source_url":"https://github.com/traffordDataLab/open_data/blob/82d7d561d5238d819a956f1c5731317759f20162/libraries/archive/trafford_libraries_polygons.geojson","final_url":"https://github.com/traffordDataLab/open_data/blob/82d7d561d5238d819a956f1c5731317759f20162/libraries/archive/trafford_libraries_polygons.geojson","http_status":null,"http_status_note":"GitHub public-file connector read, numeric HTTP status unavailable","access_utc":"2026-10-09T06:06:48.600Z","data_date":"2018-06-06 (initial public dataset commit; survey date undocumented)","licence":"Open Government Licence v3.0; Trafford Council public-sector library data","source_sha256":"78e6cff070ce4af4abf89598a57ce6119036cf65c50d46e46f91f9684c612a21","source_sha256_scope":"full GeoJSON source file at pinned Git blob","evidence_slice_sha256":"be8fb37d9284fc1f9258e8894898ea07dbdd5670e964fab0fe4b822ed9230943","confidence_score_0_100":72,"evidence_grade":"C","fake_data":false,"local_spatial_join_required":true}},{"type":"Feature","id":"trafford-library-archive-WA159BG-hale-library","geometry":{"type":"Polygon","coordinates":[[[-2.344677,53.376773],[-2.344404,53.376621],[-2.344345,53.37666],[-2.3442,53.376581],[-2.344159,53.376604],[-2.3441,53.376573],[-2.344058,53.376597],[-2.344119,53.376633],[-2.344036,53.376687],[-2.344446,53.376914],[-2.344677,53.376773]]]},"properties":{"slot_id":"building_type_9","lineage_id":"building_type_9-20261001T200900Z-newstart","page_generation":1,"batch_id":"20261009T060648Z_TRAFFORD_COUNCIL_LIBRARY_POLYGONS_13","source_entity":"trafford-library-archive-WA159BG-hale-library","source_reference":"Hale Library|WA15 9BG","source_dataset":"Trafford Council archived library polygon dataset","source_organisation":"Trafford Council via Trafford Data Lab","building_evidence_status":"BUILDING_PRESENT","parcel_status":"UNPROCESSED","canonical_parcel_id":null,"building_type":"library","building_use":"library_or_local_studies_centre_as_of_2018_06","poi_accepted":false,"field_evidence":{"footprint":"Trafford Council internal library polygons, documented as polygon geometry and matched to council library Point within each polygon; physical-building delineation assumed from archive but exact survey method not documented","type":"Named Trafford library/centre supplied in official council dataset Name and Address","use":"Named library function in original council archived dataset, published 2018-06-06; no assertion of current use","point_url":"https://github.com/traffordDataLab/open_data/blob/82d7d561d5238d819a956f1c5731317759f20162/libraries/archive/trafford_libraries_points.geojson","point_file_sha256":"f58f055fc2d7f5f365c264c11697ef622c9f516e45d56ee28f4658f83063d2b7","point_in_polygon":true,"source_name":"Hale Library","source_postcode":"WA15 9BG","source_address":"Leigh Road, Hale"},"source_url":"https://github.com/traffordDataLab/open_data/blob/82d7d561d5238d819a956f1c5731317759f20162/libraries/archive/trafford_libraries_polygons.geojson","final_url":"https://github.com/traffordDataLab/open_data/blob/82d7d561d5238d819a956f1c5731317759f20162/libraries/archive/trafford_libraries_polygons.geojson","http_status":null,"http_status_note":"GitHub public-file connector read, numeric HTTP status unavailable","access_utc":"2026-10-09T06:06:48.600Z","data_date":"2018-06-06 (initial public dataset commit; survey date undocumented)","licence":"Open Government Licence v3.0; Trafford Council public-sector library data","source_sha256":"78e6cff070ce4af4abf89598a57ce6119036cf65c50d46e46f91f9684c612a21","source_sha256_scope":"full GeoJSON source file at pinned Git blob","evidence_slice_sha256":"7d8d9f5793c55beae8cad56cb334af310c0ccc7c0ee78126dfcf935000e3eaba","confidence_score_0_100":72,"evidence_grade":"C","fake_data":false,"local_spatial_join_required":true}},{"type":"Feature","id":"trafford-library-archive-M320TH-trafford-town-hall-library","geometry":{"type":"Polygon","coordinates":[[[-2.287297,53.458824],[-2.287283,53.458804],[-2.28724,53.458812],[-2.287179,53.458711],[-2.287219,53.458705],[-2.287208,53.458682],[-2.287235,53.458677],[-2.287262,53.458677],[-2.287297,53.458679],[-2.287318,53.458689],[-2.28734,53.458698],[-2.287358,53.458714],[-2.287372,53.458733],[-2.287377,53.458751],[-2.287377,53.45877],[-2.287364,53.458791],[-2.28734,53.458808],[-2.287297,53.458824]]]},"properties":{"slot_id":"building_type_9","lineage_id":"building_type_9-20261001T200900Z-newstart","page_generation":1,"batch_id":"20261009T060648Z_TRAFFORD_COUNCIL_LIBRARY_POLYGONS_13","source_entity":"trafford-library-archive-M320TH-trafford-town-hall-library","source_reference":"Trafford Town Hall Library|M32 0TH","source_dataset":"Trafford Council archived library polygon dataset","source_organisation":"Trafford Council via Trafford Data Lab","building_evidence_status":"BUILDING_PRESENT","parcel_status":"UNPROCESSED","canonical_parcel_id":null,"building_type":"library","building_use":"library_or_local_studies_centre_as_of_2018_06","poi_accepted":false,"field_evidence":{"footprint":"Trafford Council internal library polygons, documented as polygon geometry and matched to council library Point within each polygon; physical-building delineation assumed from archive but exact survey method not documented","type":"Named Trafford library/centre supplied in official council dataset Name and Address","use":"Named library function in original council archived dataset, published 2018-06-06; no assertion of current use","point_url":"https://github.com/traffordDataLab/open_data/blob/82d7d561d5238d819a956f1c5731317759f20162/libraries/archive/trafford_libraries_points.geojson","point_file_sha256":"f58f055fc2d7f5f365c264c11697ef622c9f516e45d56ee28f4658f83063d2b7","point_in_polygon":true,"source_name":"Trafford Town Hall Library","source_postcode":"M32 0TH","source_address":"Ground Floor, Trafford Town Hall, Talbot Road, Stretford"},"source_url":"https://github.com/traffordDataLab/open_data/blob/82d7d561d5238d819a956f1c5731317759f20162/libraries/archive/trafford_libraries_polygons.geojson","final_url":"https://github.com/traffordDataLab/open_data/blob/82d7d561d5238d819a956f1c5731317759f20162/libraries/archive/trafford_libraries_polygons.geojson","http_status":null,"http_status_note":"GitHub public-file connector read, numeric HTTP status unavailable","access_utc":"2026-10-09T06:06:48.600Z","data_date":"2018-06-06 (initial public dataset commit; survey date undocumented)","licence":"Open Government Licence v3.0; Trafford Council public-sector library data","source_sha256":"78e6cff070ce4af4abf89598a57ce6119036cf65c50d46e46f91f9684c612a21","source_sha256_scope":"full GeoJSON source file at pinned Git blob","evidence_slice_sha256":"c443a0a958519ff82c667e9ade5f08c4bcbede3b130d62f46be43adeede82527","confidence_score_0_100":72,"evidence_grade":"C","fake_data":false,"local_spatial_join_required":true}},{"type":"Feature","id":"trafford-library-archive-M314FY-partington-library-and-wellbeing-centre","geometry":{"type":"Polygon","coordinates":[[[-2.425645,53.417554],[-2.425718,53.417639],[-2.425493,53.41771],[-2.425602,53.417722],[-2.425586,53.417755],[-2.425554,53.417786],[-2.425495,53.417762],[-2.425449,53.417779],[-2.42546,53.417821],[-2.425396,53.417826],[-2.425334,53.417811],[-2.425205,53.417664],[-2.425436,53.417589],[-2.425455,53.41761],[-2.425645,53.417554]]]},"properties":{"slot_id":"building_type_9","lineage_id":"building_type_9-20261001T200900Z-newstart","page_generation":1,"batch_id":"20261009T060648Z_TRAFFORD_COUNCIL_LIBRARY_POLYGONS_13","source_entity":"trafford-library-archive-M314FY-partington-library-and-wellbeing-centre","source_reference":"Partington Library and Wellbeing Centre|M31 4FY","source_dataset":"Trafford Council archived library polygon dataset","source_organisation":"Trafford Council via Trafford Data Lab","building_evidence_status":"BUILDING_PRESENT","parcel_status":"UNPROCESSED","canonical_parcel_id":null,"building_type":"library","building_use":"library_or_local_studies_centre_as_of_2018_06","poi_accepted":false,"field_evidence":{"footprint":"Trafford Council internal library polygons, documented as polygon geometry and matched to council library Point within each polygon; physical-building delineation assumed from archive but exact survey method not documented","type":"Named Trafford library/centre supplied in official council dataset Name and Address","use":"Named library function in original council archived dataset, published 2018-06-06; no assertion of current use","point_url":"https://github.com/traffordDataLab/open_data/blob/82d7d561d5238d819a956f1c5731317759f20162/libraries/archive/trafford_libraries_points.geojson","point_file_sha256":"f58f055fc2d7f5f365c264c11697ef622c9f516e45d56ee28f4658f83063d2b7","point_in_polygon":true,"source_name":"Partington Library and Wellbeing Centre","source_postcode":"M31 4FY","source_address":"Central Road, Partington"},"source_url":"https://github.com/traffordDataLab/open_data/blob/82d7d561d5238d819a956f1c5731317759f20162/libraries/archive/trafford_libraries_polygons.geojson","final_url":"https://github.com/traffordDataLab/open_data/blob/82d7d561d5238d819a956f1c5731317759f20162/libraries/archive/trafford_libraries_polygons.geojson","http_status":null,"http_status_note":"GitHub public-file connector read, numeric HTTP status unavailable","access_utc":"2026-10-09T06:06:48.600Z","data_date":"2018-06-06 (initial public dataset commit; survey date undocumented)","licence":"Open Government Licence v3.0; Trafford Council public-sector library data","source_sha256":"78e6cff070ce4af4abf89598a57ce6119036cf65c50d46e46f91f9684c612a21","source_sha256_scope":"full GeoJSON source file at pinned Git blob","evidence_slice_sha256":"5be1ce6948b07304fbb5b4de7ef2ae0c10b8375ad0173eea40cf05eceaaa54be","confidence_score_0_100":72,"evidence_grade":"C","fake_data":false,"local_spatial_join_required":true}}]}
