{"type":"FeatureCollection","features":[{"type":"Feature","geometry":{"type":"MultiPolygon","coordinates":[[[[-5.053961,50.424506],[-5.054014,50.424501],[-5.054098,50.424472],[-5.054176,50.424458],[-5.053852,50.424189],[-5.053597,50.424313],[-5.053767,50.424465],[-5.053961,50.424506]]]]},"properties":{"slot_id":"future_growth_ 2","lineage_id":"future_growth_ 2-newstart-20261001T203100Z","page_generation":1,"owner":"future_growth_ 2","partition":"future_growth","semantic_mode":"SOURCE_AREA_EXACT_IDENTIFIER","accepted_as_parcel":false,"source_area_count_contribution":1,"exact_identifier":"BR293","exact_identifier_provided":true,"coverage_polygon_provided":true,"identifier_namespace":"Planning Data brownfield-site reference","access_utc":"2026-10-06T07:52:00Z","data_date":"2023-12-12","source_url":"https://www.planning.data.gov.uk/entity/1802819","final_url":"https://www.planning.data.gov.uk/entity/1802819","dataset_url":"https://www.planning.data.gov.uk/dataset/brownfield-site","license":"Open Government Licence v3.0","authority":"Cornwall Council","site_address":"15 Alexandra Road, Newquay, Cornwall, TR7 3ND","hectares":null,"point":{"type":"Point","coordinates":[-5.053875,50.424366]},"maximum_net_dwellings":null,"minimum_net_dwellings":null,"planning_permission_status":null,"confidence_score_0_100":99,"confidence":0.99,"evidence_grade":"A","evidence_scope":"official_coverage_polygon","field_evidence":{"dataset":"brownfield-site","reference":"BR293","name":"15 Alexandra Road, Newquay, Cornwall, TR7 3ND","organisation":"Cornwall Council","start_date":"2023-12-12","entry_date":"2023-12-12","quality":"authoritative","point":"POINT (-5.053875 50.424366)","geometry_wkt":"MULTIPOLYGON (((-5.053961 50.424506, -5.054014 50.424501, -5.054098 50.424472, -5.054176 50.424458, -5.053852 50.424189, -5.053597 50.424313, -5.053767 50.424465, -5.053961 50.424506)))"},"evidence_slice_sha256":"210489e2c32e52307af841b54cc23382b361200ebe7996f431cabd8ad6b2da63","fake_data":false,"spatial_binding_method":"authoritative official MultiPolygon coverage area; canonical parcel spatial join/materialization delegated to local OpenCode","planned_building_count_contribution":0}}]}