{"type":"FeatureCollection","features":[{"type":"Feature","id":"PLANNINGDATA_LBO_42121158","geometry":{"type":"MultiPolygon","coordinates":[[[[-0.230154,51.588236],[-0.229975,51.588211],[-0.229973,51.588218],[-0.229481,51.588147],[-0.229465,51.588181],[-0.229224,51.588144],[-0.229137,51.588115],[-0.228946,51.588353],[-0.229749,51.588598],[-0.229745,51.588603],[-0.229913,51.588653],[-0.230026,51.588506],[-0.22996,51.588485],[-0.229863,51.588457],[-0.229847,51.588478],[-0.229747,51.588447],[-0.229855,51.588315],[-0.229933,51.588327],[-0.229917,51.588371],[-0.230093,51.588396],[-0.230154,51.588236]]]]},"properties":{"slot_id":"building_type_3","lineage_id":"building_type_3-new-20260927T1328+0300","batch_id":"BT3-P76G61-20261005-PLANNINGDATA-LBO42121158","cursor":"BT3-P76G61-20261005-PLANNINGDATA-LBO42121158-p76","building_state":"BUILDING_PRESENT","source_record_id":"reference=1294762;outline_entity=42121158","entity":42121158,"reference":"1294762","name":"HENDON TOWN HALL","building_type_use":"town_hall","type_use_evidence":"official_name_exact=HENDON TOWN HALL","dataset":"listed-building-outline","quality":"authoritative","start_date":"2002-04-03","entry_date":"2026-09-07","organisation":"London Borough of Barnet","listed_building":"1294762","source_url":"https://www.planning.data.gov.uk/entity/42121158","final_url":"https://www.planning.data.gov.uk/entity/42121158","source_version":"Planning Data listed-building-outline entity 42121158 reference 1294762; authoritative London Borough of Barnet record","access_utc":"2026-10-05T14:12:52Z","data_date":"2002-04-03","license":"Open Government Licence v3.0; © Crown copyright and database right 2026","source_file_sha256":"6b8ff8d49bcd48915338ae1bc59c4689298da8105bca12189173cded7e64975d","evidence_slice_sha256":"ae493a608c00061fcb75963afa348f57e88167a846b9c36ffc04c0dd27abb57f","field_evidence":["entity","reference","name","quality","dataset","organisation","start-date","entry-date","geometry","point","listed-building"],"confidence_score_0_100":99,"evidence_grade":"A_OFFICIAL_GOVERNMENT_BUILDING_OUTLINE_AND_NAMED_TYPE_USE","fake_data":false}}]}
