{"type":"FeatureCollection","features":[{"type":"Feature","geometry":{"type":"MultiPolygon","coordinates":[[[[-1.112495,53.513379],[-1.11167,53.513654],[-1.110815,53.513943],[-1.110972,53.514291],[-1.111035,53.514421],[-1.111043,53.514453],[-1.111042,53.514468],[-1.11103,53.51451],[-1.111016,53.514533],[-1.111509,53.514549],[-1.113058,53.514593],[-1.113,53.514468],[-1.112951,53.514357],[-1.112716,53.513847],[-1.112708,53.513827],[-1.112498,53.513378],[-1.112495,53.513379]]]]},"properties":{"slot_id":"future_growth_ 2","lineage_id":"future_growth_ 2-newstart-20261001T203100Z","page_generation":1,"owner":"future_growth_ 2","partition":"future_growth","semantic_mode":"SOURCE_AREA_EXACT_IDENTIFIER","accepted_as_parcel":false,"source_area_count_contribution":1,"exact_identifier":"79","exact_identifier_provided":true,"coverage_polygon_provided":true,"identifier_namespace":"Planning Data brownfield-site reference","access_utc":"2026-10-04T03:44:00Z","data_date":"2025-12-03","source_url":"https://www.planning.data.gov.uk/entity/1802746","final_url":"https://www.planning.data.gov.uk/entity/1802746","dataset_url":"https://www.planning.data.gov.uk/dataset/brownfield-site","license":"Open Government Licence v3.0","authority":"Doncaster Metropolitan Borough Council","site_address":"West of Sandy Lane","hectares":null,"point":"POINT (-1.111968 53.514098)","maximum_net_dwellings":null,"minimum_net_dwellings":null,"planning_permission_status":null,"confidence_score_0_100":99,"confidence":0.99,"evidence_grade":"A","evidence_scope":"official_coverage_polygon","field_evidence":{"dataset":"brownfield-site","entity":1802746,"entry_date":"2025-12-03","geometry_type":"MultiPolygon","organisation":"Doncaster Metropolitan Borough Council","point":"POINT (-1.111968 53.514098)","quality":"authoritative","reference":"79","site_name":"West of Sandy Lane"},"evidence_slice_sha256":"662ed2796092033de7639e59155e20ea200863803c4230629edf4cb1c86b8dad","fake_data":false,"spatial_binding_method":"authoritative official Planning Data brownfield-site MultiPolygon; canonical parcel spatial join/materialization delegated to local OpenCode","planned_building_count_contribution":0}}]}