{"type":"FeatureCollection","features":[{"type":"Feature","geometry":null,"properties":{"slot_id":"planned_buildings_1","lineage_id":"planned_buildings_1-0ffc4ebd6c6e4e41","semantic_mode":"DISTINCT_BUILDINGS","planned_building_id":"planning-application:RB2026/1234::DWELLING_01","building_status":"PLANNED","building_name":"Residential dwelling 1, 241 Wickersley Road Herringthorpe","planning_reference":"RB2026/1234","authority":"Rotherham Metropolitan Borough Council","source_url":"https://planning.rotherham.gov.uk/detail.asp?AltRef=RB2026%2F1234","final_url":"https://planning.rotherham.gov.uk/detail.asp?AltRef=RB2026%2F1234","access_utc":"2026-10-02T13:25:00Z","source_data_date":"2026-09-02","license":"Open Government Licence v3.0","geometry_role":"official planning page exposes no machine-readable point or building footprint; geometry null; no geometry inferred","field_evidence":"Official Registered/Valid application explicitly states erection of two residential dwellings; the official page states no decision.","identity_limitation":"Exactly two new dwellings are counted. Garages described for demolition, the two storey side/rear extension and associated parking are not counted as separate new buildings.","confidence_score_0_100":98,"evidence_grade":"A","fake_data":false}},{"type":"Feature","geometry":null,"properties":{"slot_id":"planned_buildings_1","lineage_id":"planned_buildings_1-0ffc4ebd6c6e4e41","semantic_mode":"DISTINCT_BUILDINGS","planned_building_id":"planning-application:RB2026/1234::DWELLING_02","building_status":"PLANNED","building_name":"Residential dwelling 2, 241 Wickersley Road Herringthorpe","planning_reference":"RB2026/1234","authority":"Rotherham Metropolitan Borough Council","source_url":"https://planning.rotherham.gov.uk/detail.asp?AltRef=RB2026%2F1234","final_url":"https://planning.rotherham.gov.uk/detail.asp?AltRef=RB2026%2F1234","access_utc":"2026-10-02T13:25:00Z","source_data_date":"2026-09-02","license":"Open Government Licence v3.0","geometry_role":"official planning page exposes no machine-readable point or building footprint; geometry null; no geometry inferred","field_evidence":"Official Registered/Valid application explicitly states erection of two residential dwellings; the official page states no decision.","identity_limitation":"Exactly two new dwellings are counted. Garages described for demolition, the two storey side/rear extension and associated parking are not counted as separate new buildings.","confidence_score_0_100":98,"evidence_grade":"A","fake_data":false}}]}
