{"type":"FeatureCollection","features":[{"type":"Feature","geometry":null,"properties":{"slot_id":"future_growth_7","lineage_id":"future_growth_7_open_source_v2_20260813","page_generation":null,"batch_id":"batch_20261004T120300Z_bfl1725948","official_entity_id":1725948,"official_reference":"WL005","dataset":"brownfield-land","organisation":"West Lancashire Borough Council","source_url":"https://www.planning.data.gov.uk/entity/1725948","final_url":"https://www.planning.data.gov.uk/entity/1725948","accessed_utc":"2026-10-04T12:03:00Z","data_date":"2020-12-23","licence":"Open Government Licence v3.0","source_sha256":"26226bb5cac4ebf33784b3c2d54668892fd18a7b00687c2ea0584535518ec64c","source_sha256_basis":"canonical_official_field_evidence_json","field_evidence":{"entry-date":"2020-12-23","start-date":"2016-08-03","end-date":"","entity":1725948,"name":"WL005","dataset":"brownfield-land","typology":"geography","reference":"WL005","prefix":"brownfield-land","organisation-entity":"371","geometry":"","point":"POINT (-2.768379 53.541465)","quality":"authoritative","notes":"Local Development Order 2015/1327/LDO (45 dwellings) 'granted' 15 March 2016. Planning permission for 72 dwellings (2017/0665/FUL) granted permission 15 December 2017. Site under construction.. 72 dwelling houses including access and associated infrastructure.","hectares":"2.56","deliverable":"yes","site-address":"Site of Former Sports Centre, Digmoor Road, Skelmersdale","ownership-status":"not-owned-by-a-public-authority","planning-permission-date":"2017-12-15","planning-permission-type":"full-planning-permission","planning-permission-status":"permissioned","planning-permission-history":"https://pa.westlancs.gov.uk/online-applications/applicationDetails.do?activeTab=summary&keyVal=O3GNU6RH00300","organisation-curie":"local-authority:WLA"},"evidence_slice_sha256":"ac0938b462ee74d4e8595c743b4c0a81c4520b12d7a29836fe943a9f499f40b2","evidence_grade":"A_EXACT_OFFICIAL_IDENTIFIER","confidence_score_0_100":97,"official_geometry_available":false,"official_geometry_type":null,"source_geometry_materialized_here":false,"point_not_used_as_coverage":true,"source_area_basis":"exact official brownfield-land identifier; point not used as coverage","source_area_only":true,"fake_data":false}}]}
