{"type":"FeatureCollection","features":[{"type":"Feature","geometry":null,"properties":{"slot_id":"future_growth_1","lineage_id":"future_growth_1-newstart-20260927T153100+0300","page_generation":null,"accepted_as_parcel":false,"source_area_count_contribution":1,"exact_identifier":"Parcel 2A","exact_identifier_provided":true,"coverage_polygon_provided":false,"identifier_namespace":"Northstowe Phase 2 development parcel","site_name":"Northstowe Phase 2, Parcel 2A","access_utc":"2026-10-04T06:38:00Z","data_date":"2026-04","source_url":"https://democracy.cambridge.gov.uk/documents/s72635/Appendix%201%20GC%20HT%20HLS%20FINAL%20April%202026.pdf","final_url":"https://democracy.cambridge.gov.uk/documents/s72635/Appendix%201%20GC%20HT%20HLS%20FINAL%20April%202026.pdf","license":"Publicly accessible Greater Cambridge local-authority housing-land-supply report; document-specific reuse licence not stated on the public committee document.","authority":"Greater Cambridge Shared Planning","site_reference":"Parcel 2A","planning_reference":"S/3499/19/RM","planning_permission_status":"detailed planning permission approved February 2020","permissioned_dwellings":406,"completed_dwellings_at_march_2025":43,"not_started_dwellings_at_march_2025":363,"master_developer":"Homes England","former_delivery_partner":"Urban Splash","trajectory_additional_dwellings":334,"anticipated_reserved_matters_application":"summer 2026","anticipated_remainder_construction_start":"2027-02","anticipated_first_remaining_completions":2027,"anticipated_parcel_completion":2030,"delivery_assessment":"deliverable and developable","evidence_grade":"A","confidence_score_0_100":99,"evidence_scope":"exact Northstowe Phase 2 Parcel 2A delivery record in the April 2026 Greater Cambridge Housing Trajectory, including planning reference S/3499/19/RM and Homes England master-developer programme","evidence_slice_sha256":"28b123134bb24ce815d6783668c2412f972e2e42f291a4233c3318f538ab2f1e","fake_data":false,"spatial_binding_method":"official Parcel 2A exact development identifier plus planning reference S/3499/19/RM; exact boundary extraction, canonical parcel spatial join and materialization delegated to local OpenCode","planned_building_count_contribution":0}}]}