{"type":"FeatureCollection","name":"height_difference_5","metadata":{"slot_id":"height_difference_5","owner":"height_difference_5","lineage_id":"height_difference_5-eb56f92ed3f0514c","page_generation":1,"schema":"AAYS_LAYER24_EVIDENCE_V1","partition":"layer24","semantic_mode_state":"ABSENT_IN_PRIOR_PHYSICAL_STATE_PRESERVED_BY_OMISSION","batch_id":"20261006T031700Z_eu_data_portal_belfast_2006_metadata_blocked","record_policy":"Official EU Data Portal dataset metadata evidence only; no archive-internal tile/file, parcel binding, geometry or CRS synthesized.","fake_data":false},"features":[{"type":"Feature","geometry":null,"properties":{"slot_id":"height_difference_5","owner":"height_difference_5","lineage_id":"height_difference_5-eb56f92ed3f0514c","page_generation":1,"schema":"AAYS_LAYER24_EVIDENCE_V1","partition":"layer24","batch_id":"20261006T031700Z_eu_data_portal_belfast_2006_metadata_blocked","source_record_id":"EU_DATA_PORTAL:BELFAST_2006_DATASET","source_url":"https://data.europa.eu/data/datasets/lidar-belfast-city-2006?locale=en","uri_ref":"http://data.europa.eu/88u/dataset/lidar-belfast-city-2006","access_utc":"2026-10-06T03:17:00Z","required_building_state":"BUILDING_PRESENT","binding_status":"LOCAL_OPENCODE_BUILDING_PRESENT_EXACT_TILE_BIND_REQUIRED","metadata_transport_status":"EU_PORTAL_SEARCH_METADATA_AVAILABLE_DIRECT_DATASET_PAGE_BODY_NOT_USABLE","exact_tile_identifier":null,"crs":null,"evidence_slice_sha256":"d7eb1bc047f49f3637a49bad39b0d7fb7f732bf544366965112f1f845e0884a1","accepted_count_contribution":0,"source_area_count_contribution":0,"fake_data":false}}]}
