{
  "type": "FeatureCollection",
  "features": [
    {
      "type": "Feature",
      "geometry": {
        "type": "MultiPolygon",
        "coordinates": [
          [
            [
              [
                -1.136779,
                53.521191
              ],
              [
                -1.136831,
                53.521215
              ],
              [
                -1.136847,
                53.521186
              ],
              [
                -1.136951,
                53.521209
              ],
              [
                -1.136964,
                53.52118
              ],
              [
                -1.136671,
                53.520817
              ],
              [
                -1.136526,
                53.520651
              ],
              [
                -1.136379,
                53.520586
              ],
              [
                -1.136261,
                53.520661
              ],
              [
                -1.136185,
                53.520627
              ],
              [
                -1.136125,
                53.52062
              ],
              [
                -1.135946,
                53.520745
              ],
              [
                -1.136549,
                53.521074
              ],
              [
                -1.136779,
                53.521191
              ]
            ]
          ]
        ]
      },
      "properties": {
        "slot_id": "future_growth_3",
        "lineage_id": "future_growth_3-newstart-20261001T203100Z",
        "page_generation": "null",
        "accepted_as_parcel": false,
        "source_area_count_contribution": 1,
        "exact_identifier": "56",
        "exact_identifier_provided": true,
        "coverage_polygon_provided": true,
        "identifier_namespace": "Planning Data brownfield-site reference",
        "secondary_exact_identifier": "entity:1802723",
        "source_entity": "56 - 1 - 7 Portland Place, Doncaster, DN1 3DF",
        "source_url": "https://www.planning.data.gov.uk/entity/1802723",
        "final_url": "https://www.planning.data.gov.uk/entity/1802723",
        "access_utc": "2026-10-08T04:36:43Z",
        "data_date": "2025-12-03",
        "license": "Open Government Licence v3.0; © Crown copyright and database right 2026",
        "authority": "Doncaster Metropolitan Borough Council",
        "site_address": "1 - 7 Portland Place, Doncaster, DN1 3DF",
        "field_evidence": {
          "entry-date": "2025-12-03",
          "start-date": "",
          "end-date": "",
          "entity": 1802723,
          "name": "1 - 7 Portland Place, Doncaster, DN1 3DF",
          "dataset": "brownfield-site",
          "typology": "geography",
          "reference": "56",
          "prefix": "brownfield-site",
          "organisation-entity": "109",
          "geometry": "MULTIPOLYGON (((-1.136779 53.521191, -1.136831 53.521215, -1.136847 53.521186, -1.136951 53.521209, -1.136964 53.52118, -1.136671 53.520817, -1.136526 53.520651, -1.136379 53.520586, -1.136261 53.520661, -1.136185 53.520627, -1.136125 53.52062, -1.135946 53.520745, -1.136549 53.521074, -1.136779 53.521191)))",
          "point": "POINT (-1.136469 53.520872)",
          "quality": "authoritative",
          "brownfield-site": "56",
          "organisation-curie": "local-authority:DNC"
        },
        "source_payload_sha256": "f045c2e22a8c674c2cca70448f4b2976f9b157c723e1a2d4a39f429a38ac2eba",
        "source_payload_sha256_basis": "canonical JSON serialization of official Planning Data entity field_evidence",
        "evidence_slice_sha256": "4f3fe93e7179f70d52b13e2857afeeaa769ce985e4305f0588de4aad04f9f0f4",
        "evidence_grade": "A",
        "confidence_score_0_100": 99,
        "evidence_scope": "official_polygon_from_planning_data_brownfield_site_entity",
        "fake_data": false,
        "spatial_binding_method": "Official Planning Data published WKT MultiPolygon; spatial join to canonical parcels delegated to local OpenCode",
        "planned_building_count_contribution": 0
      }
    }
  ]
}
