{"type":"FeatureCollection","features":[{"type":"Feature","geometry":{"type":"MultiPolygon","coordinates":[[[[-0.015871,51.465785],[-0.016357,51.465054],[-0.016291,51.465041],[-0.016033,51.464959],[-0.016109,51.464714],[-0.015855,51.464651],[-0.015691,51.464649],[-0.014677,51.464644],[-0.014685,51.464959],[-0.014697,51.465123],[-0.014708,51.465158],[-0.014789,51.465293],[-0.014863,51.465364],[-0.014929,51.465407],[-0.015092,51.465502],[-0.015288,51.465601],[-0.015314,51.465609],[-0.015756,51.465771],[-0.015871,51.465785]]]]},"properties":{"slot_id":"future_growth_1","lineage_id":"future_growth_1-newstart-20260927T153100+0300","page_generation":null,"semantic_mode":"AREA_JOIN","source_window":"mhclg_lewisham_brownfield_LC015_entity1802271_2020-12-22","semantic_identity":"brownfield-site:LC015|local-authority:LEW|2020-12-22","source_url":"https://www.planning.data.gov.uk/entity/1802271","final_url":"https://www.planning.data.gov.uk/entity/1802271","final_url_status":"Canonical public page; no redirect detected","http_status":null,"http_status_reason":"Origin HTTP status not provided by retrieval","access_utc":"2026-10-08T08:05:12.263Z","data_date":"2020-12-22","data_date_basis":"Official entity entry date; start/end date blank","license":"Open Government Licence v3.0","license_evidence_url":"https://www.planning.data.gov.uk/dataset/brownfield-site","field_evidence":{"entry-date":"2020-12-22","start-date":"","end-date":"","entity":1802271,"name":"Lewisham Retail Park, east of Jerrard Street","dataset":"brownfield-site","typology":"geography","reference":"LC015","prefix":"brownfield-site","organisation-entity":198,"geometry":"MULTIPOLYGON (((-0.015871 51.465785, -0.016357 51.465054, -0.016291 51.465041, -0.016033 51.464959, -0.016109 51.464714, -0.015855 51.464651, -0.015691 51.464649, -0.014677 51.464644, -0.014685 51.464959, -0.014697 51.465123, -0.014708 51.465158, -0.014789 51.465293, -0.014863 51.465364, -0.014929 51.465407, -0.015092 51.465502, -0.015288 51.465601, -0.015314 51.465609, -0.015756 51.465771, -0.015871 51.465785)))","point":"POINT (-0.015474 51.465128)","quality":"some","brownfield-site":"LC015"},"evidence_slice_sha256":"f05e8fd3f502ab7ee0ce7809efb83c62dd058422c4df9c263219c07ab2b012f8","confidence_score_0_100":89,"evidence_grade":"B","fake_data":false,"source_area_count_contribution":1,"accepted_as_parcel":false,"exact_identifier":"LC015","exact_identifier_provided":true,"identifier_namespace":"MHCLG brownfield-site","coverage_polygon_provided":true,"geometry_type":"MultiPolygon","geometry_crs":"EPSG:4326","source_file_sha256":null,"source_file_sha256_reason":"Original official GeoJSON download unavailable (cache miss); WKT from public official entity webpage","spatial_binding_method":"Source MultiPolygon; canonical parcel spatial join delegated to local OpenCode","planned_building_count_contribution":0}}]}