{"type":"FeatureCollection","features":[{"type":"Feature","id":"CHERWELL_26_01930_F_FLATS_BUILDING_01","geometry":null,"properties":{"slot_id":"planned_buildings_4","owner":"planned_buildings_4","lineage_id":"pb4-8debc7c8ddf348a2","page_generation":1,"partition":"layer24","schema":"AAYS_LAYER24_EVIDENCE_V1","semantic_mode":"PLANNED_BUILDINGS_OFFICIAL_REFERENCE_DISTINCT_STRUCTURE","batch_id":"20261002T152231Z-cherwell-26-01930-f-window-001","publisher":"Cherwell District Council","source_family":"CHERWELL_PLANNING_REGISTER","source_url":"https://planningregister.cherwell.gov.uk/Planning/Display/26/01930/F","final_url":"https://planningregister.cherwell.gov.uk/Planning/Display/26/01930/F","access_utc":"2026-10-02T15:22:31Z","data_date":"2026-08-20","license":"Public planning register; document copyright/usage remains governed by council register terms","planning_reference":"26/01930/F","location":"89 Oxford Road Kidlington Oxfordshire OX5 2NP","proposal":"Demolition of existing dwelling and erection of a building consisting of 4 no two bedroom flats and associated bin/bike store and amenity space","status":"Under Consultation","geometry_status":"NOT_MATERIALIZED_LOCAL_OPENCODE","field_evidence":"Official Cherwell District Council Planning Register application 26/01930/F. Application Type: Full Development. Status: Under Consultation. Valid date: 20/08/2026. Location: 89 Oxford Road Kidlington Oxfordshire OX5 2NP. Proposal: Demolition of existing dwelling and erection of a building consisting of 4 no two bedroom flats and associated bin/bike store and amenity space. Decision and Decision Issued Date are blank. Official documents list 250043-89 Oxford Road-003-Rev A-Proposed Site Plan.pdf as Proposed Site Plan (drawing/revision 250043 A PR 003 - A), 250043-89 Oxford Road-100-Proposed Ground and First Floor Plans.pdf as Proposed Ground/First Floor Plans (250043 A PR 100), 250043-89 Oxford Road-101-Proposed Roof Plan.pdf as Proposed Roof Plan (250043 A PR 101), and 250043-89 Oxford Road-200-Proposed Elevations.pdf as Proposed Elevations (250043 A PR 200). Two distinct planned structures are counted from the official proposal: the main building containing four two-bedroom flats and the associated bin/bike store. The main building is supported by the dedicated proposed floor, roof and elevation drawings; the associated bin/bike store is separately identified in the official proposal and site-level proposed plan. Geometry/materialization is deferred to local OpenCode.","evidence_slice_sha256":"9e46e93e1df17213b2ea19d49aa000a8659c7d4e6544830bcf5f44c065b1ebff","confidence":0.99,"evidence_grade":"A_OFFICIAL_LOCAL_AUTHORITY_PLANNING_REGISTER_DISTINCT_FLATS_BUILDING_AND_BIN_BIKE_STORE","fake_data":false,"source_record_id":"CHERWELL_26_01930_F_FLATS_BUILDING_01","planned_building":"building containing four two-bedroom flats","official_plan_reference":"250043 A PR 100","official_plan_description":"Proposed Ground/First Floor Plans"}},{"type":"Feature","id":"CHERWELL_26_01930_F_BIN_BIKE_STORE_02","geometry":null,"properties":{"slot_id":"planned_buildings_4","owner":"planned_buildings_4","lineage_id":"pb4-8debc7c8ddf348a2","page_generation":1,"partition":"layer24","schema":"AAYS_LAYER24_EVIDENCE_V1","semantic_mode":"PLANNED_BUILDINGS_OFFICIAL_REFERENCE_DISTINCT_STRUCTURE","batch_id":"20261002T152231Z-cherwell-26-01930-f-window-001","publisher":"Cherwell District Council","source_family":"CHERWELL_PLANNING_REGISTER","source_url":"https://planningregister.cherwell.gov.uk/Planning/Display/26/01930/F","final_url":"https://planningregister.cherwell.gov.uk/Planning/Display/26/01930/F","access_utc":"2026-10-02T15:22:31Z","data_date":"2026-08-20","license":"Public planning register; document copyright/usage remains governed by council register terms","planning_reference":"26/01930/F","location":"89 Oxford Road Kidlington Oxfordshire OX5 2NP","proposal":"Demolition of existing dwelling and erection of a building consisting of 4 no two bedroom flats and associated bin/bike store and amenity space","status":"Under Consultation","geometry_status":"NOT_MATERIALIZED_LOCAL_OPENCODE","field_evidence":"Official Cherwell District Council Planning Register application 26/01930/F. Application Type: Full Development. Status: Under Consultation. Valid date: 20/08/2026. Location: 89 Oxford Road Kidlington Oxfordshire OX5 2NP. Proposal: Demolition of existing dwelling and erection of a building consisting of 4 no two bedroom flats and associated bin/bike store and amenity space. Decision and Decision Issued Date are blank. Official documents list 250043-89 Oxford Road-003-Rev A-Proposed Site Plan.pdf as Proposed Site Plan (drawing/revision 250043 A PR 003 - A), 250043-89 Oxford Road-100-Proposed Ground and First Floor Plans.pdf as Proposed Ground/First Floor Plans (250043 A PR 100), 250043-89 Oxford Road-101-Proposed Roof Plan.pdf as Proposed Roof Plan (250043 A PR 101), and 250043-89 Oxford Road-200-Proposed Elevations.pdf as Proposed Elevations (250043 A PR 200). Two distinct planned structures are counted from the official proposal: the main building containing four two-bedroom flats and the associated bin/bike store. The main building is supported by the dedicated proposed floor, roof and elevation drawings; the associated bin/bike store is separately identified in the official proposal and site-level proposed plan. Geometry/materialization is deferred to local OpenCode.","evidence_slice_sha256":"9e46e93e1df17213b2ea19d49aa000a8659c7d4e6544830bcf5f44c065b1ebff","confidence":0.99,"evidence_grade":"A_OFFICIAL_LOCAL_AUTHORITY_PLANNING_REGISTER_DISTINCT_FLATS_BUILDING_AND_BIN_BIKE_STORE","fake_data":false,"source_record_id":"CHERWELL_26_01930_F_BIN_BIKE_STORE_02","planned_building":"associated bin/bike store","official_plan_reference":"250043 A PR 003","official_plan_description":"Proposed Site Plan"}}]}
