{"type":"FeatureCollection","features":[{"type":"Feature","geometry":null,"properties":{"slot_id":"future_growth_3","lineage_id":"future_growth_3-newstart-20261001T203100Z","page_generation":null,"accepted_as_parcel":false,"source_area_count_contribution":1,"exact_identifier":"West Wittering","exact_identifier_provided":true,"coverage_polygon_provided":false,"identifier_namespace":"Peterborough Draft Local Plan Alternative Site Option 2026","secondary_exact_identifier":"Draft Local Plan - Alternative Site Option Consultation","source_entity":"West Wittering - Alternative Site Option","access_utc":"2026-10-05T07:25:51Z","data_date":"2026-01-23","source_url":"https://www.peterborough.gov.uk/engagement-hub/draft-local-plan-alternative-site-option-consultation","final_url":"https://www.peterborough.gov.uk/engagement-hub/draft-local-plan-alternative-site-option-consultation","license":"Peterborough City Council retains copyright; re-use is subject to Council RPSI/copyright terms; Council datasets are available under Open Government Licence v3.0 where stated.","authority":"Peterborough City Council","site_address":"Land at West Wittering, Peterborough","field_evidence":{"reference":"West Wittering","dataset":"Draft Local Plan - Alternative Site Option Consultation","organisation":"Peterborough City Council","site_name":"Land at West Wittering","consultation_open_date":"2026-01-23","consultation_close_date":"2026-03-05","alternative_site_option":true,"approx_capacity_dwellings":3000,"possible_plan_period_dwellings":1800,"policy_map_addendum_available":true,"interactive_map_available":true},"source_payload_sha256":"e772a15fbb91504732c1c4b3231a0aef8de3c81bc655bc7148350af7c041f0ec","source_payload_sha256_basis":"canonicalized official Peterborough City Council West Wittering alternative-site evidence fields","evidence_slice_sha256":"a177f9e3e996cef9859c4fc8a312b4b160e44ac2e267b677db5cf862e218adbd","evidence_grade":"A","confidence_score_0_100":98,"evidence_scope":"exact_official_identifier_from_council_draft_local_plan_alternative_site_consultation","fake_data":false,"spatial_binding_method":"official Peterborough City Council West Wittering alternative-site identifier plus linked Policy Map Addendum/interactive map; canonical parcel spatial join and materialization delegated to local OpenCode","planned_building_count_contribution":0}}]}