{"type":"FeatureCollection","name":"height_difference_5","metadata":{"slot_id":"height_difference_5","owner":"height_difference_5","lineage_id":"height_difference_5-eb56f92ed3f0514c","page_generation":1,"schema":"AAYS_LAYER24_EVIDENCE_V1","partition":"layer24","semantic_mode_state":"ABSENT_IN_PRIOR_PHYSICAL_STATE_PRESERVED_BY_OMISSION","batch_id":"20261005T201500Z_osni_coverage_grid_10k_arcgis_service_blocked","record_policy":"Official OSNI Coverage Grid 10K service metadata blocker/supporting CRS context only; no Belfast-specific tile/file, EPSG, geometry or parcel binding synthesized.","fake_data":false},"features":[{"type":"Feature","geometry":null,"properties":{"slot_id":"height_difference_5","owner":"height_difference_5","lineage_id":"height_difference_5-eb56f92ed3f0514c","page_generation":1,"schema":"AAYS_LAYER24_EVIDENCE_V1","partition":"layer24","batch_id":"20261005T201500Z_osni_coverage_grid_10k_arcgis_service_blocked","source_record_id":"OSNI_COVERAGE_GRID_10K:ARCGIS_SERVICE_METADATA","source_url":"https://www.data.gov.uk/dataset/1ff176ad-4096-4269-b505-a9074ffb2f73/osni-open-data-coverage-grid-10k6","service_url":"https://services.spatialni.gov.uk/opendata/rest/services/OSNIVector/OSNIOpenData_CoverageGrids/MapServer/1","metadata_url":"https://services.spatialni.gov.uk/opendata/rest/services/OSNIVector/OSNIOpenData_CoverageGrids/MapServer/1?f=pjson","access_utc":"2026-10-05T20:15:00Z","required_building_state":"BUILDING_PRESENT","binding_status":"LOCAL_OPENCODE_BUILDING_PRESENT_BELFAST_1KM_TILE_BIND_REQUIRED","service_transport_status":"BASE_ENDPOINT_502_PJSON_INACCESSIBLE_NON_RETRYABLE","supporting_crs_label":"Irish Grid","belfast_specific_crs":null,"exact_tile_identifier":null,"archive_internal_dtm_filename":null,"evidence_slice_sha256":"e6022314a42d868ad2ea006fdc3dca79ac8935df31f4fa121c30e3648e549878","accepted_count_contribution":0,"source_area_count_contribution":0,"fake_data":false}}]}
