{"type":"FeatureCollection","features":[{"type":"Feature","geometry":null,"properties":{"slot_id":"planned_buildings_1","lineage_id":"planned_buildings_1-0ffc4ebd6c6e4e41","semantic_mode":"DISTINCT_BUILDINGS","planned_building_id":"planning-application:2026/0546/FPA::MILKING_PARLOUR_BUILDING","building_status":"PLANNED","building_name":"Proposed milking parlour building, Spittals Farm Low Moor Kirkby Thore Penrith","planning_reference":"2026/0546/FPA","authority":"Westmorland & Furness Council","source_url":"https://planningregister.westmorlandandfurness.gov.uk/Planning/Display/2026/0546/FPA","final_url":"https://planningregister.westmorlandandfurness.gov.uk/Planning/Display/2026/0546/FPA","access_utc":"2026-10-03T18:53:09Z","source_data_date":"2026-06-10","license":"Open Government Licence v3.0","geometry_role":"official planning register exposes no machine-readable application point or building footprint in the retrieved record; geometry null; no geometry inferred","field_evidence":"Official Valid Full Application states erection of a building to house a new milking parlour; status Officer Consideration and decision Pending.","identity_limitation":"The source explicitly states one new building to house the milking parlour; deterministic MILKING_PARLOUR_BUILDING suffix identifies the source-described building role only.","confidence_score_0_100":98,"evidence_grade":"A","fake_data":false}}]}