{"type":"FeatureCollection","features":[{"type":"Feature","id":"CHERWELL_24_01640_F_DETACHED_ANNEXE_01","geometry":null,"properties":{"slot_id":"planned_buildings_4","owner":"planned_buildings_4","lineage_id":"pb4-8debc7c8ddf348a2","page_generation":1,"partition":"layer24","schema":"AAYS_LAYER24_EVIDENCE_V1","semantic_mode":"PLANNED_BUILDINGS_OFFICIAL_REFERENCE_DISTINCT_STRUCTURE","batch_id":"20261005T142519Z-cherwell-24-01640-f-window-001","publisher":"Cherwell District Council","source_family":"CHERWELL_PLANNING_REGISTER","source_url":"https://planningregister.cherwell.gov.uk/Planning/Display/24/01640/F","final_url":"https://planningregister.cherwell.gov.uk/Planning/Display/24/01640/F","access_utc":"2026-10-05T14:25:19Z","data_date":"2024-06-18","license":"Public planning register; document copyright/usage remains governed by council register terms","planning_reference":"24/01640/F","location":"186 Warwick Road Banbury OX16 2AP","proposal":"Demolition of shed, and erection of an ancillary detached annexe and detached single garage.","status":"Application Permitted","geometry_status":"NOT_MATERIALIZED_LOCAL_OPENCODE","field_evidence":"Official Cherwell District Council Planning Register application 24/01640/F. Application Type: Full Development. Status: Application Permitted. Valid date: 18/06/2024. Location: 186 Warwick Road Banbury OX16 2AP. Proposal: Demolition of shed, and erection of an ancillary detached annexe and detached single garage. Decision: Permitted. Decision Issued Date: 19/08/2024. Official Proposed Plans include drawing RM 24 001 - A, described by the register as site location/block/plans/elevations. The official proposal explicitly identifies two distinct new detached structures: an ancillary detached annexe and a detached single garage; the proposed plan set supports the application design. The demolished shed is not counted as planned-building progress. Geometry/materialization is deferred to local OpenCode.","evidence_slice_sha256":"e03f4a96d7143e50594a94eab2db7634b888fdae83c6330808c0647c6efdc3b5","confidence":0.99,"evidence_grade":"A_OFFICIAL_LOCAL_AUTHORITY_PLANNING_REGISTER_TWO_DISTINCT_DETACHED_STRUCTURES_PERMITTED","fake_data":false,"source_record_id":"CHERWELL_24_01640_F_DETACHED_ANNEXE_01","planned_building":"ancillary detached annexe","official_plan_reference":"RM 24 001 - A","official_plan_description":"site location/block/plans/elevations"}},{"type":"Feature","id":"CHERWELL_24_01640_F_DETACHED_SINGLE_GARAGE_02","geometry":null,"properties":{"slot_id":"planned_buildings_4","owner":"planned_buildings_4","lineage_id":"pb4-8debc7c8ddf348a2","page_generation":1,"partition":"layer24","schema":"AAYS_LAYER24_EVIDENCE_V1","semantic_mode":"PLANNED_BUILDINGS_OFFICIAL_REFERENCE_DISTINCT_STRUCTURE","batch_id":"20261005T142519Z-cherwell-24-01640-f-window-001","publisher":"Cherwell District Council","source_family":"CHERWELL_PLANNING_REGISTER","source_url":"https://planningregister.cherwell.gov.uk/Planning/Display/24/01640/F","final_url":"https://planningregister.cherwell.gov.uk/Planning/Display/24/01640/F","access_utc":"2026-10-05T14:25:19Z","data_date":"2024-06-18","license":"Public planning register; document copyright/usage remains governed by council register terms","planning_reference":"24/01640/F","location":"186 Warwick Road Banbury OX16 2AP","proposal":"Demolition of shed, and erection of an ancillary detached annexe and detached single garage.","status":"Application Permitted","geometry_status":"NOT_MATERIALIZED_LOCAL_OPENCODE","field_evidence":"Official Cherwell District Council Planning Register application 24/01640/F. Application Type: Full Development. Status: Application Permitted. Valid date: 18/06/2024. Location: 186 Warwick Road Banbury OX16 2AP. Proposal: Demolition of shed, and erection of an ancillary detached annexe and detached single garage. Decision: Permitted. Decision Issued Date: 19/08/2024. Official Proposed Plans include drawing RM 24 001 - A, described by the register as site location/block/plans/elevations. The official proposal explicitly identifies two distinct new detached structures: an ancillary detached annexe and a detached single garage; the proposed plan set supports the application design. The demolished shed is not counted as planned-building progress. Geometry/materialization is deferred to local OpenCode.","evidence_slice_sha256":"e03f4a96d7143e50594a94eab2db7634b888fdae83c6330808c0647c6efdc3b5","confidence":0.99,"evidence_grade":"A_OFFICIAL_LOCAL_AUTHORITY_PLANNING_REGISTER_TWO_DISTINCT_DETACHED_STRUCTURES_PERMITTED","fake_data":false,"source_record_id":"CHERWELL_24_01640_F_DETACHED_SINGLE_GARAGE_02","planned_building":"detached single garage","official_plan_reference":"RM 24 001 - A","official_plan_description":"site location/block/plans/elevations"}}]}
