{"type":"FeatureCollection","features":[{"type":"Feature","id":"crawley-brownfield-land-register-part-one-text-summary-2025:CBCBLR036","geometry":null,"properties":{"slot_id":"future_growth_4","lineage_id":"fg4-e4c9076d6f554f00","page_generation":1,"owner":"future_growth_4","partition":"future_growth","semantic_mode":"SOURCE_AREA_EXACT_IDENTIFIER","dataset":"crawley-brownfield-land-register-part-one-text-summary-2025","entity":"CBCBLR036","reference":"CBCBLR036","quality":"authoritative","organisation":"Crawley Borough Council","name":"Crawley College, College Road, Three Bridges, Crawley","source_url":"https://crawley.gov.uk/planning/planning-policy/engagement-and-monitoring/brownfield-land-register/publications/brownfield-land-register-part-one-text-summary/brownfield-land-register-part-one-text-summary","final_url":"https://crawley.gov.uk/planning/planning-policy/engagement-and-monitoring/brownfield-land-register/publications/brownfield-land-register-part-one-text-summary/brownfield-land-register-part-one-text-summary","access_utc":"2026-10-06T17:53:00Z","data_date":"2025-12-04","license":"Crawley Borough Council official publication; no explicit reuse licence stated on source window","field_evidence":{"reference":"CBCBLR036","site_name_address":"Crawley College, College Road, Three Bridges, Crawley","site_area_ha":3.05,"ownership_status":"owned by a public authority","planning_status":"not permissioned","deliverable_within_five_years":"unknown","site_capacity_min_dwellings":250,"site_capacity_max_dwellings":363,"capacity_basis":"minimum supports Town Centre Opportunity Sites delivery context; maximum from Strategic Housing Land Availability Assessment (2023)","first_added_date":"2019-12-11","end_date":"not applicable"},"evidence_slice_sha256":"77d425dd0996a1b1c4be62d28051be013d0dc58c14018ebd6f6ac276122d7660","confidence_score_0_100":99,"confidence":0.99,"evidence_grade":"A","exact_identifier_provided":true,"coverage_polygon_provided":false,"source_layer_geometry_type":null,"fake_data":false,"join_mode":"LOCAL_OPENCODE_SPATIAL_JOIN_PENDING","direct_parcel":false,"source_area_count_contribution":1,"planned_building_count_contribution":0}}]}