{"type":"FeatureCollection","features":[{"type":"Feature","geometry":null,"properties":{"slot_id":"future_growth_1","lineage_id":"future_growth_1-newstart-20260927T153100+0300","page_generation":null,"accepted_as_parcel":false,"source_area_count_contribution":1,"exact_identifier":"IAMSS Tax Site","exact_identifier_provided":true,"coverage_polygon_provided":false,"identifier_namespace":"North East Investment Zone designated special tax site","site_name":"International Advanced Manufacturing Strategic Site (IAMSS)","access_utc":"2026-10-04T07:13:00Z","data_date":"2024-04-08","source_url":"https://www.gov.uk/government/publications/maps-of-north-east-investment-zone-tax-sites","final_url":"https://www.gov.uk/government/publications/maps-of-north-east-investment-zone-tax-sites","legal_url":"https://www.legislation.gov.uk/uksi/2024/383/pdfs/uksi_20240383_en.pdf","map_url":"https://assets.publishing.service.gov.uk/media/65e9a4ac3649a2001aed642a/Sunderland_tax_site_1250_scale.pdf","license":"Open Government Licence v3.0 for GOV.UK and legislation text, except where third-party rights apply; the official IAMSS map includes Ordnance Survey Crown Copyright attribution.","authority":"HM Revenue & Customs","map_date":"2024-01-26","designation_effective_date":"2024-04-08","investment_zone":"North East Investment Zone","location_description":"About 2 miles west of Sunderland, around the Nissan Motor factory, immediately west of the A19.","designation_status":"designated and recognised in law as a special tax site","evidence_grade":"A","confidence_score_0_100":99,"evidence_scope":"exact IAMSS statutory tax-site designation plus official GOV.UK tax-site page and legally referenced map","evidence_slice_sha256":"cbd1db0d838f507a895e81770ec173711868d91f843ec5dcf8f72b9a40ce2646","fake_data":false,"spatial_binding_method":"official legally named IAMSS Tax Site plus map-defined exact boundary; canonical parcel spatial join and materialization delegated to local OpenCode","planned_building_count_contribution":0}}]}