{"type":"FeatureCollection","name":"security_public_safety_6","features":[{"type":"Feature","id":"ons_csp18:E22000303","geometry":null,"properties":{"source_area_id":"E22000303","source_area_name":"Aylesbury Vale","source_area_kind":"community_safety_partnership_exact_identifier","source_window_id":"ons_csp18_names_codes_preview_rows_1_4_2026-10-03","source_url":"https://www.data.gov.uk/dataset/41697945-4f0c-4da9-98d2-2691f494b51a/community-safety-partnerships-december-2018-names-and-codes-in-en/datafile/0f9ccd4f-3021-42ce-a847-b6a118fd3f39/preview","final_url":"https://www.data.gov.uk/dataset/41697945-4f0c-4da9-98d2-2691f494b51a/community-safety-partnerships-december-2018-names-and-codes-in-en/datafile/0f9ccd4f-3021-42ce-a847-b6a118fd3f39/preview","accessed_utc":"2026-10-03T13:20:23Z","data_date":"2018-12-31","license":"Dataset licence field: Not set; National Data Library site content is OGL v3.0 except where otherwise stated.","source_record_ordinal":1,"evidence_type":"exact_identifier","evidence_slice_sha256":"2e362a7f1289b5aade80c6d3d558bc28f6f7de6ad4efb11f360b796ba4db688b","field_evidence":{"source_area_id":"CSP18CD from official ONS/National Data Library CSV preview","source_area_name":"CSP18NM from official ONS/National Data Library CSV preview","geometry":"Names-and-codes source; no polygon geometry claimed in this batch."},"confidence_score_0_100":99,"evidence_grade":"A_OFFICIAL_PRIMARY_PREVIEW","fake_data":false,"canonical_parcel_id":null,"parcel_match_status":"DEFERRED_TO_LOCAL_OPENCODE"}},{"type":"Feature","id":"ons_csp18:E22000162","geometry":null,"properties":{"source_area_id":"E22000162","source_area_name":"West Lancashire","source_area_kind":"community_safety_partnership_exact_identifier","source_window_id":"ons_csp18_names_codes_preview_rows_1_4_2026-10-03","source_url":"https://www.data.gov.uk/dataset/41697945-4f0c-4da9-98d2-2691f494b51a/community-safety-partnerships-december-2018-names-and-codes-in-en/datafile/0f9ccd4f-3021-42ce-a847-b6a118fd3f39/preview","final_url":"https://www.data.gov.uk/dataset/41697945-4f0c-4da9-98d2-2691f494b51a/community-safety-partnerships-december-2018-names-and-codes-in-en/datafile/0f9ccd4f-3021-42ce-a847-b6a118fd3f39/preview","accessed_utc":"2026-10-03T13:20:23Z","data_date":"2018-12-31","license":"Dataset licence field: Not set; National Data Library site content is OGL v3.0 except where otherwise stated.","source_record_ordinal":2,"evidence_type":"exact_identifier","evidence_slice_sha256":"2e362a7f1289b5aade80c6d3d558bc28f6f7de6ad4efb11f360b796ba4db688b","field_evidence":{"source_area_id":"CSP18CD from official ONS/National Data Library CSV preview","source_area_name":"CSP18NM from official ONS/National Data Library CSV preview","geometry":"Names-and-codes source; no polygon geometry claimed in this batch."},"confidence_score_0_100":99,"evidence_grade":"A_OFFICIAL_PRIMARY_PREVIEW","fake_data":false,"canonical_parcel_id":null,"parcel_match_status":"DEFERRED_TO_LOCAL_OPENCODE"}},{"type":"Feature","id":"ons_csp18:E22000304","geometry":null,"properties":{"source_area_id":"E22000304","source_area_name":"Bracknell Forest","source_area_kind":"community_safety_partnership_exact_identifier","source_window_id":"ons_csp18_names_codes_preview_rows_1_4_2026-10-03","source_url":"https://www.data.gov.uk/dataset/41697945-4f0c-4da9-98d2-2691f494b51a/community-safety-partnerships-december-2018-names-and-codes-in-en/datafile/0f9ccd4f-3021-42ce-a847-b6a118fd3f39/preview","final_url":"https://www.data.gov.uk/dataset/41697945-4f0c-4da9-98d2-2691f494b51a/community-safety-partnerships-december-2018-names-and-codes-in-en/datafile/0f9ccd4f-3021-42ce-a847-b6a118fd3f39/preview","accessed_utc":"2026-10-03T13:20:23Z","data_date":"2018-12-31","license":"Dataset licence field: Not set; National Data Library site content is OGL v3.0 except where otherwise stated.","source_record_ordinal":3,"evidence_type":"exact_identifier","evidence_slice_sha256":"2e362a7f1289b5aade80c6d3d558bc28f6f7de6ad4efb11f360b796ba4db688b","field_evidence":{"source_area_id":"CSP18CD from official ONS/National Data Library CSV preview","source_area_name":"CSP18NM from official ONS/National Data Library CSV preview","geometry":"Names-and-codes source; no polygon geometry claimed in this batch."},"confidence_score_0_100":99,"evidence_grade":"A_OFFICIAL_PRIMARY_PREVIEW","fake_data":false,"canonical_parcel_id":null,"parcel_match_status":"DEFERRED_TO_LOCAL_OPENCODE"}},{"type":"Feature","id":"ons_csp18:E22000305","geometry":null,"properties":{"source_area_id":"E22000305","source_area_name":"Cherwell","source_area_kind":"community_safety_partnership_exact_identifier","source_window_id":"ons_csp18_names_codes_preview_rows_1_4_2026-10-03","source_url":"https://www.data.gov.uk/dataset/41697945-4f0c-4da9-98d2-2691f494b51a/community-safety-partnerships-december-2018-names-and-codes-in-en/datafile/0f9ccd4f-3021-42ce-a847-b6a118fd3f39/preview","final_url":"https://www.data.gov.uk/dataset/41697945-4f0c-4da9-98d2-2691f494b51a/community-safety-partnerships-december-2018-names-and-codes-in-en/datafile/0f9ccd4f-3021-42ce-a847-b6a118fd3f39/preview","accessed_utc":"2026-10-03T13:20:23Z","data_date":"2018-12-31","license":"Dataset licence field: Not set; National Data Library site content is OGL v3.0 except where otherwise stated.","source_record_ordinal":4,"evidence_type":"exact_identifier","evidence_slice_sha256":"2e362a7f1289b5aade80c6d3d558bc28f6f7de6ad4efb11f360b796ba4db688b","field_evidence":{"source_area_id":"CSP18CD from official ONS/National Data Library CSV preview","source_area_name":"CSP18NM from official ONS/National Data Library CSV preview","geometry":"Names-and-codes source; no polygon geometry claimed in this batch."},"confidence_score_0_100":99,"evidence_grade":"A_OFFICIAL_PRIMARY_PREVIEW","fake_data":false,"canonical_parcel_id":null,"parcel_match_status":"DEFERRED_TO_LOCAL_OPENCODE"}}],"metadata":{"slot_id":"security_public_safety_6","lineage_id":"SECPS6_20260930T003421Z_01","page_generation":1,"batch_id":"BATCH_20261003T132023Z_ONS_CSP18_PREVIEW4","source_window_id":"ons_csp18_names_codes_preview_rows_1_4_2026-10-03","source_url":"https://www.data.gov.uk/dataset/41697945-4f0c-4da9-98d2-2691f494b51a/community-safety-partnerships-december-2018-names-and-codes-in-en/datafile/0f9ccd4f-3021-42ce-a847-b6a118fd3f39/preview","final_url":"https://www.data.gov.uk/dataset/41697945-4f0c-4da9-98d2-2691f494b51a/community-safety-partnerships-december-2018-names-and-codes-in-en/datafile/0f9ccd4f-3021-42ce-a847-b6a118fd3f39/preview","dataset_url":"https://www.data.gov.uk/dataset/41697945-4f0c-4da9-98d2-2691f494b51a/community-safety-partnerships-december-2018-names-and-codes-in-en","accessed_utc":"2026-10-03T13:20:23Z","data_date":"2018-12-31","license":"Dataset licence field: Not set; National Data Library site content is OGL v3.0 except where otherwise stated.","evidence_slice_sha256":"2e362a7f1289b5aade80c6d3d558bc28f6f7de6ad4efb11f360b796ba4db688b","new_source_records":4,"source_area_count_delta":4,"cumulative_source_area_count":63,"accepted_count":0,"duplicate_count":0,"rejected_count":0,"unmatched_count":0,"materialized_parcel_count":0,"direct_parcel_count":0,"planned_building_count":0,"cursor":null,"window_complete":true,"dataset_complete":false,"local_spatial_join_required":true,"fake_data":false}}
