{"type":"FeatureCollection","crs":{"type":"name","properties":{"name":"EPSG:4326"}},"features":[{"type":"Feature","id":1,"geometry":{"type":"Polygon","coordinates":[[[-0.0608329880511443,51.5944455281698],[-0.0607688551427117,51.5944597543083],[-0.0606638135400427,51.5944683577805],[-0.0588426470654183,51.5943455916269],[-0.0576592983350312,51.5942580067933],[-0.0578550475595846,51.5937679262323],[-0.0583516948612752,51.5926577668809],[-0.0592390179757893,51.5907701152547],[-0.0590895779671117,51.590743451492],[-0.0591881958171541,51.5904787287921],[-0.0560733761253374,51.5901561784377],[-0.0552434756780317,51.5899348696948],[-0.054959620065492,51.5898477002868],[-0.0542326339509117,51.5907327166313],[-0.054022083530347,51.59097759127],[-0.0533839038672576,51.5908170028231],[-0.0534629333076144,51.5903964826773],[-0.0534570378668709,51.5899125948352],[-0.0533453129314451,51.5895945676794],[-0.053194884201614,51.5893276039283],[-0.0529474403716594,51.58896613763],[-0.0526691683885611,51.588664048105],[-0.0525258236893153,51.5883868601487],[-0.0523507028559491,51.5882249659704],[-0.0522305314390625,51.5880845769952],[-0.0521911002459429,51.5880208853878],[-0.0521589424694749,51.587942387271],[-0.0521427644167366,51.5878615468431],[-0.0521423168820197,51.5877909492883],[-0.0521489153614381,51.5877277526132],[-0.0521771809901782,51.5876372193918],[-0.0522666129391769,51.5874969853044],[-0.0523546696070278,51.5874125709231],[-0.0524030112183067,51.5873724586351],[-0.0524278774855785,51.5873547070901],[-0.0524951493178957,51.587317516992],[-0.0526149567433872,51.5872569200191],[-0.0526717530662535,51.5872148797832],[-0.0526973584765518,51.5871832022657],[-0.0527343765928141,51.5871884931066],[-0.0530769759819454,51.586964517142],[-0.053298716437296,51.5869541708106],[-0.0538221021543052,51.5871277797994],[-0.0548483088761528,51.5873888626014],[-0.0561656649839379,51.5876879461959],[-0.0566966543210503,51.5877750722499],[-0.0572943681670022,51.5878242745463],[-0.0573735628877487,51.5878120981416],[-0.057401622910333,51.5877972759695],[-0.0574190551559967,51.5877777814975],[-0.057562129394844,51.587564064312],[-0.0576207639628281,51.5875092827572],[-0.0577515149563612,51.5874661270377],[-0.0579249950629709,51.5874670223754],[-0.058591590263847,51.5875562960773],[-0.0598464973266719,51.5877258035072],[-0.0598903977631942,51.5876779708486],[-0.0599224874085688,51.5875854302133],[-0.05997797003893,51.5874791585269],[-0.0600250720743566,51.5872272506239],[-0.0601899170026278,51.5860981905717],[-0.0604580272340326,51.5861073018701],[-0.0605523882617659,51.5861660545864],[-0.062867225416673,51.586129233815],[-0.0628762972682252,51.5862044706637],[-0.0634691478446497,51.5862964546574],[-0.0638038330701428,51.5863830938004],[-0.0638637937983289,51.5864124101719],[-0.0638808893719679,51.5864687154829],[-0.0638249778925506,51.5868163399044],[-0.0637721522373955,51.5871932406946],[-0.0636366607384933,51.5877591464455],[-0.0637745645009455,51.587741190915],[-0.0643422831482741,51.5876980491713],[-0.0644297265627155,51.5881203399637],[-0.064475641213232,51.5881269430701],[-0.0646107975858838,51.5881736869546],[-0.0646659325685954,51.5882011248588],[-0.0650258361919141,51.5883945582284],[-0.0648447994554641,51.588571509375],[-0.0649673771640491,51.5887173220812],[-0.0650205627341701,51.5887226961363],[-0.0652819133280547,51.5887451741374],[-0.0651944645044373,51.5893732934413],[-0.067377408674111,51.5887465540938],[-0.0676467450268202,51.5886964992519],[-0.0679254261828649,51.5886541514586],[-0.0682726615130133,51.5886326261166],[-0.0685982233158888,51.5886318751155],[-0.0686119332772566,51.5889861351933],[-0.0686057888969107,51.5890255109859],[-0.0685636234635796,51.5890496355954],[-0.0662009414857541,51.5895881837578],[-0.0662255896921583,51.5896945216493],[-0.0655308786117816,51.5897496044433],[-0.0652244554456439,51.5898127105808],[-0.0651266599173539,51.5898277325965],[-0.0652078965591673,51.5902604418284],[-0.0651946868854876,51.5902859422554],[-0.0651480755185272,51.590295694132],[-0.0643350896007525,51.5901305703487],[-0.0641232322495446,51.590808430365],[-0.0637292903409951,51.5915582792237],[-0.0634935778585187,51.5919410607963],[-0.0629379317755129,51.5924628829928],[-0.06258058093101,51.5928774625655],[-0.0622766196670355,51.5932450839674],[-0.0619942479507978,51.5935564992246],[-0.061738486921835,51.5937989323698],[-0.0612984431381243,51.5941443378142],[-0.0609582649486924,51.5943855528942],[-0.060871776633309,51.5944331308406],[-0.0608329880511443,51.5944455281698]]]},"properties":{"layername":"planorama_lpd_hgy_growth_areas                    ","objectid":1,"layerreference":"lpd_hgy_gra00000001","sitereference":null,"sitename":"Tottenham Hale","address":null,"uprn":null,"borough":"Haringey","planningauthority":"Haringey","firstaddeddate":"2017-07-01","lastupdateddate":"2017-07-01","removeddate":null,"status":null,"hectares":45.492,"easting":534498,"northing":189661,"designation":"Growth Areas","boroughdesignation":"Growth Areas","classification":null,"notes":"These are areas with the greatest capacity for growth. It is expected that the most significant amount of houses, jobs and infrastructure will be delivered in these areas over the plan period.","source":null,"extrainfo1":"Policy SP1","extrainfo2":null,"extrainfo3":null,"missing":null,"Shape__Area":454788.6265411377,"Shape__Length":4255.705039650973}},{"type":"Feature","id":2,"geometry":{"type":"Polygon","coordinates":[[[-0.111085871448933,51.5936394752822],[-0.111067062803976,51.5935916922676],[-0.111169131329003,51.5934629460877],[-0.111192705187524,51.5934341003909],[-0.11125865447474,51.5934104334356],[-0.111478779747046,51.5931851212868],[-0.111373358377938,51.593144036603],[-0.111415103605182,51.5931017251006],[-0.111084003811973,51.5929741850106],[-0.111128107023152,51.5929272355257],[-0.111457599936185,51.5930587062856],[-0.11149829037323,51.5930174568589],[-0.111603837219704,51.5930589930749],[-0.111719143610517,51.592941700147],[-0.112026357065753,51.5930185861689],[-0.112035801174007,51.592804628416],[-0.112011643198752,51.5927813986917],[-0.112108031941456,51.5925457301757],[-0.112124901169331,51.592504456723],[-0.112207450006271,51.5923762946507],[-0.112228258333165,51.5923096360139],[-0.11217937283958,51.5923048024265],[-0.112200734975415,51.5922421993041],[-0.111467800980194,51.5921752740826],[-0.111550922062566,51.5918348102938],[-0.111578478618247,51.5917551314801],[-0.112020993416023,51.5917370781469],[-0.111799548212666,51.5910539543033],[-0.111683518995482,51.5907081252405],[-0.111556525194382,51.5903168874954],[-0.111468858011341,51.5900461521357],[-0.111379649894074,51.5900564055397],[-0.111315991304773,51.5898508022774],[-0.111271045389084,51.5898554738002],[-0.111025088750945,51.5896073671972],[-0.110542913480519,51.5896632651952],[-0.110567790597277,51.5895646592919],[-0.110592285933287,51.5894439258306],[-0.110573972934379,51.5893912048312],[-0.110546800239554,51.5893397798591],[-0.110524426031162,51.5893223336979],[-0.110422716617267,51.5893312159069],[-0.110383888773029,51.5893380539368],[-0.110265684735589,51.5893478392191],[-0.110194929427996,51.5891672997403],[-0.110114062451523,51.5889834498844],[-0.110055771248509,51.5889757660525],[-0.109872727285406,51.5889965557197],[-0.109725131140779,51.5887892387572],[-0.109811882041533,51.5887755298898],[-0.108727141666391,51.5871902963951],[-0.110942167443587,51.5867779088574],[-0.111986241814456,51.5877157304369],[-0.113316607930697,51.5892814146884],[-0.116341748567244,51.5931032719794],[-0.118713290581615,51.5959820432449],[-0.119269128181413,51.5966122395462],[-0.119737093070438,51.5971784378031],[-0.120063471629802,51.5975581112561],[-0.119385228636255,51.5978218714543],[-0.118326457793165,51.5971957518075],[-0.117630276478817,51.5969850381016],[-0.114372363899202,51.5964203999725],[-0.114132103627337,51.5964345213242],[-0.11299296701417,51.5967471180351],[-0.112958180812209,51.5967677804036],[-0.112954663207804,51.5967934421359],[-0.112963562964176,51.5968434933045],[-0.112966212771142,51.5968980300386],[-0.112974126672709,51.5969405117047],[-0.112997629401825,51.5969900784543],[-0.113024285844798,51.5970192831404],[-0.113093305924224,51.5970854089389],[-0.113187311622906,51.5971618283673],[-0.113339577044818,51.5972399943373],[-0.112722088256179,51.5983470074902],[-0.112532560421972,51.598763813483],[-0.112598291437557,51.599114946401],[-0.112962192890909,51.599737952373],[-0.113201096070456,51.6007678311987],[-0.112998324880043,51.6007478428232],[-0.112611986999165,51.6007462119979],[-0.112288983115944,51.6007424520231],[-0.11167136649612,51.6007327787532],[-0.111629598089932,51.6005630488334],[-0.111452847538529,51.600072273854],[-0.111309236843406,51.5996703378053],[-0.111130031292419,51.5991832095128],[-0.110988440589845,51.5988858874137],[-0.110212722654999,51.5974602296921],[-0.110088634684326,51.5972807194348],[-0.110037756995951,51.5972193804396],[-0.110019157925455,51.5971978585574],[-0.109961241781343,51.5971878427884],[-0.109859373795647,51.5971862009463],[-0.109376008394891,51.5972374894375],[-0.108958788719208,51.5973022521481],[-0.108583548624916,51.5973574390926],[-0.1083144873719,51.5974008490064],[-0.108184810785713,51.5974221374551],[-0.107976286992003,51.5974680518882],[-0.107825722641601,51.5975055490178],[-0.107557544911835,51.5975763084593],[-0.107255190373491,51.5976599144136],[-0.106998175900324,51.5977330109467],[-0.106974039370119,51.5977023168287],[-0.106910093802721,51.5976324025393],[-0.106802403201024,51.5974755445657],[-0.106808586617253,51.5974726768861],[-0.10679134361363,51.5974498275078],[-0.106695655296047,51.5973411827896],[-0.106627089135798,51.5972539282608],[-0.106549872884308,51.5971489987758],[-0.106469795031406,51.5970399764339],[-0.106309843107635,51.5968240031219],[-0.106216694228494,51.5966994823768],[-0.106263512411637,51.5966846815171],[-0.106353283747598,51.5966612221115],[-0.106458591738448,51.5966148130228],[-0.106590821601621,51.5965042728285],[-0.106687124447724,51.5964660811083],[-0.106845850550851,51.5964023693794],[-0.107008894387498,51.5965856594117],[-0.107584891061132,51.596407193827],[-0.10917315019767,51.5960756339277],[-0.10899584383122,51.5953766706891],[-0.108973318550993,51.5951889051373],[-0.108473887187308,51.595231208019],[-0.108352011508048,51.5954298633224],[-0.1081682255335,51.5954643969854],[-0.108024190699474,51.5954908490424],[-0.108005961292181,51.5954847997738],[-0.107975763942264,51.5954679463367],[-0.107917166729495,51.5954257256267],[-0.10788336636187,51.5953878616571],[-0.107881575372397,51.5953788403241],[-0.10771210273359,51.5952842929929],[-0.10773440829187,51.5952721534378],[-0.107855321378662,51.5951419156571],[-0.107798921369104,51.5950919968391],[-0.10769092809386,51.595050237896],[-0.1076175934605,51.5950256741611],[-0.107412371325869,51.594957616704],[-0.107260169107333,51.5949061514206],[-0.106917025380904,51.5947904550857],[-0.106997275087199,51.5946868088074],[-0.107022606237183,51.5946088036593],[-0.107023683663385,51.5945585533238],[-0.107012323435096,51.5944983903798],[-0.106994966304713,51.5944574643696],[-0.106959135594471,51.5944024817076],[-0.106956894666835,51.5943903956649],[-0.105234927842127,51.5932792657172],[-0.10403485948043,51.5924580125775],[-0.103499692959423,51.592010257412],[-0.102942698806995,51.591511429155],[-0.102894900878757,51.5914562515621],[-0.102695640979583,51.5912767757064],[-0.102633454760271,51.5913036461113],[-0.102368264972498,51.5910711265181],[-0.102313738795659,51.5910700642691],[-0.102014839548459,51.5908705401509],[-0.101993623257234,51.5908357556565],[-0.101870362518236,51.5907450049896],[-0.101695614121704,51.5899877993537],[-0.101730076363136,51.5899783756267],[-0.101578600083393,51.5897506623829],[-0.101716023028123,51.5897127808339],[-0.101691633666613,51.5896779449048],[-0.102491485804436,51.5894886506093],[-0.102696999534088,51.589784680369],[-0.102860204535609,51.5899804788042],[-0.103254208998454,51.5903505972784],[-0.103374077874987,51.5904604455388],[-0.10406210124938,51.5901451459657],[-0.104105312064962,51.5901926053471],[-0.104226443866155,51.5903692870359],[-0.104248995607576,51.5903824209064],[-0.104855375343449,51.5913009093508],[-0.104912903956587,51.5912888000425],[-0.105303082064497,51.5916231494861],[-0.106218885049845,51.5923089592503],[-0.106485892386808,51.5924671317263],[-0.106596279014421,51.5925379760861],[-0.106644486166299,51.5926112335289],[-0.106951839763217,51.5928234714308],[-0.107008711148187,51.5927924663513],[-0.107132744871058,51.5927607469015],[-0.107267365838221,51.5928564412332],[-0.107237384127474,51.5929004698809],[-0.107649627379799,51.5931840003491],[-0.107727523377597,51.5932307591],[-0.107772242559657,51.5932490159668],[-0.107860056788596,51.5932759714575],[-0.107909731296643,51.5931679644701],[-0.108020186970829,51.5931816166569],[-0.108126260979273,51.5931895328125],[-0.108399944175335,51.5932393597191],[-0.108449868827362,51.5932887242031],[-0.108470477959983,51.5932791649567],[-0.108554674489987,51.5932854688873],[-0.108656824878192,51.5933113960716],[-0.108779107057667,51.5933496977127],[-0.10891747637287,51.5933934742682],[-0.109085981519258,51.5934590486779],[-0.109109276939902,51.593436943226],[-0.109531516341938,51.5936017481126],[-0.109771180914295,51.5937164882788],[-0.109833522292915,51.5937450100037],[-0.109914315657049,51.5937881270748],[-0.109987292081914,51.5937969468514],[-0.110056526630482,51.5938228818244],[-0.110102565651971,51.5938720031077],[-0.110116657982217,51.5938803234139],[-0.1102200761284,51.5939523109066],[-0.110238485684478,51.593960970544],[-0.110836331984876,51.5943163624213],[-0.11085662266585,51.5942831475311],[-0.110685255140105,51.5941472087827],[-0.110747499712103,51.5941084650566],[-0.110774137060728,51.5940927977482],[-0.110878568912631,51.5940220011535],[-0.11047794854556,51.5937708624968],[-0.110486249113465,51.5937621836601],[-0.110630993038742,51.5938020142864],[-0.110640298732822,51.5937969486067],[-0.110773479335433,51.5938336252461],[-0.111062671239385,51.5936801969877],[-0.111085871448933,51.5936394752822]],[[-0.111086925068827,51.5936419202107],[-0.111089284026105,51.5936337750951],[-0.111085871448933,51.5936394752822],[-0.111086925068827,51.5936419202107]]]},"properties":{"layername":"planorama_lpd_hgy_growth_areas                    ","objectid":2,"layerreference":"lpd_hgy_gra00000002","sitereference":null,"sitename":"Wood Green","address":null,"uprn":null,"borough":"Haringey","planningauthority":"Haringey","firstaddeddate":"2017-07-01","lastupdateddate":"2017-07-01","removeddate":null,"status":null,"hectares":57.926,"easting":530902,"northing":190029,"designation":"Growth Areas","boroughdesignation":"Growth Areas","classification":null,"notes":"These are areas with the greatest capacity for growth. It is expected that the most significant amount of houses, jobs and infrastructure will be delivered in these areas over the plan period.","source":null,"extrainfo1":"Policy SP1","extrainfo2":null,"extrainfo3":null,"missing":null,"Shape__Area":579074.47927856445,"Shape__Length":6813.5531455680093}},{"type":"Feature","id":3,"geometry":{"type":"Polygon","coordinates":[[[-0.0696588791063693,51.6086621057674],[-0.0696442174627597,51.6087455839985],[-0.0692041089227971,51.6087228702598],[-0.0683332012201331,51.6086827168706],[-0.0680373299384533,51.6088039164022],[-0.0679057410290526,51.6087022917866],[-0.06781728772809,51.6086528146092],[-0.0676164887404682,51.6085723504391],[-0.0675909036501776,51.6085626665748],[-0.0675546640348982,51.6085590119045],[-0.0675178069280179,51.6085664976837],[-0.0674988025014512,51.6085821011119],[-0.0671931265339582,51.6087980973646],[-0.06711414993323,51.6088587539917],[-0.0670162738114581,51.6089427503138],[-0.0667982585850069,51.6088765674394],[-0.0665233677776614,51.6087825593644],[-0.0664881772860682,51.6087746052878],[-0.066246205987294,51.6087114447203],[-0.0660805437771051,51.6086844329543],[-0.0657107414023149,51.6086352593741],[-0.0656120139041688,51.6086304833539],[-0.0655895245522705,51.6082116032249],[-0.0649242802512471,51.6082225681543],[-0.064895270401178,51.6080488945236],[-0.0657765531728939,51.6080416736277],[-0.0657254780989105,51.6071332219903],[-0.0657041110025855,51.6067354925977],[-0.0656882361346193,51.6067352307036],[-0.0649972355563315,51.6067376772996],[-0.0645680795999672,51.606756762078],[-0.0643353807949361,51.6067780995989],[-0.0637830176674314,51.6068009925406],[-0.0632761646372797,51.6068200484789],[-0.0630182058915293,51.6068274774504],[-0.0630153978411063,51.6068323769233],[-0.0625765666183763,51.6068412230481],[-0.06248644115067,51.6068380252119],[-0.0623994966107568,51.6068279556623],[-0.0624300643456679,51.6067205510368],[-0.0617456293945723,51.6066332520514],[-0.0617522248215757,51.6066140272394],[-0.0613843558463961,51.6065369047194],[-0.0613472891070611,51.6061594166951],[-0.0608023317874704,51.606178101489],[-0.0607957730370197,51.6061117183537],[-0.0608013088027965,51.6060936450817],[-0.0608634535710494,51.6059773209134],[-0.0598120172089754,51.6060369920385],[-0.0598426420915187,51.6059961333345],[-0.0594369148611612,51.6058756636162],[-0.059301150999505,51.6060622589453],[-0.0586970974084643,51.6058751065358],[-0.0587162326108603,51.6058598663392],[-0.0586594730005493,51.6058362654183],[-0.0582423925299748,51.6056841296767],[-0.0579590191538058,51.6059691747694],[-0.0578868532612142,51.6060460343591],[-0.0575368995492617,51.6059655992013],[-0.0574849051293416,51.6058540399768],[-0.0575101522538268,51.6056989777776],[-0.0568456949574702,51.6056753776883],[-0.0568228498493704,51.6056794053916],[-0.0568072236556016,51.6056936243521],[-0.0567998098478446,51.6057658012862],[-0.0567934368988752,51.6058372760697],[-0.0557384241517514,51.6058081852195],[-0.054935893722909,51.6057645693079],[-0.054467048664339,51.6057223489137],[-0.0544210755687761,51.6048011108947],[-0.0537273181683845,51.6047639673097],[-0.0537769037738215,51.6042729888666],[-0.0527709384664191,51.6042493605626],[-0.0538440323200046,51.6022468264359],[-0.0533527350662685,51.6021901994058],[-0.0514955196844677,51.6021200481145],[-0.0515111749547085,51.6019904557604],[-0.0494877021403467,51.6019509830155],[-0.0494353160692454,51.6016468833021],[-0.0520424708100559,51.6017838231404],[-0.0528524408652498,51.6019894502647],[-0.0534013545972338,51.6021203254073],[-0.0547222489269918,51.6022412594925],[-0.0550620315893876,51.6022209988375],[-0.0564898966321899,51.6022109579005],[-0.0575661205712968,51.6022858979483],[-0.058900699855948,51.6023842602299],[-0.0591048832407925,51.6024013095568],[-0.0603979147501576,51.6024209118413],[-0.0614266599842909,51.6023902680449],[-0.0653924470645749,51.6023902262532],[-0.0655059145635484,51.6023944367624],[-0.0655119231368636,51.6020729652027],[-0.0655351330940392,51.6019617516594],[-0.0655791464391593,51.6018774991114],[-0.0656313021941536,51.6018055207428],[-0.065680243157355,51.6017582185992],[-0.0657732762788394,51.6016927597774],[-0.0658740532076653,51.6016387591649],[-0.0659846354231853,51.6015986787174],[-0.0660876168118597,51.6015675551701],[-0.0662324178174053,51.6015411680133],[-0.0666063277945522,51.6015127144766],[-0.067032519590554,51.6015044556558],[-0.0677774432377639,51.6016518032482],[-0.0677769780493808,51.6023805443078],[-0.0679379795878756,51.6033945793039],[-0.0698667924438819,51.6032490204041],[-0.0698369061912643,51.6030377453841],[-0.0705958362914266,51.602984863347],[-0.0706806925351137,51.6036368632032],[-0.0710328870839743,51.6035725177513],[-0.0710721777960209,51.6035313493862],[-0.0710397521654928,51.6033253385472],[-0.0715817274704153,51.6032465787872],[-0.0716956099455747,51.6034830648177],[-0.0718314515111041,51.6037909521454],[-0.0718601999554402,51.6037838713272],[-0.0719490553117774,51.6039805585388],[-0.0716386450915396,51.6040334542902],[-0.0717571565797922,51.6042936664455],[-0.0718013338896546,51.6043723574931],[-0.0713573662275163,51.6044519215475],[-0.0713402736179407,51.6044804161621],[-0.0714700625238083,51.6048186886461],[-0.0716125003595854,51.6051856750192],[-0.0716257216038964,51.6052076541886],[-0.0716463648156192,51.6052180652661],[-0.071676533756908,51.6052183816408],[-0.0717029367861555,51.6052053272593],[-0.0719915341624239,51.6050300451178],[-0.0720562806305552,51.6049947804392],[-0.0720805910643632,51.6049799830013],[-0.0721182390692391,51.6049639660973],[-0.0722211619546024,51.6049445263288],[-0.0723732689531775,51.6053390975706],[-0.0725943515054465,51.6060180641686],[-0.0728787696413621,51.6059824535236],[-0.0730766427016203,51.6059614263209],[-0.073088653804304,51.6059779000328],[-0.0730975092616225,51.605990455133],[-0.0731112635753775,51.60600668772],[-0.073133247164374,51.6060297998791],[-0.0731653820558999,51.6060553269782],[-0.073191790517933,51.6060728466163],[-0.0732394849178987,51.6060992588793],[-0.0732781412367957,51.6061174294029],[-0.0732904874626434,51.6061225781368],[-0.0733300934060194,51.6061387859139],[-0.0733436055811783,51.6061436840297],[-0.0733819814285257,51.606154835813],[-0.0733954475424805,51.6062222305537],[-0.0729738443648234,51.6062575660398],[-0.0730124217617929,51.6064617887522],[-0.0722955228457356,51.6065166374562],[-0.0719057129457854,51.6065377443215],[-0.0715115518765454,51.6065456493691],[-0.0709747130695015,51.6065636152028],[-0.0709202641901193,51.6069282619324],[-0.0708756984746836,51.6071551272556],[-0.0707850899495255,51.6074460704255],[-0.0706694843904908,51.6078088114712],[-0.0705320661587012,51.6081648088266],[-0.0703929750887792,51.6084614284211],[-0.0702877629439283,51.6086845077816],[-0.0696588791063693,51.6086621057674]]]},"properties":{"layername":"planorama_lpd_hgy_growth_areas                    ","objectid":3,"layerreference":"lpd_hgy_gra00000003","sitereference":null,"sitename":"Northumberland Park","address":null,"uprn":null,"borough":"Haringey","planningauthority":"Haringey","firstaddeddate":"2017-07-01","lastupdateddate":"2017-07-01","removeddate":null,"status":null,"hectares":63.953,"easting":534202,"northing":191324,"designation":"Growth Areas","boroughdesignation":"Growth Areas","classification":null,"notes":"These are areas with the greatest capacity for growth. It is expected that the most significant amount of houses, jobs and infrastructure will be delivered in these areas over the plan period.","source":null,"extrainfo1":"Policy SP1","extrainfo2":null,"extrainfo3":null,"missing":null,"Shape__Area":639340.99085998535,"Shape__Length":5401.5621118862882}}]}