{"type":"FeatureCollection","features":[{"type":"Feature","id":"gedling-brownfield-register-2025-csv-preview:G7","geometry":null,"properties":{"slot_id":"future_growth_4","lineage_id":"fg4-e4c9076d6f554f00","page_generation":1,"owner":"future_growth_4","partition":"future_growth","semantic_mode":"SOURCE_AREA_EXACT_IDENTIFIER","dataset":"gedling-brownfield-register-2025-csv-preview","entity":"G7","reference":"G7","quality":"authoritative","organisation":"Gedling Borough Council","name":"Meadow Road Industrial Site, Meadow Road, Carlton","site_address":"Meadow Road Industrial Site, Meadow Road, Carlton","source_url":"https://www.data.gov.uk/dataset/3e4aa091-b307-49e7-b880-374873c25785/brownfield-register-2025-data/datafile/705dbf66-6da2-4bf0-a04a-677e13ea852d/preview","final_url":"https://www.data.gov.uk/dataset/3e4aa091-b307-49e7-b880-374873c25785/brownfield-register-2025-data/datafile/705dbf66-6da2-4bf0-a04a-677e13ea852d/preview","access_utc":"2026-10-04T23:42:00Z","data_date":"2022-12-08","license":"not stated on dataset page","field_evidence":{"reference":"G7","site_name_address":"Meadow Road Industrial Site, Meadow Road, Carlton","latitude":52.961695,"longitude":-1.082693,"ownership_status":"not owned by a public authority","planning_status":"pending decision","net_dwellings_range_from":34,"net_dwellings_range_to":40,"notes":"Resolution to grant outline planning application for up to 40 dwellings (2018/0045) in October 2018 subject to the signing of the s106.","first_added_date":"2017-04-01","last_updated_date":"2022-12-08","hectares":1.18,"dataset_last_updated":"2026-01-07"},"evidence_slice_sha256":"94eba1edaa983218a9ec817a2af714745987ce71c9cf2167f40575f11222e421","confidence_score_0_100":99,"confidence":0.99,"evidence_grade":"A","exact_identifier_provided":true,"coverage_polygon_provided":false,"coverage_geometry_available":true,"coverage_geometry_source":"official dataset page lists GeoJSON, OGC WFS and ArcGIS GeoService resources","fake_data":false,"join_mode":"LOCAL_OPENCODE_SPATIAL_JOIN_PENDING","direct_parcel":false,"source_area_count_contribution":1,"planned_building_count_contribution":0}}]}