{"type":"FeatureCollection","name":"security_public_safety_1_batch_exact_identifiers","features":[{"type":"Feature","geometry":null,"properties":{"slot_id":"security_public_safety_1","evidence_scope":"coverage_exact_identifier","exact_identifier":"Abingdon","exact_identifier_type":"met.police.uk.safer_neighbourhood_team.official_name","coverage_area_name":"Abingdon","evidence_grade":"A_OFFICIAL_EXACT_IDENTIFIER","fake_data":false,"canonical_parcel_id":null}},{"type":"Feature","geometry":null,"properties":{"slot_id":"security_public_safety_1","evidence_scope":"coverage_exact_identifier","exact_identifier":"Brompton and Hans Town","exact_identifier_type":"met.police.uk.safer_neighbourhood_team.official_name","coverage_area_name":"Brompton and Hans Town","evidence_grade":"A_OFFICIAL_EXACT_IDENTIFIER","fake_data":false,"canonical_parcel_id":null}},{"type":"Feature","geometry":null,"properties":{"slot_id":"security_public_safety_1","evidence_scope":"coverage_exact_identifier","exact_identifier":"Campden","exact_identifier_type":"met.police.uk.safer_neighbourhood_team.official_name","coverage_area_name":"Campden","evidence_grade":"A_OFFICIAL_EXACT_IDENTIFIER","fake_data":false,"canonical_parcel_id":null}},{"type":"Feature","geometry":null,"properties":{"slot_id":"security_public_safety_1","evidence_scope":"coverage_exact_identifier","exact_identifier":"Chelsea Riverside","exact_identifier_type":"met.police.uk.safer_neighbourhood_team.official_name","coverage_area_name":"Chelsea Riverside","evidence_grade":"A_OFFICIAL_EXACT_IDENTIFIER","fake_data":false,"canonical_parcel_id":null}},{"type":"Feature","geometry":null,"properties":{"slot_id":"security_public_safety_1","evidence_scope":"coverage_exact_identifier","exact_identifier":"Colville","exact_identifier_type":"met.police.uk.safer_neighbourhood_team.official_name","coverage_area_name":"Colville","evidence_grade":"A_OFFICIAL_EXACT_IDENTIFIER","fake_data":false,"canonical_parcel_id":null}},{"type":"Feature","geometry":null,"properties":{"slot_id":"security_public_safety_1","evidence_scope":"coverage_exact_identifier","exact_identifier":"Courtfield","exact_identifier_type":"met.police.uk.safer_neighbourhood_team.official_name","coverage_area_name":"Courtfield","evidence_grade":"A_OFFICIAL_EXACT_IDENTIFIER","fake_data":false,"canonical_parcel_id":null}},{"type":"Feature","geometry":null,"properties":{"slot_id":"security_public_safety_1","evidence_scope":"coverage_exact_identifier","exact_identifier":"Dalgarno","exact_identifier_type":"met.police.uk.safer_neighbourhood_team.official_name","coverage_area_name":"Dalgarno","evidence_grade":"A_OFFICIAL_EXACT_IDENTIFIER","fake_data":false,"canonical_parcel_id":null}},{"type":"Feature","geometry":null,"properties":{"slot_id":"security_public_safety_1","evidence_scope":"coverage_exact_identifier","exact_identifier":"Earl's Court","exact_identifier_type":"met.police.uk.safer_neighbourhood_team.official_name","coverage_area_name":"Earl's Court","evidence_grade":"A_OFFICIAL_EXACT_IDENTIFIER","fake_data":false,"canonical_parcel_id":null}},{"type":"Feature","geometry":null,"properties":{"slot_id":"security_public_safety_1","evidence_scope":"coverage_exact_identifier","exact_identifier":"Golborne","exact_identifier_type":"met.police.uk.safer_neighbourhood_team.official_name","coverage_area_name":"Golborne","evidence_grade":"A_OFFICIAL_EXACT_IDENTIFIER","fake_data":false,"canonical_parcel_id":null}},{"type":"Feature","geometry":null,"properties":{"slot_id":"security_public_safety_1","evidence_scope":"coverage_exact_identifier","exact_identifier":"Holland","exact_identifier_type":"met.police.uk.safer_neighbourhood_team.official_name","coverage_area_name":"Holland","evidence_grade":"A_OFFICIAL_EXACT_IDENTIFIER","fake_data":false,"canonical_parcel_id":null}},{"type":"Feature","geometry":null,"properties":{"slot_id":"security_public_safety_1","evidence_scope":"coverage_exact_identifier","exact_identifier":"Norland","exact_identifier_type":"met.police.uk.safer_neighbourhood_team.official_name","coverage_area_name":"Norland","evidence_grade":"A_OFFICIAL_EXACT_IDENTIFIER","fake_data":false,"canonical_parcel_id":null}},{"type":"Feature","geometry":null,"properties":{"slot_id":"security_public_safety_1","evidence_scope":"coverage_exact_identifier","exact_identifier":"Notting Dale","exact_identifier_type":"met.police.uk.safer_neighbourhood_team.official_name","coverage_area_name":"Notting Dale","evidence_grade":"A_OFFICIAL_EXACT_IDENTIFIER","fake_data":false,"canonical_parcel_id":null}},{"type":"Feature","geometry":null,"properties":{"slot_id":"security_public_safety_1","evidence_scope":"coverage_exact_identifier","exact_identifier":"Pembridge","exact_identifier_type":"met.police.uk.safer_neighbourhood_team.official_name","coverage_area_name":"Pembridge","evidence_grade":"A_OFFICIAL_EXACT_IDENTIFIER","fake_data":false,"canonical_parcel_id":null}},{"type":"Feature","geometry":null,"properties":{"slot_id":"security_public_safety_1","evidence_scope":"coverage_exact_identifier","exact_identifier":"Queen's Gate","exact_identifier_type":"met.police.uk.safer_neighbourhood_team.official_name","coverage_area_name":"Queen's Gate","evidence_grade":"A_OFFICIAL_EXACT_IDENTIFIER","fake_data":false,"canonical_parcel_id":null}},{"type":"Feature","geometry":null,"properties":{"slot_id":"security_public_safety_1","evidence_scope":"coverage_exact_identifier","exact_identifier":"Redcliffe","exact_identifier_type":"met.police.uk.safer_neighbourhood_team.official_name","coverage_area_name":"Redcliffe","evidence_grade":"A_OFFICIAL_EXACT_IDENTIFIER","fake_data":false,"canonical_parcel_id":null}},{"type":"Feature","geometry":null,"properties":{"slot_id":"security_public_safety_1","evidence_scope":"coverage_exact_identifier","exact_identifier":"Royal Hospital","exact_identifier_type":"met.police.uk.safer_neighbourhood_team.official_name","coverage_area_name":"Royal Hospital","evidence_grade":"A_OFFICIAL_EXACT_IDENTIFIER","fake_data":false,"canonical_parcel_id":null}},{"type":"Feature","geometry":null,"properties":{"slot_id":"security_public_safety_1","evidence_scope":"coverage_exact_identifier","exact_identifier":"St. Helen's","exact_identifier_type":"met.police.uk.safer_neighbourhood_team.official_name","coverage_area_name":"St. Helen's","evidence_grade":"A_OFFICIAL_EXACT_IDENTIFIER","fake_data":false,"canonical_parcel_id":null}},{"type":"Feature","geometry":null,"properties":{"slot_id":"security_public_safety_1","evidence_scope":"coverage_exact_identifier","exact_identifier":"Stanley","exact_identifier_type":"met.police.uk.safer_neighbourhood_team.official_name","coverage_area_name":"Stanley","evidence_grade":"A_OFFICIAL_EXACT_IDENTIFIER","fake_data":false,"canonical_parcel_id":null}}]}
