{"type":"FeatureCollection","name":"building_type_2_batch_0037","features":[{"type":"Feature","id":"42115493","geometry":{"type":"MultiPolygon","coordinates":[[[[-0.064849,51.47748],[-0.064907,51.477475],[-0.064874,51.477307],[-0.064747,51.477317],[-0.06475,51.477326],[-0.064765,51.477325],[-0.064793,51.47747],[-0.064845,51.477466],[-0.064849,51.47748]]]]},"properties":{"slot_id":"building_type_2","lineage_id":"building_type_2-20260930T173100Z-newstart","batch_id":"batch-0037","page_generation":1,"source_entity":42115493,"source_reference":"470939","source_dataset":"listed-building-outline","source_organisation":"London Borough of Southwark","building_evidence_status":"BUILDING_PRESENT","parcel_status":"UNPROCESSED","canonical_parcel_id":null,"building_type":"listed_building","building_use":null,"poi_accepted":false,"field_evidence":{"footprint":"official listed-building-outline MULTIPOLYGON","type":"official dataset classification: listed-building-outline","reference":"470939","quality":"authoritative","name":"No given name"},"source_url":"https://www.planning.data.gov.uk/entity/42115493","final_url":"https://www.planning.data.gov.uk/entity/42115493","access_utc":"2026-10-03T22:58:28Z","data_date":"2023-08-16","licence":"Open Government Licence v3.0","evidence_slice_sha256":"79bc4ce1f5923fdd89fb918ef32c071a75ab2bd2174c4beb17b7c6bfea8b8a2c","confidence_score_0_100":96,"evidence_grade":"A","fake_data":false,"local_spatial_join_required":true}}]}