{"type":"FeatureCollection","features":[{"type":"Feature","id":"planned_buildings_2-planning-data-brownfield-1715373","geometry":null,"properties":{"entity":1715373,"reference":"STA4/19","canonical_record_key":"planning-data:brownfield-land:1715373","planned_project_name":"58A Billet Lane, Hornchurch","planned_project_status":"permissioned","borough":"London Borough of Havering","official_hectares":0.06,"official_deliverable":true,"planned_building_value":null,"planned_building_probability":null,"planned_building_complete_month":null,"source_url":"https://www.planning.data.gov.uk/entity/1715373","source_quality":"authoritative","fake_data":false}}],"metadata":{"slot_id":"planned_buildings_2","batch_index":149,"source_index":9,"source_window":{"resource_index":8,"limit":1},"feature_count_before":500,"feature_count_after":501,"unique_real_site_project_before":341,"unique_real_site_project_after":342,"duplicate_count_new":0,"nearest_match_used":false,"parcel_match_used":false,"mirror_only":true}}