{"type":"FeatureCollection","features":[{"type":"Feature","id":"planned_buildings_2-planning-data-brownfield-1715348","geometry":null,"properties":{"entity":1715348,"reference":"ROM17","canonical_record_key":"planning-data:brownfield-land:1715348","planned_project_name":"7 Eastern Road, Romford","planned_project_status":"permissioned","borough":"London Borough of Havering","official_hectares":0.04,"official_deliverable":true,"planned_building_value":null,"planned_building_probability":null,"planned_building_complete_month":null,"source_url":"https://www.planning.data.gov.uk/entity/1715348","source_quality":"authoritative","fake_data":false}}],"metadata":{"slot_id":"planned_buildings_2","batch_index":146,"source_index":9,"source_window":{"resource_index":5,"limit":1},"feature_count_before":497,"feature_count_after":498,"unique_real_site_project_before":338,"unique_real_site_project_after":339,"duplicate_count_new":0,"nearest_match_used":false,"parcel_match_used":false,"mirror_only":true}}