{"type":"FeatureCollection","features":[{"type":"Feature","id":"planned_buildings_2-planning-data-brownfield-1715336","geometry":null,"properties":{"entity":1715336,"reference":"GOO6","canonical_record_key":"planning-data:brownfield-land:1715336","planned_project_name":"Quarles Campus, Tring Gardens, Harold Hill (Former Technical College)","planned_project_status":"not-permissioned","borough":"London Borough of Havering","official_hectares":3.67,"planned_building_value":null,"planned_building_probability":null,"planned_building_complete_month":null,"source_url":"https://www.planning.data.gov.uk/entity/1715336","source_quality":"authoritative","fake_data":false}}],"metadata":{"slot_id":"planned_buildings_2","batch_index":144,"source_index":9,"source_window":{"resource_index":3,"limit":1},"feature_count_before":495,"feature_count_after":496,"unique_real_site_project_before":336,"unique_real_site_project_after":337,"duplicate_count_new":0,"nearest_match_used":false,"parcel_match_used":false,"mirror_only":true}}