{
  "features": [
    {
      "geometry": {
        "coordinates": [
          [
            [
              [
                -0.010644,
                51.507349
              ],
              [
                -0.010702,
                51.507576
              ],
              [
                -0.014248,
                51.507414
              ],
              [
                -0.018655,
                51.507774
              ],
              [
                -0.024163,
                51.508977
              ],
              [
                -0.02549,
                51.509737
              ],
              [
                -0.026652,
                51.509004
              ],
              [
                -0.027267,
                51.507906
              ],
              [
                -0.029527,
                51.507901
              ],
              [
                -0.030482,
                51.507278
              ],
              [
                -0.030415,
                51.507242
              ],
              [
                -0.030102,
                51.507423
              ],
              [
                -0.028452,
                51.505719
              ],
              [
                -0.028521,
                51.505664
              ],
              [
                -0.028579,
                51.505284
              ],
              [
                -0.028935,
                51.505393
              ],
              [
                -0.028629,
                51.504991
              ],
              [
                -0.028457,
                51.505667
              ],
              [
                -0.026748,
                51.50334
              ],
              [
                -0.027412,
                51.501813
              ],
              [
                -0.027873,
                51.494685
              ],
              [
                -0.027629,
                51.494251
              ],
              [
                -0.026232,
                51.494014
              ],
              [
                -0.026616,
                51.493935
              ],
              [
                -0.017328,
                51.493516
              ],
              [
                -0.016511,
                51.499973
              ],
              [
                -0.016206,
                51.499941
              ],
              [
                -0.015433,
                51.50414
              ],
              [
                -0.012736,
                51.504355
              ],
              [
                -0.011843,
                51.504912
              ],
              [
                -0.010642,
                51.506049
              ],
              [
                -0.010644,
                51.507349
              ]
            ]
          ]
        ],
        "type": "MultiPolygon"
      },
      "id": "E05009323",
      "properties": {
        "accepted_as_parcel": false,
        "authoritative_source": "Office for National Statistics",
        "canonical_binding": "LOCAL_OPENCODE_SPATIAL_JOIN_PENDING_NOT_CLAIMED",
        "confidence_score_0_100": 100,
        "entry_date": "2025-03-04",
        "evidence_grade": "A_OFFICIAL_AUTHORITATIVE_BOUNDARY",
        "evidence_slice_sha256": "8ed5c86819c56cb71f0b995e5a310b5df3d9a37d3a2fef43a4e13debf91472b5",
        "fake_data": false,
        "license": "Open Government Licence v3.0",
        "record_type": "SOURCE_AREA_COVERAGE_POLYGON",
        "source_area_counted": true,
        "source_area_identifier": "E05009323",
        "source_area_name": "Canary Wharf",
        "source_url": "https://www.planning.data.gov.uk/entity/801136"
      },
      "type": "Feature"
    }
  ],
  "name": "security_public_safety_3",
  "properties": {
    "batch_id": "20261001T012500Z-ward-boundary-E05009323",
    "lineage_id": "L24-SPS3-57442c9c2a0f429be2d2",
    "page_generation": 1,
    "partition": {
      "count": 30761,
      "end": 92283,
      "start": 61523
    },
    "schema": "AAYS_LAYER24_EVIDENCE_V1",
    "slot_id": "security_public_safety_3"
  },
  "type": "FeatureCollection"
}
