{"type":"FeatureCollection","features":[{"type":"Feature","geometry":null,"properties":{"slot_id":"future_growth_1","lineage_id":"future_growth_1-newstart-20260927T153100+0300","page_generation":null,"accepted_as_parcel":false,"source_area_count_contribution":1,"exact_identifier":"SPN1","exact_identifier_provided":true,"coverage_polygon_provided":false,"identifier_namespace":"Oxford Local Plan 2045 site allocation","site_name":"Diamond Place and Ewert House","access_utc":"2026-10-03T07:44:00Z","data_date":"2026-09-08","source_url":"https://www.oxford.gov.uk/oxford-local-plan-2045/oxford-local-plan-2045-examination","final_url":"https://www.oxford.gov.uk/oxford-local-plan-2045/oxford-local-plan-2045-examination","site_capacity_assessment_url":"https://www.oxford.gov.uk/downloads/file/3996/spn1-diamond-place-and-ewert-house---site-capacity-assessment","proposed_submission_url":"https://www.oxford.gov.uk/oxford-local-plan-2045/local-plan-2045-proposed-submission","policy_document_url":"https://mycouncil.oxford.gov.uk/documents/s88514/08%20Infrastructure%20AOF%20and%20Site%20Allocations.pdf","license":"Oxford City Council public planning-policy and examination documents; the SPN1 site map contains Ordnance Survey data with Crown copyright/database right 2025, and no document-specific reuse licence is stated on the public page.","authority":"Oxford City Council","site_area_hectares":1.85,"minimum_dwellings":135,"development_type":"mixed-use including residential","plan_submission_date":"2026-07-14","examination_status_date":"2026-09-08","plan_stage":"submitted Local Plan under independent examination","evidence_grade":"A","confidence_score_0_100":99,"evidence_scope":"exact Oxford Local Plan 2045 site allocation SPN1, official site-capacity assessment, submitted site-allocation policy and current examination status","evidence_slice_sha256":"b162c497de24066366111603c074306d6fac20031304f99c60d07dfe652c5b5f","fake_data":false,"spatial_binding_method":"official SPN1 allocation identifier plus red-line boundary in Oxford City Council site-capacity assessment / submitted policies map; exact boundary extraction, canonical parcel spatial join and materialization delegated to local OpenCode","planned_building_count_contribution":0}}]}
