{"features":[],"metadata":{"batch_id":"batch_0004_20260930T202057Z","cursor":"EPSG:27700 bbox=285000,85000,305000,105000;resultOffset=0;limit=50;orderBy=OBJECTID","fake_data":false,"lineage_id":"BT7-e778d2c2-3425-46ea-a261-2494bfcbd18d","page_generation":1,"reason":"official record-level feature where Polygon/MultiPolygon is explicitly the physical building footprint and the same record carries an evidence-bearing building type/use field. Historic England NHLE layer 3 is an official listed-building polygon layer, but its schema exposes ListEntry/Name/Grade/date/location fields rather than current use/type, and NHLE 'Listed Buildings' can include non-building structures; the <=50 Exeter-bbox feature payload was not retrievable through the available public fetch surface.","schema":"AAYS_LAYER24_EVIDENCE_V1","slot_id":"building_type_7","source_window_url":"https://services-eu1.arcgis.com/ZOdPfBS3aqqDYPUQ/arcgis/rest/services/National_Heritage_List_for_England_NHLE_v02_VIEW/FeatureServer/3","status":"NO_ACCEPTED_RECORDS"},"name":"building_type_7","type":"FeatureCollection"}
