{"features":[{"geometry":null,"properties":{"accepted_count_contribution":0,"access_utc":"2026-10-01T05:13:00Z","available_resolutions_m":[0.25,0.5,1,2],"binding_status":"LOCAL_OPENCODE_BUILDING_PRESENT_EXACT_5KM_TILE_BIND_REQUIRED","canonical_parcel_id":null,"confidence_score_0_100":98,"crs":"EPSG:27700","dataset_creation_date":"1998-01-10","dataset_revision_date":"2024-07-19","dataset_role":"official time-stamped DTM archive resource evidence","directory_updated":"2026-04-07","evidence_grade":"A_OFFICIAL_DATASET_RESOURCE_B_NO_EXACT_TILE_ROW","evidence_slice_sha256":"e7c8e7f15a119e09894b2a587c2e9e45f0aa8b8c8f84b6cc270fc828b0fcc993","fake_data":false,"final_url":"https://www.data.gov.uk/dataset/8275e71e-1516-42a1-bb0c-4fa73807fe2b/lidar-dtm-time-stamped-tiles","individual_tile_identifier":null,"individual_tile_resolution_m":null,"individual_tile_survey_date":null,"licence":"Open Government Licence","metadata_index_capability":"specific survey date/resolution/transformation/geoidal model per location","publisher":"Environment Agency","required_building_state":"BUILDING_PRESENT","source_area_count_contribution":0,"source_record_id":"EA_LIDAR_DTM_TIME_STAMPED_TILES:DATASET_RESOURCE","source_url":"https://www.data.gov.uk/dataset/8275e71e-1516-42a1-bb0c-4fa73807fe2b/lidar-dtm-time-stamped-tiles","tile_size_km":5,"vertical_accuracy":"±15 cm RMSE","vertical_reference":"Ordnance Survey Newlyn"},"type":"Feature"}],"name":"height_difference_1","type":"FeatureCollection"}
