{
  "type": "FeatureCollection",
  "features": [
    {
      "type": "Feature",
      "id": "brownfield-site:1802484:BLR8",
      "geometry": {
        "type": "MultiPolygon",
        "coordinates": [
          [
            [
              [
                0.017795,
                51.410113
              ],
              [
                0.017746,
                51.410141
              ],
              [
                0.017692,
                51.410156
              ],
              [
                0.017544,
                51.410021
              ],
              [
                0.01727,
                51.410142
              ],
              [
                0.015678,
                51.408433
              ],
              [
                0.0157,
                51.408419
              ],
              [
                0.016781,
                51.408039
              ],
              [
                0.016849,
                51.408092
              ],
              [
                0.018163,
                51.408772
              ],
              [
                0.017828,
                51.408957
              ],
              [
                0.01816,
                51.409287
              ],
              [
                0.018616,
                51.409819
              ],
              [
                0.018643,
                51.409897
              ],
              [
                0.018847,
                51.409995
              ],
              [
                0.018915,
                51.410037
              ],
              [
                0.019263,
                51.410337
              ],
              [
                0.019275,
                51.41036
              ],
              [
                0.019267,
                51.410375
              ],
              [
                0.018912,
                51.410556
              ],
              [
                0.018677,
                51.410658
              ],
              [
                0.017795,
                51.410113
              ]
            ]
          ]
        ]
      },
      "properties": {
        "slot_id": "future_growth_7",
        "lineage_id": "future_growth_7_open_source_v2_20260813",
        "page_generation": null,
        "batch_id": "batch_20261009T034742Z_bfs1802484",
        "semantic_mode": "AREA_JOIN",
        "semantic_identity": "brownfield-site:1802484:BLR8",
        "official_entity_id": 1802484,
        "official_reference": "BLR8",
        "organisation": "London Borough of Bromley",
        "source_url": "https://www.planning.data.gov.uk/entity/1802484",
        "final_url": "https://www.planning.data.gov.uk/entity/1802484",
        "accessed_utc": "2026-10-09T03:47:42Z",
        "data_date": "2020-12-22",
        "data_version": "official site entry 2020-12-22",
        "licence": "Open Government Licence v3.0",
        "licence_url": "https://www.nationalarchives.gov.uk/doc/open-government-licence/version/3/",
        "http_status": null,
        "http_status_evidence": "official public HTML available; HTTP status header not exposed to producer",
        "source_window": "brownfield-site:entity:1802484:entry-2020-12-22",
        "dataset": "brownfield-site",
        "entity": 1802484,
        "reference": "BLR8",
        "official_geojson_url": "https://www.planning.data.gov.uk/entity/1802484.geojson",
        "official_geojson_download_status": "not fetched: cache miss",
        "source_sha256": "ad58d25fbc1b275e49d97e9f256e2072ea163542eb1bf97c7f6a1339a4da1a6b",
        "source_sha256_basis": "SHA-256 of canonical public field_evidence JSON, not remote HTML bytes",
        "field_evidence": {
          "entry-date": "2020-12-22",
          "start-date": "",
          "end-date": "",
          "entity": 1802484,
          "name": "Land adjacent to Bromley North Station Tweedy Road Bromley BR1",
          "dataset": "brownfield-site",
          "typology": "geography",
          "reference": "BLR8",
          "prefix": "brownfield-site",
          "organisation-entity": "65",
          "geometry": "MULTIPOLYGON (((0.017795 51.410113, 0.017746 51.410141, 0.017692 51.410156, 0.017544 51.410021, 0.01727 51.410142, 0.015678 51.408433, 0.0157 51.408419, 0.016781 51.408039, 0.016849 51.408092, 0.018163 51.408772, 0.017828 51.408957, 0.01816 51.409287, 0.018616 51.409819, 0.018643 51.409897, 0.018847 51.409995, 0.018915 51.410037, 0.019263 51.410337, 0.019275 51.41036, 0.019267 51.410375, 0.018912 51.410556, 0.018677 51.410658, 0.017795 51.410113)))",
          "point": "POINT (0.017414 51.409281)",
          "quality": "some",
          "brownfield-site": "BLR8"
        },
        "evidence_slice_sha256": "cabdab80a07f807c7c3a46e750426731059bef0acae11c14f22383fcbc73579e",
        "confidence_score_0_100": 88,
        "evidence_grade": "OFFICIAL_PUBLISHED_POLYGON_QUALITY_SOME",
        "official_geometry_available": true,
        "official_geometry_type": "MULTIPOLYGON",
        "source_geometry_materialized_here": true,
        "source_area_only": true,
        "point_not_used_as_coverage": true,
        "fake_data": false
      }
    }
  ]
}
