{"type":"FeatureCollection","features":[{"type":"Feature","geometry":null,"properties":{"slot_id":"future_growth_3","lineage_id":"future_growth_3-newstart-20261001T203100Z","page_generation":null,"accepted_as_parcel":false,"source_area_count_contribution":1,"exact_identifier":"HS24","exact_identifier_provided":true,"coverage_polygon_provided":false,"identifier_namespace":"Hastings Draft Local Plan 2026 site allocation policy reference","secondary_exact_identifier":"SHELAA:HL57","source_entity":"HS24 - Land at Graystone Lane","access_utc":"2026-10-06T22:55:25Z","data_date":"2026-04-07","source_url":"https://hastings.oc2.uk/document/190/29856","final_url":"https://hastings.oc2.uk/document/190/29856","license":"© 2003-2026 Hastings Borough Council. Unless otherwise stated, Council web pages are copyright protected; all rights reserved.","authority":"Hastings Borough Council","site_address":"Land at Graystone Lane, Hastings","field_evidence":{"reference":"HS24","shelaa_reference":"HL57","dataset":"Hastings Local Plan Draft Local Plan Preferred Options (Regulation 18)","organisation":"Hastings Borough Council","site_name":"Land at Graystone Lane","consultation_close_date":"2026-04-07","site_area_ha":0.46,"use":"Residential","minimum_density_range_dph":"45-55","minimum_indicative_capacity_net_additional_dwellings":"25-41"},"source_payload_sha256":"abbfb7c136e0eda9068bc0ac863b04a28017b8bc7c24e1983ae8b20277f1e474","source_payload_sha256_basis":"canonicalized official Hastings Borough Council HS24 evidence fields","evidence_slice_sha256":"f8938ef8760d867fd44b2497106ac8f93713d4a2c556876813c808ba6ea476d9","evidence_grade":"A","confidence_score_0_100":99,"evidence_scope":"exact_official_identifier_from_council_regulation18_local_plan_site_allocation","fake_data":false,"spatial_binding_method":"official Hastings Borough Council Policy HS24 / SHELAA HL57 with linked Council ArcGIS map; canonical parcel spatial join and materialization delegated to local OpenCode","planned_building_count_contribution":0}}]}