{"type":"FeatureCollection","features":[{"type":"Feature","geometry":null,"properties":{"slot_id":"planned_buildings_1","lineage_id":"planned_buildings_1-0ffc4ebd6c6e4e41","semantic_mode":"DISTINCT_BUILDINGS","planned_building_id":"planning-application:2026/0156/FPA::MODULAR_CHAPEL_OF_REST","building_status":"PLANNED","building_name":"Single-storey modular chapel of rest, Westwinds Allithwaite Road","planning_reference":"2026/0156/FPA","authority":"Westmorland & Furness Council","source_url":"https://planningregister.westmorlandandfurness.gov.uk/Planning/Display/2026/0156/FPA","final_url":"https://planningregister.westmorlandandfurness.gov.uk/Planning/Display/2026/0156/FPA","access_utc":"2026-10-04T10:09:10Z","source_data_date":"2026-01-21","license":"Open Government Licence v3.0","geometry_role":"official planning register exposes no machine-readable application point or building footprint in the retrieved record; geometry null; no geometry inferred","field_evidence":"Official Valid Full Application states siting of a single-storey modular building for use as chapel of rest; status Officer Consideration and decision Pending.","identity_limitation":"Exactly one modular chapel-of-rest building is explicit; associated business use and associated works are not counted as separate buildings.","confidence_score_0_100":98,"evidence_grade":"A","fake_data":false}}]}