{"type":"FeatureCollection","name":"height_difference_5","metadata":{"slot_id":"height_difference_5","owner":"height_difference_5","lineage_id":"height_difference_5-eb56f92ed3f0514c","page_generation":1,"schema":"AAYS_LAYER24_EVIDENCE_V1","partition":"layer24","semantic_mode_state":"ABSENT_IN_PRIOR_PHYSICAL_STATE_PRESERVED_BY_OMISSION","batch_id":"20261005T175400Z_spatialni_opendata_rest_services_root_blocked","record_policy":"Official SpatialNI OpenData REST root blocker evidence only; no service, layer, tile/file, parcel binding, geometry or CRS synthesized.","fake_data":false},"features":[{"type":"Feature","geometry":null,"properties":{"slot_id":"height_difference_5","owner":"height_difference_5","lineage_id":"height_difference_5-eb56f92ed3f0514c","page_generation":1,"schema":"AAYS_LAYER24_EVIDENCE_V1","partition":"layer24","batch_id":"20261005T175400Z_spatialni_opendata_rest_services_root_blocked","source_record_id":"SPATIALNI_OPENDATA:REST_SERVICES_ROOT","source_url":"https://services.spatialni.gov.uk/opendata/rest/services?f=pjson","access_utc":"2026-10-05T17:54:00Z","required_building_state":"BUILDING_PRESENT","binding_status":"LOCAL_OPENCODE_BUILDING_PRESENT_EXACT_TILE_BIND_REQUIRED","web_transport_status":"INACCESSIBLE_VIA_WEB_TRANSPORT","direct_transport_status":"TEMPORARY_DNS_RESOLUTION_FAILURE_NON_RETRYABLE","service_name":null,"layer_id":null,"exact_tile_identifier":null,"crs":null,"evidence_slice_sha256":"38dfe5ff52aa5a8f181f306b6a672c48c9c441ede8eccf117fdc2296b1bdbcf1","accepted_count_contribution":0,"source_area_count_contribution":0,"fake_data":false}}]}
