{"type":"FeatureCollection","name":"height_difference_2","features":[],"metadata":{"slot_id":"height_difference_2","lineage_id":"height_difference_2_20260930T001051Z","page_generation":1,"partition":"source_area","schema":"AAYS_LAYER24_EVIDENCE_V1","fake_data":false,"owner":"cagdas aydin","batch_id":"batch_0081_post_batch0080_lineage_start_state_blocker_20261006T020600+0300","cursor":"BLOCKED_POST_BATCH_0080_LINEAGE_START_STATE_NO_HD2_CANONICAL_OR_TILE_BINDING","source_area_count":0,"accepted_count":0,"unmatched_count":1,"reason":"EXACT_BLOCKER: after immutable batch_0080 commit 73d03ceb16db681baa7ae17b85cd3f2488f51914, a current-head lineage-continuity and family-start-state audit through main head 06e5da4872bd5f657b463c5b07986421d44eda93 found 20 intervening commits but no newer height_difference_2 slot-bound canonical_parcel_id materialization, no BUILDING_PRESENT parcel geometry/bbox binding, and no exact official DEM/LIDAR tile selector. The only Height Difference-family changes are height_difference_5 SpatialNI SRS guidance and height_difference_6 exact-blocker persistence; neither is admissible for height_difference_2. The family start criterion remains unsatisfied, so no external DEM/LIDAR source window was opened. Local OpenCode must publish a non-null height_difference_2 canonical_parcel_id with BUILDING_PRESENT plus parcel geometry/bbox or an exact official DEM/LIDAR tile selector before Height Difference source acceptance."}}
