{"type":"FeatureCollection","features":[{"type":"Feature","geometry":null,"properties":{"slot_id":"future_growth_3","lineage_id":"future_growth_3-newstart-20261001T203100Z","page_generation":null,"accepted_as_parcel":false,"source_area_count_contribution":1,"exact_identifier":"SHLAA0131","exact_identifier_provided":true,"coverage_polygon_provided":false,"identifier_namespace":"Wigan Metropolitan Borough Council SHLAA reference","secondary_exact_identifier":"Eckersley Mill Swan Meadow Road Wigan","source_entity":"SHLAA0131 - Eckersley Mill Swan Meadow Road Wigan","access_utc":"2026-10-03T08:32:53Z","data_date":"2026-04-01","source_url":"https://www.data.gov.uk/dataset/2961fa8d-e21d-414b-8668-98221d2900af/strategic-housing-land-availability-assessment-2026","final_url":"https://www.data.gov.uk/dataset/2961fa8d-e21d-414b-8668-98221d2900af/strategic-housing-land-availability-assessment-2026","license":"Not stated in data.gov.uk metadata as of 2026-10-03","authority":"Wigan Metropolitan Borough Council","site_address":"Eckersley Mill Swan Meadow Road Wigan","field_evidence":{"reference":"SHLAA0131","dataset":"Strategic Housing Land Availability Assessment 2026","organisation":"Wigan Metropolitan Borough Council","base_date":"2026-04-01","dataset_updated":"2026-09-02","known_as_address":"Eckersley Mill Swan Meadow Road Wigan","site_area_ha":4.9,"total_site_capacity":817,"remaining_capacity":817,"easting":357680.3,"northing":405028.2},"source_payload_sha256":"ae54a8a882015539536121dcc8b74c80695abed3ac1786ed92cca24a376b35f0","source_payload_sha256_basis":"canonicalized official Wigan SHLAA 2026 evidence fields","evidence_slice_sha256":"4b8b79fc215a4a1f094d18d53164be0af651d151d51edc94d04c56040f192410","evidence_grade":"A","confidence_score_0_100":99,"evidence_scope":"exact_official_identifier_from_council_shlaa_2026_spatial_dataset","fake_data":false,"spatial_binding_method":"official Wigan SHLAA 2026 exact reference SHLAA0131 and official GeoJSON/ArcGIS spatial dataset; canonical parcel spatial join and materialization delegated to local OpenCode","planned_building_count_contribution":0}}]}