{"type":"FeatureCollection","features":[{"type":"Feature","id":"CHERWELL_25_02372_F_DETACHED_GARAGE_01","geometry":null,"properties":{"slot_id":"planned_buildings_4","owner":"planned_buildings_4","lineage_id":"pb4-8debc7c8ddf348a2","page_generation":1,"partition":"layer24","schema":"AAYS_LAYER24_EVIDENCE_V1","semantic_mode":"PLANNED_BUILDINGS_OFFICIAL_REFERENCE_DISTINCT_STRUCTURE","batch_id":"20261004T001742Z-cherwell-25-02372-f-window-001","publisher":"Cherwell District Council","source_family":"CHERWELL_PLANNING_REGISTER","source_url":"https://planningregister.cherwell.gov.uk/Planning/Display/25/02372/F","final_url":"https://planningregister.cherwell.gov.uk/Planning/Display/25/02372/F","access_utc":"2026-10-04T00:17:42Z","data_date":"2025-09-12","license":"Public planning register; document copyright/usage remains governed by council register terms","planning_reference":"25/02372/F","location":"Balscote House Chapel Lane Balscote OX15 6JN","proposal":"Air source heat pump and solar panels to main dwelling and erection of detached garage","status":"Application Permitted","decision":"Permitted","decision_issued_date":"27/02/2026","geometry_status":"NOT_MATERIALIZED_LOCAL_OPENCODE","field_evidence":"Official Cherwell District Council Planning Register application 25/02372/F. Application Type: Full Development. Status: Application Permitted. Valid date: 12/09/2025. Location: Balscote House Chapel Lane Balscote OX15 6JN. Proposal: Air source heat pump and solar panels to main dwelling and erection of detached garage. Decision: Permitted. Decision Issued Date: 27/02/2026. Official documents include Proposed Layout and Location drawing 8150-03 revision B and dedicated Proposed Garage drawing 8150-05 revision B. The official proposal explicitly identifies one new detached garage. The air source heat pump and solar panels are equipment associated with the main dwelling and are not counted as additional distinct structures. The proposed layout/location and dedicated garage drawing support the same single distinct planned structure. Geometry/materialization is deferred to local OpenCode.","evidence_slice_sha256":"6154f5ccb59ebea48ee9a0e0fa749ef8dbebdeebeae1a2823277b1ffcbb595ba","confidence":0.99,"evidence_grade":"A_OFFICIAL_LOCAL_AUTHORITY_PLANNING_REGISTER_DISTINCT_DETACHED_GARAGE_PERMITTED","fake_data":false,"source_record_id":"CHERWELL_25_02372_F_DETACHED_GARAGE_01","planned_building":"detached garage","official_plan_reference":"8150-03-B; 8150-05-B","official_plan_description":"Proposed Layout and Location; Proposed Garage"}}]}
