{"type":"FeatureCollection","features":[{"type":"Feature","geometry":null,"properties":{"slot_id":"future_growth_1","lineage_id":"future_growth_1-newstart-20260927T153100+0300","page_generation":null,"accepted_as_parcel":false,"source_area_count_contribution":1,"exact_identifier":"26","exact_identifier_provided":true,"coverage_polygon_provided":false,"identifier_namespace":"OPDC Local Plan 2022 Site Allocation","site_name":"Channel Gate","access_utc":"2026-10-06T03:34:00Z","data_date":"2022-06-22","source_url":"https://gis.london.gov.uk/arcgis/rest/services/apps/OPDC_public_policies_map/FeatureServer/25","final_url":"https://gis.london.gov.uk/arcgis/rest/services/apps/OPDC_public_policies_map/FeatureServer/25","policy_url":"https://www.london.gov.uk/who-we-are/city-halls-partners/old-oak-and-park-royal-development-corporation-opdc/planning-policy/opdc-planning-policy/local-plan/opdcs-local-plan-2022-adoption","evidence_document_url":"https://www.london.gov.uk/sites/default/files/opdc_strategic_site_allocations_viability_assessment_2021.pdf","license":"Publicly accessible GLA/OPDC GIS and planning-policy documents; layer-specific reuse licence is not stated on the FeatureServer layer page.","authority":"Old Oak and Park Royal Development Corporation","site_area_hectares":9.98,"allocation":"Residential mixed use retention of bus depot","plan_period_homes_capacity":3100,"london_plan_0_10_year_homes":1232,"economic_floorspace_sqm_nia":10729,"feature_service_layer_id":25,"feature_service_geometry_type":"esriGeometryPolygon","feature_service_spatial_reference_epsg":27700,"evidence_grade":"A","confidence_score_0_100":99,"evidence_scope":"OPDC Local Plan 2022 exact Site Allocation 26 plus GLA-hosted OPDC Site Allocations polygon layer 25","evidence_slice_sha256":"4197a66f7dfba74e9933752ac618e7c4fb453d4d89bbf43149532ee9fdc3051a","fake_data":false,"spatial_binding_method":"official Site Allocation 26 identifier plus OPDC public polygon FeatureServer layer 25; exact polygon query, canonical parcel spatial join and materialization delegated to local OpenCode","planned_building_count_contribution":0}}]}