{"type":"FeatureCollection","name":"height_difference_5","metadata":{"slot_id":"height_difference_5","owner":"height_difference_5","lineage_id":"height_difference_5-eb56f92ed3f0514c","page_generation":1,"schema":"AAYS_LAYER24_EVIDENCE_V1","partition":"layer24","semantic_mode_state":"ABSENT_IN_PRIOR_PHYSICAL_STATE_PRESERVED_BY_OMISSION","batch_id":"20261003T182100Z_spatialni_enhanced_dtm_product_guide_reference","record_policy":"Official Spatial NI Enhanced DTM guide reference only; no Belfast 2006 CRS, tile filename, geometry or parcel binding synthesized.","fake_data":false},"features":[{"type":"Feature","geometry":null,"properties":{"slot_id":"height_difference_5","owner":"height_difference_5","lineage_id":"height_difference_5-eb56f92ed3f0514c","page_generation":1,"schema":"AAYS_LAYER24_EVIDENCE_V1","partition":"layer24","batch_id":"20261003T182100Z_spatialni_enhanced_dtm_product_guide_reference","source_record_id":"SPATIALNI:OSNI_ENHANCED_DTM_PRODUCT_GUIDE","source_url":"https://docs.spatialni.gov.uk/NimaSupport/Products/Guides/OSNI_Enhanced_Digital_Terrain_Model/OSNI_Enhanced_Digital_Terrain_Model.pdf","catalog_url":"https://support.spatialni.gov.uk/nima/nima-products.html","access_utc":"2026-10-03T18:21:00Z","required_building_state":"BUILDING_PRESENT","binding_status":"REFERENCE_ONLY_LOCAL_OPENCODE_BELFAST_2006_EXACT_TILE_BIND_REQUIRED","product_crs":"TM75 Irish National Grid","belfast_2006_crs":null,"exact_belfast_2006_tile_identifier":null,"evidence_slice_sha256":"f1642916f789ec073a4c6e47a84d87b76bd0f68d36b81176ee889df6ad1a7158","accepted_count_contribution":0,"source_area_count_contribution":0,"fake_data":false}}]}
