{"type":"FeatureCollection","features":[{"type":"Feature","id":"CHERWELL_25_00725_F_ENCLOSED_DOUBLE_GARAGE_01","geometry":null,"properties":{"slot_id":"planned_buildings_4","owner":"planned_buildings_4","lineage_id":"pb4-8debc7c8ddf348a2","page_generation":1,"partition":"layer24","schema":"AAYS_LAYER24_EVIDENCE_V1","semantic_mode":"PLANNED_BUILDINGS_OFFICIAL_REFERENCE_DISTINCT_STRUCTURE","batch_id":"20261007T003754Z-cherwell-25-00725-f-window-001","publisher":"Cherwell District Council","source_family":"CHERWELL_PLANNING_REGISTER","source_url":"https://planningregister.cherwell.gov.uk/Planning/Display/25/00725/F","final_url":"https://planningregister.cherwell.gov.uk/Planning/Display/25/00725/F","access_utc":"2026-10-07T00:37:54Z","data_date":"2025-03-20","license":"Public planning register; document copyright/usage remains governed by council register terms","planning_reference":"25/00725/F","location":"148 Woodstock Road Yarnton Kidlington OX5 1PW","proposal":"New enclosed double garage","status":"Application Permitted","geometry_status":"NOT_MATERIALIZED_LOCAL_OPENCODE","field_evidence":"Official Cherwell District Council Planning Register application 25/00725/F. Application Type: Full Development. Status: Application Permitted. Valid date: 20/03/2025. Location: 148 Woodstock Road Yarnton Kidlington OX5 1PW. Proposal: New enclosed double garage. Decision: Permitted. Decision Issued Date: 06/06/2025. Official documents include Location Plan Existing and Proposed Block Plans drawing 2451 04 Pl 100; Existing and Proposed Double Garage Elevations in Context drawing 2451 04 Pl 102; and Proposed Double Garage Plans and Elevations drawing 2451 04 Pl 101. The official proposal identifies one new enclosed double garage. The site/block plan and dedicated proposed double-garage plans/elevations support the same single distinct planned structure. Geometry/materialization is deferred to local OpenCode.","evidence_slice_sha256":"5714b7c4b04ad52d982a67c6f851e2a70e28a4cd241dca6de2cebc2bd60bbcb6","confidence":0.99,"evidence_grade":"A_OFFICIAL_LOCAL_AUTHORITY_PLANNING_REGISTER_SINGLE_ENCLOSED_DOUBLE_GARAGE_PERMITTED","fake_data":false,"source_record_id":"CHERWELL_25_00725_F_ENCLOSED_DOUBLE_GARAGE_01","planned_building":"enclosed double garage","official_plan_reference":"2451 04 Pl 100; 2451 04 Pl 102; 2451 04 Pl 101","official_plan_description":"Location Plan Existing and Proposed Block Plans; Existing and Proposed Double Garage Elevations in Context; Proposed Double Garage Plans and Elevations"}}]}
