{"type":"FeatureCollection","name":"ONS_CDN_MSOA11_HARTLEPOOL_E06000001_E02002484","features":[{"type":"Feature","id":"E02002484","geometry":{"type":"Polygon","coordinates":[[[-1.1921617242043594,54.69357924752896],[-1.1954622781881037,54.69449504286455],[-1.196343933019378,54.6933687198656],[-1.200096617685827,54.69332661433293],[-1.2002548634247736,54.69332661433293],[-1.2005487483685315,54.69331608794976],[-1.2025833364407028,54.69321082411808],[-1.2058612838903118,54.692989770071556],[-1.2087323137254868,54.69231608154882],[-1.2095913620226257,54.69221081771714],[-1.2118520154361492,54.691779236007264],[-1.212123293845772,54.69436872626654],[-1.2121911134481778,54.69486346627543],[-1.2124397853236653,54.69737927185253],[-1.2122815395847186,54.697916117394094],[-1.2209398421585136,54.699021387626715],[-1.2215728251143003,54.699095072308886],[-1.225483755519696,54.69946349571976],[-1.2286938833668994,54.699958235728644],[-1.2290555879130631,54.700168763392],[-1.2321978961578608,54.7029161493988],[-1.2332377967280816,54.703789839201725],[-1.23789474275994,54.70783197033817],[-1.2350237129247652,54.70816881459954],[-1.2340968450252205,54.70827407843122],[-1.2340290254228148,54.70851618524407],[-1.2286034572303584,54.709021451636126],[-1.2300728819491487,54.70925303206582],[-1.2310449629169637,54.709821456756885],[-1.230389373427042,54.7103372495321],[-1.2328308791136473,54.71074777847565],[-1.232898698716053,54.71153725721324],[-1.2328534856477826,54.71166357381125],[-1.232310928828537,54.71264252744585],[-1.2363122853704736,54.71388464065966],[-1.238753791057079,54.71476885684575],[-1.2378043166233992,54.71541096621899],[-1.237126120599342,54.715232017705134],[-1.2348428606516832,54.71590570622787],[-1.231451880531398,54.71768466498323],[-1.2272922782505147,54.71560044111601],[-1.2239691177326353,54.714516223649724],[-1.2182270580622854,54.711979365306284],[-1.217707107777175,54.711526730830066],[-1.2142257015203488,54.71078988400832],[-1.2099530665687894,54.708905661421284],[-1.2024476972358913,54.70616880179765],[-1.1944223776178828,54.7041582626126],[-1.1910540040317328,54.702852991099796],[-1.1876404173773123,54.70191614299786],[-1.1831417170844005,54.70107403234444],[-1.1779648207674318,54.6992213889069],[-1.1778291815626203,54.69923191529007],[-1.177716148891944,54.699242441673235],[-1.1752294301370683,54.69657926673178],[-1.1770379528678871,54.69489504542493],[-1.1738278250206837,54.691863447072606],[-1.1769927397996167,54.69463188584574],[-1.1784847710525421,54.693979250089335],[-1.1816496858314751,54.69318977135175],[-1.182893045208913,54.69365293221113],[-1.1847919940762728,54.69326345603392],[-1.1842042241887567,54.69358977391212],[-1.1840685849839452,54.69362135306163],[-1.18309650401613,54.69387398625766],[-1.1839103392449986,54.694726623294244],[-1.186917008284985,54.69514767862096],[-1.1892454813009141,54.69612663225556],[-1.1894941531764016,54.69622136970408],[-1.1895619727788074,54.69629505438625],[-1.1900819230639177,54.69698979567533],[-1.188861170220615,54.69682137354464],[-1.188386433003775,54.69672663609613],[-1.1864874841364155,54.696400318217925],[-1.1858092881123583,54.69751611483372],[-1.1880473349917466,54.697989802076265],[-1.1894489401081312,54.69865296421584],[-1.1895619727788074,54.69870559613168],[-1.1894489401081312,54.69875822804752],[-1.1900593165297826,54.69908454592572],[-1.190285381871135,54.699210862523735],[-1.190488840678352,54.699210862523735],[-1.1905340537466225,54.69917928337423],[-1.1922295438067652,54.70010560509299],[-1.192116511136089,54.700168763392],[-1.1923425764774414,54.70029507999001],[-1.1926590679553346,54.70041087020486],[-1.1932016247745802,54.70020034254151],[-1.1932468378428507,54.700168763392],[-1.1963213264852426,54.698558226767325],[-1.1962082938145664,54.69834769910397],[-1.1958013762001323,54.69842138378615],[-1.195010147505399,54.69769506334757],[-1.194716262561641,54.69778980079608],[-1.1937215750596906,54.696663477797124],[-1.1942641318789362,54.69766348419807],[-1.1927268875577401,54.6973266399367],[-1.1910992171000032,54.696021368423885],[-1.1904662341442167,54.69604242119022],[-1.190692299485569,54.69460030669623],[-1.187504778172501,54.69389503902399],[-1.1893585139715903,54.6942529360517],[-1.1921617242043594,54.69357924752896]]]},"properties":{"slot_id":"gas_emissions_6","lineage_id":"LOCAL-NEW-92271296-1318-4c0c-a293-d0d4ebc2d06b","page_generation":1,"semantic_mode":"AREA_JOIN","partition":{"start":76904,"end":92283,"count":15380},"evidence_scope":"coverage_area","coverage_area_id":"E02002484","coverage_area_name":"Hartlepool 002","coverage_area_identifier_scheme":"ONS_GSS_MSOA11","parent_area_id":"E06000001","parent_area_name":"Hartlepool","boundary_vintage":"MSOA 2011","source_area_record":true,"accepted_parcel_record":false,"spatial_binding_method":"OFFICIAL_POLYGON_AND_EXACT_IDENTIFIER","source_window_record_index":1,"source_url":"https://raw.githubusercontent.com/ONSdigital/cdn.ons.gov.uk-assets/130bb351004270950dd4a434e27d80b588e7d0af/assets/topojson/msoa_by_lad/topo_E06000001.json","final_url":"https://raw.githubusercontent.com/ONSdigital/cdn.ons.gov.uk-assets/130bb351004270950dd4a434e27d80b588e7d0af/assets/topojson/msoa_by_lad/topo_E06000001.json","source_access_utc":"2026-10-04T16:36:00Z","source_blob_sha":"50f1eb8f382c18460e39ab620842d81cfe5ef735","source_file_sha256":"d03633c05eab8467550ec9caac26fe6a8a1dcc1989f27bc4d0d8a2697c1dcd6e","field_evidence":{"MSOA11CD":"E02002484","MSOA11NM":"Hartlepool 002","geometry_type":"Polygon","parent_LAD":"E06000001"},"evidence_slice_sha256":"f5ac6628eb3010a43b28700156f3233fa3326f719a3c352448fb198bbb8ae5eb","confidence_score_0_100":96,"evidence_grade":"A","licence":"Open Government Licence v3.0","licence_evidence_url":"https://www.ons.gov.uk/methodology/geography/licences","fake_data":false,"local_spatial_join_status":"DEFERRED_TO_LOCAL_OPENCODE"}}]}
