{
  "type": "FeatureCollection",
  "features": [
    {
      "type": "Feature",
      "id": "planning-data:brownfield-site:WBR/17/0142",
      "geometry": {
        "type": "MultiPolygon",
        "coordinates": [
          [
            [
              [
                -0.176935,
                51.472166
              ],
              [
                -0.17708,
                51.471828
              ],
              [
                -0.177071,
                51.471809
              ],
              [
                -0.177018,
                51.471788
              ],
              [
                -0.176434,
                51.471696
              ],
              [
                -0.176427,
                51.471705
              ],
              [
                -0.175911,
                51.471617
              ],
              [
                -0.175817,
                51.471861
              ],
              [
                -0.176935,
                51.472166
              ]
            ]
          ]
        ]
      },
      "properties": {
        "semantic_identity": "planning-data:brownfield-site:WBR/17/0142",
        "source_area_id": "planning-data:brownfield-site:WBR/17/0142",
        "source_area_type": "brownfield-site",
        "source_reference": "WBR/17/0142",
        "source_entity": 1801775,
        "source_name": "19 Lombard Road, 80 Gwynne Road",
        "source_dataset": "brownfield-site",
        "organisation": "London Borough of Wandsworth",
        "organisation_entity": "local-authority:WND",
        "data_date": "2020-12-22",
        "entry_date": "2020-12-22",
        "source_url": "https://www.planning.data.gov.uk/entity/1801775",
        "final_url": "https://www.planning.data.gov.uk/entity/1801775",
        "source_geometry_wkt_sha256": "d9196c92bdcd80fda21a8de5d78ad0975d61f2d15054392fb17e98c898ecaedd",
        "evidence_slice_sha256": "8431f877a4047dbe51ad2c0a06b6a18d87dab9369563a26801d4eb3ed6e8b955",
        "license": "Open Government Licence v3.0",
        "evidence_grade": "B",
        "confidence": 0.78,
        "source_quality": "some",
        "semantic_mode": "AREA_JOIN",
        "canonical_binding_status": "NOT_ATTEMPTED_LOCAL_OPENCODE",
        "fake_data": false
      }
    }
  ]
}
