{"type":"FeatureCollection","features":[{"type":"Feature","geometry":null,"properties":{"slot_id":"future_growth_1","lineage_id":"future_growth_1-newstart-20260927T153100+0300","page_generation":null,"accepted_as_parcel":false,"source_area_count_contribution":1,"exact_identifier":"X3","exact_identifier_provided":true,"coverage_polygon_provided":false,"identifier_namespace":"Gedling Local Planning Document Policy LPD 64 housing allocation","site_name":"Land West of A60 B","access_utc":"2026-10-07T04:18:00Z","data_date":"2026-01-14","source_url":"https://democracy.gedling.gov.uk/documents/g3556/Public%20reports%20pack%20Wednesday%2014-Jan-2026%2018.00%20Planning%20Committee.pdf?T=10","final_url":"https://democracy.gedling.gov.uk/documents/g3556/Public%20reports%20pack%20Wednesday%2014-Jan-2026%2018.00%20Planning%20Committee.pdf?T=10","policy_url":"https://www.gedling.gov.uk/sites/default/files/2025-10/EX-126%20Extract%20of%20Local%20Planning%20Document%20Housing%20Allocation%20Policies.pdf","gis_url":"https://gedlingmaps.gedling.gov.uk/arcgis/rest/services/opendata/LPD18_Housing_Allocation/FeatureServer","gis_layer_url":"https://gedlingmaps.gedling.gov.uk/arcgis/rest/services/opendata/LPD18_Housing_Allocation/FeatureServer/0","license":"Publicly accessible Gedling Borough Council planning-policy/committee records and OpenData GIS service; layer-specific reuse licence not stated in the public service metadata","authority":"Gedling Borough Council","allocated_homes":150,"planning_application_reference":"2021/0072","planning_status":"Full planning application for 144 homes approved at Planning Committee in March 2024 subject to section 106, as reported in the 14 January 2026 public pack.","feature_service_layer_id":0,"feature_service_layer_name":"Policies LPD 64 - LPD 70 - Housing Allocation","feature_service_spatial_reference_epsg":27700,"evidence_grade":"A","confidence_score_0_100":99,"evidence_scope":"exact adopted Gedling housing allocation X3 plus current council planning-status record and authority-hosted OpenData allocation layer","evidence_slice_sha256":"18e6aaabae3ae699e7ac4cd3881cc2a41b3d455e3e9d57209ef35e9f617cb0f4","fake_data":false,"spatial_binding_method":"official X3 allocation identifier plus Gedling Borough Council FeatureServer layer 0; exact boundary extraction, canonical parcel spatial join and materialization delegated to local OpenCode","planned_building_count_contribution":0}}]}