{"type":"FeatureCollection","features":[{"type":"Feature","id":"crawley-brownfield-land-register-part-one-text-summary-2025:CBCBLR010","geometry":null,"properties":{"slot_id":"future_growth_4","lineage_id":"fg4-e4c9076d6f554f00","page_generation":1,"owner":"future_growth_4","partition":"future_growth","semantic_mode":"SOURCE_AREA_EXACT_IDENTIFIER","dataset":"crawley-brownfield-land-register-part-one-text-summary-2025","entity":"CBCBLR010","reference":"CBCBLR010","quality":"authoritative","organisation":"Crawley Borough Council","name":"County Buildings, Northgate, Crawley","site_address":"County Buildings, Northgate, Crawley","source_url":"https://crawley.gov.uk/planning/planning-policy/engagement-and-monitoring/brownfield-land-register/publications/brownfield-land-register-part-one-text-summary/brownfield-land-register-part-one-text-summary","final_url":"https://crawley.gov.uk/planning/planning-policy/engagement-and-monitoring/brownfield-land-register/publications/brownfield-land-register-part-one-text-summary/brownfield-land-register-part-one-text-summary","access_utc":"2026-10-03T16:40:00Z","data_date":"2025-12-04","license":"Crawley Borough Council official publication; no explicit reuse licence stated on page","field_evidence":{"reference":"CBCBLR010","site_address":"County Buildings, Northgate, Crawley","site_area_ha":1.07,"ownership_status":"owned by a public authority","planning_status":"not permissioned","deliverable_within_five_years":"unknown","capacity_min_dwellings":50,"capacity_max_dwellings":150,"allocation":"Town Centre Key Opportunity Site for residential and/or town centre uses","local_plan_policies":["TC3","H2"],"housing_trajectory_dwellings":135,"office_floorspace_sqm":5200,"first_added_date":"2017-11-29","end_date":"not applicable","publication_date":"2025-12-04"},"evidence_slice_sha256":"8ac733cfe35fa8a17155bf83674106ed47578f46c276b30a3e1a1d275b33aad5","confidence_score_0_100":99,"confidence":0.99,"evidence_grade":"A","exact_identifier_provided":true,"coverage_polygon_provided":false,"coverage_geometry_available":false,"fake_data":false,"join_mode":"LOCAL_OPENCODE_SPATIAL_JOIN_PENDING","direct_parcel":false,"source_area_count_contribution":1,"planned_building_count_contribution":0}}]}