{"type":"FeatureCollection","name":"building_type_2_batch_0047","features":[{"type":"Feature","id":"42133385","geometry":{"type":"MultiPolygon","coordinates":[[[[-2.596802,51.4531],[-2.596804,51.453157],[-2.5967,51.45315],[-2.596697,51.453165],[-2.596743,51.453169],[-2.596738,51.453202],[-2.596759,51.453204],[-2.596968,51.453216],[-2.596967,51.453197],[-2.597024,51.453196],[-2.597018,51.453099],[-2.596802,51.4531]]]]},"properties":{"slot_id":"building_type_2","lineage_id":"building_type_2-20260930T173100Z-newstart","batch_id":"batch-0047","page_generation":1,"source_entity":42133385,"source_reference":"74/00058/PRINC","source_dataset":"listed-building-outline","source_organisation":"Bristol City Council","building_evidence_status":"BUILDING_PRESENT","parcel_status":"UNPROCESSED","canonical_parcel_id":null,"building_type":"listed_building","building_use":null,"poi_accepted":false,"field_evidence":{"footprint":"official listed-building-outline MULTIPOLYGON","type":"official dataset classification: listed-building-outline","reference":"74/00058/PRINC","quality":"authoritative","name":"4 Broad Quay Bristol BS1 4DA"},"source_url":"https://www.planning.data.gov.uk/entity/42133385","final_url":"https://www.planning.data.gov.uk/entity/42133385","access_utc":"2026-10-04T05:15:00Z","data_date":"1974-03-20","licence":"Open Government Licence v3.0","evidence_slice_sha256":"6c50a261fafcaf0292f7e00de71cecf1a2013314248c4b6f399ebfbd9be51cc1","confidence_score_0_100":96,"evidence_grade":"A","fake_data":false,"local_spatial_join_required":true}}]}