{"type":"FeatureCollection","features":[{"type":"Feature","id":"PLANNINGDATA_LBO_42137009","geometry":{"type":"MultiPolygon","coordinates":[[[[0.788336,51.032587],[0.78836,51.032465],[0.788622,51.032487],[0.788609,51.032546],[0.788547,51.032541],[0.78854,51.032566],[0.788494,51.032563],[0.788485,51.032599],[0.788336,51.032587]]]]},"properties":{"slot_id":"building_type_3","lineage_id":"building_type_3-new-20260927T1328+0300","batch_id":"BT3-P89-20261004-PLANNINGDATA-LBO42137009","cursor":"BT3-P89-20261004-PLANNINGDATA-LBO42137009-p89","building_state":"BUILDING_PRESENT","source_record_id":"reference=ABC-1071033;outline_entity=42137009","entity":42137009,"reference":"ABC-1071033","name":"POPLAR HALL","building_type_use":"hall","type_use_evidence":"official_outline_name_contains_hall","dataset":"listed-building-outline","quality":"authoritative","start_date":"1962-01-16","entry_date":"1962-01-16","organisation":"Ashford Borough Council","source_url":"https://www.planning.data.gov.uk/entity/42137009","final_url":"https://www.planning.data.gov.uk/entity/42137009","source_version":"Planning Data listed-building-outline entity 42137009 reference ABC-1071033; authoritative Ashford Borough Council record","access_utc":"2026-10-04T04:06:04Z","data_date":"1962-01-16","license":"Open Government Licence v3.0; © Crown copyright and database right 2026","source_file_sha256":"d0ab02f7d4f8a4fbdbeef155c9dd67f3a8b9fcc805e4704e8a61fd6c90260959","evidence_slice_sha256":"5db1f939055389c3f23a4cc432a06609d3893d43260aefc83f13b276ae2b21d1","field_evidence":["entity","reference","name","quality","dataset","organisation","start-date","entry-date","geometry"],"confidence_score_0_100":99,"evidence_grade":"A_OFFICIAL_GOVERNMENT_BUILDING_OUTLINE_AND_NAMED_TYPE_USE","fake_data":false}}]}
