{
  "features": [
    {
      "geometry": null,
      "id": "E05009317",
      "properties": {
        "accepted_source_record": true,
        "canonical_binding": "LOCAL_OPENCODE_PENDING_NOT_CLAIMED",
        "confidence_score_0_100": 100,
        "direct_parcel": false,
        "evidence_grade": "A_OFFICIAL_LIVE_API",
        "fake_data": false,
        "neighbourhood_id": "E05009317",
        "neighbourhood_name": "Bethnal Green East",
        "record_type": "SECURITY_PUBLIC_SAFETY_NEIGHBOURHOOD_REFERENCE",
        "source_area_counted": false,
        "source_index": 0,
        "source_url": "https://data.police.uk/api/metropolitan/neighbourhoods"
      },
      "type": "Feature"
    },
    {
      "geometry": null,
      "id": "E05009318",
      "properties": {
        "accepted_source_record": true,
        "canonical_binding": "LOCAL_OPENCODE_PENDING_NOT_CLAIMED",
        "confidence_score_0_100": 100,
        "direct_parcel": false,
        "evidence_grade": "A_OFFICIAL_LIVE_API",
        "fake_data": false,
        "neighbourhood_id": "E05009318",
        "neighbourhood_name": "Blackwall and Cubitt Town",
        "record_type": "SECURITY_PUBLIC_SAFETY_NEIGHBOURHOOD_REFERENCE",
        "source_area_counted": false,
        "source_index": 1,
        "source_url": "https://data.police.uk/api/metropolitan/neighbourhoods"
      },
      "type": "Feature"
    },
    {
      "geometry": null,
      "id": "E05009319",
      "properties": {
        "accepted_source_record": true,
        "canonical_binding": "LOCAL_OPENCODE_PENDING_NOT_CLAIMED",
        "confidence_score_0_100": 100,
        "direct_parcel": false,
        "evidence_grade": "A_OFFICIAL_LIVE_API",
        "fake_data": false,
        "neighbourhood_id": "E05009319",
        "neighbourhood_name": "Bow East",
        "record_type": "SECURITY_PUBLIC_SAFETY_NEIGHBOURHOOD_REFERENCE",
        "source_area_counted": false,
        "source_index": 2,
        "source_url": "https://data.police.uk/api/metropolitan/neighbourhoods"
      },
      "type": "Feature"
    },
    {
      "geometry": null,
      "id": "E05009320",
      "properties": {
        "accepted_source_record": true,
        "canonical_binding": "LOCAL_OPENCODE_PENDING_NOT_CLAIMED",
        "confidence_score_0_100": 100,
        "direct_parcel": false,
        "evidence_grade": "A_OFFICIAL_LIVE_API",
        "fake_data": false,
        "neighbourhood_id": "E05009320",
        "neighbourhood_name": "Bow West",
        "record_type": "SECURITY_PUBLIC_SAFETY_NEIGHBOURHOOD_REFERENCE",
        "source_area_counted": false,
        "source_index": 3,
        "source_url": "https://data.police.uk/api/metropolitan/neighbourhoods"
      },
      "type": "Feature"
    },
    {
      "geometry": null,
      "id": "E05009321",
      "properties": {
        "accepted_source_record": true,
        "canonical_binding": "LOCAL_OPENCODE_PENDING_NOT_CLAIMED",
        "confidence_score_0_100": 100,
        "direct_parcel": false,
        "evidence_grade": "A_OFFICIAL_LIVE_API",
        "fake_data": false,
        "neighbourhood_id": "E05009321",
        "neighbourhood_name": "Bromley North",
        "record_type": "SECURITY_PUBLIC_SAFETY_NEIGHBOURHOOD_REFERENCE",
        "source_area_counted": false,
        "source_index": 4,
        "source_url": "https://data.police.uk/api/metropolitan/neighbourhoods"
      },
      "type": "Feature"
    },
    {
      "geometry": null,
      "id": "E05009322",
      "properties": {
        "accepted_source_record": true,
        "canonical_binding": "LOCAL_OPENCODE_PENDING_NOT_CLAIMED",
        "confidence_score_0_100": 100,
        "direct_parcel": false,
        "evidence_grade": "A_OFFICIAL_LIVE_API",
        "fake_data": false,
        "neighbourhood_id": "E05009322",
        "neighbourhood_name": "Bromley South",
        "record_type": "SECURITY_PUBLIC_SAFETY_NEIGHBOURHOOD_REFERENCE",
        "source_area_counted": false,
        "source_index": 5,
        "source_url": "https://data.police.uk/api/metropolitan/neighbourhoods"
      },
      "type": "Feature"
    },
    {
      "geometry": null,
      "id": "E05009323",
      "properties": {
        "accepted_source_record": true,
        "canonical_binding": "LOCAL_OPENCODE_PENDING_NOT_CLAIMED",
        "confidence_score_0_100": 100,
        "direct_parcel": false,
        "evidence_grade": "A_OFFICIAL_LIVE_API",
        "fake_data": false,
        "neighbourhood_id": "E05009323",
        "neighbourhood_name": "Canary Wharf",
        "record_type": "SECURITY_PUBLIC_SAFETY_NEIGHBOURHOOD_REFERENCE",
        "source_area_counted": false,
        "source_index": 6,
        "source_url": "https://data.police.uk/api/metropolitan/neighbourhoods"
      },
      "type": "Feature"
    },
    {
      "geometry": null,
      "id": "E05009324",
      "properties": {
        "accepted_source_record": true,
        "canonical_binding": "LOCAL_OPENCODE_PENDING_NOT_CLAIMED",
        "confidence_score_0_100": 100,
        "direct_parcel": false,
        "evidence_grade": "A_OFFICIAL_LIVE_API",
        "fake_data": false,
        "neighbourhood_id": "E05009324",
        "neighbourhood_name": "Island Gardens",
        "record_type": "SECURITY_PUBLIC_SAFETY_NEIGHBOURHOOD_REFERENCE",
        "source_area_counted": false,
        "source_index": 7,
        "source_url": "https://data.police.uk/api/metropolitan/neighbourhoods"
      },
      "type": "Feature"
    },
    {
      "geometry": null,
      "id": "E05009325",
      "properties": {
        "accepted_source_record": true,
        "canonical_binding": "LOCAL_OPENCODE_PENDING_NOT_CLAIMED",
        "confidence_score_0_100": 100,
        "direct_parcel": false,
        "evidence_grade": "A_OFFICIAL_LIVE_API",
        "fake_data": false,
        "neighbourhood_id": "E05009325",
        "neighbourhood_name": "Lansbury",
        "record_type": "SECURITY_PUBLIC_SAFETY_NEIGHBOURHOOD_REFERENCE",
        "source_area_counted": false,
        "source_index": 8,
        "source_url": "https://data.police.uk/api/metropolitan/neighbourhoods"
      },
      "type": "Feature"
    },
    {
      "geometry": null,
      "id": "E05009326",
      "properties": {
        "accepted_source_record": true,
        "canonical_binding": "LOCAL_OPENCODE_PENDING_NOT_CLAIMED",
        "confidence_score_0_100": 100,
        "direct_parcel": false,
        "evidence_grade": "A_OFFICIAL_LIVE_API",
        "fake_data": false,
        "neighbourhood_id": "E05009326",
        "neighbourhood_name": "Limehouse",
        "record_type": "SECURITY_PUBLIC_SAFETY_NEIGHBOURHOOD_REFERENCE",
        "source_area_counted": false,
        "source_index": 9,
        "source_url": "https://data.police.uk/api/metropolitan/neighbourhoods"
      },
      "type": "Feature"
    },
    {
      "geometry": null,
      "id": "E05009327",
      "properties": {
        "accepted_source_record": true,
        "canonical_binding": "LOCAL_OPENCODE_PENDING_NOT_CLAIMED",
        "confidence_score_0_100": 100,
        "direct_parcel": false,
        "evidence_grade": "A_OFFICIAL_LIVE_API",
        "fake_data": false,
        "neighbourhood_id": "E05009327",
        "neighbourhood_name": "Mile End",
        "record_type": "SECURITY_PUBLIC_SAFETY_NEIGHBOURHOOD_REFERENCE",
        "source_area_counted": false,
        "source_index": 10,
        "source_url": "https://data.police.uk/api/metropolitan/neighbourhoods"
      },
      "type": "Feature"
    },
    {
      "geometry": null,
      "id": "E05009328",
      "properties": {
        "accepted_source_record": true,
        "canonical_binding": "LOCAL_OPENCODE_PENDING_NOT_CLAIMED",
        "confidence_score_0_100": 100,
        "direct_parcel": false,
        "evidence_grade": "A_OFFICIAL_LIVE_API",
        "fake_data": false,
        "neighbourhood_id": "E05009328",
        "neighbourhood_name": "Poplar",
        "record_type": "SECURITY_PUBLIC_SAFETY_NEIGHBOURHOOD_REFERENCE",
        "source_area_counted": false,
        "source_index": 11,
        "source_url": "https://data.police.uk/api/metropolitan/neighbourhoods"
      },
      "type": "Feature"
    },
    {
      "geometry": null,
      "id": "E05009329",
      "properties": {
        "accepted_source_record": true,
        "canonical_binding": "LOCAL_OPENCODE_PENDING_NOT_CLAIMED",
        "confidence_score_0_100": 100,
        "direct_parcel": false,
        "evidence_grade": "A_OFFICIAL_LIVE_API",
        "fake_data": false,
        "neighbourhood_id": "E05009329",
        "neighbourhood_name": "St Dunstan's",
        "record_type": "SECURITY_PUBLIC_SAFETY_NEIGHBOURHOOD_REFERENCE",
        "source_area_counted": false,
        "source_index": 12,
        "source_url": "https://data.police.uk/api/metropolitan/neighbourhoods"
      },
      "type": "Feature"
    },
    {
      "geometry": null,
      "id": "E05009330",
      "properties": {
        "accepted_source_record": true,
        "canonical_binding": "LOCAL_OPENCODE_PENDING_NOT_CLAIMED",
        "confidence_score_0_100": 100,
        "direct_parcel": false,
        "evidence_grade": "A_OFFICIAL_LIVE_API",
        "fake_data": false,
        "neighbourhood_id": "E05009330",
        "neighbourhood_name": "St Katharine's and Wapping",
        "record_type": "SECURITY_PUBLIC_SAFETY_NEIGHBOURHOOD_REFERENCE",
        "source_area_counted": false,
        "source_index": 13,
        "source_url": "https://data.police.uk/api/metropolitan/neighbourhoods"
      },
      "type": "Feature"
    },
    {
      "geometry": null,
      "id": "E05009331",
      "properties": {
        "accepted_source_record": true,
        "canonical_binding": "LOCAL_OPENCODE_PENDING_NOT_CLAIMED",
        "confidence_score_0_100": 100,
        "direct_parcel": false,
        "evidence_grade": "A_OFFICIAL_LIVE_API",
        "fake_data": false,
        "neighbourhood_id": "E05009331",
        "neighbourhood_name": "Bethnal Green West",
        "record_type": "SECURITY_PUBLIC_SAFETY_NEIGHBOURHOOD_REFERENCE",
        "source_area_counted": false,
        "source_index": 14,
        "source_url": "https://data.police.uk/api/metropolitan/neighbourhoods"
      },
      "type": "Feature"
    },
    {
      "geometry": null,
      "id": "E05009332",
      "properties": {
        "accepted_source_record": true,
        "canonical_binding": "LOCAL_OPENCODE_PENDING_NOT_CLAIMED",
        "confidence_score_0_100": 100,
        "direct_parcel": false,
        "evidence_grade": "A_OFFICIAL_LIVE_API",
        "fake_data": false,
        "neighbourhood_id": "E05009332",
        "neighbourhood_name": "Shadwell",
        "record_type": "SECURITY_PUBLIC_SAFETY_NEIGHBOURHOOD_REFERENCE",
        "source_area_counted": false,
        "source_index": 15,
        "source_url": "https://data.police.uk/api/metropolitan/neighbourhoods"
      },
      "type": "Feature"
    },
    {
      "geometry": null,
      "id": "E05009333",
      "properties": {
        "accepted_source_record": true,
        "canonical_binding": "LOCAL_OPENCODE_PENDING_NOT_CLAIMED",
        "confidence_score_0_100": 100,
        "direct_parcel": false,
        "evidence_grade": "A_OFFICIAL_LIVE_API",
        "fake_data": false,
        "neighbourhood_id": "E05009333",
        "neighbourhood_name": "Spitalfields and Banglatown",
        "record_type": "SECURITY_PUBLIC_SAFETY_NEIGHBOURHOOD_REFERENCE",
        "source_area_counted": false,
        "source_index": 16,
        "source_url": "https://data.police.uk/api/metropolitan/neighbourhoods"
      },
      "type": "Feature"
    },
    {
      "geometry": null,
      "id": "E05009334",
      "properties": {
        "accepted_source_record": true,
        "canonical_binding": "LOCAL_OPENCODE_PENDING_NOT_CLAIMED",
        "confidence_score_0_100": 100,
        "direct_parcel": false,
        "evidence_grade": "A_OFFICIAL_LIVE_API",
        "fake_data": false,
        "neighbourhood_id": "E05009334",
        "neighbourhood_name": "Stepney Green",
        "record_type": "SECURITY_PUBLIC_SAFETY_NEIGHBOURHOOD_REFERENCE",
        "source_area_counted": false,
        "source_index": 17,
        "source_url": "https://data.police.uk/api/metropolitan/neighbourhoods"
      },
      "type": "Feature"
    },
    {
      "geometry": null,
      "id": "E05009335",
      "properties": {
        "accepted_source_record": true,
        "canonical_binding": "LOCAL_OPENCODE_PENDING_NOT_CLAIMED",
        "confidence_score_0_100": 100,
        "direct_parcel": false,
        "evidence_grade": "A_OFFICIAL_LIVE_API",
        "fake_data": false,
        "neighbourhood_id": "E05009335",
        "neighbourhood_name": "Weavers",
        "record_type": "SECURITY_PUBLIC_SAFETY_NEIGHBOURHOOD_REFERENCE",
        "source_area_counted": false,
        "source_index": 18,
        "source_url": "https://data.police.uk/api/metropolitan/neighbourhoods"
      },
      "type": "Feature"
    },
    {
      "geometry": null,
      "id": "E05009336",
      "properties": {
        "accepted_source_record": true,
        "canonical_binding": "LOCAL_OPENCODE_PENDING_NOT_CLAIMED",
        "confidence_score_0_100": 100,
        "direct_parcel": false,
        "evidence_grade": "A_OFFICIAL_LIVE_API",
        "fake_data": false,
        "neighbourhood_id": "E05009336",
        "neighbourhood_name": "Whitechapel",
        "record_type": "SECURITY_PUBLIC_SAFETY_NEIGHBOURHOOD_REFERENCE",
        "source_area_counted": false,
        "source_index": 19,
        "source_url": "https://data.police.uk/api/metropolitan/neighbourhoods"
      },
      "type": "Feature"
    },
    {
      "geometry": null,
      "id": "E05009367",
      "properties": {
        "accepted_source_record": true,
        "canonical_binding": "LOCAL_OPENCODE_PENDING_NOT_CLAIMED",
        "confidence_score_0_100": 100,
        "direct_parcel": false,
        "evidence_grade": "A_OFFICIAL_LIVE_API",
        "fake_data": false,
        "neighbourhood_id": "E05009367",
        "neighbourhood_name": "Brownswood",
        "record_type": "SECURITY_PUBLIC_SAFETY_NEIGHBOURHOOD_REFERENCE",
        "source_area_counted": false,
        "source_index": 20,
        "source_url": "https://data.police.uk/api/metropolitan/neighbourhoods"
      },
      "type": "Feature"
    },
    {
      "geometry": null,
      "id": "E05009368",
      "properties": {
        "accepted_source_record": true,
        "canonical_binding": "LOCAL_OPENCODE_PENDING_NOT_CLAIMED",
        "confidence_score_0_100": 100,
        "direct_parcel": false,
        "evidence_grade": "A_OFFICIAL_LIVE_API",
        "fake_data": false,
        "neighbourhood_id": "E05009368",
        "neighbourhood_name": "Cazenove",
        "record_type": "SECURITY_PUBLIC_SAFETY_NEIGHBOURHOOD_REFERENCE",
        "source_area_counted": false,
        "source_index": 21,
        "source_url": "https://data.police.uk/api/metropolitan/neighbourhoods"
      },
      "type": "Feature"
    },
    {
      "geometry": null,
      "id": "E05009369",
      "properties": {
        "accepted_source_record": true,
        "canonical_binding": "LOCAL_OPENCODE_PENDING_NOT_CLAIMED",
        "confidence_score_0_100": 100,
        "direct_parcel": false,
        "evidence_grade": "A_OFFICIAL_LIVE_API",
        "fake_data": false,
        "neighbourhood_id": "E05009369",
        "neighbourhood_name": "Clissold",
        "record_type": "SECURITY_PUBLIC_SAFETY_NEIGHBOURHOOD_REFERENCE",
        "source_area_counted": false,
        "source_index": 22,
        "source_url": "https://data.police.uk/api/metropolitan/neighbourhoods"
      },
      "type": "Feature"
    },
    {
      "geometry": null,
      "id": "E05009370",
      "properties": {
        "accepted_source_record": true,
        "canonical_binding": "LOCAL_OPENCODE_PENDING_NOT_CLAIMED",
        "confidence_score_0_100": 100,
        "direct_parcel": false,
        "evidence_grade": "A_OFFICIAL_LIVE_API",
        "fake_data": false,
        "neighbourhood_id": "E05009370",
        "neighbourhood_name": "Dalston",
        "record_type": "SECURITY_PUBLIC_SAFETY_NEIGHBOURHOOD_REFERENCE",
        "source_area_counted": false,
        "source_index": 23,
        "source_url": "https://data.police.uk/api/metropolitan/neighbourhoods"
      },
      "type": "Feature"
    },
    {
      "geometry": null,
      "id": "E05009371",
      "properties": {
        "accepted_source_record": true,
        "canonical_binding": "LOCAL_OPENCODE_PENDING_NOT_CLAIMED",
        "confidence_score_0_100": 100,
        "direct_parcel": false,
        "evidence_grade": "A_OFFICIAL_LIVE_API",
        "fake_data": false,
        "neighbourhood_id": "E05009371",
        "neighbourhood_name": "De Beauvoir",
        "record_type": "SECURITY_PUBLIC_SAFETY_NEIGHBOURHOOD_REFERENCE",
        "source_area_counted": false,
        "source_index": 24,
        "source_url": "https://data.police.uk/api/metropolitan/neighbourhoods"
      },
      "type": "Feature"
    },
    {
      "geometry": null,
      "id": "E05009372",
      "properties": {
        "accepted_source_record": true,
        "canonical_binding": "LOCAL_OPENCODE_PENDING_NOT_CLAIMED",
        "confidence_score_0_100": 100,
        "direct_parcel": false,
        "evidence_grade": "A_OFFICIAL_LIVE_API",
        "fake_data": false,
        "neighbourhood_id": "E05009372",
        "neighbourhood_name": "Hackney Central",
        "record_type": "SECURITY_PUBLIC_SAFETY_NEIGHBOURHOOD_REFERENCE",
        "source_area_counted": false,
        "source_index": 25,
        "source_url": "https://data.police.uk/api/metropolitan/neighbourhoods"
      },
      "type": "Feature"
    },
    {
      "geometry": null,
      "id": "E05009373",
      "properties": {
        "accepted_source_record": true,
        "canonical_binding": "LOCAL_OPENCODE_PENDING_NOT_CLAIMED",
        "confidence_score_0_100": 100,
        "direct_parcel": false,
        "evidence_grade": "A_OFFICIAL_LIVE_API",
        "fake_data": false,
        "neighbourhood_id": "E05009373",
        "neighbourhood_name": "Hackney Downs",
        "record_type": "SECURITY_PUBLIC_SAFETY_NEIGHBOURHOOD_REFERENCE",
        "source_area_counted": false,
        "source_index": 26,
        "source_url": "https://data.police.uk/api/metropolitan/neighbourhoods"
      },
      "type": "Feature"
    },
    {
      "geometry": null,
      "id": "E05009374",
      "properties": {
        "accepted_source_record": true,
        "canonical_binding": "LOCAL_OPENCODE_PENDING_NOT_CLAIMED",
        "confidence_score_0_100": 100,
        "direct_parcel": false,
        "evidence_grade": "A_OFFICIAL_LIVE_API",
        "fake_data": false,
        "neighbourhood_id": "E05009374",
        "neighbourhood_name": "Hackney Wick",
        "record_type": "SECURITY_PUBLIC_SAFETY_NEIGHBOURHOOD_REFERENCE",
        "source_area_counted": false,
        "source_index": 27,
        "source_url": "https://data.police.uk/api/metropolitan/neighbourhoods"
      },
      "type": "Feature"
    },
    {
      "geometry": null,
      "id": "E05009375N",
      "properties": {
        "accepted_source_record": true,
        "canonical_binding": "LOCAL_OPENCODE_PENDING_NOT_CLAIMED",
        "confidence_score_0_100": 100,
        "direct_parcel": false,
        "evidence_grade": "A_OFFICIAL_LIVE_API",
        "fake_data": false,
        "neighbourhood_id": "E05009375N",
        "neighbourhood_name": "Haggerston",
        "record_type": "SECURITY_PUBLIC_SAFETY_NEIGHBOURHOOD_REFERENCE",
        "source_area_counted": false,
        "source_index": 28,
        "source_url": "https://data.police.uk/api/metropolitan/neighbourhoods"
      },
      "type": "Feature"
    },
    {
      "geometry": null,
      "id": "E05009376",
      "properties": {
        "accepted_source_record": true,
        "canonical_binding": "LOCAL_OPENCODE_PENDING_NOT_CLAIMED",
        "confidence_score_0_100": 100,
        "direct_parcel": false,
        "evidence_grade": "A_OFFICIAL_LIVE_API",
        "fake_data": false,
        "neighbourhood_id": "E05009376",
        "neighbourhood_name": "Homerton",
        "record_type": "SECURITY_PUBLIC_SAFETY_NEIGHBOURHOOD_REFERENCE",
        "source_area_counted": false,
        "source_index": 29,
        "source_url": "https://data.police.uk/api/metropolitan/neighbourhoods"
      },
      "type": "Feature"
    },
    {
      "geometry": null,
      "id": "E05009377N",
      "properties": {
        "accepted_source_record": true,
        "canonical_binding": "LOCAL_OPENCODE_PENDING_NOT_CLAIMED",
        "confidence_score_0_100": 100,
        "direct_parcel": false,
        "evidence_grade": "A_OFFICIAL_LIVE_API",
        "fake_data": false,
        "neighbourhood_id": "E05009377N",
        "neighbourhood_name": "Hoxton East and Shoreditch",
        "record_type": "SECURITY_PUBLIC_SAFETY_NEIGHBOURHOOD_REFERENCE",
        "source_area_counted": false,
        "source_index": 30,
        "source_url": "https://data.police.uk/api/metropolitan/neighbourhoods"
      },
      "type": "Feature"
    },
    {
      "geometry": null,
      "id": "E05009378",
      "properties": {
        "accepted_source_record": true,
        "canonical_binding": "LOCAL_OPENCODE_PENDING_NOT_CLAIMED",
        "confidence_score_0_100": 100,
        "direct_parcel": false,
        "evidence_grade": "A_OFFICIAL_LIVE_API",
        "fake_data": false,
        "neighbourhood_id": "E05009378",
        "neighbourhood_name": "Hoxton West",
        "record_type": "SECURITY_PUBLIC_SAFETY_NEIGHBOURHOOD_REFERENCE",
        "source_area_counted": false,
        "source_index": 31,
        "source_url": "https://data.police.uk/api/metropolitan/neighbourhoods"
      },
      "type": "Feature"
    },
    {
      "geometry": null,
      "id": "E05009379",
      "properties": {
        "accepted_source_record": true,
        "canonical_binding": "LOCAL_OPENCODE_PENDING_NOT_CLAIMED",
        "confidence_score_0_100": 100,
        "direct_parcel": false,
        "evidence_grade": "A_OFFICIAL_LIVE_API",
        "fake_data": false,
        "neighbourhood_id": "E05009379",
        "neighbourhood_name": "King's Park",
        "record_type": "SECURITY_PUBLIC_SAFETY_NEIGHBOURHOOD_REFERENCE",
        "source_area_counted": false,
        "source_index": 32,
        "source_url": "https://data.police.uk/api/metropolitan/neighbourhoods"
      },
      "type": "Feature"
    },
    {
      "geometry": null,
      "id": "E05009380",
      "properties": {
        "accepted_source_record": true,
        "canonical_binding": "LOCAL_OPENCODE_PENDING_NOT_CLAIMED",
        "confidence_score_0_100": 100,
        "direct_parcel": false,
        "evidence_grade": "A_OFFICIAL_LIVE_API",
        "fake_data": false,
        "neighbourhood_id": "E05009380",
        "neighbourhood_name": "Lea Bridge",
        "record_type": "SECURITY_PUBLIC_SAFETY_NEIGHBOURHOOD_REFERENCE",
        "source_area_counted": false,
        "source_index": 33,
        "source_url": "https://data.police.uk/api/metropolitan/neighbourhoods"
      },
      "type": "Feature"
    },
    {
      "geometry": null,
      "id": "E05009381",
      "properties": {
        "accepted_source_record": true,
        "canonical_binding": "LOCAL_OPENCODE_PENDING_NOT_CLAIMED",
        "confidence_score_0_100": 100,
        "direct_parcel": false,
        "evidence_grade": "A_OFFICIAL_LIVE_API",
        "fake_data": false,
        "neighbourhood_id": "E05009381",
        "neighbourhood_name": "London Fields",
        "record_type": "SECURITY_PUBLIC_SAFETY_NEIGHBOURHOOD_REFERENCE",
        "source_area_counted": false,
        "source_index": 34,
        "source_url": "https://data.police.uk/api/metropolitan/neighbourhoods"
      },
      "type": "Feature"
    },
    {
      "geometry": null,
      "id": "E05009382",
      "properties": {
        "accepted_source_record": true,
        "canonical_binding": "LOCAL_OPENCODE_PENDING_NOT_CLAIMED",
        "confidence_score_0_100": 100,
        "direct_parcel": false,
        "evidence_grade": "A_OFFICIAL_LIVE_API",
        "fake_data": false,
        "neighbourhood_id": "E05009382",
        "neighbourhood_name": "Shacklewell",
        "record_type": "SECURITY_PUBLIC_SAFETY_NEIGHBOURHOOD_REFERENCE",
        "source_area_counted": false,
        "source_index": 35,
        "source_url": "https://data.police.uk/api/metropolitan/neighbourhoods"
      },
      "type": "Feature"
    },
    {
      "geometry": null,
      "id": "E05009383",
      "properties": {
        "accepted_source_record": true,
        "canonical_binding": "LOCAL_OPENCODE_PENDING_NOT_CLAIMED",
        "confidence_score_0_100": 100,
        "direct_parcel": false,
        "evidence_grade": "A_OFFICIAL_LIVE_API",
        "fake_data": false,
        "neighbourhood_id": "E05009383",
        "neighbourhood_name": "Springfield",
        "record_type": "SECURITY_PUBLIC_SAFETY_NEIGHBOURHOOD_REFERENCE",
        "source_area_counted": false,
        "source_index": 36,
        "source_url": "https://data.police.uk/api/metropolitan/neighbourhoods"
      },
      "type": "Feature"
    },
    {
      "geometry": null,
      "id": "E05009384",
      "properties": {
        "accepted_source_record": true,
        "canonical_binding": "LOCAL_OPENCODE_PENDING_NOT_CLAIMED",
        "confidence_score_0_100": 100,
        "direct_parcel": false,
        "evidence_grade": "A_OFFICIAL_LIVE_API",
        "fake_data": false,
        "neighbourhood_id": "E05009384",
        "neighbourhood_name": "Stamford Hill West",
        "record_type": "SECURITY_PUBLIC_SAFETY_NEIGHBOURHOOD_REFERENCE",
        "source_area_counted": false,
        "source_index": 37,
        "source_url": "https://data.police.uk/api/metropolitan/neighbourhoods"
      },
      "type": "Feature"
    },
    {
      "geometry": null,
      "id": "E05009385",
      "properties": {
        "accepted_source_record": true,
        "canonical_binding": "LOCAL_OPENCODE_PENDING_NOT_CLAIMED",
        "confidence_score_0_100": 100,
        "direct_parcel": false,
        "evidence_grade": "A_OFFICIAL_LIVE_API",
        "fake_data": false,
        "neighbourhood_id": "E05009385",
        "neighbourhood_name": "Stoke Newington",
        "record_type": "SECURITY_PUBLIC_SAFETY_NEIGHBOURHOOD_REFERENCE",
        "source_area_counted": false,
        "source_index": 38,
        "source_url": "https://data.police.uk/api/metropolitan/neighbourhoods"
      },
      "type": "Feature"
    },
    {
      "geometry": null,
      "id": "E05009386",
      "properties": {
        "accepted_source_record": true,
        "canonical_binding": "LOCAL_OPENCODE_PENDING_NOT_CLAIMED",
        "confidence_score_0_100": 100,
        "direct_parcel": false,
        "evidence_grade": "A_OFFICIAL_LIVE_API",
        "fake_data": false,
        "neighbourhood_id": "E05009386",
        "neighbourhood_name": "Victoria",
        "record_type": "SECURITY_PUBLIC_SAFETY_NEIGHBOURHOOD_REFERENCE",
        "source_area_counted": false,
        "source_index": 39,
        "source_url": "https://data.police.uk/api/metropolitan/neighbourhoods"
      },
      "type": "Feature"
    },
    {
      "geometry": null,
      "id": "E05009387",
      "properties": {
        "accepted_source_record": true,
        "canonical_binding": "LOCAL_OPENCODE_PENDING_NOT_CLAIMED",
        "confidence_score_0_100": 100,
        "direct_parcel": false,
        "evidence_grade": "A_OFFICIAL_LIVE_API",
        "fake_data": false,
        "neighbourhood_id": "E05009387",
        "neighbourhood_name": "Woodberry Down",
        "record_type": "SECURITY_PUBLIC_SAFETY_NEIGHBOURHOOD_REFERENCE",
        "source_area_counted": false,
        "source_index": 40,
        "source_url": "https://data.police.uk/api/metropolitan/neighbourhoods"
      },
      "type": "Feature"
    },
    {
      "geometry": null,
      "id": "E05009388",
      "properties": {
        "accepted_source_record": true,
        "canonical_binding": "LOCAL_OPENCODE_PENDING_NOT_CLAIMED",
        "confidence_score_0_100": 100,
        "direct_parcel": false,
        "evidence_grade": "A_OFFICIAL_LIVE_API",
        "fake_data": false,
        "neighbourhood_id": "E05009388",
        "neighbourhood_name": "Abingdon",
        "record_type": "SECURITY_PUBLIC_SAFETY_NEIGHBOURHOOD_REFERENCE",
        "source_area_counted": false,
        "source_index": 41,
        "source_url": "https://data.police.uk/api/metropolitan/neighbourhoods"
      },
      "type": "Feature"
    },
    {
      "geometry": null,
      "id": "E05009389",
      "properties": {
        "accepted_source_record": true,
        "canonical_binding": "LOCAL_OPENCODE_PENDING_NOT_CLAIMED",
        "confidence_score_0_100": 100,
        "direct_parcel": false,
        "evidence_grade": "A_OFFICIAL_LIVE_API",
        "fake_data": false,
        "neighbourhood_id": "E05009389",
        "neighbourhood_name": "Brompton and Hans Town",
        "record_type": "SECURITY_PUBLIC_SAFETY_NEIGHBOURHOOD_REFERENCE",
        "source_area_counted": false,
        "source_index": 42,
        "source_url": "https://data.police.uk/api/metropolitan/neighbourhoods"
      },
      "type": "Feature"
    },
    {
      "geometry": null,
      "id": "E05009390N",
      "properties": {
        "accepted_source_record": true,
        "canonical_binding": "LOCAL_OPENCODE_PENDING_NOT_CLAIMED",
        "confidence_score_0_100": 100,
        "direct_parcel": false,
        "evidence_grade": "A_OFFICIAL_LIVE_API",
        "fake_data": false,
        "neighbourhood_id": "E05009390N",
        "neighbourhood_name": "Campden",
        "record_type": "SECURITY_PUBLIC_SAFETY_NEIGHBOURHOOD_REFERENCE",
        "source_area_counted": false,
        "source_index": 43,
        "source_url": "https://data.police.uk/api/metropolitan/neighbourhoods"
      },
      "type": "Feature"
    },
    {
      "geometry": null,
      "id": "E05009391",
      "properties": {
        "accepted_source_record": true,
        "canonical_binding": "LOCAL_OPENCODE_PENDING_NOT_CLAIMED",
        "confidence_score_0_100": 100,
        "direct_parcel": false,
        "evidence_grade": "A_OFFICIAL_LIVE_API",
        "fake_data": false,
        "neighbourhood_id": "E05009391",
        "neighbourhood_name": "Chelsea Riverside",
        "record_type": "SECURITY_PUBLIC_SAFETY_NEIGHBOURHOOD_REFERENCE",
        "source_area_counted": false,
        "source_index": 44,
        "source_url": "https://data.police.uk/api/metropolitan/neighbourhoods"
      },
      "type": "Feature"
    },
    {
      "geometry": null,
      "id": "E05009392",
      "properties": {
        "accepted_source_record": true,
        "canonical_binding": "LOCAL_OPENCODE_PENDING_NOT_CLAIMED",
        "confidence_score_0_100": 100,
        "direct_parcel": false,
        "evidence_grade": "A_OFFICIAL_LIVE_API",
        "fake_data": false,
        "neighbourhood_id": "E05009392",
        "neighbourhood_name": "Colville",
        "record_type": "SECURITY_PUBLIC_SAFETY_NEIGHBOURHOOD_REFERENCE",
        "source_area_counted": false,
        "source_index": 45,
        "source_url": "https://data.police.uk/api/metropolitan/neighbourhoods"
      },
      "type": "Feature"
    },
    {
      "geometry": null,
      "id": "E05009393",
      "properties": {
        "accepted_source_record": true,
        "canonical_binding": "LOCAL_OPENCODE_PENDING_NOT_CLAIMED",
        "confidence_score_0_100": 100,
        "direct_parcel": false,
        "evidence_grade": "A_OFFICIAL_LIVE_API",
        "fake_data": false,
        "neighbourhood_id": "E05009393",
        "neighbourhood_name": "Courtfield",
        "record_type": "SECURITY_PUBLIC_SAFETY_NEIGHBOURHOOD_REFERENCE",
        "source_area_counted": false,
        "source_index": 46,
        "source_url": "https://data.police.uk/api/metropolitan/neighbourhoods"
      },
      "type": "Feature"
    },
    {
      "geometry": null,
      "id": "E05009394",
      "properties": {
        "accepted_source_record": true,
        "canonical_binding": "LOCAL_OPENCODE_PENDING_NOT_CLAIMED",
        "confidence_score_0_100": 100,
        "direct_parcel": false,
        "evidence_grade": "A_OFFICIAL_LIVE_API",
        "fake_data": false,
        "neighbourhood_id": "E05009394",
        "neighbourhood_name": "Dalgarno",
        "record_type": "SECURITY_PUBLIC_SAFETY_NEIGHBOURHOOD_REFERENCE",
        "source_area_counted": false,
        "source_index": 47,
        "source_url": "https://data.police.uk/api/metropolitan/neighbourhoods"
      },
      "type": "Feature"
    },
    {
      "geometry": null,
      "id": "E05009395",
      "properties": {
        "accepted_source_record": true,
        "canonical_binding": "LOCAL_OPENCODE_PENDING_NOT_CLAIMED",
        "confidence_score_0_100": 100,
        "direct_parcel": false,
        "evidence_grade": "A_OFFICIAL_LIVE_API",
        "fake_data": false,
        "neighbourhood_id": "E05009395",
        "neighbourhood_name": "Earl's Court",
        "record_type": "SECURITY_PUBLIC_SAFETY_NEIGHBOURHOOD_REFERENCE",
        "source_area_counted": false,
        "source_index": 48,
        "source_url": "https://data.police.uk/api/metropolitan/neighbourhoods"
      },
      "type": "Feature"
    },
    {
      "geometry": null,
      "id": "E05009396",
      "properties": {
        "accepted_source_record": true,
        "canonical_binding": "LOCAL_OPENCODE_PENDING_NOT_CLAIMED",
        "confidence_score_0_100": 100,
        "direct_parcel": false,
        "evidence_grade": "A_OFFICIAL_LIVE_API",
        "fake_data": false,
        "neighbourhood_id": "E05009396",
        "neighbourhood_name": "Golborne",
        "record_type": "SECURITY_PUBLIC_SAFETY_NEIGHBOURHOOD_REFERENCE",
        "source_area_counted": false,
        "source_index": 49,
        "source_url": "https://data.police.uk/api/metropolitan/neighbourhoods"
      },
      "type": "Feature"
    }
  ],
  "name": "security_public_safety_3",
  "properties": {
    "batch_id": "20260930T184400Z-neighbourhoods-000-049",
    "lineage_id": "L24-SPS3-57442c9c2a0f429be2d2",
    "page_generation": 1,
    "partition": {
      "count": 30761,
      "end": 92283,
      "start": 61523
    },
    "schema": "AAYS_LAYER24_EVIDENCE_V1",
    "slot_id": "security_public_safety_3"
  },
  "type": "FeatureCollection"
}
