{"type":"FeatureCollection","features":[{"type":"Feature","id":"somerset-south-brownfield-register-page:S/ODCO/1101","geometry":null,"properties":{"slot_id":"future_growth_4","lineage_id":"fg4-e4c9076d6f554f00","page_generation":1,"owner":"future_growth_4","partition":"future_growth","semantic_mode":"SOURCE_AREA_EXACT_IDENTIFIER","dataset":"somerset-south-brownfield-register-page","entity":"S/ODCO/1101","reference":"S/ODCO/1101","quality":"authoritative","organisation":"Somerset Council","name":"Manor Farm Street Lane Odcombe","source_url":"https://www.somerset.gov.uk/planning-buildings-and-land/brownfield-register/","final_url":"https://www.somerset.gov.uk/planning-buildings-and-land/brownfield-register/","access_utc":"2026-10-03T17:50:00Z","data_date":"2025-12-12","license":"Open Government Licence v3.0","field_evidence":{"reference":"S/ODCO/1101","site_name":"Manor Farm Street Lane Odcombe","register_section":"South Somerset","page_last_updated":"2025-12-12","next_review_due":"2026-06-12"},"evidence_slice_sha256":"7dff03044c9acbcde59722d26694d667885d9c67a83993e354d0e28ca9fbab89","confidence_score_0_100":99,"confidence":0.99,"evidence_grade":"A","exact_identifier_provided":true,"coverage_polygon_provided":false,"fake_data":false,"join_mode":"LOCAL_OPENCODE_SPATIAL_JOIN_PENDING","direct_parcel":false,"source_area_count_contribution":1,"planned_building_count_contribution":0}}]}