{"type":"FeatureCollection","name":"height_difference_5","metadata":{"slot_id":"height_difference_5","owner":"height_difference_5","lineage_id":"height_difference_5-eb56f92ed3f0514c","page_generation":1,"schema":"AAYS_LAYER24_EVIDENCE_V1","partition":"layer24","semantic_mode_state":"ABSENT_IN_PRIOR_PHYSICAL_STATE_PRESERVED_BY_OMISSION","batch_id":"20261006T042700Z_spatialni_data_supply_metadata_pdf_screen_blocked","record_policy":"Official Spatial NI metadata-standard evidence only; no Belfast 2006 tile filename, dataset-specific CRS, parcel binding or geometry synthesized.","fake_data":false},"features":[{"type":"Feature","geometry":null,"properties":{"slot_id":"height_difference_5","owner":"height_difference_5","lineage_id":"height_difference_5-eb56f92ed3f0514c","page_generation":1,"schema":"AAYS_LAYER24_EVIDENCE_V1","partition":"layer24","batch_id":"20261006T042700Z_spatialni_data_supply_metadata_pdf_screen_blocked","source_record_id":"SPATIALNI:DATA_SUPPLY_METADATA_PDF","source_url":"https://support.spatialni.gov.uk/nima/DownloadDocs/Guidance/SpatialNI_Data_Supply_Metadata_Form.pdf","access_utc":"2026-10-06T04:27:00Z","required_building_state":"BUILDING_PRESENT","binding_status":"LOCAL_OPENCODE_BUILDING_PRESENT_EXACT_TILE_BIND_REQUIRED","general_supply_reference_system":"Irish Grid (TM65) [EPSG:29902]","dataset_specific_crs":null,"archive_internal_tile_filename":null,"pdf_screenshot_status":"CACHE_MISS","evidence_slice_sha256":"93a7224b5343c614edda20a26a3150ea8cdd52c44880279a0f0a96728b12abed","accepted_count_contribution":0,"source_area_count_contribution":0,"fake_data":false}}]}
