{"type":"FeatureCollection","name":"building_type_2_batch_0011","features":[{"type":"Feature","id":"42113002","geometry":{"type":"MultiPolygon","coordinates":[[[[-1.574896,54.974601],[-1.574855,54.974618],[-1.575314,54.974959],[-1.575546,54.974851],[-1.575636,54.974917],[-1.576004,54.974739],[-1.576161,54.974671],[-1.576195,54.974653],[-1.576173,54.974639],[-1.576257,54.974606],[-1.576223,54.974562],[-1.575994,54.974395],[-1.576082,54.974357],[-1.576,54.974297],[-1.575589,54.97436],[-1.574959,54.974425],[-1.574955,54.97441],[-1.574933,54.974413],[-1.57493,54.974399],[-1.574886,54.974405],[-1.574895,54.974431],[-1.574937,54.974427],[-1.574938,54.974474],[-1.574903,54.974489],[-1.574911,54.974496],[-1.574895,54.974502],[-1.574896,54.974601]]]]},"properties":{"slot_id":"building_type_2","lineage_id":"building_type_2-20260930T173100Z-newstart","batch_id":"batch-0011","page_generation":1,"source_entity":42113002,"source_reference":"1392170","source_dataset":"listed-building-outline","source_organisation":"Newcastle City Council","building_evidence_status":"BUILDING_PRESENT","parcel_status":"UNPROCESSED","canonical_parcel_id":null,"building_type":"listed_building","building_use":null,"poi_accepted":false,"field_evidence":{"footprint":"official listed-building-outline MULTIPOLYGON","type":"official dataset classification: listed-building-outline","reference":"1392170","quality":"authoritative","name":"1-17 (ODD) AND 2-30 (EVEN), WITH ATTACHED WALLS, FENCES, PERGOLA AND STEPS NOS. 130 AND 132, WITH ATTACHED WALLS, FENCES, PERGOLA AND STEPS"},"source_url":"https://www.planning.data.gov.uk/entity/42113002","final_url":"https://www.planning.data.gov.uk/entity/42113002","access_utc":"2026-10-01T23:30:14Z","data_date":"2024-06-08","licence":"Open Government Licence v3.0","evidence_slice_sha256":"29d8d319d84026a27ca05649107e6ecc34fe4776969b5b691bf1706fa8e7c29c","confidence_score_0_100":96,"evidence_grade":"A","fake_data":false,"local_spatial_join_required":true}}]}