{"type":"FeatureCollection","features":[{"type":"Feature","geometry":null,"properties":{"slot_id":"future_growth_1","lineage_id":"future_growth_1-newstart-20260927T153100+0300","page_generation":null,"accepted_as_parcel":false,"source_area_count_contribution":1,"exact_identifier":"Croydon Opportunity Area","exact_identifier_provided":true,"coverage_polygon_provided":false,"identifier_namespace":"GLA Opportunity Area name","access_utc":"2026-10-01T05:07:00Z","data_date":null,"source_url":"https://www.london.gov.uk/programmes-strategies/planning/implementing-london-plan/londons-opportunity-areas/oa-locations/croydon-opportunity-area","final_url":"https://www.london.gov.uk/programmes-strategies/planning/implementing-london-plan/londons-opportunity-areas/oa-locations/croydon-opportunity-area","authority":"Greater London Authority","boroughs":"LB Croydon","designation_year":2004,"growth_corridor":"Trams Triangle/London-Gatwick-Brighton mainline","boundary_policy_status":"Adopted","local_planning_documents":"Croydon OAPF (2013)","indicative_capacity_homes_2041":14500,"indicative_capacity_jobs_2041":10500,"confidence_score_0_100":98,"evidence_grade":"A","evidence_scope":"exact_official_identifier","fake_data":false,"spatial_binding_method":"official exact Opportunity Area identifier; canonical geometry resolution, parcel spatial join and materialization delegated to local OpenCode","planned_building_count_contribution":0}}]}