{"type":"FeatureCollection","name":"security_public_safety_6","features":[],"metadata":{"slot_id":"security_public_safety_6","lineage_id":"SECPS6_20260930T003421Z_01","page_generation":1,"batch_id":"BATCH_20261007T004000Z_ONS_LRF18_PREVIEW4_DUPLICATES","source_window_id":"ons_lrf18_names_codes_preview_rows_1_4_2026-10-07","source_url":"https://www.data.gov.uk/dataset/d6c3dfba-8631-4c0e-9c1e-16f11f86b024/local-resilience-forums-december-2018-names-and-codes-in-ew/datafile/87b7b530-49d7-47b5-ade9-e6f76c1101dd/preview","final_url":"https://www.data.gov.uk/dataset/d6c3dfba-8631-4c0e-9c1e-16f11f86b024/local-resilience-forums-december-2018-names-and-codes-in-ew/datafile/87b7b530-49d7-47b5-ade9-e6f76c1101dd/preview","dataset_url":"https://www.data.gov.uk/dataset/d6c3dfba-8631-4c0e-9c1e-16f11f86b024/local-resilience-forums-december-2018-names-and-codes-in-ew","accessed_utc":"2026-10-07T00:40:00Z","data_date":"2018-12-31","license":"Dataset licence field: Not set; National Data Library page content is Open Government Licence v3.0 except where otherwise stated.","evidence_slice_sha256":"3016539fa78503169eeaea0dd2892ca12ef8c5dea22b37eac6bca08634467d5f","new_source_records":0,"source_area_count_delta":0,"cumulative_source_area_count":62,"accepted_count":0,"duplicate_count":4,"rejected_count":0,"unmatched_count":0,"materialized_parcel_count":0,"direct_parcel_count":0,"planned_building_count":0,"cursor":null,"window_complete":true,"dataset_complete":false,"local_spatial_join_required":true,"fake_data":false}}
