{"type":"FeatureCollection","name":"building_type_2_batch_0038","features":[{"type":"Feature","id":"42132511","geometry":{"type":"MultiPolygon","coordinates":[[[[-2.604428,51.460904],[-2.604449,51.4609],[-2.604441,51.460886],[-2.604421,51.46089],[-2.604413,51.460877],[-2.60449,51.46086],[-2.604486,51.460852],[-2.60449,51.460846],[-2.604491,51.460841],[-2.60449,51.460829],[-2.604481,51.460821],[-2.604473,51.460817],[-2.604464,51.460815],[-2.604424,51.460745],[-2.604429,51.460734],[-2.604429,51.46073],[-2.604426,51.460724],[-2.604423,51.460722],[-2.604423,51.46072],[-2.604413,51.460715],[-2.604405,51.460715],[-2.604397,51.460701],[-2.604173,51.460751],[-2.604263,51.46091],[-2.604286,51.460905],[-2.604291,51.460917],[-2.604302,51.460933],[-2.604428,51.460904]]]]},"properties":{"slot_id":"building_type_2","lineage_id":"building_type_2-20260930T173100Z-newstart","batch_id":"batch-0038","page_generation":1,"source_entity":42132511,"source_reference":"77/01919/PRINC","source_dataset":"listed-building-outline","source_organisation":"Bristol City Council","building_evidence_status":"BUILDING_PRESENT","parcel_status":"UNPROCESSED","canonical_parcel_id":null,"building_type":"listed_building","building_use":null,"poi_accepted":false,"field_evidence":{"footprint":"official listed-building-outline MULTIPOLYGON","type":"official dataset classification: listed-building-outline","reference":"77/01919/PRINC","quality":"authoritative","name":"36 Tyndalls Park Road Bristol BS8 1PL"},"source_url":"https://www.planning.data.gov.uk/entity/42132511","final_url":"https://www.planning.data.gov.uk/entity/42132511","access_utc":"2026-10-05T08:56:30Z","data_date":"1977-03-04","licence":"Open Government Licence v3.0","evidence_slice_sha256":"4188229e0a1f69ece11fdecebea28c06cc6e8c88798e0b8bd9339871dc9b7962","confidence_score_0_100":96,"evidence_grade":"A","fake_data":false,"local_spatial_join_required":true}}]}