{"features":[{"geometry":null,"properties":{"accepted_count_contribution":0,"access_utc":"2026-10-01T03:32:00Z","acquisition_date":"2009-04-27","binding_status":"LOCAL_OPENCODE_BUILDING_PRESENT_EXACT_TILE_BIND_REQUIRED","canonical_parcel_id":null,"confidence_score_0_100":96,"crs":null,"crs_status":"NOT_EXPLICIT_IN_SOURCE_WINDOW","dataset_role":"official LiDAR DTM grouped-resource evidence","dataset_url":"https://admin.opendatani.gov.uk/dataset/osni-open-data-river-basin-lidar-2009-dtms-and-dsms","evidence_grade":"A_OFFICIAL_DTM_RESOURCE_B_MISSING_EXPLICIT_CRS_AND_TILE_BIND","evidence_slice_sha256":"fe5b7bb8f292c0326a10f03778631c6a7e3e1ebe15d1005657fce7ced2877b8c","fake_data":false,"field_evidence":{"acquisition_date":"official resource filename","licence":"official dataset licence field = UK Open Government Licence","publisher":"official dataset organization","resolution_m":"official dataset summary says 1m x 1m grid; resource filename also DTM_1M","resource_name":"official CKAN resource listing","tile_size_km":"official dataset summary says typically 1km x 1km tiles"},"final_url":"https://admin.opendatani.gov.uk/dataset/d179414f-be86-4a8a-9911-708d960fe55b/resource/85f9f4f6-5eb0-486a-80f4-be1c6b8e294a/download/portadown_27_04_2009_dtm_1m.zip","individual_tile_identifier":null,"licence":"UK Open Government Licence (OGL)","required_building_state":"BUILDING_PRESENT","resolution_m":1,"resource_name":"Portadown_27_04_2009_DTM_1M","source_area_count_contribution":0,"source_file_sha256":null,"source_file_sha256_reason":"ZIP bytes not retrieved","source_record_id":"OSNI_RIVER_BASIN_LIDAR_2009:PORTADOWN_DTM_1M","source_url":"https://admin.opendatani.gov.uk/dataset/d179414f-be86-4a8a-9911-708d960fe55b/resource/85f9f4f6-5eb0-486a-80f4-be1c6b8e294a/download/portadown_27_04_2009_dtm_1m.zip","tile_size_km":1},"type":"Feature"}],"name":"height_difference_1","type":"FeatureCollection"}
