{"type":"FeatureCollection","features":[{"type":"Feature","geometry":null,"properties":{"slot_id":"future_growth_1","lineage_id":"future_growth_1-newstart-20260927T153100+0300","page_generation":null,"accepted_as_parcel":false,"source_area_count_contribution":1,"exact_identifier":"Y19/0257/FH","exact_identifier_provided":true,"coverage_polygon_provided":false,"identifier_namespace":"Folkestone & Hythe District Council planning application","site_name":"Otterpool Park Garden Town","access_utc":"2026-10-05T11:23:00Z","data_date":"2026-03-23","source_url":"https://www.folkestone-hythe.gov.uk/otterpool-park/outline-planning-application","final_url":"https://www.folkestone-hythe.gov.uk/otterpool-park/outline-planning-application","status_url":"https://www.folkestone-hythe.gov.uk/news/article/417/otterpool-park-collaboration-agreement-renewed","guide_url":"https://www.folkestone-hythe.gov.uk/downloads/file/3390/guide-to-the-planning-application","license":"Folkestone & Hythe District Council public planning and news pages; page-specific reuse licence not stated on the source pages","authority":"Folkestone & Hythe District Council","application_received":"2019-02-28","updated_application_submitted":"2022-03-01","committee_resolution_date":"2023-04-04","committee_resolution":"resolved to grant subject to conditions and satisfactory s106 agreement(s)","application_homes":8500,"current_status_date":"2026-03-23","current_status":"renewed Council-Homes England collaboration focused on securing planning permission for the current scheme through December 2026","evidence_grade":"A","confidence_score_0_100":99,"evidence_scope":"exact Otterpool Park application Y19/0257/FH plus council outline-application page, application guide, committee resolution and 2026 delivery/planning collaboration update","evidence_slice_sha256":"83d03e38770b50e18eca712165d448bd5653438241458feb2b0f1bfd276a532b","fake_data":false,"spatial_binding_method":"official outline-planning application identifier Y19/0257/FH plus red-line boundary evidence in the application documents; exact boundary extraction, canonical parcel spatial join and materialization delegated to local OpenCode","planned_building_count_contribution":0}}]}
