{"type":"FeatureCollection","features":[{"type":"Feature","geometry":{"type":"Point","coordinates":[-0.107012,51.522185]},"properties":{"slot_id":"planned_buildings_1","lineage_id":"planned_buildings_1-0ffc4ebd6c6e4e41","semantic_mode":"DISTINCT_BUILDINGS","planned_building_id":"planning-application:2025/2754/P::NEW_BUILDING_01","building_status":"PLANNED","building_name":"New building, 63 St Mary Axe","planning_reference":"2025/2754/P","entity_id":10000100238,"authority":"London Borough of Camden","source_url":"https://www.planning.data.gov.uk/entity/10000100238","final_url":"https://www.planning.data.gov.uk/entity/10000100238","access_utc":"2026-10-01T13:19:00+03:00","source_data_date":"2025-09-09","license":"Open Government Licence v3.0","geometry_role":"official planning-application point; not a footprint","field_evidence":"Official description explicitly states construction of a new building of ground plus 45 storeys; application/site was not counted as the building.","confidence_score_0_100":98,"evidence_grade":"A","fake_data":false}}]}
