{"features":[{"geometry":null,"properties":{"accepted_count_contribution":0,"access_constraints":"Crown copyright Scottish Government and Fugro (2021).","access_utc":"2026-10-01T20:09:00Z","binding_status":"LOCAL_OPENCODE_BUILDING_PRESENT_EXACT_TILE_BIND_REQUIRED","canonical_parcel_id":null,"capture_period":"2020-2021","confidence_score_0_100":98,"crs":"EPSG:27700","dataset_creation_date":"2021-09-17","dataset_role":"official LiDAR DTM resource evidence","dataset_url":"https://www.data.gov.uk/dataset/78daa005-99d9-4f9f-ac0a-29dd52c59d66/lidar-for-scotland-phase-5-dtm","evidence_grade":"A_OFFICIAL_DTM_RESOURCE_B_MISSING_NATIVE_RESOLUTION_TILE_DATE_BYTES","evidence_slice_sha256":"db089acc8bccefa865ff85f9222926c0afd51e007b81c0f18d3790372c2815de","fake_data":false,"final_url":"https://remotesensingdata.gov.scot/data/lidar/phase-5/dtm","format":"GeoTIFF","layer_identifier":"scotland:scotland-lidar-5-dtm","licence":null,"native_resolution_m":null,"per_tile_acquisition_date":null,"publisher":"Scottish Government SpatialData.gov.scot","required_building_state":"BUILDING_PRESENT","source_area_count_contribution":0,"source_record_id":"SG_LIDAR_PHASE5_DTM:DATA_RESOURCE","source_url":"https://remotesensingdata.gov.scot/data/lidar/phase-5/dtm"},"type":"Feature"}],"name":"height_difference_1","type":"FeatureCollection"}
