{"type":"FeatureCollection","name":"height_difference_2","features":[],"metadata":{"slot_id":"height_difference_2","lineage_id":"height_difference_2_20260930T001051Z","page_generation":1,"partition":"source_area","schema":"AAYS_LAYER24_EVIDENCE_V1","fake_data":false,"owner":"cagdas aydin","batch_id":"batch_0126_he_point_gis_metadata_blocker_20261007T083600+0300","cursor":"BLOCKED_HE_LISTED_BUILDINGS_POINT_GIS_METADATA_WITHOUT_HD2_CANONICAL_PARCEL_OR_EXACT_TILE","source_area_count":0,"accepted_count":0,"unmatched_count":1,"source_window_path":"incoming/layer24/building_type_7/BT7-e778d2c2-3425-46ea-a261-2494bfcbd18d/batch_0120_20261007T051900Z/","reason":"EXACT_BLOCKER: a previously unused verified official public no-login Historic England / GOV.UK Listed Buildings Point GIS Data catalogue window was processed (1 source-area metadata record; 0 parcel/building feature records). The official catalogue states that listed buildings are represented by a single point in the centre of the building footprint, so this window supplies point-model source-area metadata rather than record-level physical Polygon/MultiPolygon footprint geometry. It exposes no height_difference_2 canonical_parcel_id, no slot-bound BUILDING_PRESENT parcel geometry/bbox, and no exact official DEM/LIDAR tile selector. The Height Difference family start criterion remains unsatisfied and no DEM/LIDAR window was opened. Local OpenCode must publish a non-null height_difference_2 canonical_parcel_id with BUILDING_PRESENT plus parcel geometry/bbox, or an exact official DEM/LIDAR tile selector."}}
