{
  "type": "FeatureCollection",
  "features": [
    {
      "type": "Feature",
      "geometry": null,
      "properties": {
        "slot_id": "future_growth_9",
        "lineage_id": "964e82ea-5bab-45ab-b0a7-2deb7620da1e",
        "batch_id": "20261001T052500Z_gosport_1900239out",
        "source_url": "https://democracy.gosport.gov.uk/documents/s966/Final%20RB%20agenda%2016.10.19.pdf",
        "final_url": "https://democracy.gosport.gov.uk/documents/s966/Final%20RB%20agenda%2016.10.19.pdf",
        "accessed_utc": "2026-10-01T05:25:00Z",
        "data_date": "2019-10-16",
        "license": "public official council document; licence not explicitly stated in source",
        "source_authority": "Gosport Borough Council",
        "source_identifier": "19/00239/OUT",
        "source_area_count": 1,
        "accepted_count": 1,
        "planned_building_count": 6,
        "duplicate_count": 0,
        "rejected_count": 0,
        "unmatched_count": 0,
        "materialized_parcel_count": 0,
        "direct_parcel_count": 0,
        "verified_no_building_count": 0,
        "unprocessed_count": 0,
        "semantic_mode": "AAYS_LAYER24_EVIDENCE_V1",
        "fake_data": false,
        "confidence_score_0_100": 96,
        "evidence_grade": "A"
      }
    }
  ]
}