{"type":"FeatureCollection","features":[{"type":"Feature","id":"CHERWELL_23_02349_F_REAR_OUTBUILDING_01","geometry":null,"properties":{"slot_id":"planned_buildings_4","owner":"planned_buildings_4","lineage_id":"pb4-8debc7c8ddf348a2","page_generation":1,"partition":"layer24","schema":"AAYS_LAYER24_EVIDENCE_V1","semantic_mode":"PLANNED_BUILDINGS_OFFICIAL_REFERENCE_DISTINCT_STRUCTURE","batch_id":"20261006T121337Z-cherwell-23-02349-f-window-001","publisher":"Cherwell District Council","source_family":"CHERWELL_PLANNING_REGISTER","source_url":"https://planningregister.cherwell.gov.uk/Planning/Display/23/02349/F","final_url":"https://planningregister.cherwell.gov.uk/Planning/Display/23/02349/F","access_utc":"2026-10-06T12:13:37Z","data_date":"2023-08-31","license":"Public planning register; document copyright/usage remains governed by council register terms","planning_reference":"23/02349/F","location":"3 Orchard Way Banbury OX16 0HP","proposal":"Erection of outbuilding to rear of property","status":"Application Permitted","geometry_status":"NOT_MATERIALIZED_LOCAL_OPENCODE","field_evidence":"Official Cherwell District Council Planning Register application 23/02349/F. Application Type: Full Development. Status: Application Permitted. Valid date: 31/08/2023. Location: 3 Orchard Way Banbury OX16 0HP. Proposal: Erection of outbuilding to rear of property. Decision: Permitted. Decision Issued Date: 30/11/2023. Official documents include proposed drawing BWC2023TR30WB - 1, described as Location/block/plans/elevations. The official proposal identifies one distinct new outbuilding to the rear of the property, and the combined proposed drawing supports the same single planned structure. No extension, conversion, equipment or other existing-building work is counted as an additional distinct structure. Geometry/materialization is deferred to local OpenCode.","evidence_slice_sha256":"14c002b70d90779b08b88dd5c458d4010bb2bb54c1b925a0801a1ab4d878dbe3","confidence":0.99,"evidence_grade":"A_OFFICIAL_LOCAL_AUTHORITY_PLANNING_REGISTER_SINGLE_REAR_OUTBUILDING_PERMITTED","fake_data":false,"source_record_id":"CHERWELL_23_02349_F_REAR_OUTBUILDING_01","planned_building":"rear outbuilding","official_plan_reference":"BWC2023TR30WB - 1","official_plan_description":"Location/block/plans/elevations"}}]}
