{"type":"FeatureCollection","features":[{"type":"Feature","geometry":null,"properties":{"slot_id":"planned_buildings_1","lineage_id":"planned_buildings_1-0ffc4ebd6c6e4e41","semantic_mode":"DISTINCT_BUILDINGS","planned_building_id":"planning-application:26/00557/FUL::ANCILLARY_INDUSTRIAL_BUILDING","building_status":"PLANNED","building_name":"Ancillary industrial building, JVM Castings Limited Droitwich Road Worcester","planning_reference":"26/00557/FUL","authority":"Worcester City Council","source_url":"https://plan.worcester.gov.uk/Planning/Display/26/00557/FUL","final_url":"https://plan.worcester.gov.uk/Planning/Display/26/00557/FUL","access_utc":"2026-10-05T05:22:00Z","source_data_date":"2026-06-24","license":"Council planning-register copyright/consultation terms; no separate data licence stated on page","geometry_role":"null; no geometry inferred","field_evidence":"Valid; Pending Decision; decision Pending; proposal explicitly states erection of an ancillary industrial building, anchored to existing hardstanding.","identity_limitation":"Exactly one new ancillary industrial building is counted from the explicit proposal; existing hardstanding and associated works are not counted as new buildings.","confidence_score_0_100":99,"evidence_grade":"A","fake_data":false}}]}