{"type":"FeatureCollection","features":[{"type":"Feature","geometry":null,"properties":{"slot_id":"planned_buildings_1","lineage_id":"planned_buildings_1-0ffc4ebd6c6e4e41","semantic_mode":"DISTINCT_BUILDINGS","planned_building_id":"planning-application:RB2026/0503::DWELLING_01","building_status":"PLANNED","building_name":"Residential dwelling 1, Highfield Farm Melton High Street West Melton","planning_reference":"RB2026/0503","authority":"Rotherham Metropolitan Borough Council","source_url":"https://planning.rotherham.gov.uk/fulldetail.asp?AltRef=RB2026%2F0503","final_url":"https://planning.rotherham.gov.uk/fulldetail.asp?AltRef=RB2026%2F0503","access_utc":"2026-10-03T01:52:04Z","source_data_date":"2026-04-08","license":"Open Government Licence v3.0","geometry_role":"official planning page exposes no machine-readable point or building footprint; geometry null; no geometry inferred","field_evidence":"Official Registered/Valid application explicitly states erection of 2 residential dwellings; the official page states no decision.","identity_limitation":"Exactly two new residential dwellings explicitly stated by the source are counted as two distinct new planned buildings; conversions of existing buildings to 6 dwellings are not counted as new buildings.","confidence_score_0_100":98,"evidence_grade":"A","fake_data":false}},{"type":"Feature","geometry":null,"properties":{"slot_id":"planned_buildings_1","lineage_id":"planned_buildings_1-0ffc4ebd6c6e4e41","semantic_mode":"DISTINCT_BUILDINGS","planned_building_id":"planning-application:RB2026/0503::DWELLING_02","building_status":"PLANNED","building_name":"Residential dwelling 2, Highfield Farm Melton High Street West Melton","planning_reference":"RB2026/0503","authority":"Rotherham Metropolitan Borough Council","source_url":"https://planning.rotherham.gov.uk/fulldetail.asp?AltRef=RB2026%2F0503","final_url":"https://planning.rotherham.gov.uk/fulldetail.asp?AltRef=RB2026%2F0503","access_utc":"2026-10-03T01:52:04Z","source_data_date":"2026-04-08","license":"Open Government Licence v3.0","geometry_role":"official planning page exposes no machine-readable point or building footprint; geometry null; no geometry inferred","field_evidence":"Official Registered/Valid application explicitly states erection of 2 residential dwellings; the official page states no decision.","identity_limitation":"Exactly two new residential dwellings explicitly stated by the source are counted as two distinct new planned buildings; conversions of existing buildings to 6 dwellings are not counted as new buildings.","confidence_score_0_100":98,"evidence_grade":"A","fake_data":false}}]}