{"type":"FeatureCollection","name":"building_type_2_batch_0026","features":[{"type":"Feature","id":"42203221","geometry":{"type":"MultiPolygon","coordinates":[[[[-2.934554,50.725073],[-2.934623,50.725091],[-2.934757,50.724889],[-2.93467,50.724858],[-2.934634,50.724847],[-2.934593,50.724911],[-2.934627,50.724921],[-2.93462,50.724931],[-2.934645,50.724938],[-2.934634,50.724952],[-2.934554,50.725073]]]]},"properties":{"slot_id":"building_type_2","lineage_id":"building_type_2-20260930T173100Z-newstart","batch_id":"batch-0026","page_generation":1,"source_entity":42203221,"source_reference":"LB/1279234","source_dataset":"listed-building-outline","source_organisation":"Dorset Council","building_evidence_status":"BUILDING_PRESENT","parcel_status":"UNPROCESSED","canonical_parcel_id":null,"building_type":"listed_building","building_use":null,"poi_accepted":false,"field_evidence":{"footprint":"official listed-building-outline MULTIPOLYGON","type":"official dataset classification: listed-building-outline","reference":"LB/1279234","quality":"authoritative","name":"55-57, BROAD STREET"},"source_url":"https://www.planning.data.gov.uk/entity/42203221","final_url":"https://www.planning.data.gov.uk/entity/42203221","access_utc":"2026-10-03T01:10:43Z","data_date":"1952-04-23","licence":"Open Government Licence v3.0","evidence_slice_sha256":"aeddaf2471a24e9af57111ceda15778a6012f86f8cb1763413ff9970a84f6c0d","confidence_score_0_100":96,"evidence_grade":"A","fake_data":false,"local_spatial_join_required":true}}]}