{"type":"FeatureCollection","features":[{"type":"Feature","geometry":null,"properties":{"slot_id":"future_growth_1","lineage_id":"future_growth_1-newstart-20260927T153100+0300","page_generation":null,"accepted_as_parcel":false,"source_area_count_contribution":1,"exact_identifier":"560009","exact_identifier_provided":true,"coverage_polygon_provided":false,"identifier_namespace":"MHCLG Planning Data development-corporation-boundary entity","site_name":"Ebbsfleet Development Corporation","access_utc":"2026-10-04T01:57:00Z","data_date":"2015-04-20","source_url":"https://www.planning.data.gov.uk/entity/560009","final_url":"https://www.planning.data.gov.uk/entity/560009","dataset_url":"https://www.planning.data.gov.uk/dataset/development-corporation-boundary","legislation_url":"https://www.legislation.gov.uk/uksi/2015/747/contents/made","official_url":"https://ebbsfleetdc.org.uk/who-we-are/","license":"Open Government Licence v3.0","authority":"Ebbsfleet Development Corporation / Secretary of State statutory designation","representative_point_wkt":"POINT (0.310446 51.446354)","order_number":"SI 2015/747","order_effective_date":"2015-04-20","future_growth_mandate":"up to 15,000 homes","current_progress_statement":"over 5,000 homes are now complete","evidence_grade":"A","confidence_score_0_100":99,"evidence_scope":"Planning Data entity 560009, linked statutory Urban Development Area order, and current official Ebbsfleet Development Corporation growth mandate","evidence_slice_sha256":"3f6cc27c8252c67237448f254f3ccc14fbed7567520f383f6aab01296d162b53","fake_data":false,"spatial_binding_method":"official Planning Data development-corporation-boundary entity plus statutory Urban Development Area order; exact boundary extraction, canonical parcel spatial join and materialization delegated to local OpenCode","planned_building_count_contribution":0}}]}