{"type":"FeatureCollection","name":"future_growth_6","features":[{"type":"Feature","id":"local-plan:blackpool-borough-council-local-plan-2045","geometry":null,"properties":{"source_area_id":"local-plan-boundary:E60000014","source_area_name":"New Local Plan to 2045","source_entity":4220194,"source_reference":"blackpool-borough-council-local-plan-2045","organisation":"Blackpool Borough Council","organisation_curie":"local-authority:BPL","dataset":"local-plan","typology":"legal-instrument","local_plan_process":"draft","period_end_date":"2045-01-01","local_plan_boundary":"E60000014","evidence_type":"exact_coverage_identifier","confidence_score_0_100":95,"evidence_grade":"A_OFFICIAL_PRIMARY","fake_data":false,"canonical_parcel_id":null,"parcel_match_status":"DEFERRED_TO_LOCAL_OPENCODE"}}]}
