{"type":"FeatureCollection","name":"future_growth_6","features":[{"type":"Feature","id":"development-policy-area:local-authority-eng:BUC:LPD21K:2021-01-08","geometry":{"type":"MultiPolygon","coordinates":[[[[-0.771155,51.633111],[-0.771142,51.633162],[-0.770208,51.633071],[-0.770231,51.632979],[-0.770297,51.632984],[-0.770326,51.632902],[-0.77,51.632871],[-0.770017,51.632818],[-0.770097,51.632789],[-0.771211,51.632895],[-0.771155,51.633111]]]]},"properties":{"semantic_identity":"development-policy-area:local-authority-eng:BUC:LPD21K:2021-01-08","source_area_id":"LPD21K","source_area_type":"adopted_local_plan_housing_or_housing_led_mixed_use_allocation","name":"Ogilvie Road High Wycombe","allocated_use":"Housing or housing-led mixed-use policy allocation; construction status not inferred","policy":"DM21; Appendix D","organisation":"local-authority-eng:BUC","source_url":"https://github.com/digital-land/development-policy-area/blob/111f7b992aa0c7efe39611b4003607141631a4f2/docs/local-authority-eng/BUC/LPD21K/geometry.geojson","source_final_url":"https://raw.githubusercontent.com/digital-land/development-policy-area/111f7b992aa0c7efe39611b4003607141631a4f2/docs/local-authority-eng/BUC/LPD21K/geometry.geojson","http_status":200,"source_data_date":"2021-01-08","plan_adopted_date":"2019-08","source_version":"111f7b992aa0c7efe39611b4003607141631a4f2:git-blob:79fc93716a9b3c7e199aecd5e03d09e8f406c3d2","licence":"Open Government Licence v3.0 (Digital Land repository; source-specific rights apply)","source_sha256":"b87cb050accda8a262ff2b98b8b5cde0f06826f4f303b193e5ae87b4d167a88e","evidence_slice_sha256":"7b86daa0a657bcef2696dd20cb4c5fb54473a0c2c842a691ab34194ffd111f35","field_evidence":{"geometry":"docs/local-authority-eng/BUC/LPD21K/geometry.geojson:geometry","identifier":"docs/local-authority-eng/BUC/LPD21K/geometry.geojson:properties.geography","site_name":"docs/local-authority-eng/BUC/LPD21K/geometry.geojson:properties.name","source_date":"docs/local-authority-eng/BUC/LPD21K/geometry.geojson:properties.entry-date","housing_policy":"https://www.buckinghamshire.gov.uk/documents/9736/Wycombe-District-Local-Plan-Adopted-August-2019-accessible.pdf#Appendix_D","official_map":"https://maps.buckinghamshire.gov.uk/server/rest/services/Wycombe/wdc_local_plans/MapServer/0"},"confidence":0.98,"evidence_grade":"A_OFFICIAL_GIS_ADOPTED_HOUSING_DM21","fake_data":false}},{"type":"Feature","id":"development-policy-area:local-authority-eng:BUC:LPD21L:2021-01-08","geometry":{"type":"MultiPolygon","coordinates":[[[[-0.727137,51.626],[-0.727125,51.62603],[-0.726017,51.625853],[-0.726133,51.625548],[-0.726771,51.62575],[-0.727137,51.626]]]]},"properties":{"semantic_identity":"development-policy-area:local-authority-eng:BUC:LPD21L:2021-01-08","source_area_id":"LPD21L","source_area_type":"adopted_local_plan_housing_or_housing_led_mixed_use_allocation","name":"Land to the rear of Quebec Road High Wycombe","allocated_use":"Housing or housing-led mixed-use policy allocation; construction status not inferred","policy":"DM21; Appendix D","organisation":"local-authority-eng:BUC","source_url":"https://github.com/digital-land/development-policy-area/blob/111f7b992aa0c7efe39611b4003607141631a4f2/docs/local-authority-eng/BUC/LPD21L/geometry.geojson","source_final_url":"https://raw.githubusercontent.com/digital-land/development-policy-area/111f7b992aa0c7efe39611b4003607141631a4f2/docs/local-authority-eng/BUC/LPD21L/geometry.geojson","http_status":200,"source_data_date":"2021-01-08","plan_adopted_date":"2019-08","source_version":"111f7b992aa0c7efe39611b4003607141631a4f2:git-blob:a08accfe941fc2f18c3bad1e73f0d5f8992e7575","licence":"Open Government Licence v3.0 (Digital Land repository; source-specific rights apply)","source_sha256":"8991b2ba5428d1f2675b6bb778a6dd0d51232ad52b66aa4465e220c7b8536295","evidence_slice_sha256":"7b86daa0a657bcef2696dd20cb4c5fb54473a0c2c842a691ab34194ffd111f35","field_evidence":{"geometry":"docs/local-authority-eng/BUC/LPD21L/geometry.geojson:geometry","identifier":"docs/local-authority-eng/BUC/LPD21L/geometry.geojson:properties.geography","site_name":"docs/local-authority-eng/BUC/LPD21L/geometry.geojson:properties.name","source_date":"docs/local-authority-eng/BUC/LPD21L/geometry.geojson:properties.entry-date","housing_policy":"https://www.buckinghamshire.gov.uk/documents/9736/Wycombe-District-Local-Plan-Adopted-August-2019-accessible.pdf#Appendix_D","official_map":"https://maps.buckinghamshire.gov.uk/server/rest/services/Wycombe/wdc_local_plans/MapServer/0"},"confidence":0.98,"evidence_grade":"A_OFFICIAL_GIS_ADOPTED_HOUSING_DM21","fake_data":false}},{"type":"Feature","id":"development-policy-area:local-authority-eng:BUC:LPD21M:2021-01-08","geometry":{"type":"MultiPolygon","coordinates":[[[[-0.735836,51.626198],[-0.735676,51.626505],[-0.735516,51.626447],[-0.735527,51.62643],[-0.735199,51.626359],[-0.735316,51.626138],[-0.735729,51.626218],[-0.735758,51.626175],[-0.735637,51.62614],[-0.735811,51.625823],[-0.736426,51.625986],[-0.736412,51.626007],[-0.736058,51.62592],[-0.735995,51.626019],[-0.736339,51.626111],[-0.736334,51.626132],[-0.735943,51.626036],[-0.735836,51.626198]]]]},"properties":{"semantic_identity":"development-policy-area:local-authority-eng:BUC:LPD21M:2021-01-08","source_area_id":"LPD21M","source_area_type":"adopted_local_plan_housing_or_housing_led_mixed_use_allocation","name":"Netley Works 89 Queens Road High Wycombe","allocated_use":"Housing or housing-led mixed-use policy allocation; construction status not inferred","policy":"DM21; Appendix D","organisation":"local-authority-eng:BUC","source_url":"https://github.com/digital-land/development-policy-area/blob/111f7b992aa0c7efe39611b4003607141631a4f2/docs/local-authority-eng/BUC/LPD21M/geometry.geojson","source_final_url":"https://raw.githubusercontent.com/digital-land/development-policy-area/111f7b992aa0c7efe39611b4003607141631a4f2/docs/local-authority-eng/BUC/LPD21M/geometry.geojson","http_status":200,"source_data_date":"2021-01-08","plan_adopted_date":"2019-08","source_version":"111f7b992aa0c7efe39611b4003607141631a4f2:git-blob:cd73c1aa8ae51fe242cbc5672791a0e5770c58e5","licence":"Open Government Licence v3.0 (Digital Land repository; source-specific rights apply)","source_sha256":"18815a44089afa1baad36c509928219dc0e6dd4c8e5f59cca946a3ae4da1bc83","evidence_slice_sha256":"7b86daa0a657bcef2696dd20cb4c5fb54473a0c2c842a691ab34194ffd111f35","field_evidence":{"geometry":"docs/local-authority-eng/BUC/LPD21M/geometry.geojson:geometry","identifier":"docs/local-authority-eng/BUC/LPD21M/geometry.geojson:properties.geography","site_name":"docs/local-authority-eng/BUC/LPD21M/geometry.geojson:properties.name","source_date":"docs/local-authority-eng/BUC/LPD21M/geometry.geojson:properties.entry-date","housing_policy":"https://www.buckinghamshire.gov.uk/documents/9736/Wycombe-District-Local-Plan-Adopted-August-2019-accessible.pdf#Appendix_D","official_map":"https://maps.buckinghamshire.gov.uk/server/rest/services/Wycombe/wdc_local_plans/MapServer/0"},"confidence":0.98,"evidence_grade":"A_OFFICIAL_GIS_ADOPTED_HOUSING_DM21","fake_data":false}},{"type":"Feature","id":"development-policy-area:local-authority-eng:BUC:LPD21N:2021-01-08","geometry":{"type":"MultiPolygon","coordinates":[[[[-0.78032,51.62487],[-0.780074,51.624803],[-0.780243,51.624478],[-0.779792,51.624398],[-0.779804,51.624365],[-0.780202,51.624435],[-0.780268,51.624398],[-0.780847,51.623217],[-0.781105,51.623265],[-0.78092,51.623637],[-0.780961,51.62365],[-0.78096,51.623704],[-0.781365,51.623765],[-0.781353,51.623801],[-0.780955,51.623732],[-0.780908,51.623786],[-0.780855,51.623781],[-0.78032,51.62487]]]]},"properties":{"semantic_identity":"development-policy-area:local-authority-eng:BUC:LPD21N:2021-01-08","source_area_id":"LPD21N","source_area_type":"adopted_local_plan_housing_or_housing_led_mixed_use_allocation","name":"Garages between Chiltern Avenue and Rutland Avenue High Wycombe","allocated_use":"Housing or housing-led mixed-use policy allocation; construction status not inferred","policy":"DM21; Appendix D","organisation":"local-authority-eng:BUC","source_url":"https://github.com/digital-land/development-policy-area/blob/111f7b992aa0c7efe39611b4003607141631a4f2/docs/local-authority-eng/BUC/LPD21N/geometry.geojson","source_final_url":"https://raw.githubusercontent.com/digital-land/development-policy-area/111f7b992aa0c7efe39611b4003607141631a4f2/docs/local-authority-eng/BUC/LPD21N/geometry.geojson","http_status":200,"source_data_date":"2021-01-08","plan_adopted_date":"2019-08","source_version":"111f7b992aa0c7efe39611b4003607141631a4f2:git-blob:601abd4290671df8969f93107be2ccc92a1539fc","licence":"Open Government Licence v3.0 (Digital Land repository; source-specific rights apply)","source_sha256":"fa82890ec879d3836528e35743f5462d0d125c01addbb41511d14cbf1e0b3216","evidence_slice_sha256":"7b86daa0a657bcef2696dd20cb4c5fb54473a0c2c842a691ab34194ffd111f35","field_evidence":{"geometry":"docs/local-authority-eng/BUC/LPD21N/geometry.geojson:geometry","identifier":"docs/local-authority-eng/BUC/LPD21N/geometry.geojson:properties.geography","site_name":"docs/local-authority-eng/BUC/LPD21N/geometry.geojson:properties.name","source_date":"docs/local-authority-eng/BUC/LPD21N/geometry.geojson:properties.entry-date","housing_policy":"https://www.buckinghamshire.gov.uk/documents/9736/Wycombe-District-Local-Plan-Adopted-August-2019-accessible.pdf#Appendix_D","official_map":"https://maps.buckinghamshire.gov.uk/server/rest/services/Wycombe/wdc_local_plans/MapServer/0"},"confidence":0.98,"evidence_grade":"A_OFFICIAL_GIS_ADOPTED_HOUSING_DM21","fake_data":false}},{"type":"Feature","id":"development-policy-area:local-authority-eng:BUC:LPD21O:2021-01-08","geometry":{"type":"MultiPolygon","coordinates":[[[[-0.722436,51.641787],[-0.722386,51.642133],[-0.722314,51.642126],[-0.722367,51.641883],[-0.721488,51.641822],[-0.72151,51.641771],[-0.721445,51.64169],[-0.721483,51.641642],[-0.721603,51.641596],[-0.721553,51.641544],[-0.72201,51.641376],[-0.722436,51.641787]]]]},"properties":{"semantic_identity":"development-policy-area:local-authority-eng:BUC:LPD21O:2021-01-08","source_area_id":"LPD21O","source_area_type":"adopted_local_plan_housing_or_housing_led_mixed_use_allocation","name":"Garages at Tyzack Road High Wycombe","allocated_use":"Housing or housing-led mixed-use policy allocation; construction status not inferred","policy":"DM21; Appendix D","organisation":"local-authority-eng:BUC","source_url":"https://github.com/digital-land/development-policy-area/blob/111f7b992aa0c7efe39611b4003607141631a4f2/docs/local-authority-eng/BUC/LPD21O/geometry.geojson","source_final_url":"https://raw.githubusercontent.com/digital-land/development-policy-area/111f7b992aa0c7efe39611b4003607141631a4f2/docs/local-authority-eng/BUC/LPD21O/geometry.geojson","http_status":200,"source_data_date":"2021-01-08","plan_adopted_date":"2019-08","source_version":"111f7b992aa0c7efe39611b4003607141631a4f2:git-blob:552c161dfb26c5b72c8ef4128215625996715faa","licence":"Open Government Licence v3.0 (Digital Land repository; source-specific rights apply)","source_sha256":"0f2bb222280f6bd4026ead3cdc33414554c5b29fd38cb01505785d67e52dae04","evidence_slice_sha256":"7b86daa0a657bcef2696dd20cb4c5fb54473a0c2c842a691ab34194ffd111f35","field_evidence":{"geometry":"docs/local-authority-eng/BUC/LPD21O/geometry.geojson:geometry","identifier":"docs/local-authority-eng/BUC/LPD21O/geometry.geojson:properties.geography","site_name":"docs/local-authority-eng/BUC/LPD21O/geometry.geojson:properties.name","source_date":"docs/local-authority-eng/BUC/LPD21O/geometry.geojson:properties.entry-date","housing_policy":"https://www.buckinghamshire.gov.uk/documents/9736/Wycombe-District-Local-Plan-Adopted-August-2019-accessible.pdf#Appendix_D","official_map":"https://maps.buckinghamshire.gov.uk/server/rest/services/Wycombe/wdc_local_plans/MapServer/0"},"confidence":0.98,"evidence_grade":"A_OFFICIAL_GIS_ADOPTED_HOUSING_DM21","fake_data":false}},{"type":"Feature","id":"development-policy-area:local-authority-eng:BUC:LPD21P:2021-01-08","geometry":{"type":"MultiPolygon","coordinates":[[[[-0.791121,51.61862],[-0.790891,51.618603],[-0.790922,51.618435],[-0.791151,51.618451],[-0.791121,51.61862]]]]},"properties":{"semantic_identity":"development-policy-area:local-authority-eng:BUC:LPD21P:2021-01-08","source_area_id":"LPD21P","source_area_type":"adopted_local_plan_housing_or_housing_led_mixed_use_allocation","name":"Garages at Havenfield Road High Wycombe","allocated_use":"Housing or housing-led mixed-use policy allocation; construction status not inferred","policy":"DM21; Appendix D","organisation":"local-authority-eng:BUC","source_url":"https://github.com/digital-land/development-policy-area/blob/111f7b992aa0c7efe39611b4003607141631a4f2/docs/local-authority-eng/BUC/LPD21P/geometry.geojson","source_final_url":"https://raw.githubusercontent.com/digital-land/development-policy-area/111f7b992aa0c7efe39611b4003607141631a4f2/docs/local-authority-eng/BUC/LPD21P/geometry.geojson","http_status":200,"source_data_date":"2021-01-08","plan_adopted_date":"2019-08","source_version":"111f7b992aa0c7efe39611b4003607141631a4f2:git-blob:1151aa07d5acffcc232cc453f4d7902916ccf4be","licence":"Open Government Licence v3.0 (Digital Land repository; source-specific rights apply)","source_sha256":"2be685609dc5413cdefdbe3eaeea94123aabcea24f6f93b68b2ffcf2ba905b0e","evidence_slice_sha256":"7b86daa0a657bcef2696dd20cb4c5fb54473a0c2c842a691ab34194ffd111f35","field_evidence":{"geometry":"docs/local-authority-eng/BUC/LPD21P/geometry.geojson:geometry","identifier":"docs/local-authority-eng/BUC/LPD21P/geometry.geojson:properties.geography","site_name":"docs/local-authority-eng/BUC/LPD21P/geometry.geojson:properties.name","source_date":"docs/local-authority-eng/BUC/LPD21P/geometry.geojson:properties.entry-date","housing_policy":"https://www.buckinghamshire.gov.uk/documents/9736/Wycombe-District-Local-Plan-Adopted-August-2019-accessible.pdf#Appendix_D","official_map":"https://maps.buckinghamshire.gov.uk/server/rest/services/Wycombe/wdc_local_plans/MapServer/0"},"confidence":0.98,"evidence_grade":"A_OFFICIAL_GIS_ADOPTED_HOUSING_DM21","fake_data":false}},{"type":"Feature","id":"development-policy-area:local-authority-eng:BUC:LPD21Q:2021-01-08","geometry":{"type":"MultiPolygon","coordinates":[[[[-0.76474,51.634002],[-0.764505,51.633886],[-0.764445,51.633876],[-0.764563,51.633783],[-0.764843,51.633922],[-0.76474,51.634002]]]]},"properties":{"semantic_identity":"development-policy-area:local-authority-eng:BUC:LPD21Q:2021-01-08","source_area_id":"LPD21Q","source_area_type":"adopted_local_plan_housing_or_housing_led_mixed_use_allocation","name":"1-9 Shaftesbury Street High Wycombe","allocated_use":"Housing or housing-led mixed-use policy allocation; construction status not inferred","policy":"DM21; Appendix D","organisation":"local-authority-eng:BUC","source_url":"https://github.com/digital-land/development-policy-area/blob/111f7b992aa0c7efe39611b4003607141631a4f2/docs/local-authority-eng/BUC/LPD21Q/geometry.geojson","source_final_url":"https://raw.githubusercontent.com/digital-land/development-policy-area/111f7b992aa0c7efe39611b4003607141631a4f2/docs/local-authority-eng/BUC/LPD21Q/geometry.geojson","http_status":200,"source_data_date":"2021-01-08","plan_adopted_date":"2019-08","source_version":"111f7b992aa0c7efe39611b4003607141631a4f2:git-blob:b83175f9beacaf869d5622e0cf79384abea48b49","licence":"Open Government Licence v3.0 (Digital Land repository; source-specific rights apply)","source_sha256":"fe920642f6a419b2b9e3a49a52794aa58db3f3dbd87997a5030c7dc9baac54f4","evidence_slice_sha256":"7b86daa0a657bcef2696dd20cb4c5fb54473a0c2c842a691ab34194ffd111f35","field_evidence":{"geometry":"docs/local-authority-eng/BUC/LPD21Q/geometry.geojson:geometry","identifier":"docs/local-authority-eng/BUC/LPD21Q/geometry.geojson:properties.geography","site_name":"docs/local-authority-eng/BUC/LPD21Q/geometry.geojson:properties.name","source_date":"docs/local-authority-eng/BUC/LPD21Q/geometry.geojson:properties.entry-date","housing_policy":"https://www.buckinghamshire.gov.uk/documents/9736/Wycombe-District-Local-Plan-Adopted-August-2019-accessible.pdf#Appendix_D","official_map":"https://maps.buckinghamshire.gov.uk/server/rest/services/Wycombe/wdc_local_plans/MapServer/0"},"confidence":0.98,"evidence_grade":"A_OFFICIAL_GIS_ADOPTED_HOUSING_DM21","fake_data":false}},{"type":"Feature","id":"development-policy-area:local-authority-eng:BUC:LPD21R:2021-01-08","geometry":{"type":"MultiPolygon","coordinates":[[[[-0.76899,51.575168],[-0.771475,51.574997],[-0.771496,51.57497],[-0.771681,51.575144],[-0.771816,51.575223],[-0.771134,51.575684],[-0.770556,51.576193],[-0.770272,51.576379],[-0.76899,51.575168]]]]},"properties":{"semantic_identity":"development-policy-area:local-authority-eng:BUC:LPD21R:2021-01-08","source_area_id":"LPD21R","source_area_type":"adopted_local_plan_housing_or_housing_led_mixed_use_allocation","name":"Foxes Piece Marlow Buckinghamshire","allocated_use":"Housing or housing-led mixed-use policy allocation; construction status not inferred","policy":"DM21; Appendix D","organisation":"local-authority-eng:BUC","source_url":"https://github.com/digital-land/development-policy-area/blob/111f7b992aa0c7efe39611b4003607141631a4f2/docs/local-authority-eng/BUC/LPD21R/geometry.geojson","source_final_url":"https://raw.githubusercontent.com/digital-land/development-policy-area/111f7b992aa0c7efe39611b4003607141631a4f2/docs/local-authority-eng/BUC/LPD21R/geometry.geojson","http_status":200,"source_data_date":"2021-01-08","plan_adopted_date":"2019-08","source_version":"111f7b992aa0c7efe39611b4003607141631a4f2:git-blob:c10a2f51cb6c50cbf7b3875d91658b92c324c196","licence":"Open Government Licence v3.0 (Digital Land repository; source-specific rights apply)","source_sha256":"6fa7e115f5a6076acd5ffbfd380bb7f8403e3f85d3b219f5bc68855c68e50089","evidence_slice_sha256":"7b86daa0a657bcef2696dd20cb4c5fb54473a0c2c842a691ab34194ffd111f35","field_evidence":{"geometry":"docs/local-authority-eng/BUC/LPD21R/geometry.geojson:geometry","identifier":"docs/local-authority-eng/BUC/LPD21R/geometry.geojson:properties.geography","site_name":"docs/local-authority-eng/BUC/LPD21R/geometry.geojson:properties.name","source_date":"docs/local-authority-eng/BUC/LPD21R/geometry.geojson:properties.entry-date","housing_policy":"https://www.buckinghamshire.gov.uk/documents/9736/Wycombe-District-Local-Plan-Adopted-August-2019-accessible.pdf#Appendix_D","official_map":"https://maps.buckinghamshire.gov.uk/server/rest/services/Wycombe/wdc_local_plans/MapServer/0"},"confidence":0.98,"evidence_grade":"A_OFFICIAL_GIS_ADOPTED_HOUSING_DM21","fake_data":false}},{"type":"Feature","id":"development-policy-area:local-authority-eng:BUC:LPD21S:2021-01-08","geometry":{"type":"MultiPolygon","coordinates":[[[[-0.799357,51.608279],[-0.799091,51.608804],[-0.797944,51.608878],[-0.797885,51.607377],[-0.797929,51.607375],[-0.798185,51.60836],[-0.799357,51.608279]]]]},"properties":{"semantic_identity":"development-policy-area:local-authority-eng:BUC:LPD21S:2021-01-08","source_area_id":"LPD21S","source_area_type":"adopted_local_plan_housing_or_housing_led_mixed_use_allocation","name":"Westside Fruit / The Apple Orchard Clay Lane High Wycombe","allocated_use":"Housing or housing-led mixed-use policy allocation; construction status not inferred","policy":"DM21; Appendix D","organisation":"local-authority-eng:BUC","source_url":"https://github.com/digital-land/development-policy-area/blob/111f7b992aa0c7efe39611b4003607141631a4f2/docs/local-authority-eng/BUC/LPD21S/geometry.geojson","source_final_url":"https://raw.githubusercontent.com/digital-land/development-policy-area/111f7b992aa0c7efe39611b4003607141631a4f2/docs/local-authority-eng/BUC/LPD21S/geometry.geojson","http_status":200,"source_data_date":"2021-01-08","plan_adopted_date":"2019-08","source_version":"111f7b992aa0c7efe39611b4003607141631a4f2:git-blob:45b999d2846614d1233022f535b43d99d6e10ba4","licence":"Open Government Licence v3.0 (Digital Land repository; source-specific rights apply)","source_sha256":"1d06ad130118ca84112761f2a3467d1356f3c1c439834ea0b4c3f7f7b268d353","evidence_slice_sha256":"7b86daa0a657bcef2696dd20cb4c5fb54473a0c2c842a691ab34194ffd111f35","field_evidence":{"geometry":"docs/local-authority-eng/BUC/LPD21S/geometry.geojson:geometry","identifier":"docs/local-authority-eng/BUC/LPD21S/geometry.geojson:properties.geography","site_name":"docs/local-authority-eng/BUC/LPD21S/geometry.geojson:properties.name","source_date":"docs/local-authority-eng/BUC/LPD21S/geometry.geojson:properties.entry-date","housing_policy":"https://www.buckinghamshire.gov.uk/documents/9736/Wycombe-District-Local-Plan-Adopted-August-2019-accessible.pdf#Appendix_D","official_map":"https://maps.buckinghamshire.gov.uk/server/rest/services/Wycombe/wdc_local_plans/MapServer/0"},"confidence":0.98,"evidence_grade":"A_OFFICIAL_GIS_ADOPTED_HOUSING_DM21","fake_data":false}},{"type":"Feature","id":"development-policy-area:local-authority-eng:BUC:LPD21T:2021-01-08","geometry":{"type":"MultiPolygon","coordinates":[[[[-0.750908,51.578483],[-0.750795,51.578498],[-0.750748,51.578373],[-0.750794,51.578261],[-0.750641,51.578161],[-0.750467,51.577907],[-0.750453,51.577836],[-0.750374,51.577823],[-0.750277,51.577886],[-0.749808,51.577611],[-0.751147,51.576991],[-0.751369,51.576949],[-0.751799,51.577134],[-0.752007,51.577032],[-0.752338,51.57727],[-0.75215,51.577366],[-0.752358,51.577578],[-0.752422,51.577723],[-0.752797,51.5779],[-0.75187,51.578192],[-0.75109,51.578383],[-0.750908,51.578483]]]]},"properties":{"semantic_identity":"development-policy-area:local-authority-eng:BUC:LPD21T:2021-01-08","source_area_id":"LPD21T","source_area_type":"adopted_local_plan_housing_or_housing_led_mixed_use_allocation","name":"Westhorpe House Westhorpe Park Little Marlow","allocated_use":"Housing or housing-led mixed-use policy allocation; construction status not inferred","policy":"DM21; Appendix D","organisation":"local-authority-eng:BUC","source_url":"https://github.com/digital-land/development-policy-area/blob/111f7b992aa0c7efe39611b4003607141631a4f2/docs/local-authority-eng/BUC/LPD21T/geometry.geojson","source_final_url":"https://raw.githubusercontent.com/digital-land/development-policy-area/111f7b992aa0c7efe39611b4003607141631a4f2/docs/local-authority-eng/BUC/LPD21T/geometry.geojson","http_status":200,"source_data_date":"2021-01-08","plan_adopted_date":"2019-08","source_version":"111f7b992aa0c7efe39611b4003607141631a4f2:git-blob:07d131d0ddd3f1c0f83e51b59ef66e99b1622f16","licence":"Open Government Licence v3.0 (Digital Land repository; source-specific rights apply)","source_sha256":"edaa7bcb779ab8915fac8912baa0fc12de7ec1d2b6a4f7b4ee23a87ca2b755e4","evidence_slice_sha256":"7b86daa0a657bcef2696dd20cb4c5fb54473a0c2c842a691ab34194ffd111f35","field_evidence":{"geometry":"docs/local-authority-eng/BUC/LPD21T/geometry.geojson:geometry","identifier":"docs/local-authority-eng/BUC/LPD21T/geometry.geojson:properties.geography","site_name":"docs/local-authority-eng/BUC/LPD21T/geometry.geojson:properties.name","source_date":"docs/local-authority-eng/BUC/LPD21T/geometry.geojson:properties.entry-date","housing_policy":"https://www.buckinghamshire.gov.uk/documents/9736/Wycombe-District-Local-Plan-Adopted-August-2019-accessible.pdf#Appendix_D","official_map":"https://maps.buckinghamshire.gov.uk/server/rest/services/Wycombe/wdc_local_plans/MapServer/0"},"confidence":0.98,"evidence_grade":"A_OFFICIAL_GIS_ADOPTED_HOUSING_DM21","fake_data":false}},{"type":"Feature","id":"development-policy-area:local-authority-eng:BUC:LPD21U:2021-01-08","geometry":{"type":"MultiPolygon","coordinates":[[[[-0.702408,51.637799],[-0.702343,51.637781],[-0.702242,51.637683],[-0.702825,51.637449],[-0.702981,51.637582],[-0.702408,51.637799]]]]},"properties":{"semantic_identity":"development-policy-area:local-authority-eng:BUC:LPD21U:2021-01-08","source_area_id":"LPD21U","source_area_type":"adopted_local_plan_housing_or_housing_led_mixed_use_allocation","name":"Sunnyside and St Johns House 16-18 St Johns Road High Wycombe","allocated_use":"Housing or housing-led mixed-use policy allocation; construction status not inferred","policy":"DM21; Appendix D","organisation":"local-authority-eng:BUC","source_url":"https://github.com/digital-land/development-policy-area/blob/111f7b992aa0c7efe39611b4003607141631a4f2/docs/local-authority-eng/BUC/LPD21U/geometry.geojson","source_final_url":"https://raw.githubusercontent.com/digital-land/development-policy-area/111f7b992aa0c7efe39611b4003607141631a4f2/docs/local-authority-eng/BUC/LPD21U/geometry.geojson","http_status":200,"source_data_date":"2021-01-08","plan_adopted_date":"2019-08","source_version":"111f7b992aa0c7efe39611b4003607141631a4f2:git-blob:8e8ed7a32bc260d729975961017613b4b8988182","licence":"Open Government Licence v3.0 (Digital Land repository; source-specific rights apply)","source_sha256":"fcac78eeea231a9947d22ed1f9202b4b14887347cd3abc3e230a78de9d15c4aa","evidence_slice_sha256":"7b86daa0a657bcef2696dd20cb4c5fb54473a0c2c842a691ab34194ffd111f35","field_evidence":{"geometry":"docs/local-authority-eng/BUC/LPD21U/geometry.geojson:geometry","identifier":"docs/local-authority-eng/BUC/LPD21U/geometry.geojson:properties.geography","site_name":"docs/local-authority-eng/BUC/LPD21U/geometry.geojson:properties.name","source_date":"docs/local-authority-eng/BUC/LPD21U/geometry.geojson:properties.entry-date","housing_policy":"https://www.buckinghamshire.gov.uk/documents/9736/Wycombe-District-Local-Plan-Adopted-August-2019-accessible.pdf#Appendix_D","official_map":"https://maps.buckinghamshire.gov.uk/server/rest/services/Wycombe/wdc_local_plans/MapServer/0"},"confidence":0.98,"evidence_grade":"A_OFFICIAL_GIS_ADOPTED_HOUSING_DM21","fake_data":false}},{"type":"Feature","id":"development-policy-area:local-authority-eng:BUC:LPD21V:2021-01-08","geometry":{"type":"MultiPolygon","coordinates":[[[[-0.7051,51.660777],[-0.702843,51.661222],[-0.700415,51.659554],[-0.698874,51.660197],[-0.695192,51.657638],[-0.697513,51.657069],[-0.698357,51.657664],[-0.699967,51.657191],[-0.7051,51.660777]]]]},"properties":{"semantic_identity":"development-policy-area:local-authority-eng:BUC:LPD21V:2021-01-08","source_area_id":"LPD21V","source_area_type":"adopted_local_plan_housing_or_housing_led_mixed_use_allocation","name":"Land of Amersham Road incl. Tralee Farm","allocated_use":"Housing or housing-led mixed-use policy allocation; construction status not inferred","policy":"DM21; Appendix D","organisation":"local-authority-eng:BUC","source_url":"https://github.com/digital-land/development-policy-area/blob/111f7b992aa0c7efe39611b4003607141631a4f2/docs/local-authority-eng/BUC/LPD21V/geometry.geojson","source_final_url":"https://raw.githubusercontent.com/digital-land/development-policy-area/111f7b992aa0c7efe39611b4003607141631a4f2/docs/local-authority-eng/BUC/LPD21V/geometry.geojson","http_status":200,"source_data_date":"2021-01-08","plan_adopted_date":"2019-08","source_version":"111f7b992aa0c7efe39611b4003607141631a4f2:git-blob:87341d105693efa2948241fba8ba82550529e202","licence":"Open Government Licence v3.0 (Digital Land repository; source-specific rights apply)","source_sha256":"a6d9674490053e6c7804f65961645fed973cb08401cba980c1f5d862d549b2c7","evidence_slice_sha256":"7b86daa0a657bcef2696dd20cb4c5fb54473a0c2c842a691ab34194ffd111f35","field_evidence":{"geometry":"docs/local-authority-eng/BUC/LPD21V/geometry.geojson:geometry","identifier":"docs/local-authority-eng/BUC/LPD21V/geometry.geojson:properties.geography","site_name":"docs/local-authority-eng/BUC/LPD21V/geometry.geojson:properties.name","source_date":"docs/local-authority-eng/BUC/LPD21V/geometry.geojson:properties.entry-date","housing_policy":"https://www.buckinghamshire.gov.uk/documents/9736/Wycombe-District-Local-Plan-Adopted-August-2019-accessible.pdf#Appendix_D","official_map":"https://maps.buckinghamshire.gov.uk/server/rest/services/Wycombe/wdc_local_plans/MapServer/0"},"confidence":0.98,"evidence_grade":"A_OFFICIAL_GIS_ADOPTED_HOUSING_DM21","fake_data":false}},{"type":"Feature","id":"development-policy-area:local-authority-eng:BUC:LPD21W:2021-01-08","geometry":{"type":"MultiPolygon","coordinates":[[[[-0.839339,51.724193],[-0.839925,51.723664],[-0.840345,51.723346],[-0.841917,51.722305],[-0.842631,51.721694],[-0.843298,51.721069],[-0.843429,51.721113],[-0.843827,51.721523],[-0.843845,51.722844],[-0.84387,51.722858],[-0.84396,51.723896],[-0.844006,51.72415],[-0.84436,51.725093],[-0.845295,51.726635],[-0.845923,51.727433],[-0.846445,51.727984],[-0.84764,51.728919],[-0.848858,51.729688],[-0.849658,51.730144],[-0.851589,51.731017],[-0.854077,51.732038],[-0.854647,51.73224],[-0.854286,51.732387],[-0.853693,51.732745],[-0.852351,51.73386],[-0.852296,51.733917],[-0.852318,51.733931],[-0.852166,51.73403],[-0.85181,51.734223],[-0.851483,51.734354],[-0.851063,51.7344],[-0.850917,51.734472],[-0.851004,51.734544],[-0.851009,51.734584],[-0.850764,51.734749],[-0.84888,51.735666],[-0.847601,51.736419],[-0.846092,51.73717],[-0.845339,51.737453],[-0.844467,51.737695],[-0.842539,51.738093],[-0.840985,51.7385],[-0.840297,51.738642],[-0.839687,51.738716],[-0.839491,51.738778],[-0.83936,51.738879],[-0.839033,51.73901],[-0.836502,51.740276],[-0.83419,51.741388],[-0.830203,51.739626],[-0.831828,51.73823],[-0.830283,51.737609],[-0.832202,51.735977],[-0.831298,51.735437],[-0.83079,51.735012],[-0.83012,51.734748],[-0.830158,51.73475],[-0.830244,51.73467],[-0.830246,51.734633],[-0.830657,51.734152],[-0.831358,51.733395],[-0.834058,51.730227],[-0.834651,51.729601],[-0.835134,51.728982],[-0.835265,51.728876],[-0.836733,51.727101],[-0.837501,51.726317],[-0.839339,51.724193]]]]},"properties":{"semantic_identity":"development-policy-area:local-authority-eng:BUC:LPD21W:2021-01-08","source_area_id":"LPD21W","source_area_type":"adopted_local_plan_housing_or_housing_led_mixed_use_allocation","name":"Princes Risborough Main Expansion Area","allocated_use":"Housing or housing-led mixed-use policy allocation; construction status not inferred","policy":"DM21; Appendix D","organisation":"local-authority-eng:BUC","source_url":"https://github.com/digital-land/development-policy-area/blob/111f7b992aa0c7efe39611b4003607141631a4f2/docs/local-authority-eng/BUC/LPD21W/geometry.geojson","source_final_url":"https://raw.githubusercontent.com/digital-land/development-policy-area/111f7b992aa0c7efe39611b4003607141631a4f2/docs/local-authority-eng/BUC/LPD21W/geometry.geojson","http_status":200,"source_data_date":"2021-01-08","plan_adopted_date":"2019-08","source_version":"111f7b992aa0c7efe39611b4003607141631a4f2:git-blob:912a05b6738ec6b170b22f22d125a6dd2d7b70e2","licence":"Open Government Licence v3.0 (Digital Land repository; source-specific rights apply)","source_sha256":"e5934f05ffe4ee56c85041dca5bdc3d7431183943761c5f4268faa9207187763","evidence_slice_sha256":"7b86daa0a657bcef2696dd20cb4c5fb54473a0c2c842a691ab34194ffd111f35","field_evidence":{"geometry":"docs/local-authority-eng/BUC/LPD21W/geometry.geojson:geometry","identifier":"docs/local-authority-eng/BUC/LPD21W/geometry.geojson:properties.geography","site_name":"docs/local-authority-eng/BUC/LPD21W/geometry.geojson:properties.name","source_date":"docs/local-authority-eng/BUC/LPD21W/geometry.geojson:properties.entry-date","housing_policy":"https://www.buckinghamshire.gov.uk/documents/9736/Wycombe-District-Local-Plan-Adopted-August-2019-accessible.pdf#Appendix_D","official_map":"https://maps.buckinghamshire.gov.uk/server/rest/services/Wycombe/wdc_local_plans/MapServer/0"},"confidence":0.98,"evidence_grade":"A_OFFICIAL_GIS_ADOPTED_HOUSING_DM21","fake_data":false}}],"properties":{"state":"SOURCE_AREAS_PRODUCED_LOCAL_BINDING_PENDING","source_area_count":145,"source_area_count_delta":13,"accepted_count":0,"duplicate_count":0,"rejected_count":0,"unmatched_count":13,"materialized_parcel_count":0,"direct_parcel_count":0,"verified_no_building_count":0,"unprocessed_count":13,"planned_building_count":0,"producer_before_count":132,"producer_delta":13,"producer_after_count":145,"cursor":"OFFICIAL_BUC_FUTURE_HOUSING:DM21_K_W:ebb84598864b5267","first_missing_criterion":"LOCAL_CANONICAL_PARCEL_IDENTIFIER_BINDING_MATERIALIZATION","fake_data":false}}
