{
  "type": "FeatureCollection",
  "features": [
    {
      "type": "Feature",
      "id": "planning-data:brownfield-site:1800357",
      "properties": {
        "slot_id": "future_growth_4",
        "lineage_id": "fg4-e4c9076d6f554f00",
        "page_generation": 1,
        "owner": "future_growth_4",
        "partition": "future_growth",
        "semantic_mode": "SOURCE_AREA_EXACT_IDENTIFIER",
        "batch_id": "20261009T113342Z_b042_BROWNFIELD_1800357",
        "dataset": "brownfield-site",
        "entity": 1800357,
        "reference": "RBG-63",
        "semantic_identity": "planning-data:brownfield-site:1800357",
        "name": "“The Albion PH, 48 Woolwich Church St Woolwich“",
        "organisation": "Royal Borough of Greenwich",
        "source_url": "https://www.planning.data.gov.uk/entity/1800357",
        "final_url": "https://www.planning.data.gov.uk/entity/1800357",
        "http_status": "OFFICIAL_HTML_RETRIEVED_GEOJSON_CACHE_MISS",
        "access_utc": "2026-10-09T11:33:42.312Z",
        "data_date": "2020-12-22",
        "license": "Open Government Licence v3.0",
        "field_evidence": {
          "entry-date": "2020-12-22",
          "start-date": "",
          "end-date": "",
          "entity": 1800357,
          "name": "“The Albion PH, 48 Woolwich Church St Woolwich“",
          "dataset": "brownfield-site",
          "typology": "geography",
          "reference": "RBG-63",
          "prefix": "brownfield-site",
          "organisation-entity": "150",
          "geometry": "MULTIPOLYGON (((0.04839 51.492194, 0.048384 51.492192, 0.048375 51.492082, 0.0484 51.492076, 0.048404 51.492048, 0.048475 51.492051, 0.048477 51.492063, 0.0485 51.492063, 0.048504 51.492074, 0.048524 51.492074, 0.048528 51.492168, 0.048517 51.49218, 0.048487 51.492184, 0.048485 51.492194, 0.04839 51.492194)))",
          "point": "POINT (0.048451 51.492125)",
          "quality": "some",
          "notes": "“Not started.",
          "brownfield-site": "RBG-63"
        },
        "evidence_slice_sha256": "a7c34bdf6c121621dce4e454fc77f096f8fb4e86152060b82e47be3735d70c47",
        "geometry_sha256": "68c661418800e5d46e4b75282855673aefde8b49ec95265ae20e7eee030953c5",
        "confidence_score_0_100": 80,
        "confidence": 0.8,
        "evidence_grade": "B",
        "exact_identifier_provided": false,
        "coverage_polygon_provided": true,
        "fake_data": false,
        "join_mode": "LOCAL_OPENCODE_SPATIAL_JOIN_PENDING",
        "direct_parcel": false,
        "source_area_count_contribution": 1,
        "planned_building_count_contribution": 0
      },
      "geometry": {
        "type": "MultiPolygon",
        "coordinates": [
          [
            [
              [
                0.04839,
                51.492194
              ],
              [
                0.048384,
                51.492192
              ],
              [
                0.048375,
                51.492082
              ],
              [
                0.0484,
                51.492076
              ],
              [
                0.048404,
                51.492048
              ],
              [
                0.048475,
                51.492051
              ],
              [
                0.048477,
                51.492063
              ],
              [
                0.0485,
                51.492063
              ],
              [
                0.048504,
                51.492074
              ],
              [
                0.048524,
                51.492074
              ],
              [
                0.048528,
                51.492168
              ],
              [
                0.048517,
                51.49218
              ],
              [
                0.048487,
                51.492184
              ],
              [
                0.048485,
                51.492194
              ],
              [
                0.04839,
                51.492194
              ]
            ]
          ]
        ]
      }
    }
  ]
}
