{"type":"FeatureCollection","features":[{"type":"Feature","geometry":null,"properties":{"slot_id":"future_growth_1","lineage_id":"future_growth_1-newstart-20260927T153100+0300","page_generation":null,"accepted_as_parcel":false,"source_area_count_contribution":1,"exact_identifier":"18/0481/OUT|S/1231/18/OL","exact_identifier_provided":true,"coverage_polygon_provided":false,"identifier_namespace":"Joint outline planning permission references for Land North of Cherry Hinton","site_name":"Land North of Cherry Hinton","access_utc":"2026-10-04T03:43:00Z","data_date":"2025-10-15","source_url":"https://democracy.cambridge.gov.uk/ieListDocuments.aspx?CId=540&MId=4668","final_url":"https://democracy.cambridge.gov.uk/ieListDocuments.aspx?CId=540&MId=4668","agenda_pack_url":"https://democracy.cambridge.gov.uk/documents/g4668/Public%20reports%20pack%2015th-Oct-2025%2010.00%20Joint%20Development%20Management%20Committee.pdf?T=10","minutes_pack_url":"https://democracy.cambridge.gov.uk/documents/g4670/Public%2Breports%2Bpack%2B17th-Dec-2025%2B10.00%2BJoint%2BDevelopment%2BManagement%2BCommittee.pdf?T=10","license":"Public council committee record; document-specific reuse licence not stated on the source page","authority":"Cambridge City Council / South Cambridgeshire District Council","committee_item":"25/23/JDMC","reserved_matters_stage":"Reserved Matters (6)","reserved_matters_homes":355,"intended_new_full_application_additional_dwellings":350,"applicant":"Bellway Latimer LLP","evidence_grade":"A","confidence_score_0_100":99,"evidence_scope":"exact outline planning permission references plus official JDMC active Reserved Matters pre-application briefing and published minutes","evidence_slice_sha256":"3fab32bf0a82378176d063eeb0913e39e8fbea7cf0bea4d7a71f420765fa4c56","fake_data":false,"spatial_binding_method":"official outline permission references 18/0481/OUT and S/1231/18/OL tied to active Reserved Matters (6) briefing; exact boundary resolution, canonical parcel spatial join and materialization delegated to local OpenCode","planned_building_count_contribution":0}}]}