{"type":"FeatureCollection","features":[{"type":"Feature","geometry":null,"properties":{"slot_id":"future_growth_1","lineage_id":"future_growth_1-newstart-20260927T153100+0300","page_generation":null,"accepted_as_parcel":false,"source_area_count_contribution":1,"exact_identifier":"Old Kent Road Opportunity Area","exact_identifier_provided":true,"coverage_polygon_provided":false,"identifier_namespace":"GLA Opportunity Area name","access_utc":"2026-10-01T03:35:00Z","data_date":"2026-01","source_url":"https://www.london.gov.uk/programmes-strategies/planning/implementing-london-plan/londons-opportunity-areas/oa-locations/old-kent-road-opportunity-area","final_url":"https://www.london.gov.uk/programmes-strategies/planning/implementing-london-plan/londons-opportunity-areas/oa-locations/old-kent-road-opportunity-area","supporting_official_source":"https://data.london.gov.uk/download/2rjko/9kv/AMR%2021%20January%202026.pdf","authority":"Greater London Authority","boroughs":"LB Southwark","designation_year":2016,"growth_corridor":"Bakerloo Line Extension","boundary_policy_status":"Adopted","indicative_capacity_homes_2041":12000,"indicative_capacity_jobs_2041":5000,"confidence_score_0_100":98,"evidence_grade":"A","evidence_scope":"exact_official_identifier","fake_data":false,"spatial_binding_method":"official exact Opportunity Area identifier; canonical geometry resolution, parcel spatial join and materialization delegated to local OpenCode","planned_building_count_contribution":0}}]}
