{"type":"FeatureCollection","features":[{"type":"Feature","id":"peak-district-brownfield-land-register-featureserver:2786eba5fec6433c93ada0d94565a72e:432","geometry":null,"properties":{"slot_id":"future_growth_4","lineage_id":"fg4-e4c9076d6f554f00","page_generation":1,"owner":"future_growth_4","partition":"future_growth","semantic_mode":"SOURCE_AREA_EXACT_IDENTIFIER","dataset":"peak-district-brownfield-land-register-featureserver","entity":"2786eba5fec6433c93ada0d94565a72e:432","reference":"2786eba5fec6433c93ada0d94565a72e:432","quality":"authoritative","organisation":"Peak District National Park Authority","name":"Brownfield Land Register layer 432","source_url":"https://www.peakdistrict.gov.uk/planning/open-digital-planning/brownfield","final_url":"https://services5.arcgis.com/C36oYlzCOmDbFbhM/ArcGIS/rest/services/Brownfield_Land_Register/FeatureServer/432","access_utc":"2026-10-05T10:17:00Z","data_date":"2026-07-20","license":"Open Government Licence v3.0; attribution: © Peak District National Park Authority, 2026, OGL v3.0","field_evidence":{"reference":"2786eba5fec6433c93ada0d94565a72e:432","layer_name":"Brownfield Land Register","layer_id":432,"service_item_id":"2786eba5fec6433c93ada0d94565a72e","display_field":"SiteReference","geometry_type":"esriGeometryPolygon","supported_query_formats":["JSON","geoJSON","PBF"],"spatial_reference":27700,"extent":{"xmin":426187.409,"ymin":385595.460100001,"xmax":426872.7367,"ymax":391732.907},"site_reference_field":"SiteReference","site_name_address_field":"SiteNameAddress","hectares_field":"Hectares","data_last_edit_date":"2026-07-20"},"evidence_slice_sha256":"50622a1393e9966cae437dee62fb40140b8689a1ff27b57564eef58397077703","confidence_score_0_100":99,"confidence":0.99,"evidence_grade":"A","exact_identifier_provided":true,"coverage_polygon_provided":false,"source_layer_geometry_type":"esriGeometryPolygon","fake_data":false,"join_mode":"LOCAL_OPENCODE_SPATIAL_JOIN_PENDING","direct_parcel":false,"source_area_count_contribution":1,"planned_building_count_contribution":0}}]}