{"features":[{"geometry":{"type":"MultiPolygon","coordinates":[[[[-0.088608,51.484434],[-0.087938,51.483448],[-0.082693,51.485105],[-0.082626,51.485166],[-0.082577,51.485269],[-0.082591,51.485343],[-0.085176,51.487502],[-0.086077,51.487054],[-0.08652,51.487446],[-0.086626,51.487394],[-0.086637,51.487367],[-0.086631,51.487286],[-0.086705,51.487173],[-0.087016,51.486999],[-0.087132,51.486947],[-0.087308,51.48689],[-0.088018,51.486557],[-0.088838,51.486205],[-0.089448,51.486048],[-0.089068,51.485281],[-0.088232,51.48565],[-0.087641,51.485899],[-0.086769,51.485169],[-0.087873,51.484771],[-0.088679,51.48453],[-0.088608,51.484434]]]]},"properties":{"accepted_as_parcel":false,"access_utc":"2026-10-02T00:39:18Z","confidence":0.99,"confidence_score_0_100":99,"coverage_polygon_provided":true,"data_date":"2025-05-21","dataset":"article-4-direction-area","evidence_grade":"A_OFFICIAL_COVERAGE_POLYGON","evidence_slice_sha256":"aafbdcdca93480926a18eeda39ce9f527cd0d27e46d508e7f64402f81c493738","exact_identifier":"128","exact_identifier_provided":true,"fake_data":false,"field_evidence":{"dataset":"article-4-direction-area","entity":7010003544,"entry_date":"2025-05-21","geometry":"MULTIPOLYGON (((-0.088608 51.484434, -0.087938 51.483448, -0.082693 51.485105, -0.082626 51.485166, -0.082577 51.485269, -0.082591 51.485343, -0.085176 51.487502, -0.086077 51.487054, -0.08652 51.487446, -0.086626 51.487394, -0.086637 51.487367, -0.086631 51.487286, -0.086705 51.487173, -0.087016 51.486999, -0.087132 51.486947, -0.087308 51.48689, -0.088018 51.486557, -0.088838 51.486205, -0.089448 51.486048, -0.089068 51.485281, -0.088232 51.48565, -0.087641 51.485899, -0.086769 51.485169, -0.087873 51.484771, -0.088679 51.48453, -0.088608 51.484434)))","name":"Site allocation NSP01: Aylesbury Phase 4a-c","notes":"Change of use from Class E to residential is restricted","organisation":"London Borough of Southwark","point":"POINT (-0.086012 51.485549)","quality":"authoritative","reference":"128","typology":"geography"},"final_url":"https://www.planning.data.gov.uk/entity/7010003544","identifier_namespace":"article-4-direction-area","license":"Open Government Licence v3.0","lineage_id":"future_growth_ 9-newstart-20261001T204400Z","official_entity_id":7010003544,"official_reference":"128","organisation":"London Borough of Southwark","owner":"cagdas aydin","page_generation":1,"partition":"plan0","publisher":"Planning Data / Ministry of Housing, Communities & Local Government","semantic_mode":"SOURCE_AREA_EXACT_IDENTIFIER","sha256":"aafbdcdca93480926a18eeda39ce9f527cd0d27e46d508e7f64402f81c493738","sha256_scope":"normalized_evidence_slice","slot_id":"future_growth_ 9","source_area_count_contribution":1,"source_url":"https://www.planning.data.gov.uk/entity/7010003544","spatial_binding_method":"official authoritative coverage polygon; canonical parcel spatial join/materialization delegated to local OpenCode"},"type":"Feature"}],"name":"future_growth_ 9","type":"FeatureCollection"}