{"type":"FeatureCollection","features":[{"type":"Feature","properties":{"slot_id":"building_type_3","lineage_id":"building_type_3-new-20260927T1328+0300","batch_id":"BT3-P102G61-20261007-PLANNINGDATA-LBO42169169","cursor":"BT3-P102G61-20261007-PLANNINGDATA-LBO42169169-p102","building_state":"BUILDING_PRESENT","source_record_id":"listed-building-outline:1067165","entity":42169169,"reference":"1067165","name":"Christ Church","building_type_use":"church","type_use_evidence":"official_name=Christ Church","dataset":"listed-building-outline","quality":"authoritative","start_date":"1975-03-10","entry_date":"1975-03-10","organisation":"Stockport Metropolitan Borough Council","listed_building":"1067165","source_url":"https://www.planning.data.gov.uk/entity/42169169","final_url":"https://www.planning.data.gov.uk/entity/42169169","source_version":"Planning Data listed-building-outline entity 42169169 reference 1067165; authoritative Stockport Metropolitan Borough Council; entry-date 1975-03-10; name Christ Church","access_utc":"2026-10-07T05:55:04Z","data_date":"start-date 1975-03-10; entry-date 1975-03-10","license":"Open Government Licence v3.0; © Crown copyright and database right 2026","source_file_sha256":"2eb4200cd0a339648a9cb0af2adb31ccaf9b0fa5470bbffcfae210e50a7c823c","evidence_slice_sha256":"9fa9a7caf7516c88f181e1969ef28c7a30738d7c64dcd5162a7e3873384a37ab","field_evidence":["entity","reference","name","dataset","organisation","start-date","entry-date","geometry","listed-building"],"confidence_score_0_100":99,"evidence_grade":"A_OFFICIAL_GOVERNMENT_BUILDING_OUTLINE_AND_NAMED_TYPE_USE","fake_data":false},"geometry":{"type":"MultiPolygon","coordinates":[[[[-2.167729,53.414463],[-2.167729,53.414468],[-2.167743,53.414468],[-2.167743,53.414462],[-2.167753,53.414463],[-2.167753,53.414457],[-2.167743,53.414456],[-2.167746,53.414414],[-2.167817,53.414416],[-2.167816,53.414425],[-2.167829,53.414425],[-2.16783,53.414415],[-2.167841,53.414415],[-2.167841,53.414406],[-2.167831,53.414407],[-2.167833,53.414367],[-2.167843,53.414367],[-2.167844,53.414359],[-2.167834,53.414359],[-2.167834,53.414351],[-2.167821,53.414351],[-2.16782,53.414358],[-2.16775,53.414357],[-2.167751,53.414319],[-2.167761,53.414319],[-2.167761,53.414311],[-2.167751,53.41431],[-2.167752,53.414304],[-2.167738,53.414304],[-2.167737,53.41431],[-2.167681,53.414309],[-2.167681,53.414303],[-2.167668,53.414302],[-2.167661,53.414466],[-2.167672,53.414467],[-2.167673,53.414462],[-2.167729,53.414463]]]]}}]}
