{
  "features": [
    {
      "geometry": null,
      "id": "leicestershire:NC04",
      "properties": {
        "accepted_as_parcel": false,
        "access_utc": "2026-10-02T12:57:00Z",
        "canonical_binding": "LOCAL_OPENCODE_PENDING_NOT_CLAIMED",
        "confidence_score_0_100": 95,
        "data_date": "2026-10-02 access snapshot; documentation example undated",
        "direct_parcel": false,
        "evidence_grade": "A_OFFICIAL_API_DOCUMENTATION_EXACT_IDENTIFIER",
        "fake_data": false,
        "force_id": "leicestershire",
        "identifier": "NC04",
        "identifier_field": "id",
        "identifier_version": "data.police.uk force-specific neighbourhood identifier",
        "name": "City Centre",
        "record_type": "SOURCE_AREA_EXACT_IDENTIFIER",
        "source_area_counted": true,
        "source_url": "https://data.police.uk/docs/method/neighbourhoods/"
      },
      "type": "Feature"
    },
    {
      "geometry": null,
      "id": "leicestershire:NC66",
      "properties": {
        "accepted_as_parcel": false,
        "access_utc": "2026-10-02T12:57:00Z",
        "canonical_binding": "LOCAL_OPENCODE_PENDING_NOT_CLAIMED",
        "confidence_score_0_100": 95,
        "data_date": "2026-10-02 access snapshot; documentation example undated",
        "direct_parcel": false,
        "evidence_grade": "A_OFFICIAL_API_DOCUMENTATION_EXACT_IDENTIFIER",
        "fake_data": false,
        "force_id": "leicestershire",
        "identifier": "NC66",
        "identifier_field": "id",
        "identifier_version": "data.police.uk force-specific neighbourhood identifier",
        "name": "Cultural Quarter",
        "record_type": "SOURCE_AREA_EXACT_IDENTIFIER",
        "source_area_counted": true,
        "source_url": "https://data.police.uk/docs/method/neighbourhoods/"
      },
      "type": "Feature"
    },
    {
      "geometry": null,
      "id": "leicestershire:NC67",
      "properties": {
        "accepted_as_parcel": false,
        "access_utc": "2026-10-02T12:57:00Z",
        "canonical_binding": "LOCAL_OPENCODE_PENDING_NOT_CLAIMED",
        "confidence_score_0_100": 95,
        "data_date": "2026-10-02 access snapshot; documentation example undated",
        "direct_parcel": false,
        "evidence_grade": "A_OFFICIAL_API_DOCUMENTATION_EXACT_IDENTIFIER",
        "fake_data": false,
        "force_id": "leicestershire",
        "identifier": "NC67",
        "identifier_field": "id",
        "identifier_version": "data.police.uk force-specific neighbourhood identifier",
        "name": "Riverside",
        "record_type": "SOURCE_AREA_EXACT_IDENTIFIER",
        "source_area_counted": true,
        "source_url": "https://data.police.uk/docs/method/neighbourhoods/"
      },
      "type": "Feature"
    }
  ],
  "name": "security_public_safety_3",
  "properties": {
    "accepted_count": 0,
    "batch_id": "20261002T125700Z-police-docs-leicestershire-npt-000-002",
    "fake_data": false,
    "lineage_id": "L24-SPS3-57442c9c2a0f429be2d2",
    "page_generation": 1,
    "partition": {
      "count": 30761,
      "end": 92283,
      "start": 61523
    },
    "schema": "AAYS_LAYER24_EVIDENCE_V1",
    "slot_id": "security_public_safety_3",
    "source_area_count": 3
  },
  "type": "FeatureCollection"
}
