{"type":"FeatureCollection","features":[{"type":"Feature","id":"PLANNINGDATA_LBO_42184790","geometry":{"type":"MultiPolygon","coordinates":[[[[0.523833,51.27908],[0.524072,51.279205],[0.52395,51.279299],[0.523978,51.279313],[0.52395,51.279334],[0.523924,51.27932],[0.523757,51.279448],[0.523688,51.279412],[0.523671,51.279424],[0.52363,51.279403],[0.523645,51.279391],[0.523575,51.279356],[0.523836,51.279156],[0.523774,51.279124],[0.523833,51.27908]]]]},"properties":{"slot_id":"building_type_3","lineage_id":"building_type_3-new-20260927T1328+0300","batch_id":"BT3-P72G61-20261005-PLANNINGDATA-LBO42184790","cursor":"BT3-P72G61-20261005-PLANNINGDATA-LBO42184790-p72","building_state":"BUILDING_PRESENT","source_record_id":"reference=LB307;outline_entity=42184790","entity":42184790,"reference":"LB307","name":"CHAPEL OF THE GOOD SHEPHERD AT MAIDSTONE PRISON","building_type_use":"chapel","type_use_evidence":"official_name_exact=CHAPEL OF THE GOOD SHEPHERD AT MAIDSTONE PRISON","dataset":"listed-building-outline","quality":"authoritative","start_date":"1974-08-02","entry_date":"2010-06-23","organisation":"Maidstone Borough Council","source_url":"https://www.planning.data.gov.uk/entity/42184790","final_url":"https://www.planning.data.gov.uk/entity/42184790","source_version":"Planning Data listed-building-outline entity 42184790 reference LB307; authoritative Maidstone Borough Council record","access_utc":"2026-10-05T05:12:00Z","data_date":"2010-06-23","license":"Open Government Licence v3.0; © Crown copyright","source_file_sha256":"1f37200be0a7791fe07d8d7ee942ba5d21bd99afefe77ca792aa944a1ac2c368","evidence_slice_sha256":"b8d299f8e13deb4ecf67bf7bf60391c0c6f0c68b14054dd88eb54a9403cbf5b4","field_evidence":["entity","reference","name","quality","dataset","organisation","start-date","entry-date","geometry","point","notes","description","listed-building"],"confidence_score_0_100":99,"evidence_grade":"A_OFFICIAL_GOVERNMENT_BUILDING_OUTLINE_AND_NAMED_TYPE_USE","fake_data":false}}]}
