{"type":"FeatureCollection","features":[{"type":"Feature","id":"planned_buildings_2-gla-oa-poplar-riverside-2025","geometry":null,"properties":{"slot_id":"planned_buildings_2","source_dataset_id":"london_datastore_opportunity_area_pen_portraits_2025","source_index":1,"source_window_index":32,"official_site_key":"GLA-OA-2025-POPLAR-RIVERSIDE","canonical_record_key":"london-datastore:opportunity-area-pen-portraits-2025:poplar-riverside","planned_project_name":"Poplar Riverside Opportunity Area","planned_project_type":"opportunity_area_regeneration_masterplan","planned_project_status":"official_strategic_monitoring_record_2025","parcel_id":null,"planned_building_value":null,"planned_building_probability":null,"planned_building_complete_month":null,"planned_site_geometry":null,"matching_method":"direct_official_site_record_no_parcel_match","source_url":"https://data.london.gov.uk/dataset/opportunity-area-pen-portraits-emxwg/","source_resource_name":"2025_Poplar_Riverside_OA_PP.pdf","source_quality":"authoritative","source_license":"UK Open Government Licence (OGL v3)","demo_only":true,"fake_data":false,"final_ready":false,"production_merge":false,"generated_at":"2026-08-18T02:37:08Z"}}],"metadata":{"slot_id":"planned_buildings_2","batch_index":40,"source_index":1,"source_window":{"resource_index":32,"limit":1},"feature_count_before":404,"feature_count_after":405,"unique_real_site_project_before":245,"unique_real_site_project_after":246,"duplicate_count_new":0,"nearest_match_used":false,"parcel_match_used":false,"fake_data":false,"mirror_only":true}}