{"type":"FeatureCollection","features":[{"type":"Feature","geometry":{"type":"MultiPolygon","coordinates":[[[[-0.206517,51.53732],[-0.20585,51.537543],[-0.206102,51.53776],[-0.206719,51.537561],[-0.206517,51.53732]]]]},"properties":{"slot_id":"future_growth_3","lineage_id":"future_growth_3-newstart-20261001T203100Z","page_generation":null,"accepted_as_parcel":false,"source_area_count_contribution":1,"exact_identifier":"BR00112","exact_identifier_provided":true,"coverage_polygon_provided":true,"identifier_namespace":"Planning Data brownfield-land/brownfield-site reference","secondary_exact_identifier":"brownfield-land:1717243; brownfield-site:1801403","source_entity":"BR00112 - 111, Salusbury Road, NW6 6RG","access_utc":"2026-10-04T03:17:42Z","data_date":"2026-04-10","source_url":"https://www.planning.data.gov.uk/entity/1801403","final_url":"https://www.planning.data.gov.uk/entity/1801403","license":"Open Government Licence v3.0; attribution © Crown copyright and database right 2026.","authority":"London Borough of Brent","site_address":"111, Salusbury Road, NW6 6RG","field_evidence":{"reference":"BR00112","brownfield_land_entity":1717243,"brownfield_site_entity":1801403,"dataset":"Brownfield land + Brownfield site","organisation":"London Borough of Brent","brownfield_land_entry_date":"2026-04-10","brownfield_site_entry_date":"2020-12-22","site_address":"111, Salusbury Road, NW6 6RG","hectares":0.15,"deliverable":"yes","ownership_status":"mixed-ownership","minimum_net_dwellings":8,"maximum_net_dwellings":8,"planning_permission_date":"2020-06-26","planning_permission_type":"full-planning-permission","planning_permission_status":"permissioned","notes":"19/2408","site_plan_url":"https://maps.london.gov.uk/brownfield-site-register","brownfield_land_point":"POINT (-0.206272 51.537546)","brownfield_site_point":"POINT (-0.206297 51.537544)","geometry":"MULTIPOLYGON (((-0.206517 51.53732, -0.20585 51.537543, -0.206102 51.53776, -0.206719 51.537561, -0.206517 51.53732)))","brownfield_land_quality":"authoritative","brownfield_site_quality":"some"},"source_payload_sha256":"5c2078727785e7d75158a8258b18fdbec91cc371e8f47964596b6a755d52c212","source_payload_sha256_basis":"canonicalized official Planning Data BR00112 combined brownfield-land and brownfield-site evidence fields","evidence_slice_sha256":"9697bd5fa1428fa3fcf84cc7febaa2d4488fee726639f69924b6368fa180c128","evidence_grade":"A","confidence_score_0_100":99,"evidence_scope":"official_government_brownfield_site_multipolygon_linked_to_authoritative_brownfield_land_record","fake_data":false,"spatial_binding_method":"official Planning Data brownfield-site BR00112 / entity 1801403 MultiPolygon linked to authoritative brownfield-land entity 1717243; canonical parcel spatial join and materialization delegated to local OpenCode","planned_building_count_contribution":0}}]}