{"type":"FeatureCollection","features":[{"type":"Feature","id":"CHERWELL_25_00886_F_DETACHED_GARAGE_01","geometry":null,"properties":{"slot_id":"planned_buildings_4","owner":"planned_buildings_4","lineage_id":"pb4-8debc7c8ddf348a2","page_generation":1,"partition":"layer24","schema":"AAYS_LAYER24_EVIDENCE_V1","semantic_mode":"PLANNED_BUILDINGS_OFFICIAL_REFERENCE_DISTINCT_STRUCTURE","batch_id":"20261007T095748Z-cherwell-25-00886-f-window-001","publisher":"Cherwell District Council","source_family":"CHERWELL_PLANNING_REGISTER","source_url":"https://planningregister.cherwell.gov.uk/Planning/Display/25/00886/F","final_url":"https://planningregister.cherwell.gov.uk/Planning/Display/25/00886/F","access_utc":"2026-10-07T09:57:48Z","data_date":"2025-05-15","license":"Public planning register; document copyright/usage remains governed by council register terms","planning_reference":"25/00886/F","location":"95 St Anne's Road Banbury OX16 9DY","proposal":"Rear extension and detached garage","status":"Application Permitted","geometry_status":"NOT_MATERIALIZED_LOCAL_OPENCODE","field_evidence":"Official Cherwell District Council Planning Register application 25/00886/F. Application Type: Full Development. Status: Application Permitted. Valid date: 15/05/2025. Location: 95 St Anne's Road Banbury OX16 9DY. Proposal: Rear extension and detached garage. Decision: Permitted. Decision Issued Date: 21/08/2025. Official documents include amended Site Location/Block/Site Plans drawing P-25-046-001-A and Proposed elevations/floor plans drawing P-25-046-003-A. The detached garage is one distinct new planned structure. The rear extension forms part of the existing dwelling and is not counted as an additional distinct structure. Geometry/materialization is deferred to local OpenCode.","evidence_slice_sha256":"3bd9ddf2d0e0cc3a64925fd0287665f65285724b7d48a2d6263c30e4fd751052","confidence":0.99,"evidence_grade":"A_OFFICIAL_LOCAL_AUTHORITY_PLANNING_REGISTER_SINGLE_DETACHED_GARAGE_PERMITTED","fake_data":false,"source_record_id":"CHERWELL_25_00886_F_DETACHED_GARAGE_01","planned_building":"detached garage","official_plan_reference":"P-25-046-001-A; P-25-046-003-A","official_plan_description":"Site Location/Block/Site Plans; Proposed elevations/floor plans"}}]}
