{"type":"FeatureCollection","features":[{"type":"Feature","id":"colchester-preferred-options-local-plan:PP18","geometry":null,"properties":{"slot_id":"future_growth_4","lineage_id":"fg4-e4c9076d6f554f00","page_generation":1,"owner":"future_growth_4","partition":"future_growth","semantic_mode":"SOURCE_AREA_EXACT_IDENTIFIER","dataset":"colchester-preferred-options-local-plan-2025","entity":"PP18","reference":"PP18","quality":"authoritative","organisation":"Colchester City Council","name":"Land North of A120, Marks Tey Growth Area","source_url":"https://colchester.oc2.uk/document/81/5345","final_url":"https://colchester.oc2.uk/document/81/5345","access_utc":"2026-10-02T13:35:27Z","data_date":"2026-01-14","license":"Colchester City Council official consultation publication; no explicit reuse licence stated on page","field_evidence":{"policy_reference":"PP18","site_name":"Land North of A120, Marks Tey Growth Area","plan_stage":"Preferred Options Local Plan Regulation 18 Consultation 2025","consultation_end_date":"2026-01-14","development_type":"Garden Village scale mixed-use development","plan_period_dwellings_approx":1000,"policy_scope":"land to the south of the larger site identified on the policies map","infrastructure_note":"masterplanning with schools, community facilities and open space"},"evidence_slice_sha256":"cfa8aedaa2111c103409661a7f5cb817fddfd3e031219ae20b0cb0d5db3449b0","confidence_score_0_100":99,"confidence":0.99,"evidence_grade":"A","exact_identifier_provided":true,"coverage_polygon_provided":false,"coverage_geometry_available":true,"coverage_geometry_source":"official policy references the larger site identified on the policies map","fake_data":false,"join_mode":"LOCAL_OPENCODE_SPATIAL_JOIN_PENDING","direct_parcel":false,"source_area_count_contribution":1,"planned_building_count_contribution":0}}]}