{"type":"FeatureCollection","features":[{"type":"Feature","geometry":null,"properties":{"slot_id":"future_growth_ 2","lineage_id":"future_growth_ 2-newstart-20261001T203100Z","page_generation":1,"owner":"future_growth_ 2","partition":"future_growth","semantic_mode":"SOURCE_AREA_EXACT_IDENTIFIER","accepted_as_parcel":false,"source_area_count_contribution":1,"exact_identifier":"BLR2","exact_identifier_provided":true,"coverage_polygon_provided":false,"identifier_namespace":"London Borough of Bromley Brownfield Land Register site reference","access_utc":"2026-10-06T07:16:00Z","data_date":"not stated on source page","source_url":"https://www.bromley.gov.uk/downloads/file/668/brownfield-land-register","final_url":"https://www.bromley.gov.uk/downloads/file/668/brownfield-land-register","dataset_url":"https://www.bromley.gov.uk/downloads/file/668/brownfield-land-register","license":"not stated on source page","authority":"London Borough of Bromley","site_address":"Land adjacent to Bickley Station, BR1 2EB","hectares":0.9,"point":null,"maximum_net_dwellings":null,"minimum_net_dwellings":30,"planning_permission_status":"not-permissioned","confidence_score_0_100":99,"confidence":0.99,"evidence_grade":"A","evidence_scope":"official_exact_identifier","field_evidence":{"register":"Brownfield Land Register Part 1","reference":"BLR2","site_name":"Land adjacent to Bickley Station, BR1 2EB","ward":"Bickley","source":"LP Housing Trajectory/ LP Site Allocation/CFS","hectares":0.9,"deliverable":"Yes","planning_status":"Not permissioned","minimum_net_dwellings":30,"residential_development_description":"The site is allocated for around 30 residential units in Bromley's Local Plan.","non_housing_development":"The allocation also seeks to ensure the reprovision of car parking."},"evidence_slice_sha256":"11d3ee2a280b2126fe44efdcffb33fcd55c4ae292c03d2e0712a5f0dabf12527","fake_data":false,"spatial_binding_method":"exact official Bromley Brownfield Land Register site reference; canonical parcel spatial join/materialization delegated to local OpenCode","planned_building_count_contribution":0}}]}