{"type":"FeatureCollection","features":[{"type":"Feature","geometry":null,"properties":{"slot_id":"future_growth_7","lineage_id":"future_growth_7_open_source_v2_20260813","page_generation":null,"batch_id":"batch_20261004T142400Z_bfl1725950","official_entity_id":1725950,"official_reference":"WL007","dataset":"brownfield-land","organisation":"West Lancashire Borough Council","source_url":"https://www.planning.data.gov.uk/entity/1725950","final_url":"https://www.planning.data.gov.uk/entity/1725950","accessed_utc":"2026-10-04T14:24:00Z","data_date":"2020-12-23","licence":"Open Government Licence v3.0","source_sha256":"317c07a7a9a1a3ea96b964de1938a49a8cf4ddb0f737e57f2d95d1b3d9a37e4d","source_sha256_basis":"canonical_official_field_evidence_json","field_evidence":{"entry-date":"2020-12-23","start-date":"2016-08-04","end-date":"","entity":1725950,"name":"WL007","dataset":"brownfield-land","typology":"geography","reference":"WL007","prefix":"brownfield-land","organisation-entity":"371","geometry":"","point":"POINT (-2.836296 53.607522)","quality":"authoritative","notes":"Site promoted through SHELAA and was granted outline planning permission (2013/0517/OUT) for 6 residential dwellings, then outline permission for 2 dwellings (2017/0103/OUT) granted 28/3/2017. Application to vary conditions (2017/0351/FUL) approved 31/5/2017. No subsequent reserved matters or renewal application submitted, so planning permission has lapsed.","hectares":"0.51","deliverable":"yes","site-address":"Longreach Warpers Moss Lane, Burscough","ownership-status":"not-owned-by-a-public-authority","planning-permission-date":"2017-03-28","planning-permission-type":"outline-planning-permission","planning-permission-status":"not-permissioned","planning-permission-history":"https://pa.westlancs.gov.uk/online-applications/applicationDetails.do?activeTab=summary&keyVal=ONL36GRHJJE00","organisation-curie":"local-authority:WLA"},"evidence_slice_sha256":"529dbce2fb11851daf829d6e813218bd5fdc554d1039d5373a63fc439eb6afac","evidence_grade":"A_EXACT_OFFICIAL_IDENTIFIER","confidence_score_0_100":97,"official_geometry_available":false,"official_geometry_type":null,"source_geometry_materialized_here":false,"point_not_used_as_coverage":true,"source_area_basis":"exact official brownfield-land identifier; point not used as coverage","source_area_only":true,"fake_data":false}}]}
