{
  "type": "FeatureCollection",
  "features": [
    {
      "type": "Feature",
      "id": "rbkc-ward-map:Campden.pdf",
      "geometry": null,
      "properties": {
        "evidence_scope": "coverage_area",
        "coverage_area_id": "rbkc:ward-map:Campden.pdf",
        "coverage_area_name": "Campden Ward",
        "identifier_scheme": "RBKC_OFFICIAL_WARD_MAP_DOCUMENT",
        "exact_official_identifier": "Campden.pdf",
        "source_resolution": "RBKC_OFFICIAL_WARD_MAP_PDF",
        "coverage_evidence_type": "OFFICIAL_WARD_BOUNDARY_MAP",
        "time_window": "CURRENT_RBKC_MAP_INDEX_SNAPSHOT",
        "measurement_date": "2026-06-01",
        "measurement_method": "official RBKC current ward-map index plus Campden Ward map document",
        "spatial_binding_method": "BOUNDARY_DIGITISATION_OR_CANONICAL_PARCEL_JOIN_DEFERRED_TO_LOCAL_OPENCODE",
        "source_url": "https://www.rbkc.gov.uk/sites/default/files/pdfs/Campden.pdf",
        "final_url": "https://www.rbkc.gov.uk/sites/default/files/pdfs/Campden.pdf",
        "index_url": "https://www.rbkc.gov.uk/parks-leisure-and-culture/arts-and-culture/popular-local-maps",
        "accessed_at_utc": "2026-10-02T02:35:00Z",
        "data_date": "2026-06-01",
        "licence": "Crown copyright and database rights 2014 Ordnance Survey 100021668",
        "sha256": "0b4946756e37e6d2b3dd83cdb2377a1fcfbf1920dc20c4306e60c26738c4c073",
        "field_evidence": {
          "index_page_title": "Popular local maps",
          "index_last_updated": "2026-06-01",
          "index_section": "Ward maps with street listings",
          "index_entry": "Campden",
          "official_document_name": "Campden.pdf",
          "pdf_title": "Campden Ward",
          "pdf_boundary_visual": true,
          "pdf_map_produced_date": "2014-05-22",
          "pdf_map_producer": "Royal Borough of Kensington and Chelsea Property and Land Applications Team (PLAT)",
          "copyright_notice": "© Crown copyright and database rights 2014 Ordnance Survey 100021668",
          "index_url": "https://www.rbkc.gov.uk/parks-leisure-and-culture/arts-and-culture/popular-local-maps",
          "source_url": "https://www.rbkc.gov.uk/sites/default/files/pdfs/Campden.pdf",
          "accessed_at_utc": "2026-10-02T02:35:00Z"
        },
        "evidence_slice_sha256": "e2b524f39c6c7fb02f6fa015e6a02bd0a4c234a09e14e9664145c0b925b2bfb1",
        "confidence_score_0_100": 99,
        "evidence_grade": "A",
        "fake_data": false,
        "source_window_id": "rbkc_popular_local_maps_campden_pdf_sps5_20261002_v1",
        "cursor": "rbkc_popular_local_maps_campden_pdf_sps5_20261002_v1:record=1"
      }
    }
  ]
}
