{"type":"FeatureCollection","features":[{"type":"Feature","geometry":null,"properties":{"slot_id":"future_growth_3","lineage_id":"future_growth_3-newstart-20261001T203100Z","page_generation":null,"accepted_as_parcel":false,"source_area_count_contribution":1,"exact_identifier":"SA26","exact_identifier_provided":true,"coverage_polygon_provided":false,"identifier_namespace":"Planning Data brownfield-land reference","secondary_exact_identifier":"entity:1736606","source_entity":"SA26 - The Mall","access_utc":"2026-10-05T10:55:38Z","data_date":"2021-12-14","source_url":"https://www.planning.data.gov.uk/entity/1736606","final_url":"https://www.planning.data.gov.uk/entity/1736606","license":"Open Government Licence v3.0; attribution © Crown copyright and database right 2026.","authority":"London Borough of Waltham Forest","site_address":"The Mall","field_evidence":{"reference":"SA26","entity":1736606,"dataset":"Brownfield land","organisation":"London Borough of Waltham Forest","start_date":"2021-12-14","entry_date":"2021-12-14","site_address":"The Mall","point":"POINT (-0.003313 51.592594)","hectares":4.89,"deliverable":"yes","ownership_status":"owned-by-a-public-authority","minimum_net_dwellings":538,"maximum_net_dwellings":538,"planning_permission_status":"permissioned","site_plan_url":"https://maps.london.gov.uk/brownfield-site-register"},"source_payload_sha256":"62563be9c508fe876dec4ebbaa221b0d2f438179e1ac9b7a987a99730f4ce8ac","source_payload_sha256_basis":"canonicalized official Planning Data entity 1736606 / reference SA26 evidence fields","evidence_slice_sha256":"d0957c0804a154f397c88fc5e60d96a24a15cc5cc07b0633618e30f222ee5d90","evidence_grade":"A","confidence_score_0_100":99,"evidence_scope":"exact_official_identifier_from_authoritative_planning_data_brownfield_entity","fake_data":false,"spatial_binding_method":"official Planning Data brownfield reference SA26 / entity 1736606 and Greater London brownfield site register URL; canonical parcel spatial join and materialization delegated to local OpenCode","planned_building_count_contribution":0}}]}