{"type":"FeatureCollection","features":[{"type":"Feature","geometry":null,"properties":{"slot_id":"future_growth_1","lineage_id":"future_growth_1-newstart-20260927T153100+0300","page_generation":null,"accepted_as_parcel":false,"source_area_count_contribution":1,"exact_identifier":"H/47/2","exact_identifier_provided":true,"coverage_polygon_provided":false,"identifier_namespace":"North Dorset District-Wide Local Plan 2003 Policy 2.4 settlement allocation","site_name":"North of Livestock Market, Sturminster Newton","access_utc":"2026-10-04T06:03:00Z","data_date":"2016-01-15","source_url":"https://www.dorsetcouncil.gov.uk/planning-buildings-land/planning-policy/adopted-local-plans/north-dorset-adopted-local-plan","final_url":"https://www.dorsetcouncil.gov.uk/planning-buildings-land/planning-policy/adopted-local-plans/north-dorset-adopted-local-plan","policy_url":"https://www.dorsetcouncil.gov.uk/documents/35024/281327/North%2BDorset%2BLocal%2BPlan%2B2011-2026%2BPart%2B1%2BAppendices%2BA%2Bto%2BD.pdf/641a29e6-6ed2-3ea4-1fb4-025c48f72bec?t=1619397987735","proposals_map_url":"https://www.dorsetcouncil.gov.uk/documents/35024/288359/47.Sturminster_Newton.pdf/9452810f-bec2-4701-947a-185748bd5e2d?t=1619398819857&version=1.0","written_statement_url":"https://www.dorsetcouncil.gov.uk/documents/35024/288359/North-Dorset-District-Wide-Local-Plan-2003-written-statement.pdf/2aa52d97-b150-47a4-392b-aa0a340dd123?t=1619400581053&version=1.0","license":"Dorset Council public planning-policy documents; document-specific reuse licence not stated on source page","authority":"Dorset Council","site_area_hectares":3.5,"minimum_dwelling_potential":90,"retained_policy":"2.4 Settlement Allocations","retention_status":"retained until superseded by a later allocation","evidence_grade":"A","confidence_score_0_100":99,"evidence_scope":"exact H/47/2 retained housing allocation plus current Dorset Council adopted-plan page, saved-policy schedule, official Sturminster Newton Proposals Map and 2003 written statement","evidence_slice_sha256":"2bbafca448c65266a048baeb8bb9e931b455b9084b9cd6feec9c444ebaa681df","fake_data":false,"spatial_binding_method":"official H/47/2 exact allocation identifier plus official proposals-map label; polygon extraction, canonical parcel spatial join and materialization delegated to local OpenCode","planned_building_count_contribution":0}}]}