{"type":"FeatureCollection","features":[{"type":"Feature","geometry":null,"properties":{"slot_id":"future_growth_1","lineage_id":"future_growth_1-newstart-20260927T153100+0300","page_generation":null,"accepted_as_parcel":false,"source_area_count_contribution":1,"exact_identifier":"Infinity Park Derby","exact_identifier_provided":true,"coverage_polygon_provided":false,"identifier_namespace":"HMRC East Midlands Investment Zone tax-site name","site_name":"Infinity Park Derby","access_utc":"2026-10-03T03:39:00Z","data_date":"2025-08-05","source_url":"https://www.gov.uk/government/publications/maps-of-east-midlands-investment-zone-tax-sites","final_url":"https://www.gov.uk/government/publications/maps-of-east-midlands-investment-zone-tax-sites","collection_url":"https://www.gov.uk/government/collections/maps-of-investment-zones-and-investment-zone-tax-sites","map_attachment_title":"Infinity Park Derby","license":"Open Government Licence v3.0 for GOV.UK Crown copyright content unless otherwise stated","authority":"HM Revenue & Customs","investment_zone":"East Midlands Investment Zone","tax_site_name":"Infinity Park","location_description":"about 5 miles south of Derby city centre; access from A50 junction 3; near M1 and East Midlands Airport","evidence_grade":"A","confidence_score_0_100":99,"evidence_scope":"exact HMRC Investment Zone tax-site identifier and dedicated official tax-site map attachment","evidence_slice_sha256":"c8dbe0d04c78d5cf78a4772738aa7724fbadcfa8b7568d9a8f9b08d66c9c23c5","fake_data":false,"spatial_binding_method":"official HMRC tax-site name plus dedicated tax-site map attachment; exact boundary extraction, canonical parcel spatial join and materialization delegated to local OpenCode","planned_building_count_contribution":0}}]}