{"type":"FeatureCollection","features":[{"type":"Feature","geometry":null,"properties":{"slot_id":"future_growth_1","lineage_id":"future_growth_1-newstart-20260927T153100+0300","page_generation":null,"accepted_as_parcel":false,"source_area_count_contribution":1,"exact_identifier":"WLP2.14","exact_identifier_provided":true,"coverage_polygon_provided":false,"identifier_namespace":"East Suffolk Council Waveney Local Plan policy","site_name":"Land North of Union Lane, Oulton","access_utc":"2026-10-06T05:25:00Z","data_date":"2021-09","source_url":"https://www.eastsuffolk.gov.uk/assets/Planning/Planning-Policy-and-Local-Plans/Supplementary-documents/Residential-development-Union-Lane-Oulton/Residential-Development-Brief-for-WLP2.14-Land-North-of-Union-Lane-Oulton.pdf","final_url":"https://www.eastsuffolk.gov.uk/assets/Planning/Planning-Policy-and-Local-Plans/Supplementary-documents/Residential-development-Union-Lane-Oulton/Residential-Development-Brief-for-WLP2.14-Land-North-of-Union-Lane-Oulton.pdf","license":"Publicly accessible East Suffolk Council planning-policy document; document-specific reuse licence not stated on the source page.","authority":"East Suffolk Council","site_area_hectares":5.7,"allocated_dwellings_approx":150,"allocation_use":"residential","document_status":"adopted Supplementary Planning Document","evidence_grade":"A","confidence_score_0_100":99,"evidence_scope":"exact East Suffolk Waveney Local Plan allocation WLP2.14 plus adopted Residential Development Brief","evidence_slice_sha256":"8e81bfec39a223103ac254dbc438c2e375cdd6b7dfc6432855cf37d6dc077e0c","fake_data":false,"spatial_binding_method":"official WLP2.14 allocation identifier and adopted Development Brief / Policies Map; exact boundary extraction, canonical parcel spatial join and materialization delegated to local OpenCode","planned_building_count_contribution":0}}]}