{"type":"FeatureCollection","name":"future_growth_9_batch_18","demo_only":true,"metadata":{"schema_version":3,"slot_id":"future_growth_9","continuation_key":"future_growth_9_open_source_v2_20260813","run_id":"future_growth_9_bounded12_20260818T094100Z","batch_index":18,"feature_count_before":17,"feature_count_added":1,"feature_count_after":18,"source_family":"planning_data_brownfield_land_direct_identity","source_authority":"City of Bradford Metropolitan District Council","source_window":{"dataset":"brownfield-land","window_index":17,"window_size":1,"entity":1712256},"fake_data":false,"final_ready":false,"production_merge":false,"duplicate_count":0,"nearest_match_used":false},"features":[{"type":"Feature","id":"future_growth_9:planning_data_bradford:sw-061b","geometry":{"type":"Point","coordinates":[-1.789631,53.792655]},"properties":{"slot_id":"future_growth_9","continuation_key":"future_growth_9_open_source_v2_20260813","source_index":0,"source_family":"planning_data_brownfield_land_direct_identity","source_name":"Planning Data Brownfield Land — City of Bradford Metropolitan District Council","source_publisher":"City of Bradford Metropolitan District Council via Planning Data (MHCLG)","source_feature_id":"SW/061B","planning_data_entity":1712256,"source_url":"https://www.planning.data.gov.uk/entity/1712256","source_dataset_url":"https://www.planning.data.gov.uk/dataset/brownfield-land","source_sha256":"04b39fdc57eb1b8212463a66d1db27de6d8ad1f939c2561a209a2914e711a400","source_sha256_scope":"sha256 of sorted-key canonical JSON of official fields used in this bounded batch","license":"Open Government Licence v3.0","planning_status":"not-permissioned","future_growth_evidence_type":"direct_project","direct_project_evidence":true,"evidence_summary":"The site was covered by a permission which extended across neighbouring SW/061A but has now expired. The owner is understood to be taking steps to bring the site forward under a new application","matching_method":"direct official brownfield-land CURIE/reference identity plus published WGS84 point; no nearest matching, no cross-parcel identity inference","accuracy_scale_1_4":4,"future_growth_value":null,"future_growth_probability":null,"planned_building_complete_month":null,"unknown_reason":"Numeric value/probability withheld because no approved scoring rule exists.","site_name":"Northside Road, Girlington","hectares":4.47,"net_dwellings_range_from":151,"net_dwellings_range_to":151,"fake_data":false,"final_ready":false,"production_merge":false,"demo_only":true}}]}