{"type":"FeatureCollection","name":"future_growth_9_batch_20","demo_only":true,"metadata":{"schema_version":3,"slot_id":"future_growth_9","continuation_key":"future_growth_9_open_source_v2_20260813","run_id":"future_growth_9_bounded12_20260818T094100Z","batch_index":20,"feature_count_before":19,"feature_count_added":1,"feature_count_after":20,"source_family":"planning_data_brownfield_land_direct_identity","source_authority":"City of Bradford Metropolitan District Council","source_window":{"dataset":"brownfield-land","window_index":19,"window_size":1,"entity":1712090},"fake_data":false,"final_ready":false,"production_merge":false,"duplicate_count":0,"nearest_match_used":false},"features":[{"type":"Feature","id":"future_growth_9:planning_data_bradford:cc-037","geometry":{"type":"Point","coordinates":[-1.761875,53.796424]},"properties":{"slot_id":"future_growth_9","continuation_key":"future_growth_9_open_source_v2_20260813","source_index":0,"source_family":"planning_data_brownfield_land_direct_identity","source_name":"Planning Data Brownfield Land — City of Bradford Metropolitan District Council","source_publisher":"City of Bradford Metropolitan District Council via Planning Data (MHCLG)","source_feature_id":"CC/037","planning_data_entity":1712090,"source_url":"https://www.planning.data.gov.uk/entity/1712090","source_dataset_url":"https://www.planning.data.gov.uk/dataset/brownfield-land","source_sha256":"b78ee6a23d70ad713c20168800976a80e61d0f4221eea0536e97a49f9c7f9a20","source_sha256_scope":"sha256 of sorted-key canonical JSON of official fields used in this bounded batch","license":"Open Government Licence v3.0","planning_status":"not-permissioned","future_growth_evidence_type":"area_proxy","direct_project_evidence":false,"evidence_summary":"The site is in mixed ownership but is identified as being suitable for residential development in the city centre AAP (ref V/1.1) min 400 units. Many parts of the site could come forward for residential, but may involve land assembly in the short term.","matching_method":"direct official brownfield-land CURIE/reference identity plus published WGS84 point; no nearest matching, no cross-parcel identity inference","accuracy_scale_1_4":3,"future_growth_value":null,"future_growth_probability":null,"planned_building_complete_month":null,"unknown_reason":"Numeric value/probability withheld because no approved scoring rule exists.","site_name":"Wigan Street, City Centre","hectares":0.62,"net_dwellings_range_from":120,"net_dwellings_range_to":120,"fake_data":false,"final_ready":false,"production_merge":false,"demo_only":true}}]}