{"type":"FeatureCollection","name":"future_growth_9_batch_24","demo_only":true,"metadata":{"schema_version":3,"slot_id":"future_growth_9","continuation_key":"future_growth_9_open_source_v2_20260813","run_id":"future_growth_9_bounded12_20260818T094100Z","batch_index":24,"feature_count_before":23,"feature_count_added":1,"feature_count_after":24,"source_family":"planning_data_brownfield_land_direct_identity","source_authority":"City of Bradford Metropolitan District Council","source_window":{"dataset":"brownfield-land","window_index":23,"window_size":1,"entity":1712139},"fake_data":false,"final_ready":false,"production_merge":false,"duplicate_count":0,"nearest_match_used":false},"features":[{"type":"Feature","id":"future_growth_9:planning_data_bradford:ha-010","geometry":{"type":"Point","coordinates":[-1.949722,53.827298]},"properties":{"slot_id":"future_growth_9","continuation_key":"future_growth_9_open_source_v2_20260813","source_index":0,"source_family":"planning_data_brownfield_land_direct_identity","source_name":"Planning Data Brownfield Land — City of Bradford Metropolitan District Council","source_publisher":"City of Bradford Metropolitan District Council via Planning Data (MHCLG)","source_feature_id":"HA/010","planning_data_entity":1712139,"source_url":"https://www.planning.data.gov.uk/entity/1712139","source_dataset_url":"https://www.planning.data.gov.uk/dataset/brownfield-land","source_sha256":"f32f4f65544c4bb87ad7ede9026ad68bfee0fa43e3a723315795fc374e43f4ca","source_sha256_scope":"sha256 of sorted-key canonical JSON of official fields used in this bounded batch","license":"Open Government Licence v3.0","future_growth_evidence_type":"direct_project","direct_project_evidence":true,"evidence_summary":"Cleared land with expired permission for residential development. There has been recent interest and a new application is expected shortly.","matching_method":"direct official brownfield-land CURIE/reference identity plus published WGS84 point; no nearest matching, no cross-parcel identity inference","accuracy_scale_1_4":4,"future_growth_value":null,"future_growth_probability":null,"planned_building_complete_month":null,"unknown_reason":"Numeric value/probability withheld because no approved scoring rule exists.","site_name":"Ivy Bank Lane, Haworth","fake_data":false,"final_ready":false,"production_merge":false,"demo_only":true}}]}