{"type":"FeatureCollection","name":"future_growth_9_batch_22","demo_only":true,"metadata":{"schema_version":3,"slot_id":"future_growth_9","continuation_key":"future_growth_9_open_source_v2_20260813","run_id":"future_growth_9_bounded12_20260818T094100Z","batch_index":22,"feature_count_before":21,"feature_count_added":1,"feature_count_after":22,"source_family":"planning_data_brownfield_land_direct_identity","source_authority":"City of Bradford Metropolitan District Council","source_window":{"dataset":"brownfield-land","window_index":21,"window_size":1,"entity":1712132},"fake_data":false,"final_ready":false,"production_merge":false,"duplicate_count":0,"nearest_match_used":false},"features":[{"type":"Feature","id":"future_growth_9:planning_data_bradford:cr-047","geometry":{"type":"Point","coordinates":[-1.769804,53.834718]},"properties":{"slot_id":"future_growth_9","continuation_key":"future_growth_9_open_source_v2_20260813","source_index":0,"source_family":"planning_data_brownfield_land_direct_identity","source_name":"Planning Data Brownfield Land — City of Bradford Metropolitan District Council","source_publisher":"City of Bradford Metropolitan District Council via Planning Data (MHCLG)","source_feature_id":"CR/047","planning_data_entity":1712132,"source_url":"https://www.planning.data.gov.uk/entity/1712132","source_dataset_url":"https://www.planning.data.gov.uk/dataset/brownfield-land","source_sha256":"d9b52985a769be5590f2cfef6507eb6c8b5cfc9e34776c3d17ed7f77bd06a6ea","source_sha256_scope":"sha256 of sorted-key canonical JSON of official fields used in this bounded batch","license":"Open Government Licence v3.0","planning_status":"not-permissioned","future_growth_evidence_type":"direct_project","direct_project_evidence":true,"evidence_summary":"Site identified in the Shipley and canal road AAP (ref DF3) as suitable for residential led mixed use. The number of units targeted as 60. An outline application for 60 units was withdrawn in October 2016. There is an expectation that a new application will come forward.","matching_method":"direct official brownfield-land CURIE/reference identity plus published WGS84 point; no nearest matching, no cross-parcel identity inference","accuracy_scale_1_4":4,"future_growth_value":null,"future_growth_probability":null,"planned_building_complete_month":null,"unknown_reason":"Numeric value/probability withheld because no approved scoring rule exists.","site_name":"Land between Leeds Road and Dock Lane","hectares":0.71,"net_dwellings_range_from":60,"net_dwellings_range_to":60,"fake_data":false,"final_ready":false,"production_merge":false,"demo_only":true}}]}