{"type":"FeatureCollection","name":"security_public_safety_6","features":[{"type":"Feature","id":"leicestershire:NC66","geometry":null,"properties":{"force_id":"leicestershire","source_area_id":"NC66","source_area_name":"Cultural Quarter","source_area_kind":"police_neighbourhood_exact_identifier","source_window_id":"data_police_neighbourhood_docs_leicestershire_example_2026-10-02","source_url":"https://data.police.uk/docs/method/neighbourhoods/","final_url":"https://data.police.uk/docs/method/neighbourhoods/","accessed_utc":"2026-10-02T04:44:17Z","data_date":"2026-10-02","license":"Open Government Licence v3.0","source_record_ordinal":1,"evidence_type":"exact_identifier_official_documentation","evidence_slice_sha256":"77492a7fdaa5209aff3118f38ad14d79e5c9a8e968ccd73cb675392d55a8fea3","field_evidence":{"force_id":"Official example request scope is Leicestershire.","source_area_id":"Official example id field; force-specific team identifier.","source_area_name":"Official example name field.","geometry":"No polygon geometry claimed in this batch."},"confidence_score_0_100":98,"evidence_grade":"A_OFFICIAL_PRIMARY_DOCUMENTATION","fake_data":false,"canonical_parcel_id":null,"parcel_match_status":"DEFERRED_TO_LOCAL_OPENCODE"}},{"type":"Feature","id":"leicestershire:NC67","geometry":null,"properties":{"force_id":"leicestershire","source_area_id":"NC67","source_area_name":"Riverside","source_area_kind":"police_neighbourhood_exact_identifier","source_window_id":"data_police_neighbourhood_docs_leicestershire_example_2026-10-02","source_url":"https://data.police.uk/docs/method/neighbourhoods/","final_url":"https://data.police.uk/docs/method/neighbourhoods/","accessed_utc":"2026-10-02T04:44:17Z","data_date":"2026-10-02","license":"Open Government Licence v3.0","source_record_ordinal":2,"evidence_type":"exact_identifier_official_documentation","evidence_slice_sha256":"77492a7fdaa5209aff3118f38ad14d79e5c9a8e968ccd73cb675392d55a8fea3","field_evidence":{"force_id":"Official example request scope is Leicestershire.","source_area_id":"Official example id field; force-specific team identifier.","source_area_name":"Official example name field.","geometry":"No polygon geometry claimed in this batch."},"confidence_score_0_100":98,"evidence_grade":"A_OFFICIAL_PRIMARY_DOCUMENTATION","fake_data":false,"canonical_parcel_id":null,"parcel_match_status":"DEFERRED_TO_LOCAL_OPENCODE"}}],"metadata":{"slot_id":"security_public_safety_6","lineage_id":"SECPS6_20260930T003421Z_01","page_generation":1,"batch_id":"BATCH_20261002T044417Z_LEICS_NEIGHBOURHOOD_DOCS","source_window_id":"data_police_neighbourhood_docs_leicestershire_example_2026-10-02","source_url":"https://data.police.uk/docs/method/neighbourhoods/","final_url":"https://data.police.uk/docs/method/neighbourhoods/","accessed_utc":"2026-10-02T04:44:17Z","data_date":"2026-10-02","license":"Open Government Licence v3.0","evidence_slice_sha256":"77492a7fdaa5209aff3118f38ad14d79e5c9a8e968ccd73cb675392d55a8fea3","new_source_records":2,"source_area_count_delta":2,"cumulative_source_area_count":42,"accepted_count":0,"duplicate_count":0,"rejected_count":0,"unmatched_count":0,"materialized_parcel_count":0,"direct_parcel_count":0,"planned_building_count":0,"cursor":null,"window_complete":true,"dataset_complete":false,"local_spatial_join_required":true,"fake_data":false}}
