{"type":"FeatureCollection","features":[{"type":"Feature","id":"planned_buildings_2-planning-data-brownfield-1740866","geometry":null,"properties":{"entity":1740866,"reference":"23/002","canonical_record_key":"planning-data:brownfield-land:1740866","planned_project_name":"Aylmer House Kitson Way","planned_project_status":"permissioned","borough":"Harlow District Council","official_hectares":0.07,"official_deliverable":true,"official_minimum_net_dwellings":29,"official_maximum_net_dwellings":29,"planned_building_value":null,"planned_building_probability":null,"planned_building_complete_month":null,"source_quality":"authoritative","source_url":"https://www.planning.data.gov.uk/entity/1740866","source_license":"Open Government Licence v3.0","fake_data":false}}],"metadata":{"slot_id":"planned_buildings_2","batch_index":277,"source_index":22,"source_window":{"resource_index":10,"limit":1},"feature_count_before":615,"feature_count_after":616,"unique_real_site_project_before":456,"unique_real_site_project_after":457,"duplicate_count_new":0,"nearest_match_used":false,"parcel_match_used":false,"geometry_inference_used":false,"mirror_only":true}}