{"type":"FeatureCollection","features":[{"type":"Feature","id":"planned_buildings_2-planning-data-brownfield-1740871","geometry":null,"properties":{"entity":1740871,"reference":"23/36","canonical_record_key":"planning-data:brownfield-land:1740871","planned_project_name":"96 Potter Street CM17 9AQ","planned_project_status":"permissioned","borough":"Harlow District Council","official_hectares":0.18,"official_deliverable":true,"official_minimum_net_dwellings":5,"official_maximum_net_dwellings":5,"planned_building_value":null,"planned_building_probability":null,"planned_building_complete_month":null,"source_quality":"authoritative","source_url":"https://www.planning.data.gov.uk/entity/1740871","source_license":"Open Government Licence v3.0","fake_data":false}}],"metadata":{"slot_id":"planned_buildings_2","batch_index":271,"source_index":22,"source_window":{"resource_index":4,"limit":1},"feature_count_before":609,"feature_count_after":610,"unique_real_site_project_before":450,"unique_real_site_project_after":451,"duplicate_count_new":0,"nearest_match_used":false,"parcel_match_used":false,"geometry_inference_used":false,"mirror_only":true}}