{"type":"FeatureCollection","features":[{"type":"Feature","id":"planned_buildings_2-planning-data-brownfield-1740809","geometry":null,"properties":{"entity":1740809,"reference":"SA46","canonical_record_key":"planning-data:brownfield-land:1740809","planned_project_name":"Katherines Hatch","planned_project_status":null,"borough":"Harlow District Council","official_hectares":0.21,"official_deliverable":null,"official_minimum_net_dwellings":null,"official_maximum_net_dwellings":10,"planned_building_value":null,"planned_building_probability":null,"planned_building_complete_month":null,"source_quality":"authoritative","source_url":"https://www.planning.data.gov.uk/entity/1740809","source_license":"Open Government Licence v3.0","fake_data":false}}],"metadata":{"slot_id":"planned_buildings_2","batch_index":272,"source_index":22,"source_window":{"resource_index":5,"limit":1},"feature_count_before":610,"feature_count_after":611,"unique_real_site_project_before":451,"unique_real_site_project_after":452,"duplicate_count_new":0,"nearest_match_used":false,"parcel_match_used":false,"geometry_inference_used":false,"mirror_only":true}}