{"type":"FeatureCollection","features":[{"type":"Feature","id":"planned_buildings_2-1740867","geometry":null,"properties":{"entity":1740867,"reference":"23/220","canonical_record_key":"planning-data:brownfield-land:1740867","planned_project_name":"Land At Pytt Field","fake_data":false}},{"type":"Feature","id":"planned_buildings_2-1740803","geometry":null,"properties":{"entity":1740803,"reference":"SA23","canonical_record_key":"planning-data:brownfield-land:1740803","planned_project_name":"Former Scout Hut Elderfield","fake_data":false}},{"type":"Feature","id":"planned_buildings_2-1740842","geometry":null,"properties":{"entity":1740842,"reference":"SA402","canonical_record_key":"planning-data:brownfield-land:1740842","planned_project_name":"Post Office Road car park Development Site B","fake_data":false}},{"type":"Feature","id":"planned_buildings_2-1740858","geometry":null,"properties":{"entity":1740858,"reference":"21/251","canonical_record_key":"planning-data:brownfield-land:1740858","planned_project_name":"Strawberry Star (Blocks A,B & C)","fake_data":false}},{"type":"Feature","id":"planned_buildings_2-1740871","geometry":null,"properties":{"entity":1740871,"reference":"23/36","canonical_record_key":"planning-data:brownfield-land:1740871","planned_project_name":"96 Potter Street CM17 9AQ","fake_data":false}},{"type":"Feature","id":"planned_buildings_2-1740809","geometry":null,"properties":{"entity":1740809,"reference":"SA46","canonical_record_key":"planning-data:brownfield-land:1740809","planned_project_name":"Katherines Hatch","fake_data":false}},{"type":"Feature","id":"planned_buildings_2-1740845","geometry":null,"properties":{"entity":1740845,"reference":"SA406","canonical_record_key":"planning-data:brownfield-land:1740845","planned_project_name":"Sainsburys Northern Gateway Site (OA1 TCMP)","fake_data":false}},{"type":"Feature","id":"planned_buildings_2-1740820","geometry":null,"properties":{"entity":1740820,"reference":"SA259","canonical_record_key":"planning-data:brownfield-land:1740820","planned_project_name":"Arriva Bus Depot","fake_data":false}},{"type":"Feature","id":"planned_buildings_2-1740868","geometry":null,"properties":{"entity":1740868,"reference":"23/268","canonical_record_key":"planning-data:brownfield-land:1740868","planned_project_name":"North Of Aylmer House, Kitson Way (SUPERCEEDS 20/161)","fake_data":false}},{"type":"Feature","id":"planned_buildings_2-1740869","geometry":null,"properties":{"entity":1740869,"reference":"23/331","canonical_record_key":"planning-data:brownfield-land:1740869","planned_project_name":"Elm Hatch, CM18 6BH HS2-9","fake_data":false}},{"type":"Feature","id":"planned_buildings_2-1740866","geometry":null,"properties":{"entity":1740866,"reference":"23/002","canonical_record_key":"planning-data:brownfield-land:1740866","planned_project_name":"Aylmer House Kitson Way","fake_data":false}}],"metadata":{"slot_id":"planned_buildings_2","batch_indices":[267,268,269,270,271,272,273,274,275,276,277],"feature_count_before":605,"features_added":11,"feature_count_after":616,"unique_real_site_project_before":446,"unique_real_site_project_added":11,"unique_real_site_project_after":457,"duplicate_count_new":0,"nearest_match_used":false,"parcel_match_used":false,"geometry_inference_used":false,"mirror_only":true}}