{"type":"FeatureCollection","features":[{"type":"Feature","geometry":null,"properties":{"slot_id":"future_growth_3","lineage_id":"future_growth_3-newstart-20261001T203100Z","page_generation":null,"accepted_as_parcel":false,"source_area_count_contribution":1,"exact_identifier":"O22","exact_identifier_provided":true,"coverage_polygon_provided":false,"identifier_namespace":"Harrow Local Plan 2021-2041 site allocation reference","secondary_exact_identifier":"Stanmore Station Car Park","source_entity":"O22 - Stanmore Station Car Park","access_utc":"2026-10-02T21:56:46Z","data_date":"2026-03-24","source_url":"https://www.harrow.gov.uk/downloads/file/33679/harrow-local-plan-2021-41-inspectors-report-appendix-1-mm-schedule-final-copy","final_url":"https://www.harrow.gov.uk/downloads/file/33679/harrow-local-plan-2021-41-inspectors-report-appendix-1-mm-schedule-final-copy","related_source_url":"https://www.harrow.gov.uk/localplan","policy_map_url":"https://experience.arcgis.com/experience/bcec90ce0e3a46938184c3075f468607","license":"London Borough of Harrow © 2026.","authority":"London Borough of Harrow","site_address":"Stanmore Station Car Park, London Road, Stanmore","field_evidence":{"reference":"O22","dataset":"Harrow Local Plan 2021-2041 / Inspector's Report Appendix 1 Main Modifications","organisation":"London Borough of Harrow","site_name":"Stanmore Station Car Park","address":"Stanmore Station Car Park, London Road, Stanmore","adopted_date":"2026-03-24","inspector_report_date":"2026-03-16","area_ha":1.59,"current_use":"Surface level carpark","ownership":"Public","ptal":"4","allocated_use":["Residential","Public car parking","Transport operations","Class E"],"development_timeframe":"6-10 years","minimum_residential_capacity":199,"minimum_non_residential_floorspace_gia_sqm":660},"source_payload_sha256":"b99a8e524478dec58ace09c3f6c8236abfeb0aaaa096ed0390efd40dd4cb9617","source_payload_sha256_basis":"canonicalized official London Borough of Harrow Site O22 evidence fields","evidence_slice_sha256":"24721fde0fc2ccdd4880212d7ce0beb0508ef63ef8eecede22b32569c52ad9b1","evidence_grade":"A","confidence_score_0_100":99,"evidence_scope":"exact_official_identifier_from_adopted_statutory_local_plan_site_allocation","fake_data":false,"spatial_binding_method":"official adopted Harrow Local Plan Site O22 exact identifier plus Council Interactive Policies Map; canonical parcel spatial join and materialization delegated to local OpenCode","planned_building_count_contribution":0}}]}