{"type":"FeatureCollection","metadata":{"slot_id":"security_public_safety_1","lineage_id":null,"page_generation":null,"source_area_count":259,"source_area_delta_this_turn":50,"latest_evidence_window":"LFB_FOIA4310_1_STATION_CODES_001_050_20261004T173200Z","batch_scope":"DELTA_FEATURES_ONLY","source_evidence_ref":"source_evidence.json","first_missing_criterion":"LOCAL_OPENCODE_EXACT_IDENTIFIER_TO_CANONICAL_SPATIAL_BINDING"},"features":[{"type":"Feature","geometry":null,"properties":{"exact_identifier":"G26","exact_identifier_type":"london-fire.gov.uk.fire_station.code","coverage_area_name":"Acton","source_record_index":1}},{"type":"Feature","geometry":null,"properties":{"exact_identifier":"H26","exact_identifier_type":"london-fire.gov.uk.fire_station.code","coverage_area_name":"Addington","source_record_index":2}},{"type":"Feature","geometry":null,"properties":{"exact_identifier":"F43","exact_identifier_type":"london-fire.gov.uk.fire_station.code","coverage_area_name":"Barking","source_record_index":3}},{"type":"Feature","geometry":null,"properties":{"exact_identifier":"A37","exact_identifier_type":"london-fire.gov.uk.fire_station.code","coverage_area_name":"Barnet","source_record_index":4}},{"type":"Feature","geometry":null,"properties":{"exact_identifier":"H27","exact_identifier_type":"london-fire.gov.uk.fire_station.code","coverage_area_name":"Battersea","source_record_index":5}},{"type":"Feature","geometry":null,"properties":{"exact_identifier":"E43","exact_identifier_type":"london-fire.gov.uk.fire_station.code","coverage_area_name":"Beckenham","source_record_index":6}},{"type":"Feature","geometry":null,"properties":{"exact_identifier":"F26","exact_identifier_type":"london-fire.gov.uk.fire_station.code","coverage_area_name":"Bethnal Green","source_record_index":7}},{"type":"Feature","geometry":null,"properties":{"exact_identifier":"E28","exact_identifier_type":"london-fire.gov.uk.fire_station.code","coverage_area_name":"Bexley","source_record_index":8}},{"type":"Feature","geometry":null,"properties":{"exact_identifier":"E42","exact_identifier_type":"london-fire.gov.uk.fire_station.code","coverage_area_name":"Biggin Hill","source_record_index":9}},{"type":"Feature","geometry":null,"properties":{"exact_identifier":"H24","exact_identifier_type":"london-fire.gov.uk.fire_station.code","coverage_area_name":"Brixton","source_record_index":10}},{"type":"Feature","geometry":null,"properties":{"exact_identifier":"E39","exact_identifier_type":"london-fire.gov.uk.fire_station.code","coverage_area_name":"Bromley","source_record_index":11}},{"type":"Feature","geometry":null,"properties":{"exact_identifier":"G34","exact_identifier_type":"london-fire.gov.uk.fire_station.code","coverage_area_name":"Chelsea","source_record_index":12}},{"type":"Feature","geometry":null,"properties":{"exact_identifier":"F34","exact_identifier_type":"london-fire.gov.uk.fire_station.code","coverage_area_name":"Chingford","source_record_index":13}},{"type":"Feature","geometry":null,"properties":{"exact_identifier":"G37","exact_identifier_type":"london-fire.gov.uk.fire_station.code","coverage_area_name":"Chiswick","source_record_index":14}},{"type":"Feature","geometry":null,"properties":{"exact_identifier":"H21","exact_identifier_type":"london-fire.gov.uk.fire_station.code","coverage_area_name":"Clapham","source_record_index":15}},{"type":"Feature","geometry":null,"properties":{"exact_identifier":"H31","exact_identifier_type":"london-fire.gov.uk.fire_station.code","coverage_area_name":"Croydon","source_record_index":16}},{"type":"Feature","geometry":null,"properties":{"exact_identifier":"F41","exact_identifier_type":"london-fire.gov.uk.fire_station.code","coverage_area_name":"Dagenham","source_record_index":17}},{"type":"Feature","geometry":null,"properties":{"exact_identifier":"E36","exact_identifier_type":"london-fire.gov.uk.fire_station.code","coverage_area_name":"Deptford","source_record_index":18}},{"type":"Feature","geometry":null,"properties":{"exact_identifier":"E34","exact_identifier_type":"london-fire.gov.uk.fire_station.code","coverage_area_name":"Dockhead","source_record_index":19}},{"type":"Feature","geometry":null,"properties":{"exact_identifier":"A28","exact_identifier_type":"london-fire.gov.uk.fire_station.code","coverage_area_name":"Dowgate","source_record_index":20}},{"type":"Feature","geometry":null,"properties":{"exact_identifier":"G25","exact_identifier_type":"london-fire.gov.uk.fire_station.code","coverage_area_name":"Ealing","source_record_index":21}},{"type":"Feature","geometry":null,"properties":{"exact_identifier":"E23","exact_identifier_type":"london-fire.gov.uk.fire_station.code","coverage_area_name":"East Greenwich","source_record_index":22}},{"type":"Feature","geometry":null,"properties":{"exact_identifier":"F44","exact_identifier_type":"london-fire.gov.uk.fire_station.code","coverage_area_name":"East Ham","source_record_index":23}},{"type":"Feature","geometry":null,"properties":{"exact_identifier":"A34","exact_identifier_type":"london-fire.gov.uk.fire_station.code","coverage_area_name":"Edmonton","source_record_index":24}},{"type":"Feature","geometry":null,"properties":{"exact_identifier":"E30","exact_identifier_type":"london-fire.gov.uk.fire_station.code","coverage_area_name":"Eltham","source_record_index":25}},{"type":"Feature","geometry":null,"properties":{"exact_identifier":"A35","exact_identifier_type":"london-fire.gov.uk.fire_station.code","coverage_area_name":"Enfield","source_record_index":26}},{"type":"Feature","geometry":null,"properties":{"exact_identifier":"E27","exact_identifier_type":"london-fire.gov.uk.fire_station.code","coverage_area_name":"Erith","source_record_index":27}},{"type":"Feature","geometry":null,"properties":{"exact_identifier":"A23","exact_identifier_type":"london-fire.gov.uk.fire_station.code","coverage_area_name":"Euston","source_record_index":28}},{"type":"Feature","geometry":null,"properties":{"exact_identifier":"G39","exact_identifier_type":"london-fire.gov.uk.fire_station.code","coverage_area_name":"Feltham","source_record_index":29}},{"type":"Feature","geometry":null,"properties":{"exact_identifier":"A39","exact_identifier_type":"london-fire.gov.uk.fire_station.code","coverage_area_name":"Finchley","source_record_index":30}},{"type":"Feature","geometry":null,"properties":{"exact_identifier":"E31","exact_identifier_type":"london-fire.gov.uk.fire_station.code","coverage_area_name":"Forest Hill","source_record_index":31}},{"type":"Feature","geometry":null,"properties":{"exact_identifier":"G35","exact_identifier_type":"london-fire.gov.uk.fire_station.code","coverage_area_name":"Fulham","source_record_index":32}},{"type":"Feature","geometry":null,"properties":{"exact_identifier":"E22","exact_identifier_type":"london-fire.gov.uk.fire_station.code","coverage_area_name":"Greenwich","source_record_index":33}},{"type":"Feature","geometry":null,"properties":{"exact_identifier":"F37","exact_identifier_type":"london-fire.gov.uk.fire_station.code","coverage_area_name":"Hainault","source_record_index":34}},{"type":"Feature","geometry":null,"properties":{"exact_identifier":"G36","exact_identifier_type":"london-fire.gov.uk.fire_station.code","coverage_area_name":"Hammersmith","source_record_index":35}},{"type":"Feature","geometry":null,"properties":{"exact_identifier":"F57","exact_identifier_type":"london-fire.gov.uk.fire_station.code","coverage_area_name":"Harold Hill","source_record_index":36}},{"type":"Feature","geometry":null,"properties":{"exact_identifier":"G21","exact_identifier_type":"london-fire.gov.uk.fire_station.code","coverage_area_name":"Harrow","source_record_index":37}},{"type":"Feature","geometry":null,"properties":{"exact_identifier":"G40","exact_identifier_type":"london-fire.gov.uk.fire_station.code","coverage_area_name":"Hayes","source_record_index":38}},{"type":"Feature","geometry":null,"properties":{"exact_identifier":"G56","exact_identifier_type":"london-fire.gov.uk.fire_station.code","coverage_area_name":"Heathrow","source_record_index":39}},{"type":"Feature","geometry":null,"properties":{"exact_identifier":"A40","exact_identifier_type":"london-fire.gov.uk.fire_station.code","coverage_area_name":"Hendon","source_record_index":40}},{"type":"Feature","geometry":null,"properties":{"exact_identifier":"G38","exact_identifier_type":"london-fire.gov.uk.fire_station.code","coverage_area_name":"Heston","source_record_index":41}},{"type":"Feature","geometry":null,"properties":{"exact_identifier":"G23","exact_identifier_type":"london-fire.gov.uk.fire_station.code","coverage_area_name":"Hillingdon","source_record_index":42}},{"type":"Feature","geometry":null,"properties":{"exact_identifier":"A31","exact_identifier_type":"london-fire.gov.uk.fire_station.code","coverage_area_name":"Holloway","source_record_index":43}},{"type":"Feature","geometry":null,"properties":{"exact_identifier":"F28","exact_identifier_type":"london-fire.gov.uk.fire_station.code","coverage_area_name":"Homerton","source_record_index":44}},{"type":"Feature","geometry":null,"properties":{"exact_identifier":"F39","exact_identifier_type":"london-fire.gov.uk.fire_station.code","coverage_area_name":"Hornchurch","source_record_index":45}},{"type":"Feature","geometry":null,"properties":{"exact_identifier":"A32","exact_identifier_type":"london-fire.gov.uk.fire_station.code","coverage_area_name":"Hornsey","source_record_index":46}},{"type":"Feature","geometry":null,"properties":{"exact_identifier":"F42","exact_identifier_type":"london-fire.gov.uk.fire_station.code","coverage_area_name":"Ilford","source_record_index":47}},{"type":"Feature","geometry":null,"properties":{"exact_identifier":"A30","exact_identifier_type":"london-fire.gov.uk.fire_station.code","coverage_area_name":"Islington","source_record_index":48}},{"type":"Feature","geometry":null,"properties":{"exact_identifier":"G33","exact_identifier_type":"london-fire.gov.uk.fire_station.code","coverage_area_name":"Kensington","source_record_index":49}},{"type":"Feature","geometry":null,"properties":{"exact_identifier":"A43","exact_identifier_type":"london-fire.gov.uk.fire_station.code","coverage_area_name":"Kentish Town","source_record_index":50}}]}
