{"type":"FeatureCollection","features":[{"type":"Feature","geometry":{"type":"MultiPolygon","coordinates":[[[[-0.095398,51.487288],[-0.095411,51.487336],[-0.095599,51.48731],[-0.095726,51.487272],[-0.095716,51.487234],[-0.095394,51.487288],[-0.095398,51.487288]]]]},"properties":{"slot_id":"future_growth_3","lineage_id":"future_growth_3-newstart-20261001T203100Z","page_generation":null,"accepted_as_parcel":false,"source_area_count_contribution":1,"exact_identifier":"14-AP-3634","exact_identifier_provided":true,"coverage_polygon_provided":true,"identifier_namespace":"Planning Data brownfield-site reference","secondary_exact_identifier":"entity:1800205","source_entity":"14-AP-3634 - 280 Walworth Road SE17 2TE","access_utc":"2026-10-04T02:02:23Z","data_date":"2017-12-20","source_url":"https://www.planning.data.gov.uk/entity/1800205","final_url":"https://www.planning.data.gov.uk/entity/1800205","license":"Open Government Licence v3.0; attribution © Crown copyright and database right 2026.","authority":"London Borough of Southwark","site_address":"280 Walworth Road SE17 2TE","field_evidence":{"reference":"14-AP-3634","entity":1800205,"dataset":"Brownfield site","organisation":"London Borough of Southwark","entry_date":"2017-12-20","start_date":"2017-12-20","site_name":"280 Walworth Road SE17 2TE","quality":"authoritative","geometry":"MULTIPOLYGON (((-0.095398 51.487288, -0.095411 51.487336, -0.095599 51.48731, -0.095726 51.487272, -0.095716 51.487234, -0.095394 51.487288, -0.095398 51.487288)))","point":"POINT (-0.095559 51.487286)"},"source_payload_sha256":"c995e78c2756cf89221a07133a063ec17ab945e6b1d9325759c3f53ef7645aa0","source_payload_sha256_basis":"canonicalized official Planning Data brownfield-site 14-AP-3634 evidence fields","evidence_slice_sha256":"994582b3408ae9a47268a30f6f684bc84ecd50d769d04f857166f0bedbb49892","evidence_grade":"A","confidence_score_0_100":99,"evidence_scope":"official_authoritative_multipolygon_from_planning_data_brownfield_site","fake_data":false,"spatial_binding_method":"official Planning Data brownfield-site MultiPolygon geometry for reference 14-AP-3634 / entity 1800205; canonical parcel spatial join and materialization delegated to local OpenCode","planned_building_count_contribution":0}}]}