{"type":"FeatureCollection","metadata":{"slot_id":"planned_buildings_5","batch_index":125,"base_feature_count":113,"cumulative_feature_count":125,"duplicate_count":0,"fake_data":false,"nearest_match_used":false,"parcel_match_used":false,"source_family":"pins_nsip_infrastructure_project","state":"BATCH_MIRRORED_AND_READY_NEXT_WINDOW"},"features":[{"type":"Feature","id":"pb5-pins-EN020035","geometry":{"type":"Point","coordinates":[-3.189338,52.740963]},"properties":{"official_site_key":"EN020035","source_entity":11100000098,"canonical_record_key":"planning-data:infrastructure-project:11100000098","planned_project_name":"Green Gen Vyrnwy Frankton","planned_project_type":"energy","source_quality":"authoritative"}}]}