{"type":"FeatureCollection","metadata":{"slot_id":"planned_buildings_5","batch_index":131,"base_feature_count":113,"cumulative_feature_count":131,"duplicate_count":0,"fake_data":false,"nearest_match_used":false,"parcel_match_used":false,"source_family":"pins_nsip_infrastructure_project","state":"BOUNDED_RUN_12_COMPLETE"},"features":[{"type":"Feature","id":"pb5-pins-EN010155","geometry":{"type":"Point","coordinates":[-3.478099,54.590836]},"properties":{"official_site_key":"EN010155","source_entity":11100000008,"canonical_record_key":"planning-data:infrastructure-project:11100000008","planned_project_name":"Dean Moor Solar Farm","planned_project_type":"energy","source_quality":"authoritative"}}]}