{"type":"FeatureCollection","metadata":{"slot_id":"planned_buildings_5","batch_index":128,"base_feature_count":113,"cumulative_feature_count":128,"duplicate_count":0,"fake_data":false,"nearest_match_used":false,"parcel_match_used":false,"source_family":"pins_nsip_infrastructure_project","state":"BATCH_MIRRORED_AND_READY_NEXT_WINDOW"},"features":[{"type":"Feature","id":"pb5-pins-TR010025","geometry":{"type":"Point","coordinates":[-1.858378,51.171233]},"properties":{"official_site_key":"TR010025","source_entity":11100000030,"canonical_record_key":"planning-data:infrastructure-project:11100000030","planned_project_name":"A303 Stonehenge","planned_project_type":"transport","source_quality":"authoritative"}}]}