{"type":"FeatureCollection","metadata":{"slot_id":"planned_buildings_5","batch_index":127,"base_feature_count":113,"cumulative_feature_count":127,"duplicate_count":0,"fake_data":false,"nearest_match_used":false,"parcel_match_used":false,"source_family":"pins_nsip_infrastructure_project","state":"BATCH_MIRRORED_AND_READY_NEXT_WINDOW"},"features":[{"type":"Feature","id":"pb5-pins-TR010040","geometry":{"type":"Point","coordinates":[1.483813,52.636112]},"properties":{"official_site_key":"TR010040","source_entity":11100000040,"canonical_record_key":"planning-data:infrastructure-project:11100000040","planned_project_name":"A47 Blofield to North Burlingham","planned_project_type":"transport","source_quality":"authoritative"}}]}