{"type":"FeatureCollection","name":"security_public_safety_1_batch_exact_identifiers","features":[{"type":"Feature","geometry":null,"properties":{"slot_id":"security_public_safety_1","evidence_scope":"coverage_exact_identifier","exact_identifier":"Belsize","exact_identifier_type":"met.police.uk.safer_neighbourhood_team.official_name","coverage_area_name":"Belsize","evidence_grade":"A_OFFICIAL_EXACT_IDENTIFIER","fake_data":false,"canonical_parcel_id":null}},{"type":"Feature","geometry":null,"properties":{"slot_id":"security_public_safety_1","evidence_scope":"coverage_exact_identifier","exact_identifier":"Bloomsbury","exact_identifier_type":"met.police.uk.safer_neighbourhood_team.official_name","coverage_area_name":"Bloomsbury","evidence_grade":"A_OFFICIAL_EXACT_IDENTIFIER","fake_data":false,"canonical_parcel_id":null}},{"type":"Feature","geometry":null,"properties":{"slot_id":"security_public_safety_1","evidence_scope":"coverage_exact_identifier","exact_identifier":"Camden Square","exact_identifier_type":"met.police.uk.safer_neighbourhood_team.official_name","coverage_area_name":"Camden Square","evidence_grade":"A_OFFICIAL_EXACT_IDENTIFIER","fake_data":false,"canonical_parcel_id":null}},{"type":"Feature","geometry":null,"properties":{"slot_id":"security_public_safety_1","evidence_scope":"coverage_exact_identifier","exact_identifier":"Camden Town","exact_identifier_type":"met.police.uk.safer_neighbourhood_team.official_name","coverage_area_name":"Camden Town","evidence_grade":"A_OFFICIAL_EXACT_IDENTIFIER","fake_data":false,"canonical_parcel_id":null}},{"type":"Feature","geometry":null,"properties":{"slot_id":"security_public_safety_1","evidence_scope":"coverage_exact_identifier","exact_identifier":"Fortune Green","exact_identifier_type":"met.police.uk.safer_neighbourhood_team.official_name","coverage_area_name":"Fortune Green","evidence_grade":"A_OFFICIAL_EXACT_IDENTIFIER","fake_data":false,"canonical_parcel_id":null}},{"type":"Feature","geometry":null,"properties":{"slot_id":"security_public_safety_1","evidence_scope":"coverage_exact_identifier","exact_identifier":"Frognal","exact_identifier_type":"met.police.uk.safer_neighbourhood_team.official_name","coverage_area_name":"Frognal","evidence_grade":"A_OFFICIAL_EXACT_IDENTIFIER","fake_data":false,"canonical_parcel_id":null}},{"type":"Feature","geometry":null,"properties":{"slot_id":"security_public_safety_1","evidence_scope":"coverage_exact_identifier","exact_identifier":"Gospel Oak","exact_identifier_type":"met.police.uk.safer_neighbourhood_team.official_name","coverage_area_name":"Gospel Oak","evidence_grade":"A_OFFICIAL_EXACT_IDENTIFIER","fake_data":false,"canonical_parcel_id":null}},{"type":"Feature","geometry":null,"properties":{"slot_id":"security_public_safety_1","evidence_scope":"coverage_exact_identifier","exact_identifier":"Hampstead Town","exact_identifier_type":"met.police.uk.safer_neighbourhood_team.official_name","coverage_area_name":"Hampstead Town","evidence_grade":"A_OFFICIAL_EXACT_IDENTIFIER","fake_data":false,"canonical_parcel_id":null}},{"type":"Feature","geometry":null,"properties":{"slot_id":"security_public_safety_1","evidence_scope":"coverage_exact_identifier","exact_identifier":"Haverstock","exact_identifier_type":"met.police.uk.safer_neighbourhood_team.official_name","coverage_area_name":"Haverstock","evidence_grade":"A_OFFICIAL_EXACT_IDENTIFIER","fake_data":false,"canonical_parcel_id":null}},{"type":"Feature","geometry":null,"properties":{"slot_id":"security_public_safety_1","evidence_scope":"coverage_exact_identifier","exact_identifier":"Highgate","exact_identifier_type":"met.police.uk.safer_neighbourhood_team.official_name","coverage_area_name":"Highgate","evidence_grade":"A_OFFICIAL_EXACT_IDENTIFIER","fake_data":false,"canonical_parcel_id":null}},{"type":"Feature","geometry":null,"properties":{"slot_id":"security_public_safety_1","evidence_scope":"coverage_exact_identifier","exact_identifier":"Holborn and Covent Garden","exact_identifier_type":"met.police.uk.safer_neighbourhood_team.official_name","coverage_area_name":"Holborn and Covent Garden","evidence_grade":"A_OFFICIAL_EXACT_IDENTIFIER","fake_data":false,"canonical_parcel_id":null}},{"type":"Feature","geometry":null,"properties":{"slot_id":"security_public_safety_1","evidence_scope":"coverage_exact_identifier","exact_identifier":"Kentish Town North","exact_identifier_type":"met.police.uk.safer_neighbourhood_team.official_name","coverage_area_name":"Kentish Town North","evidence_grade":"A_OFFICIAL_EXACT_IDENTIFIER","fake_data":false,"canonical_parcel_id":null}},{"type":"Feature","geometry":null,"properties":{"slot_id":"security_public_safety_1","evidence_scope":"coverage_exact_identifier","exact_identifier":"Kentish Town South","exact_identifier_type":"met.police.uk.safer_neighbourhood_team.official_name","coverage_area_name":"Kentish Town South","evidence_grade":"A_OFFICIAL_EXACT_IDENTIFIER","fake_data":false,"canonical_parcel_id":null}},{"type":"Feature","geometry":null,"properties":{"slot_id":"security_public_safety_1","evidence_scope":"coverage_exact_identifier","exact_identifier":"Kilburn","exact_identifier_type":"met.police.uk.safer_neighbourhood_team.official_name","coverage_area_name":"Kilburn","evidence_grade":"A_OFFICIAL_EXACT_IDENTIFIER","fake_data":false,"canonical_parcel_id":null}},{"type":"Feature","geometry":null,"properties":{"slot_id":"security_public_safety_1","evidence_scope":"coverage_exact_identifier","exact_identifier":"King's Cross","exact_identifier_type":"met.police.uk.safer_neighbourhood_team.official_name","coverage_area_name":"King's Cross","evidence_grade":"A_OFFICIAL_EXACT_IDENTIFIER","fake_data":false,"canonical_parcel_id":null}},{"type":"Feature","geometry":null,"properties":{"slot_id":"security_public_safety_1","evidence_scope":"coverage_exact_identifier","exact_identifier":"Primrose Hill","exact_identifier_type":"met.police.uk.safer_neighbourhood_team.official_name","coverage_area_name":"Primrose Hill","evidence_grade":"A_OFFICIAL_EXACT_IDENTIFIER","fake_data":false,"canonical_parcel_id":null}},{"type":"Feature","geometry":null,"properties":{"slot_id":"security_public_safety_1","evidence_scope":"coverage_exact_identifier","exact_identifier":"Regent's Park","exact_identifier_type":"met.police.uk.safer_neighbourhood_team.official_name","coverage_area_name":"Regent's Park","evidence_grade":"A_OFFICIAL_EXACT_IDENTIFIER","fake_data":false,"canonical_parcel_id":null}},{"type":"Feature","geometry":null,"properties":{"slot_id":"security_public_safety_1","evidence_scope":"coverage_exact_identifier","exact_identifier":"South Hampstead","exact_identifier_type":"met.police.uk.safer_neighbourhood_team.official_name","coverage_area_name":"South Hampstead","evidence_grade":"A_OFFICIAL_EXACT_IDENTIFIER","fake_data":false,"canonical_parcel_id":null}},{"type":"Feature","geometry":null,"properties":{"slot_id":"security_public_safety_1","evidence_scope":"coverage_exact_identifier","exact_identifier":"St Pancras and Somers Town","exact_identifier_type":"met.police.uk.safer_neighbourhood_team.official_name","coverage_area_name":"St Pancras and Somers Town","evidence_grade":"A_OFFICIAL_EXACT_IDENTIFIER","fake_data":false,"canonical_parcel_id":null}},{"type":"Feature","geometry":null,"properties":{"slot_id":"security_public_safety_1","evidence_scope":"coverage_exact_identifier","exact_identifier":"West Hampstead","exact_identifier_type":"met.police.uk.safer_neighbourhood_team.official_name","coverage_area_name":"West Hampstead","evidence_grade":"A_OFFICIAL_EXACT_IDENTIFIER","fake_data":false,"canonical_parcel_id":null}}],"metadata":{"records_scope":"DELTA_THIS_BATCH","source_url":"https://www.met.police.uk/area/your-area/met/camden/","source_area_count":219,"source_area_delta_this_turn":20,"latest_evidence_window":"MET_POLICE_CAMDEN_SNT_CURRENT_20261005T164600Z","first_missing_criterion":"LOCAL_OPENCODE_EXACT_IDENTIFIER_TO_CANONICAL_SPATIAL_BINDING","prior_cumulative_records_commit_sha":"a4ee5b45aa903a58a73e3f057ea644f73b4ed534","prior_cumulative_records_exact_path":"incoming/source_area/security_public_safety_1/null/20261002T154100Z-nhs-england-london-icbs/records.geojson"}}
