{"type":"FeatureCollection","name":"building_type_9_20261008T013045Z_BARNET_ST_PETER_42120587","features":[{"type":"Feature","id":"42120587","geometry":{"type":"MultiPolygon","coordinates":[[[[-0.232142,51.647256],[-0.232044,51.647304],[-0.232023,51.647287],[-0.231947,51.647324],[-0.23194,51.647319],[-0.231856,51.647361],[-0.23189,51.647391],[-0.231848,51.647412],[-0.231905,51.647458],[-0.231939,51.647442],[-0.231979,51.647472],[-0.232072,51.647426],[-0.232067,51.647422],[-0.232086,51.647413],[-0.232093,51.647406],[-0.23214,51.647382],[-0.232115,51.647363],[-0.232213,51.647315],[-0.232196,51.647301],[-0.232211,51.647294],[-0.232205,51.647289],[-0.232225,51.647279],[-0.232202,51.64726],[-0.232182,51.64727],[-0.232175,51.647264],[-0.232161,51.647271],[-0.232142,51.647256]]]]},"properties":{"slot_id":"building_type_9","lineage_id":"building_type_9-20261001T200900Z-newstart","page_generation":1,"batch_id":"20261008T013045Z_BARNET_ST_PETER_42120587","source_entity":42120587,"source_reference":"1078860","source_dataset":"listed-building-outline","source_organisation":"London Borough of Barnet","building_evidence_status":"BUILDING_PRESENT","parcel_status":"UNPROCESSED","canonical_parcel_id":null,"building_type":"church","building_use":null,"poi_accepted":false,"field_evidence":{"footprint":"official Planning Data listed-building-outline authoritative MULTIPOLYGON, exact rendered WKT; official designation outline not independently surveyed physical footprint","type":"official dataset name CHURCH OF ST PETER supports church structure type; current use not proven","reference":"1078860","quality":"authoritative","name":"CHURCH OF ST PETER","source_geometry":"official rendered page WKT","source_dataset":"listed-building-outline"},"source_url":"https://www.planning.data.gov.uk/entity/42120587","final_url":"https://www.planning.data.gov.uk/entity/42120587","http_status":null,"http_status_note":"web-rendered official source; raw HTTP status not independently exposed; local receiver validation required","access_utc":"2026-10-08T01:30:45.152Z","data_date":"2026-07-01","licence":"Open Government Licence v3.0","source_sha256":"46cb820a06ec389867ed390dc9e20f6ff0b7f7b651c6f77a5c05eb438ffb5a86","source_sha256_scope":"canonical structured evidence slice; not original HTTP bytes","evidence_slice_sha256":"46cb820a06ec389867ed390dc9e20f6ff0b7f7b651c6f77a5c05eb438ffb5a86","confidence_score_0_100":89,"evidence_grade":"B","fake_data":false,"local_spatial_join_required":true}}]}
