{"type":"FeatureCollection","name":"security_public_safety_2_cumulative_exact_identifiers","features":[{"type":"Feature","geometry":null,"properties":{"slot_id":"security_public_safety_2","evidence_scope":"coverage_exact_identifier","exact_identifier":"city-of-london","exact_identifier_type":"data.police.uk.force.id","coverage_area_name":"City of London Police","fake_data":false}},{"type":"Feature","geometry":null,"properties":{"slot_id":"security_public_safety_2","evidence_scope":"coverage_exact_identifier","exact_identifier":"metropolitan","exact_identifier_type":"data.police.uk.force.id","coverage_area_name":"Metropolitan Police Service","fake_data":false}},{"type":"Feature","geometry":null,"properties":{"slot_id":"security_public_safety_2","evidence_scope":"coverage_exact_identifier","exact_identifier":"E05009317","exact_identifier_type":"data.police.uk.metropolitan.neighbourhood.id","coverage_area_name":"Bethnal Green East","fake_data":false,"parent_force_id":"metropolitan"}},{"type":"Feature","geometry":null,"properties":{"slot_id":"security_public_safety_2","evidence_scope":"coverage_exact_identifier","exact_identifier":"E05009318","exact_identifier_type":"data.police.uk.metropolitan.neighbourhood.id","coverage_area_name":"Blackwall and Cubitt Town","fake_data":false,"parent_force_id":"metropolitan"}},{"type":"Feature","geometry":null,"properties":{"slot_id":"security_public_safety_2","evidence_scope":"coverage_exact_identifier","exact_identifier":"E05009319","exact_identifier_type":"data.police.uk.metropolitan.neighbourhood.id","coverage_area_name":"Bow East","fake_data":false,"parent_force_id":"metropolitan"}},{"type":"Feature","geometry":null,"properties":{"slot_id":"security_public_safety_2","evidence_scope":"coverage_exact_identifier","exact_identifier":"E05009320","exact_identifier_type":"data.police.uk.metropolitan.neighbourhood.id","coverage_area_name":"Bow West","fake_data":false,"parent_force_id":"metropolitan"}},{"type":"Feature","geometry":null,"properties":{"slot_id":"security_public_safety_2","evidence_scope":"coverage_exact_identifier","exact_identifier":"E05009321","exact_identifier_type":"data.police.uk.metropolitan.neighbourhood.id","coverage_area_name":"Bromley North","fake_data":false,"parent_force_id":"metropolitan"}},{"type":"Feature","geometry":null,"properties":{"slot_id":"security_public_safety_2","evidence_scope":"coverage_exact_identifier","exact_identifier":"E05009322","exact_identifier_type":"data.police.uk.metropolitan.neighbourhood.id","coverage_area_name":"Bromley South","fake_data":false,"parent_force_id":"metropolitan"}},{"type":"Feature","geometry":null,"properties":{"slot_id":"security_public_safety_2","evidence_scope":"coverage_exact_identifier","exact_identifier":"E05009323","exact_identifier_type":"data.police.uk.metropolitan.neighbourhood.id","coverage_area_name":"Canary Wharf","fake_data":false,"parent_force_id":"metropolitan"}},{"type":"Feature","geometry":null,"properties":{"slot_id":"security_public_safety_2","evidence_scope":"coverage_exact_identifier","exact_identifier":"E05009324","exact_identifier_type":"data.police.uk.metropolitan.neighbourhood.id","coverage_area_name":"Island Gardens","fake_data":false,"parent_force_id":"metropolitan"}},{"type":"Feature","geometry":null,"properties":{"slot_id":"security_public_safety_2","evidence_scope":"coverage_exact_identifier","exact_identifier":"E05009325","exact_identifier_type":"data.police.uk.metropolitan.neighbourhood.id","coverage_area_name":"Lansbury","fake_data":false,"parent_force_id":"metropolitan"}},{"type":"Feature","geometry":null,"properties":{"slot_id":"security_public_safety_2","evidence_scope":"coverage_exact_identifier","exact_identifier":"E05009326","exact_identifier_type":"data.police.uk.metropolitan.neighbourhood.id","coverage_area_name":"Limehouse","fake_data":false,"parent_force_id":"metropolitan"}},{"type":"Feature","geometry":null,"properties":{"slot_id":"security_public_safety_2","evidence_scope":"coverage_exact_identifier","exact_identifier":"E05009327","exact_identifier_type":"data.police.uk.metropolitan.neighbourhood.id","coverage_area_name":"Mile End","fake_data":false,"parent_force_id":"metropolitan"}},{"type":"Feature","geometry":null,"properties":{"slot_id":"security_public_safety_2","evidence_scope":"coverage_exact_identifier","exact_identifier":"E05009328","exact_identifier_type":"data.police.uk.metropolitan.neighbourhood.id","coverage_area_name":"Poplar","fake_data":false,"parent_force_id":"metropolitan"}},{"type":"Feature","geometry":null,"properties":{"slot_id":"security_public_safety_2","evidence_scope":"coverage_exact_identifier","exact_identifier":"E05009329","exact_identifier_type":"data.police.uk.metropolitan.neighbourhood.id","coverage_area_name":"St Dunstan's","fake_data":false,"parent_force_id":"metropolitan"}},{"type":"Feature","geometry":null,"properties":{"slot_id":"security_public_safety_2","evidence_scope":"coverage_exact_identifier","exact_identifier":"E05009330","exact_identifier_type":"data.police.uk.metropolitan.neighbourhood.id","coverage_area_name":"St Katharine's and Wapping","fake_data":false,"parent_force_id":"metropolitan"}},{"type":"Feature","geometry":null,"properties":{"slot_id":"security_public_safety_2","evidence_scope":"coverage_exact_identifier","exact_identifier":"E05009331","exact_identifier_type":"data.police.uk.metropolitan.neighbourhood.id","coverage_area_name":"Bethnal Green West","fake_data":false,"parent_force_id":"metropolitan"}},{"type":"Feature","geometry":null,"properties":{"slot_id":"security_public_safety_2","evidence_scope":"coverage_exact_identifier","exact_identifier":"E05009332","exact_identifier_type":"data.police.uk.metropolitan.neighbourhood.id","coverage_area_name":"Shadwell","fake_data":false,"parent_force_id":"metropolitan"}},{"type":"Feature","geometry":null,"properties":{"slot_id":"security_public_safety_2","evidence_scope":"coverage_exact_identifier","exact_identifier":"E05009333","exact_identifier_type":"data.police.uk.metropolitan.neighbourhood.id","coverage_area_name":"Spitalfields and Banglatown","fake_data":false,"parent_force_id":"metropolitan"}},{"type":"Feature","geometry":null,"properties":{"slot_id":"security_public_safety_2","evidence_scope":"coverage_exact_identifier","exact_identifier":"E05009334","exact_identifier_type":"data.police.uk.metropolitan.neighbourhood.id","coverage_area_name":"Stepney Green","fake_data":false,"parent_force_id":"metropolitan"}},{"type":"Feature","geometry":null,"properties":{"slot_id":"security_public_safety_2","evidence_scope":"coverage_exact_identifier","exact_identifier":"E05009335","exact_identifier_type":"data.police.uk.metropolitan.neighbourhood.id","coverage_area_name":"Weavers","fake_data":false,"parent_force_id":"metropolitan"}},{"type":"Feature","geometry":null,"properties":{"slot_id":"security_public_safety_2","evidence_scope":"coverage_exact_identifier","exact_identifier":"E05009336","exact_identifier_type":"data.police.uk.metropolitan.neighbourhood.id","coverage_area_name":"Whitechapel","fake_data":false,"parent_force_id":"metropolitan"}},{"type":"Feature","geometry":null,"properties":{"slot_id":"security_public_safety_2","evidence_scope":"coverage_exact_identifier","exact_identifier":"E05009367","exact_identifier_type":"data.police.uk.metropolitan.neighbourhood.id","coverage_area_name":"Brownswood","fake_data":false,"parent_force_id":"metropolitan"}},{"type":"Feature","geometry":null,"properties":{"slot_id":"security_public_safety_2","evidence_scope":"coverage_exact_identifier","exact_identifier":"E05009368","exact_identifier_type":"data.police.uk.metropolitan.neighbourhood.id","coverage_area_name":"Cazenove","fake_data":false,"parent_force_id":"metropolitan"}},{"type":"Feature","geometry":null,"properties":{"slot_id":"security_public_safety_2","evidence_scope":"coverage_exact_identifier","exact_identifier":"E05009369","exact_identifier_type":"data.police.uk.metropolitan.neighbourhood.id","coverage_area_name":"Clissold","fake_data":false,"parent_force_id":"metropolitan"}},{"type":"Feature","geometry":null,"properties":{"slot_id":"security_public_safety_2","evidence_scope":"coverage_exact_identifier","exact_identifier":"E05009370","exact_identifier_type":"data.police.uk.metropolitan.neighbourhood.id","coverage_area_name":"Dalston","fake_data":false,"parent_force_id":"metropolitan"}},{"type":"Feature","geometry":null,"properties":{"slot_id":"security_public_safety_2","evidence_scope":"coverage_exact_identifier","exact_identifier":"E05009371","exact_identifier_type":"data.police.uk.metropolitan.neighbourhood.id","coverage_area_name":"De Beauvoir","fake_data":false,"parent_force_id":"metropolitan"}},{"type":"Feature","geometry":null,"properties":{"slot_id":"security_public_safety_2","evidence_scope":"coverage_exact_identifier","exact_identifier":"E05009372","exact_identifier_type":"data.police.uk.metropolitan.neighbourhood.id","coverage_area_name":"Hackney Central","fake_data":false,"parent_force_id":"metropolitan"}},{"type":"Feature","geometry":null,"properties":{"slot_id":"security_public_safety_2","evidence_scope":"coverage_exact_identifier","exact_identifier":"E05009373","exact_identifier_type":"data.police.uk.metropolitan.neighbourhood.id","coverage_area_name":"Hackney Downs","fake_data":false,"parent_force_id":"metropolitan"}},{"type":"Feature","geometry":null,"properties":{"slot_id":"security_public_safety_2","evidence_scope":"coverage_exact_identifier","exact_identifier":"E05009374","exact_identifier_type":"data.police.uk.metropolitan.neighbourhood.id","coverage_area_name":"Hackney Wick","fake_data":false,"parent_force_id":"metropolitan"}},{"type":"Feature","geometry":null,"properties":{"slot_id":"security_public_safety_2","evidence_scope":"coverage_exact_identifier","exact_identifier":"E05009375N","exact_identifier_type":"data.police.uk.metropolitan.neighbourhood.id","coverage_area_name":"Haggerston","fake_data":false,"parent_force_id":"metropolitan"}},{"type":"Feature","geometry":null,"properties":{"slot_id":"security_public_safety_2","evidence_scope":"coverage_exact_identifier","exact_identifier":"E05009376","exact_identifier_type":"data.police.uk.metropolitan.neighbourhood.id","coverage_area_name":"Homerton","fake_data":false,"parent_force_id":"metropolitan"}},{"type":"Feature","geometry":null,"properties":{"slot_id":"security_public_safety_2","evidence_scope":"coverage_exact_identifier","exact_identifier":"E05009377N","exact_identifier_type":"data.police.uk.metropolitan.neighbourhood.id","coverage_area_name":"Hoxton East and Shoreditch","fake_data":false,"parent_force_id":"metropolitan"}},{"type":"Feature","geometry":null,"properties":{"slot_id":"security_public_safety_2","evidence_scope":"coverage_exact_identifier","exact_identifier":"E05009378","exact_identifier_type":"data.police.uk.metropolitan.neighbourhood.id","coverage_area_name":"Hoxton West","fake_data":false,"parent_force_id":"metropolitan"}},{"type":"Feature","geometry":null,"properties":{"slot_id":"security_public_safety_2","evidence_scope":"coverage_exact_identifier","exact_identifier":"E05009379","exact_identifier_type":"data.police.uk.metropolitan.neighbourhood.id","coverage_area_name":"King's Park","fake_data":false,"parent_force_id":"metropolitan"}},{"type":"Feature","geometry":null,"properties":{"slot_id":"security_public_safety_2","evidence_scope":"coverage_exact_identifier","exact_identifier":"E05009380","exact_identifier_type":"data.police.uk.metropolitan.neighbourhood.id","coverage_area_name":"Lea Bridge","fake_data":false,"parent_force_id":"metropolitan"}},{"type":"Feature","geometry":null,"properties":{"slot_id":"security_public_safety_2","evidence_scope":"coverage_exact_identifier","exact_identifier":"E05009381","exact_identifier_type":"data.police.uk.metropolitan.neighbourhood.id","coverage_area_name":"London Fields","fake_data":false,"parent_force_id":"metropolitan"}},{"type":"Feature","geometry":null,"properties":{"slot_id":"security_public_safety_2","evidence_scope":"coverage_exact_identifier","exact_identifier":"E05009382","exact_identifier_type":"data.police.uk.metropolitan.neighbourhood.id","coverage_area_name":"Shacklewell","fake_data":false,"parent_force_id":"metropolitan"}},{"type":"Feature","geometry":null,"properties":{"slot_id":"security_public_safety_2","evidence_scope":"coverage_exact_identifier","exact_identifier":"E05009383","exact_identifier_type":"data.police.uk.metropolitan.neighbourhood.id","coverage_area_name":"Springfield","fake_data":false,"parent_force_id":"metropolitan"}},{"type":"Feature","geometry":null,"properties":{"slot_id":"security_public_safety_2","evidence_scope":"coverage_exact_identifier","exact_identifier":"E05009384","exact_identifier_type":"data.police.uk.metropolitan.neighbourhood.id","coverage_area_name":"Stamford Hill West","fake_data":false,"parent_force_id":"metropolitan"}},{"type":"Feature","geometry":null,"properties":{"slot_id":"security_public_safety_2","evidence_scope":"coverage_exact_identifier","exact_identifier":"E05009385","exact_identifier_type":"data.police.uk.metropolitan.neighbourhood.id","coverage_area_name":"Stoke Newington","fake_data":false,"parent_force_id":"metropolitan"}},{"type":"Feature","geometry":null,"properties":{"slot_id":"security_public_safety_2","evidence_scope":"coverage_exact_identifier","exact_identifier":"E05009386","exact_identifier_type":"data.police.uk.metropolitan.neighbourhood.id","coverage_area_name":"Victoria","fake_data":false,"parent_force_id":"metropolitan"}},{"type":"Feature","geometry":null,"properties":{"slot_id":"security_public_safety_2","evidence_scope":"coverage_exact_identifier","exact_identifier":"E05009387","exact_identifier_type":"data.police.uk.metropolitan.neighbourhood.id","coverage_area_name":"Woodberry Down","fake_data":false,"parent_force_id":"metropolitan"}},{"type":"Feature","geometry":null,"properties":{"slot_id":"security_public_safety_2","evidence_scope":"coverage_exact_identifier","exact_identifier":"E05009388","exact_identifier_type":"data.police.uk.metropolitan.neighbourhood.id","coverage_area_name":"Abingdon","fake_data":false,"parent_force_id":"metropolitan"}},{"type":"Feature","geometry":null,"properties":{"slot_id":"security_public_safety_2","evidence_scope":"coverage_exact_identifier","exact_identifier":"E05009389","exact_identifier_type":"data.police.uk.metropolitan.neighbourhood.id","coverage_area_name":"Brompton and Hans Town","fake_data":false,"parent_force_id":"metropolitan"}},{"type":"Feature","geometry":null,"properties":{"slot_id":"security_public_safety_2","evidence_scope":"coverage_exact_identifier","exact_identifier":"E05009390N","exact_identifier_type":"data.police.uk.metropolitan.neighbourhood.id","coverage_area_name":"Campden","fake_data":false,"parent_force_id":"metropolitan"}},{"type":"Feature","geometry":null,"properties":{"slot_id":"security_public_safety_2","evidence_scope":"coverage_exact_identifier","exact_identifier":"E05009391","exact_identifier_type":"data.police.uk.metropolitan.neighbourhood.id","coverage_area_name":"Chelsea Riverside","fake_data":false,"parent_force_id":"metropolitan"}},{"type":"Feature","geometry":null,"properties":{"slot_id":"security_public_safety_2","evidence_scope":"coverage_exact_identifier","exact_identifier":"E05009392","exact_identifier_type":"data.police.uk.metropolitan.neighbourhood.id","coverage_area_name":"Colville","fake_data":false,"parent_force_id":"metropolitan"}},{"type":"Feature","geometry":null,"properties":{"slot_id":"security_public_safety_2","evidence_scope":"coverage_exact_identifier","exact_identifier":"E05009393","exact_identifier_type":"data.police.uk.metropolitan.neighbourhood.id","coverage_area_name":"Courtfield","fake_data":false,"parent_force_id":"metropolitan"}},{"type":"Feature","geometry":null,"properties":{"slot_id":"security_public_safety_2","evidence_scope":"coverage_exact_identifier","exact_identifier":"E05009394","exact_identifier_type":"data.police.uk.metropolitan.neighbourhood.id","coverage_area_name":"Dalgarno","fake_data":false,"parent_force_id":"metropolitan"}},{"type":"Feature","geometry":null,"properties":{"slot_id":"security_public_safety_2","evidence_scope":"coverage_exact_identifier","exact_identifier":"E05009395","exact_identifier_type":"data.police.uk.metropolitan.neighbourhood.id","coverage_area_name":"Earl's Court","fake_data":false,"parent_force_id":"metropolitan"}},{"type":"Feature","geometry":null,"properties":{"slot_id":"security_public_safety_2","evidence_scope":"coverage_exact_identifier","exact_identifier":"E05009396","exact_identifier_type":"data.police.uk.metropolitan.neighbourhood.id","coverage_area_name":"Golborne","fake_data":false,"parent_force_id":"metropolitan"}},{"type":"Feature","geometry":null,"properties":{"slot_id":"security_public_safety_2","evidence_scope":"coverage_exact_identifier","exact_identifier":"E05009397","exact_identifier_type":"data.police.uk.metropolitan.neighbourhood.id","coverage_area_name":"Holland","fake_data":false,"parent_force_id":"metropolitan"}},{"type":"Feature","geometry":null,"properties":{"slot_id":"security_public_safety_2","evidence_scope":"coverage_exact_identifier","exact_identifier":"E05009398","exact_identifier_type":"data.police.uk.metropolitan.neighbourhood.id","coverage_area_name":"Norland","fake_data":false,"parent_force_id":"metropolitan"}},{"type":"Feature","geometry":null,"properties":{"slot_id":"security_public_safety_2","evidence_scope":"coverage_exact_identifier","exact_identifier":"E05009399","exact_identifier_type":"data.police.uk.metropolitan.neighbourhood.id","coverage_area_name":"Notting Dale","fake_data":false,"parent_force_id":"metropolitan"}}],"metadata":{"source_area_count":55,"source_area_delta_this_turn":1,"latest_evidence_window":"POLICEUK_METROPOLITAN_NEIGHBOURHOODS_052_052","latest_status":"SOURCE_AREA_EXACT_IDENTIFIER_CAPTURED_LOCAL_BINDING_PENDING","first_missing_criterion":"LOCAL_OPENCODE_EXACT_IDENTIFIER_TO_CANONICAL_SPATIAL_BINDING","spatial_binding_method":"DEFERRED_TO_LOCAL_OPENCODE","materialized_parcel_count":0,"direct_parcel_count":0}}
