{"type":"FeatureCollection","features":[{"type":"Feature","id":"hastings-draft-local-plan:HS1","geometry":null,"properties":{"slot_id":"future_growth_4","lineage_id":"fg4-e4c9076d6f554f00","page_generation":1,"owner":"future_growth_4","partition":"future_growth","semantic_mode":"SOURCE_AREA_EXACT_IDENTIFIER","dataset":"hastings-draft-local-plan-preferred-options-2026","entity":"HS1","reference":"HS1","quality":"authoritative","organisation":"Hastings Borough Council","name":"Land adjacent to Sandrock Park, The Ridge","source_url":"https://hastings.oc2.uk/document/190/29856","final_url":"https://hastings.oc2.uk/document/190/29856","access_utc":"2026-10-02T12:56:00Z","data_date":"2026-04-07","license":"Hastings Borough Council official consultation publication; no explicit reuse licence stated on page","field_evidence":{"policy_reference":"HS1","site_name":"Land adjacent to Sandrock Park, The Ridge","use":"Residential","site_area_gross_ha":3.9,"site_area_net_developable_ha":2.6,"minimum_density_range_dph":"45-55","indicative_capacity_from":120,"indicative_capacity_to":140,"shelaa_reference":"HL140","plan_stage":"Draft Local Plan Preferred Options (Regulation 18)","consultation_end_date":"2026-04-07"},"evidence_slice_sha256":"6c9162550d5977a7d934913b47a4a89a1011b2593dcab3b303961b926f2a8ef2","confidence_score_0_100":99,"confidence":0.99,"evidence_grade":"A","exact_identifier_provided":true,"coverage_polygon_provided":false,"coverage_geometry_available":true,"coverage_geometry_source":"official page links HS1 to Hastings Borough Council ArcGIS map","fake_data":false,"join_mode":"LOCAL_OPENCODE_SPATIAL_JOIN_PENDING","direct_parcel":false,"source_area_count_contribution":1,"planned_building_count_contribution":0}}]}