{"type":"FeatureCollection","category":"AAYS_SOURCE_AREA_V1","semantic_mode":"AREA_JOIN","slot_id":"gas_emissions_5","features":[],"metadata":{"semantic_precheck":"PASS_NO_INVALID_RECORD_COMMITTED","candidate_rows_evaluated":47,"invalid_candidate_rows":47,"accepted_count":0,"source_area_count":13,"new_source_area_count":0,"materialized_parcel_count":0,"reason":"All 47 repo source rows fail parcel acceptance: wrong target authority for E09000012 and no canonical_parcel_id or Polygon/MultiPolygon."}}
