{
  "type": "FeatureCollection",
  "features": [
    {
      "type": "Feature",
      "id": "brownfield-site:1802760:93",
      "geometry": {
        "type": "MultiPolygon",
        "coordinates": [
          [
            [
              [
                -1.012064,
                53.489347
              ],
              [
                -1.011939,
                53.489353
              ],
              [
                -1.012088,
                53.489649
              ],
              [
                -1.012209,
                53.489829
              ],
              [
                -1.012313,
                53.489942
              ],
              [
                -1.012641,
                53.49009
              ],
              [
                -1.013285,
                53.490095
              ],
              [
                -1.013183,
                53.489334
              ],
              [
                -1.012064,
                53.489347
              ]
            ]
          ]
        ]
      },
      "properties": {
        "slot_id": "future_growth_7",
        "lineage_id": "future_growth_7_open_source_v2_20260813",
        "page_generation": null,
        "batch_id": "batch_20261009T070304Z_bfs1802760",
        "semantic_mode": "AREA_JOIN",
        "semantic_identity": "brownfield-site:1802760:93",
        "official_entity_id": 1802760,
        "official_reference": "93",
        "organisation": "Doncaster Metropolitan Borough Council",
        "source_url": "https://www.planning.data.gov.uk/entity/1802760",
        "final_url": "https://www.planning.data.gov.uk/entity/1802760",
        "http_status": null,
        "http_status_evidence": "official HTML available; geojson download endpoint examined but cache miss; HTTP header status not exposed",
        "accessed_utc": "2026-10-09T07:03:04Z",
        "data_date": "2025-12-03",
        "data_version": "official entry 2025-12-03",
        "licence": "Open Government Licence v3.0",
        "licence_url": "https://www.nationalarchives.gov.uk/doc/open-government-licence/version/3/",
        "source_window": "brownfield-site:entity:1802760:entry-2025-12-03",
        "dataset": "brownfield-site",
        "entity": 1802760,
        "reference": "93",
        "official_geojson_url": "https://www.planning.data.gov.uk/entity/1802760.geojson",
        "official_geojson_download_status": "cache miss; official HTML published geometry used",
        "source_sha256": "337bc26e0e83dbab833d52f5470417e957784d9007b0b6083fa75606e2ba7c60",
        "source_sha256_basis": "canonical published field_evidence JSON; not downloaded webpage bytes",
        "field_evidence": {
          "entry-date": "2025-12-03",
          "start-date": "",
          "end-date": "",
          "entity": 1802760,
          "name": "Land At First Avenue/Hayfield Lane, Auckley, Doncaster, DN9 3GA",
          "dataset": "brownfield-site",
          "typology": "geography",
          "reference": "93",
          "prefix": "brownfield-site",
          "organisation-entity": "109",
          "geometry": "MULTIPOLYGON (((-1.012064 53.489347, -1.011939 53.489353, -1.012088 53.489649, -1.012209 53.489829, -1.012313 53.489942, -1.012641 53.49009, -1.013285 53.490095, -1.013183 53.489334, -1.012064 53.489347)))",
          "point": "POINT (-1.012692 53.489687)",
          "quality": "authoritative",
          "brownfield-site": "93"
        },
        "evidence_slice_sha256": "cc7bfca363d2a0e3e3de2853d085bd5384671ca9092a1e601cacc3794fe00884",
        "evidence_grade": "A_OFFICIAL_PUBLISHED_MULTIPOLYGON",
        "confidence_score_0_100": 95,
        "official_geometry_available": true,
        "official_geometry_type": "MULTIPOLYGON",
        "source_geometry_materialized_here": true,
        "point_not_used_as_coverage": true,
        "source_area_only": true,
        "fake_data": false
      }
    }
  ]
}
