{"type":"FeatureCollection","features":[{"type":"Feature","geometry":null,"properties":{"evidence_scope":"coverage_area","coverage_area_id":"planning-data:brownfield-land:LBCBLR128","source_resolution":"official_identifier","time_window":"entry_date=2025-10-20","source_url":"https://www.planning.data.gov.uk/entity/1737131","measurement_date":"2025-10-20","measurement_method":"authoritative Planning Data brownfield-land identifier for London Borough of Camden","spatial_binding_method":"exact official identifier retained for downstream local OpenCode spatial join/materialization; no parcel acceptance in this package","confidence_score_0_100":100,"evidence_grade":"A","field_evidence":{"criterion":"future_growth","official_identifier":"LBCBLR128","entity":1737131,"dataset":"brownfield-land","organisation":"London Borough of Camden","organisation_entity":90,"quality":"authoritative","geometry_status":"identifier_only"}}}]}
