{"type":"FeatureCollection","features":[{"type":"Feature","geometry":null,"properties":{"slot_id":"future_growth_3","lineage_id":"future_growth_3-newstart-20261001T203100Z","page_generation":null,"accepted_as_parcel":false,"source_area_count_contribution":1,"exact_identifier":"HS1","exact_identifier_provided":true,"coverage_polygon_provided":false,"identifier_namespace":"Hastings Local Plan 2023-2041 Regulation 18 housing site allocation policy reference","secondary_exact_identifier":"SHELAA:HL140","source_entity":"HS1 - Land adjacent to Sandrock Park, The Ridge","access_utc":"2026-10-03T23:45:19Z","data_date":"2026-02","source_url":"https://hastings.oc2.uk/document/190/29856","final_url":"https://hastings.oc2.uk/document/190/29856","license":"No explicit open-data reuse licence identified on the cited Hastings Borough Council Regulation 18 consultation page; Council and applicable Ordnance Survey/third-party mapping rights apply.","authority":"Hastings Borough Council","site_address":"Land adjacent to Sandrock Park, The Ridge, Hastings","field_evidence":{"reference":"HS1","shelaa_reference":"HL140","dataset":"Hastings Local Plan Draft Local Plan Preferred Options (Regulation 18)","organisation":"Hastings Borough Council","site_name":"Land adjacent to Sandrock Park, The Ridge","use":"Residential","site_area_gross_ha":3.9,"site_area_net_developable_ha":2.6,"minimum_density_range_dwellings_per_ha":"45-55","indicative_capacity_min":120,"indicative_capacity_max":140,"consultation_end_date":"2026-04-07","arcgis_app_id":"c8c615dc1e7f49d3a867d6d3a487b91b","arcgis_hbcref":"HS1 - Land adjacent to Sandrock Park, The Ridge"},"source_payload_sha256":"8a338b55264391c0dec27ebfc82fc35d3322c2afe799545e45ee349764423e9d","source_payload_sha256_basis":"canonicalized official Hastings Borough Council Policy HS1 evidence fields","evidence_slice_sha256":"37b49997024448ad3ad6742f068c4c5079d93e7fd2362716d8eb232d8ac9d63b","evidence_grade":"A","confidence_score_0_100":99,"evidence_scope":"exact_official_identifier_from_hastings_council_regulation18_policy_HS1_with_direct_council_arcgis_HBCREF","fake_data":false,"spatial_binding_method":"official Hastings Borough Council Policy HS1 plus direct Council ArcGIS HBCREF deep-link; polygon extraction, canonical parcel spatial join, and materialization delegated to local OpenCode","planned_building_count_contribution":0}}]}