{
  "type": "FeatureCollection",
  "features": [
    {
      "type": "Feature",
      "id": "planning-data:brownfield-site:1801278",
      "properties": {
        "slot_id": "future_growth_4",
        "lineage_id": "fg4-e4c9076d6f554f00",
        "page_generation": 1,
        "owner": "future_growth_4",
        "partition": "future_growth",
        "semantic_mode": "SOURCE_AREA_EXACT_IDENTIFIER",
        "batch_id": "20261009T101334Z_b040_BROWNFIELD_1801278",
        "dataset": "brownfield-site",
        "entity": 1801278,
        "reference": "RBG-88",
        "semantic_identity": "planning-data:brownfield-site:1801278",
        "name": "“3-5 Tunnel Ave Greenwich“",
        "organisation": "Royal Borough of Greenwich",
        "source_url": "https://www.planning.data.gov.uk/entity/1801278",
        "final_url": "https://www.planning.data.gov.uk/entity/1801278",
        "http_status": "HTTP_STATUS_NOT_EXPOSED_BY_WEB_RETRIEVAL",
        "access_utc": "2026-10-09T10:13:34.354Z",
        "data_date": "2020-12-22",
        "license": "Open Government Licence v3.0",
        "field_evidence": {
          "entry-date": "2020-12-22",
          "start-date": "",
          "end-date": "",
          "entity": 1801278,
          "name": "“3-5 Tunnel Ave Greenwich“",
          "dataset": "brownfield-site",
          "typology": "geography",
          "reference": "RBG-88",
          "prefix": "brownfield-site",
          "organisation-entity": "150",
          "geometry": "MULTIPOLYGON (((0.015706 51.486951, 0.015576 51.486679, 0.015932 51.486519, 0.016187 51.486739, 0.015706 51.486951)))",
          "point": "POINT (0.015855 51.486728)",
          "quality": "some",
          "notes": "“Not started.",
          "brownfield-site": "RBG-88",
          "organisation-curie": "local-authority:GRE"
        },
        "evidence_slice_sha256": "1bde9503a90ee3e3c77a28dffdc82404f6ae7915fe89c98fbfdc02ab745abd67",
        "geometry_sha256": "cb29c264d5b779c6d0447ac4da89a67566bf09062ae37e8348def2b522e967b0",
        "confidence_score_0_100": 80,
        "confidence": 0.8,
        "evidence_grade": "B",
        "exact_identifier_provided": false,
        "coverage_polygon_provided": true,
        "fake_data": false,
        "join_mode": "LOCAL_OPENCODE_SPATIAL_JOIN_PENDING",
        "direct_parcel": false,
        "source_area_count_contribution": 1,
        "planned_building_count_contribution": 0
      },
      "geometry": {
        "type": "MultiPolygon",
        "coordinates": [
          [
            [
              [
                0.015706,
                51.486951
              ],
              [
                0.015576,
                51.486679
              ],
              [
                0.015932,
                51.486519
              ],
              [
                0.016187,
                51.486739
              ],
              [
                0.015706,
                51.486951
              ]
            ]
          ]
        ]
      }
    }
  ]
}
