{"type":"FeatureCollection","features":[{"type":"Feature","id":"planning-data-brownfield-land:1717256","geometry":null,"properties":{"slot_id":"future_growth_4","lineage_id":"fg4-e4c9076d6f554f00","page_generation":1,"owner":"future_growth_4","partition":"future_growth","semantic_mode":"SOURCE_AREA_EXACT_IDENTIFIER","dataset":"planning-data-brownfield-land","entity":1717256,"reference":"BR00041","quality":"authoritative","organisation":"London Borough of Brent","name":"BR00041","site_address":"BNSA1 - Capitol Way Valley","source_url":"https://www.planning.data.gov.uk/entity/1717256","final_url":"https://www.planning.data.gov.uk/entity/1717256","access_utc":"2026-10-02T15:31:53Z","data_date":"2022-03-04","license":"Open Government Licence v3.0","field_evidence":{"entity":1717256,"reference":"BR00041","organisation":"London Borough of Brent","site_address":"BNSA1 - Capitol Way Valley","point":"POINT (-0.265063 51.594535)","hectares":12.61,"deliverable":"yes","ownership_status":"not-owned-by-a-public-authority","minimum_net_dwellings":414,"maximum_net_dwellings":414,"planning_permission_date":"2021-06-18","planning_permission_type":"full-planning-permission","planning_permission_status":"permissioned","notes":"19/4545 granted for 501 units - encopasses part of the site. Brent Local Plan Site Allocation Reference BNSA1"},"evidence_slice_sha256":"585e9f4d20585da8016aeea1d646cbf1ca1886886c7bfd36d8109cd3b89abddc","confidence_score_0_100":99,"confidence":0.99,"evidence_grade":"A","exact_identifier_provided":true,"coverage_polygon_provided":false,"point":"POINT (-0.265063 51.594535)","geojson_download_link_exposed":true,"fake_data":false,"join_mode":"LOCAL_OPENCODE_SPATIAL_JOIN_PENDING","direct_parcel":false,"source_area_count_contribution":1,"planned_building_count_contribution":0}}]}