{"type":"FeatureCollection","features":[{"type":"Feature","id":"CHERWELL_23_03327_F_DETACHED_GARAGE_01","geometry":null,"properties":{"slot_id":"planned_buildings_4","owner":"planned_buildings_4","lineage_id":"pb4-8debc7c8ddf348a2","page_generation":1,"partition":"layer24","schema":"AAYS_LAYER24_EVIDENCE_V1","semantic_mode":"PLANNED_BUILDINGS_OFFICIAL_REFERENCE_DISTINCT_STRUCTURE","batch_id":"20261004T171615Z-cherwell-23-03327-f-window-001","publisher":"Cherwell District Council","source_family":"CHERWELL_PLANNING_REGISTER","source_url":"https://planningregister.cherwell.gov.uk/Planning/Display/23/03327/F","final_url":"https://planningregister.cherwell.gov.uk/Planning/Display/23/03327/F","access_utc":"2026-10-04T17:16:15Z","data_date":"2023-12-27","license":"Public planning register; document copyright/usage remains governed by council register terms","planning_reference":"23/03327/F","location":"68 Ravencroft Bicester OX26 6YQ","proposal":"Single storey rear extension, two storey side extension, first floor extension to the side, garage conversion and new detached garage to the front","status":"Application Permitted","geometry_status":"NOT_MATERIALIZED_LOCAL_OPENCODE","field_evidence":"Official Cherwell District Council Planning Register application 23/03327/F. Application Type: Full Development. Status: Application Permitted. Valid date: 27/12/2023. Location: 68 Ravencroft Bicester OX26 6YQ. Proposal: Single storey rear extension, two storey side extension, first floor extension to the side, garage conversion and new detached garage to the front. Decision: Permitted. Decision Issued Date: 25/04/2024. Official documents include Location/block plans drawing S1027-00a revision A; Proposed GF plan drawing S1027-03 revision B; Proposed FF plan drawing S1027-04 revision B; Proposed elevations drawing S1027-07 revision B; and dedicated Garage proposed elevations/floor plans drawing S1027-09 revision A. The official proposal explicitly identifies one new detached garage to the front. The single-storey rear extension, two-storey side extension, first-floor side extension and garage conversion are works to the existing dwelling/garage and are not counted as additional distinct new structures. The dedicated garage drawing and proposed block plan support the same single planned detached garage. Geometry/materialization is deferred to local OpenCode.","evidence_slice_sha256":"7aea867d1c7c3f3cceaffc73aead02c785ce51dab463a4a8101d5ca50452954e","confidence":0.99,"evidence_grade":"A_OFFICIAL_LOCAL_AUTHORITY_PLANNING_REGISTER_SINGLE_DETACHED_GARAGE_PERMITTED","fake_data":false,"source_record_id":"CHERWELL_23_03327_F_DETACHED_GARAGE_01","planned_building":"detached garage","official_plan_reference":"S1027-00a-A; S1027-03-B; S1027-04-B; S1027-07-B; S1027-09-A","official_plan_description":"Location/block plans; Proposed GF plan; Proposed FF plan; Proposed elevations; Garage proposed elevations/floor plans"}}]}
