{"type":"FeatureCollection","name":"building_type_2_batch_0048","features":[{"type":"Feature","id":"42116425","geometry":{"type":"MultiPolygon","coordinates":[[[[-0.179979,51.556598],[-0.18002,51.556676],[-0.180035,51.556677],[-0.180037,51.556647],[-0.18006,51.556647],[-0.180058,51.55666],[-0.180058,51.556677],[-0.180084,51.556677],[-0.180085,51.556667],[-0.180101,51.556668],[-0.180101,51.556654],[-0.180174,51.556656],[-0.180173,51.55667],[-0.180186,51.556671],[-0.180185,51.556679],[-0.180227,51.556681],[-0.180228,51.556672],[-0.180244,51.556672],[-0.180245,51.556658],[-0.180278,51.556659],[-0.180279,51.556653],[-0.180316,51.556654],[-0.180314,51.556682],[-0.180383,51.556683],[-0.180385,51.556656],[-0.180421,51.556658],[-0.18042,51.556662],[-0.180448,51.556663],[-0.180447,51.556677],[-0.180459,51.556677],[-0.180458,51.556686],[-0.180508,51.556686],[-0.180509,51.556679],[-0.180523,51.55668],[-0.180524,51.556667],[-0.180558,51.556668],[-0.180593,51.55667],[-0.180591,51.556682],[-0.180605,51.556682],[-0.180604,51.55669],[-0.180625,51.556691],[-0.180632,51.556616],[-0.180491,51.556611],[-0.180491,51.556614],[-0.180417,51.556612],[-0.180417,51.556604],[-0.180372,51.556603],[-0.180371,51.55661],[-0.180333,51.556608],[-0.180333,51.556601],[-0.18029,51.5566],[-0.180289,51.556609],[-0.180282,51.556609],[-0.179979,51.556598]]]]},"properties":{"slot_id":"building_type_2","lineage_id":"building_type_2-20260930T173100Z-newstart","batch_id":"batch-0048","page_generation":1,"source_entity":42116425,"source_reference":"LB253","source_dataset":"listed-building-outline","source_organisation":"London Borough of Camden","building_evidence_status":"BUILDING_PRESENT","parcel_status":"UNPROCESSED","canonical_parcel_id":null,"building_type":"listed_building","building_use":null,"poi_accepted":false,"field_evidence":{"footprint":"official listed-building-outline MULTIPOLYGON","type":"official dataset classification: listed-building-outline","reference":"LB253","quality":"authoritative","name":"Nos.1-9 (Consecutive)"},"source_url":"https://www.planning.data.gov.uk/entity/42116425","final_url":"https://www.planning.data.gov.uk/entity/42116425","access_utc":"2026-10-05T14:44:37Z","data_date":"2025-11-03","licence":"Open Government Licence v3.0","evidence_slice_sha256":"6a09a7147da45de9538ce4f68e53fd736fe9b2ff552e9cb5578c94f4b59bc7d6","confidence_score_0_100":96,"evidence_grade":"A","fake_data":false,"local_spatial_join_required":true}}]}