{"type":"FeatureCollection","features":[{"type":"Feature","geometry":null,"properties":{"slot_id":"planned_buildings_1","lineage_id":"planned_buildings_1-0ffc4ebd6c6e4e41","semantic_mode":"DISTINCT_BUILDINGS","planned_building_id":"planning-application:W/26/02142/FUL::DWELLING_01","building_status":"PLANNED","building_name":"Dwelling 1, Bishampton Road","planning_reference":"W/26/02142/FUL","authority":"Wychavon District Council","source_url":"https://plan.wychavon.gov.uk/Planning/Display/W/26/02142/FUL","final_url":"https://plan.wychavon.gov.uk/Planning/Display/W/26/02142/FUL","access_utc":"2026-10-04T23:32:00Z","source_data_date":"2026-09-21","license":"Council planning-register copyright/consultation terms; no separate data licence stated on page","geometry_role":"null; no geometry inferred","field_evidence":"Valid; Pending Decision; decision Pending; proposal explicitly states erection of 9 dwellings.","identity_limitation":"Official proposal text explicitly identifies nine new dwellings; this record represents one ordinal dwelling from explicit source cardinality, without inferred footprint or location.","confidence_score_0_100":99,"evidence_grade":"A","fake_data":false}},{"type":"Feature","geometry":null,"properties":{"slot_id":"planned_buildings_1","lineage_id":"planned_buildings_1-0ffc4ebd6c6e4e41","semantic_mode":"DISTINCT_BUILDINGS","planned_building_id":"planning-application:W/26/02142/FUL::DWELLING_02","building_status":"PLANNED","building_name":"Dwelling 2, Bishampton Road","planning_reference":"W/26/02142/FUL","authority":"Wychavon District Council","source_url":"https://plan.wychavon.gov.uk/Planning/Display/W/26/02142/FUL","final_url":"https://plan.wychavon.gov.uk/Planning/Display/W/26/02142/FUL","access_utc":"2026-10-04T23:32:00Z","source_data_date":"2026-09-21","license":"Council planning-register copyright/consultation terms; no separate data licence stated on page","geometry_role":"null; no geometry inferred","field_evidence":"Valid; Pending Decision; decision Pending; proposal explicitly states erection of 9 dwellings.","identity_limitation":"Official proposal text explicitly identifies nine new dwellings; this record represents one ordinal dwelling from explicit source cardinality, without inferred footprint or location.","confidence_score_0_100":99,"evidence_grade":"A","fake_data":false}},{"type":"Feature","geometry":null,"properties":{"slot_id":"planned_buildings_1","lineage_id":"planned_buildings_1-0ffc4ebd6c6e4e41","semantic_mode":"DISTINCT_BUILDINGS","planned_building_id":"planning-application:W/26/02142/FUL::DWELLING_03","building_status":"PLANNED","building_name":"Dwelling 3, Bishampton Road","planning_reference":"W/26/02142/FUL","authority":"Wychavon District Council","source_url":"https://plan.wychavon.gov.uk/Planning/Display/W/26/02142/FUL","final_url":"https://plan.wychavon.gov.uk/Planning/Display/W/26/02142/FUL","access_utc":"2026-10-04T23:32:00Z","source_data_date":"2026-09-21","license":"Council planning-register copyright/consultation terms; no separate data licence stated on page","geometry_role":"null; no geometry inferred","field_evidence":"Valid; Pending Decision; decision Pending; proposal explicitly states erection of 9 dwellings.","identity_limitation":"Official proposal text explicitly identifies nine new dwellings; this record represents one ordinal dwelling from explicit source cardinality, without inferred footprint or location.","confidence_score_0_100":99,"evidence_grade":"A","fake_data":false}},{"type":"Feature","geometry":null,"properties":{"slot_id":"planned_buildings_1","lineage_id":"planned_buildings_1-0ffc4ebd6c6e4e41","semantic_mode":"DISTINCT_BUILDINGS","planned_building_id":"planning-application:W/26/02142/FUL::DWELLING_04","building_status":"PLANNED","building_name":"Dwelling 4, Bishampton Road","planning_reference":"W/26/02142/FUL","authority":"Wychavon District Council","source_url":"https://plan.wychavon.gov.uk/Planning/Display/W/26/02142/FUL","final_url":"https://plan.wychavon.gov.uk/Planning/Display/W/26/02142/FUL","access_utc":"2026-10-04T23:32:00Z","source_data_date":"2026-09-21","license":"Council planning-register copyright/consultation terms; no separate data licence stated on page","geometry_role":"null; no geometry inferred","field_evidence":"Valid; Pending Decision; decision Pending; proposal explicitly states erection of 9 dwellings.","identity_limitation":"Official proposal text explicitly identifies nine new dwellings; this record represents one ordinal dwelling from explicit source cardinality, without inferred footprint or location.","confidence_score_0_100":99,"evidence_grade":"A","fake_data":false}},{"type":"Feature","geometry":null,"properties":{"slot_id":"planned_buildings_1","lineage_id":"planned_buildings_1-0ffc4ebd6c6e4e41","semantic_mode":"DISTINCT_BUILDINGS","planned_building_id":"planning-application:W/26/02142/FUL::DWELLING_05","building_status":"PLANNED","building_name":"Dwelling 5, Bishampton Road","planning_reference":"W/26/02142/FUL","authority":"Wychavon District Council","source_url":"https://plan.wychavon.gov.uk/Planning/Display/W/26/02142/FUL","final_url":"https://plan.wychavon.gov.uk/Planning/Display/W/26/02142/FUL","access_utc":"2026-10-04T23:32:00Z","source_data_date":"2026-09-21","license":"Council planning-register copyright/consultation terms; no separate data licence stated on page","geometry_role":"null; no geometry inferred","field_evidence":"Valid; Pending Decision; decision Pending; proposal explicitly states erection of 9 dwellings.","identity_limitation":"Official proposal text explicitly identifies nine new dwellings; this record represents one ordinal dwelling from explicit source cardinality, without inferred footprint or location.","confidence_score_0_100":99,"evidence_grade":"A","fake_data":false}},{"type":"Feature","geometry":null,"properties":{"slot_id":"planned_buildings_1","lineage_id":"planned_buildings_1-0ffc4ebd6c6e4e41","semantic_mode":"DISTINCT_BUILDINGS","planned_building_id":"planning-application:W/26/02142/FUL::DWELLING_06","building_status":"PLANNED","building_name":"Dwelling 6, Bishampton Road","planning_reference":"W/26/02142/FUL","authority":"Wychavon District Council","source_url":"https://plan.wychavon.gov.uk/Planning/Display/W/26/02142/FUL","final_url":"https://plan.wychavon.gov.uk/Planning/Display/W/26/02142/FUL","access_utc":"2026-10-04T23:32:00Z","source_data_date":"2026-09-21","license":"Council planning-register copyright/consultation terms; no separate data licence stated on page","geometry_role":"null; no geometry inferred","field_evidence":"Valid; Pending Decision; decision Pending; proposal explicitly states erection of 9 dwellings.","identity_limitation":"Official proposal text explicitly identifies nine new dwellings; this record represents one ordinal dwelling from explicit source cardinality, without inferred footprint or location.","confidence_score_0_100":99,"evidence_grade":"A","fake_data":false}},{"type":"Feature","geometry":null,"properties":{"slot_id":"planned_buildings_1","lineage_id":"planned_buildings_1-0ffc4ebd6c6e4e41","semantic_mode":"DISTINCT_BUILDINGS","planned_building_id":"planning-application:W/26/02142/FUL::DWELLING_07","building_status":"PLANNED","building_name":"Dwelling 7, Bishampton Road","planning_reference":"W/26/02142/FUL","authority":"Wychavon District Council","source_url":"https://plan.wychavon.gov.uk/Planning/Display/W/26/02142/FUL","final_url":"https://plan.wychavon.gov.uk/Planning/Display/W/26/02142/FUL","access_utc":"2026-10-04T23:32:00Z","source_data_date":"2026-09-21","license":"Council planning-register copyright/consultation terms; no separate data licence stated on page","geometry_role":"null; no geometry inferred","field_evidence":"Valid; Pending Decision; decision Pending; proposal explicitly states erection of 9 dwellings.","identity_limitation":"Official proposal text explicitly identifies nine new dwellings; this record represents one ordinal dwelling from explicit source cardinality, without inferred footprint or location.","confidence_score_0_100":99,"evidence_grade":"A","fake_data":false}},{"type":"Feature","geometry":null,"properties":{"slot_id":"planned_buildings_1","lineage_id":"planned_buildings_1-0ffc4ebd6c6e4e41","semantic_mode":"DISTINCT_BUILDINGS","planned_building_id":"planning-application:W/26/02142/FUL::DWELLING_08","building_status":"PLANNED","building_name":"Dwelling 8, Bishampton Road","planning_reference":"W/26/02142/FUL","authority":"Wychavon District Council","source_url":"https://plan.wychavon.gov.uk/Planning/Display/W/26/02142/FUL","final_url":"https://plan.wychavon.gov.uk/Planning/Display/W/26/02142/FUL","access_utc":"2026-10-04T23:32:00Z","source_data_date":"2026-09-21","license":"Council planning-register copyright/consultation terms; no separate data licence stated on page","geometry_role":"null; no geometry inferred","field_evidence":"Valid; Pending Decision; decision Pending; proposal explicitly states erection of 9 dwellings.","identity_limitation":"Official proposal text explicitly identifies nine new dwellings; this record represents one ordinal dwelling from explicit source cardinality, without inferred footprint or location.","confidence_score_0_100":99,"evidence_grade":"A","fake_data":false}},{"type":"Feature","geometry":null,"properties":{"slot_id":"planned_buildings_1","lineage_id":"planned_buildings_1-0ffc4ebd6c6e4e41","semantic_mode":"DISTINCT_BUILDINGS","planned_building_id":"planning-application:W/26/02142/FUL::DWELLING_09","building_status":"PLANNED","building_name":"Dwelling 9, Bishampton Road","planning_reference":"W/26/02142/FUL","authority":"Wychavon District Council","source_url":"https://plan.wychavon.gov.uk/Planning/Display/W/26/02142/FUL","final_url":"https://plan.wychavon.gov.uk/Planning/Display/W/26/02142/FUL","access_utc":"2026-10-04T23:32:00Z","source_data_date":"2026-09-21","license":"Council planning-register copyright/consultation terms; no separate data licence stated on page","geometry_role":"null; no geometry inferred","field_evidence":"Valid; Pending Decision; decision Pending; proposal explicitly states erection of 9 dwellings.","identity_limitation":"Official proposal text explicitly identifies nine new dwellings; this record represents one ordinal dwelling from explicit source cardinality, without inferred footprint or location.","confidence_score_0_100":99,"evidence_grade":"A","fake_data":false}}]}