{"features":[{"geometry":null,"id":"LIDAR_Composite_1m_DTM_2022_extents.1","properties":{"ed_flown":"2000-06-06","fid":"LIDAR_Composite_1m_DTM_2022_extents.1","filename":"V0011335","od_dtm_fn":"DTM_V0011335_20000606_20000606","polygon_id":"P_1656","resolution":1,"sd_flown":"2000-06-06","tilename":"SW4624","year":2000},"type":"Feature"},{"geometry":null,"id":"LIDAR_Composite_1m_DTM_2022_extents.2","properties":{"ed_flown":"2003-07-14","fid":"LIDAR_Composite_1m_DTM_2022_extents.2","filename":"V0028526","od_dtm_fn":"DTM_V0028526_20030714_20030714","polygon_id":"P_2410","resolution":0.5,"sd_flown":"2003-07-14","tilename":"SY5087","year":2003},"type":"Feature"},{"geometry":null,"id":"LIDAR_Composite_1m_DTM_2022_extents.3","properties":{"ed_flown":"2003-07-14","fid":"LIDAR_Composite_1m_DTM_2022_extents.3","filename":"V0028533","od_dtm_fn":"DTM_V0028533_20030714_20030714","polygon_id":"P_2410","resolution":0.5,"sd_flown":"2003-07-14","tilename":"SY5286","year":2003},"type":"Feature"},{"geometry":null,"id":"LIDAR_Composite_1m_DTM_2022_extents.4","properties":{"ed_flown":"2003-07-14","fid":"LIDAR_Composite_1m_DTM_2022_extents.4","filename":"V0028536","od_dtm_fn":"DTM_V0028536_20030714_20030714","polygon_id":"P_2410","resolution":0.5,"sd_flown":"2003-07-14","tilename":"SY5385","year":2003},"type":"Feature"},{"geometry":null,"id":"LIDAR_Composite_1m_DTM_2022_extents.5","properties":{"ed_flown":"2003-07-14","fid":"LIDAR_Composite_1m_DTM_2022_extents.5","filename":"V0028545","od_dtm_fn":"DTM_V0028545_20030714_20030714","polygon_id":"P_2410","resolution":0.5,"sd_flown":"2003-07-14","tilename":"SY5584","year":2003},"type":"Feature"},{"geometry":null,"id":"LIDAR_Composite_1m_DTM_2022_extents.6","properties":{"ed_flown":"2003-07-14","fid":"LIDAR_Composite_1m_DTM_2022_extents.6","filename":"V0028548","od_dtm_fn":"DTM_V0028548_20030714_20030714","polygon_id":"P_2410","resolution":0.5,"sd_flown":"2003-07-14","tilename":"SY5683","year":2003},"type":"Feature"},{"geometry":null,"id":"LIDAR_Composite_1m_DTM_2022_extents.7","properties":{"ed_flown":"2003-07-14","fid":"LIDAR_Composite_1m_DTM_2022_extents.7","filename":"V0028552","od_dtm_fn":"DTM_V0028552_20030714_20030714","polygon_id":"P_2410","resolution":0.5,"sd_flown":"2003-07-14","tilename":"SY5782","year":2003},"type":"Feature"},{"geometry":null,"id":"LIDAR_Composite_1m_DTM_2022_extents.8","properties":{"ed_flown":"2003-07-14","fid":"LIDAR_Composite_1m_DTM_2022_extents.8","filename":"V0028571","od_dtm_fn":"DTM_V0028571_20030714_20030714","polygon_id":"P_2410","resolution":0.5,"sd_flown":"2003-07-14","tilename":"SY6179","year":2003},"type":"Feature"},{"geometry":null,"id":"LIDAR_Composite_1m_DTM_2022_extents.9","properties":{"ed_flown":"2003-07-14","fid":"LIDAR_Composite_1m_DTM_2022_extents.9","filename":"V0028576","od_dtm_fn":"DTM_V0028576_20030714_20030714","polygon_id":"P_2410","resolution":0.5,"sd_flown":"2003-07-14","tilename":"SY6278","year":2003},"type":"Feature"},{"geometry":null,"id":"LIDAR_Composite_1m_DTM_2022_extents.10","properties":{"ed_flown":"2003-07-14","fid":"LIDAR_Composite_1m_DTM_2022_extents.10","filename":"V0028581","od_dtm_fn":"DTM_V0028581_20030714_20030714","polygon_id":"P_2410","resolution":0.5,"sd_flown":"2003-07-14","tilename":"SY6377","year":2003},"type":"Feature"},{"geometry":null,"id":"LIDAR_Composite_1m_DTM_2022_extents.11","properties":{"ed_flown":"2003-07-14","fid":"LIDAR_Composite_1m_DTM_2022_extents.11","filename":"V0028598","od_dtm_fn":"DTM_V0028598_20030714_20030714","polygon_id":"P_2410","resolution":0.5,"sd_flown":"2003-07-14","tilename":"SY6674","year":2003},"type":"Feature"},{"geometry":null,"id":"LIDAR_Composite_1m_DTM_2022_extents.12","properties":{"ed_flown":"2003-12-07","fid":"LIDAR_Composite_1m_DTM_2022_extents.12","filename":"V0030522","od_dtm_fn":"DTM_V0030522_20031207_20031207","polygon_id":"P_2625","resolution":1,"sd_flown":"2003-12-07","tilename":"SD2666","year":2003},"type":"Feature"},{"geometry":null,"id":"LIDAR_Composite_1m_DTM_2022_extents.13","properties":{"ed_flown":"2003-12-07","fid":"LIDAR_Composite_1m_DTM_2022_extents.13","filename":"V0030523","od_dtm_fn":"DTM_V0030523_20031207_20031207","polygon_id":"P_2625","resolution":1,"sd_flown":"2003-12-07","tilename":"SD2668","year":2003},"type":"Feature"},{"geometry":null,"id":"LIDAR_Composite_1m_DTM_2022_extents.14","properties":{"ed_flown":"2003-12-07","fid":"LIDAR_Composite_1m_DTM_2022_extents.14","filename":"V0030527","od_dtm_fn":"DTM_V0030527_20031207_20031207","polygon_id":"P_2625","resolution":1,"sd_flown":"2003-12-07","tilename":"SD2868","year":2003},"type":"Feature"},{"geometry":null,"id":"LIDAR_Composite_1m_DTM_2022_extents.15","properties":{"ed_flown":"2003-12-07","fid":"LIDAR_Composite_1m_DTM_2022_extents.15","filename":"V0030528","od_dtm_fn":"DTM_V0030528_20031207_20031207","polygon_id":"P_2625","resolution":1,"sd_flown":"2003-12-07","tilename":"SD2870","year":2003},"type":"Feature"},{"geometry":null,"id":"LIDAR_Composite_1m_DTM_2022_extents.16","properties":{"ed_flown":"2003-12-07","fid":"LIDAR_Composite_1m_DTM_2022_extents.16","filename":"V0030532","od_dtm_fn":"DTM_V0030532_20031207_20031207","polygon_id":"P_2625","resolution":1,"sd_flown":"2003-12-07","tilename":"SD3070","year":2003},"type":"Feature"},{"geometry":null,"id":"LIDAR_Composite_1m_DTM_2022_extents.17","properties":{"ed_flown":"2003-12-07","fid":"LIDAR_Composite_1m_DTM_2022_extents.17","filename":"V0030533","od_dtm_fn":"DTM_V0030533_20031207_20031207","polygon_id":"P_2625","resolution":1,"sd_flown":"2003-12-07","tilename":"SD3072","year":2003},"type":"Feature"},{"geometry":null,"id":"LIDAR_Composite_1m_DTM_2022_extents.18","properties":{"ed_flown":"2003-12-07","fid":"LIDAR_Composite_1m_DTM_2022_extents.18","filename":"V0030534","od_dtm_fn":"DTM_V0030534_20031207_20031207","polygon_id":"P_2625","resolution":1,"sd_flown":"2003-12-07","tilename":"SD3074","year":2003},"type":"Feature"},{"geometry":null,"id":"LIDAR_Composite_1m_DTM_2022_extents.19","properties":{"ed_flown":"2003-12-07","fid":"LIDAR_Composite_1m_DTM_2022_extents.19","filename":"V0030536","od_dtm_fn":"DTM_V0030536_20031207_20031207","polygon_id":"P_2625","resolution":1,"sd_flown":"2003-12-07","tilename":"SD3272","year":2003},"type":"Feature"},{"geometry":null,"id":"LIDAR_Composite_1m_DTM_2022_extents.20","properties":{"ed_flown":"2003-12-07","fid":"LIDAR_Composite_1m_DTM_2022_extents.20","filename":"V0030537","od_dtm_fn":"DTM_V0030537_20031207_20031207","polygon_id":"P_2625","resolution":1,"sd_flown":"2003-12-07","tilename":"SD3274","year":2003},"type":"Feature"},{"geometry":null,"id":"LIDAR_Composite_1m_DTM_2022_extents.21","properties":{"ed_flown":"2004-08-19","fid":"LIDAR_Composite_1m_DTM_2022_extents.21","filename":"V0034586","od_dtm_fn":"DTM_V0034586_20040819_20040819","polygon_id":"P_3033","resolution":1,"sd_flown":"2004-08-19","tilename":"SX1295","year":2004},"type":"Feature"},{"geometry":null,"id":"LIDAR_Composite_1m_DTM_2022_extents.22","properties":{"ed_flown":"2004-08-19","fid":"LIDAR_Composite_1m_DTM_2022_extents.22","filename":"V0034587","od_dtm_fn":"DTM_V0034587_20040819_20040819","polygon_id":"P_3033","resolution":1,"sd_flown":"2004-08-19","tilename":"SX1296","year":2004},"type":"Feature"},{"geometry":null,"id":"LIDAR_Composite_1m_DTM_2022_extents.23","properties":{"ed_flown":"2004-08-19","fid":"LIDAR_Composite_1m_DTM_2022_extents.23","filename":"V0034598","od_dtm_fn":"DTM_V0034598_20040819_20040819","polygon_id":"P_3033","resolution":1,"sd_flown":"2004-08-19","tilename":"SX1397","year":2004},"type":"Feature"},{"geometry":null,"id":"LIDAR_Composite_1m_DTM_2022_extents.24","properties":{"ed_flown":"2004-08-19","fid":"LIDAR_Composite_1m_DTM_2022_extents.24","filename":"V0034623","od_dtm_fn":"DTM_V0034623_20040819_20040819","polygon_id":"P_3033","resolution":1,"sd_flown":"2004-08-19","tilename":"SX1599","year":2004},"type":"Feature"},{"geometry":null,"id":"LIDAR_Composite_1m_DTM_2022_extents.25","properties":{"ed_flown":"2004-08-19","fid":"LIDAR_Composite_1m_DTM_2022_extents.25","filename":"V0034635","od_dtm_fn":"DTM_V0034635_20040819_20040819","polygon_id":"P_3033","resolution":1,"sd_flown":"2004-08-19","tilename":"SX1699","year":2004},"type":"Feature"},{"geometry":null,"id":"LIDAR_Composite_1m_DTM_2022_extents.26","properties":{"ed_flown":"2005-03-25","fid":"LIDAR_Composite_1m_DTM_2022_extents.26","filename":"V0042456","od_dtm_fn":"DTM_V0042456_20050325_20050325","polygon_id":"P_3239","resolution":1,"sd_flown":"2005-03-25","tilename":"SJ3448","year":2005},"type":"Feature"},{"geometry":null,"id":"LIDAR_Composite_1m_DTM_2022_extents.27","properties":{"ed_flown":"2005-03-25","fid":"LIDAR_Composite_1m_DTM_2022_extents.27","filename":"V0042457","od_dtm_fn":"DTM_V0042457_20050325_20050325","polygon_id":"P_3239","resolution":1,"sd_flown":"2005-03-25","tilename":"SJ3450","year":2005},"type":"Feature"},{"geometry":null,"id":"LIDAR_Composite_1m_DTM_2022_extents.28","properties":{"ed_flown":"2005-03-25","fid":"LIDAR_Composite_1m_DTM_2022_extents.28","filename":"V0042458","od_dtm_fn":"DTM_V0042458_20050325_20050325","polygon_id":"P_3239","resolution":1,"sd_flown":"2005-03-25","tilename":"SJ3646","year":2005},"type":"Feature"},{"geometry":null,"id":"LIDAR_Composite_1m_DTM_2022_extents.29","properties":{"ed_flown":"2005-03-25","fid":"LIDAR_Composite_1m_DTM_2022_extents.29","filename":"V0042459","od_dtm_fn":"DTM_V0042459_20050325_20050325","polygon_id":"P_3239","resolution":1,"sd_flown":"2005-03-25","tilename":"SJ3648","year":2005},"type":"Feature"},{"geometry":null,"id":"LIDAR_Composite_1m_DTM_2022_extents.30","properties":{"ed_flown":"2005-03-25","fid":"LIDAR_Composite_1m_DTM_2022_extents.30","filename":"V0042460","od_dtm_fn":"DTM_V0042460_20050325_20050325","polygon_id":"P_3239","resolution":1,"sd_flown":"2005-03-25","tilename":"SJ3846","year":2005},"type":"Feature"},{"geometry":null,"id":"LIDAR_Composite_1m_DTM_2022_extents.31","properties":{"ed_flown":"2005-03-25","fid":"LIDAR_Composite_1m_DTM_2022_extents.31","filename":"V0042461","od_dtm_fn":"DTM_V0042461_20050325_20050325","polygon_id":"P_3239","resolution":1,"sd_flown":"2005-03-25","tilename":"SJ3848","year":2005},"type":"Feature"},{"geometry":null,"id":"LIDAR_Composite_1m_DTM_2022_extents.32","properties":{"ed_flown":"2005-04-08","fid":"LIDAR_Composite_1m_DTM_2022_extents.32","filename":"V0045170","od_dtm_fn":"DTM_V0045170_20050402_20050408","polygon_id":"P_3343","resolution":1,"sd_flown":"2005-04-02","tilename":"ST1472","year":2005},"type":"Feature"},{"geometry":null,"id":"LIDAR_Composite_1m_DTM_2022_extents.33","properties":{"ed_flown":"2005-04-08","fid":"LIDAR_Composite_1m_DTM_2022_extents.33","filename":"V0045171","od_dtm_fn":"DTM_V0045171_20050402_20050408","polygon_id":"P_3343","resolution":1,"sd_flown":"2005-04-02","tilename":"ST1474","year":2005},"type":"Feature"},{"geometry":null,"id":"LIDAR_Composite_1m_DTM_2022_extents.34","properties":{"ed_flown":"2005-04-08","fid":"LIDAR_Composite_1m_DTM_2022_extents.34","filename":"V0045178","od_dtm_fn":"DTM_V0045178_20050402_20050408","polygon_id":"P_3343","resolution":1,"sd_flown":"2005-04-02","tilename":"ST1672","year":2005},"type":"Feature"},{"geometry":null,"id":"LIDAR_Composite_1m_DTM_2022_extents.35","properties":{"ed_flown":"2005-04-08","fid":"LIDAR_Composite_1m_DTM_2022_extents.35","filename":"V0045179","od_dtm_fn":"DTM_V0045179_20050402_20050408","polygon_id":"P_3343","resolution":1,"sd_flown":"2005-04-02","tilename":"ST1674","year":2005},"type":"Feature"},{"geometry":null,"id":"LIDAR_Composite_1m_DTM_2022_extents.36","properties":{"ed_flown":"2005-04-08","fid":"LIDAR_Composite_1m_DTM_2022_extents.36","filename":"V0045185","od_dtm_fn":"DTM_V0045185_20050402_20050408","polygon_id":"P_3343","resolution":1,"sd_flown":"2005-04-02","tilename":"ST1870","year":2005},"type":"Feature"},{"geometry":null,"id":"LIDAR_Composite_1m_DTM_2022_extents.37","properties":{"ed_flown":"2005-04-08","fid":"LIDAR_Composite_1m_DTM_2022_extents.37","filename":"V0045186","od_dtm_fn":"DTM_V0045186_20050402_20050408","polygon_id":"P_3343","resolution":1,"sd_flown":"2005-04-02","tilename":"ST1872","year":2005},"type":"Feature"},{"geometry":null,"id":"LIDAR_Composite_1m_DTM_2022_extents.38","properties":{"ed_flown":"2005-04-08","fid":"LIDAR_Composite_1m_DTM_2022_extents.38","filename":"V0045187","od_dtm_fn":"DTM_V0045187_20050402_20050408","polygon_id":"P_3343 & P_3355","resolution":1,"sd_flown":"2005-04-02","tilename":"ST1874","year":2005},"type":"Feature"},{"geometry":null,"id":"LIDAR_Composite_1m_DTM_2022_extents.39","properties":{"ed_flown":"2005-04-08","fid":"LIDAR_Composite_1m_DTM_2022_extents.39","filename":"V0045188","od_dtm_fn":"DTM_V0045188_20050402_20050408","polygon_id":"P_3343 & P_3355","resolution":1,"sd_flown":"2005-04-02","tilename":"ST1876","year":2005},"type":"Feature"},{"geometry":null,"id":"LIDAR_Composite_1m_DTM_2022_extents.40","properties":{"ed_flown":"2005-04-08","fid":"LIDAR_Composite_1m_DTM_2022_extents.40","filename":"V0045189","od_dtm_fn":"DTM_V0045189_20050402_20050408","polygon_id":"P_3355","resolution":1,"sd_flown":"2005-04-02","tilename":"ST1878","year":2005},"type":"Feature"},{"geometry":null,"id":"LIDAR_Composite_1m_DTM_2022_extents.41","properties":{"ed_flown":"2005-04-08","fid":"LIDAR_Composite_1m_DTM_2022_extents.41","filename":"V0045190","od_dtm_fn":"DTM_V0045190_20050402_20050408","polygon_id":"P_3355","resolution":1,"sd_flown":"2005-04-02","tilename":"ST1880","year":2005},"type":"Feature"},{"geometry":null,"id":"LIDAR_Composite_1m_DTM_2022_extents.42","properties":{"ed_flown":"2005-04-08","fid":"LIDAR_Composite_1m_DTM_2022_extents.42","filename":"V0045194","od_dtm_fn":"DTM_V0045194_20050402_20050408","polygon_id":"P_3343","resolution":1,"sd_flown":"2005-04-02","tilename":"ST2072","year":2005},"type":"Feature"},{"geometry":null,"id":"LIDAR_Composite_1m_DTM_2022_extents.43","properties":{"ed_flown":"2005-04-08","fid":"LIDAR_Composite_1m_DTM_2022_extents.43","filename":"V0045195","od_dtm_fn":"DTM_V0045195_20050402_20050408","polygon_id":"P_3343 & P_3355","resolution":1,"sd_flown":"2005-04-02","tilename":"ST2074","year":2005},"type":"Feature"},{"geometry":null,"id":"LIDAR_Composite_1m_DTM_2022_extents.44","properties":{"ed_flown":"2005-04-08","fid":"LIDAR_Composite_1m_DTM_2022_extents.44","filename":"V0045196","od_dtm_fn":"DTM_V0045196_20050402_20050408","polygon_id":"P_3355","resolution":1,"sd_flown":"2005-04-02","tilename":"ST2076","year":2005},"type":"Feature"},{"geometry":null,"id":"LIDAR_Composite_1m_DTM_2022_extents.45","properties":{"ed_flown":"2005-04-08","fid":"LIDAR_Composite_1m_DTM_2022_extents.45","filename":"V0045197","od_dtm_fn":"DTM_V0045197_20050402_20050408","polygon_id":"P_3355","resolution":1,"sd_flown":"2005-04-02","tilename":"ST2078","year":2005},"type":"Feature"},{"geometry":null,"id":"LIDAR_Composite_1m_DTM_2022_extents.46","properties":{"ed_flown":"2005-04-08","fid":"LIDAR_Composite_1m_DTM_2022_extents.46","filename":"V0045198","od_dtm_fn":"DTM_V0045198_20050402_20050408","polygon_id":"P_3355","resolution":1,"sd_flown":"2005-04-02","tilename":"ST2080","year":2005},"type":"Feature"},{"geometry":null,"id":"LIDAR_Composite_1m_DTM_2022_extents.47","properties":{"ed_flown":"2005-04-08","fid":"LIDAR_Composite_1m_DTM_2022_extents.47","filename":"V0045201","od_dtm_fn":"DTM_V0045201_20050402_20050408","polygon_id":"P_3355","resolution":1,"sd_flown":"2005-04-02","tilename":"ST2274","year":2005},"type":"Feature"},{"geometry":null,"id":"LIDAR_Composite_1m_DTM_2022_extents.48","properties":{"ed_flown":"2005-04-08","fid":"LIDAR_Composite_1m_DTM_2022_extents.48","filename":"V0045202","od_dtm_fn":"DTM_V0045202_20050402_20050408","polygon_id":"P_3355","resolution":1,"sd_flown":"2005-04-02","tilename":"ST2276","year":2005},"type":"Feature"},{"geometry":null,"id":"LIDAR_Composite_1m_DTM_2022_extents.49","properties":{"ed_flown":"2005-04-08","fid":"LIDAR_Composite_1m_DTM_2022_extents.49","filename":"V0045203","od_dtm_fn":"DTM_V0045203_20050402_20050408","polygon_id":"P_3355","resolution":1,"sd_flown":"2005-04-02","tilename":"ST2278","year":2005},"type":"Feature"},{"geometry":null,"id":"LIDAR_Composite_1m_DTM_2022_extents.50","properties":{"ed_flown":"2005-04-08","fid":"LIDAR_Composite_1m_DTM_2022_extents.50","filename":"V0045204","od_dtm_fn":"DTM_V0045204_20050402_20050408","polygon_id":"P_3355","resolution":1,"sd_flown":"2005-04-02","tilename":"ST2280","year":2005},"type":"Feature"}],"metadata":{"batch_id":"batch_0001_20260930T001051Z","geometry_notice":"No geometry is asserted in records.geojson because the retrieved official HTML window exposed identifiers/attributes but not source-native feature geometry. Local spatial join must use the OGC Features/GeoJSON endpoint or official tile data.","lineage_id":"height_difference_2_20260930T001051Z","page_generation":1,"slot_id":"height_difference_2","source_native_geometry_available_in_retrieved_html":false},"type":"FeatureCollection"}
