{"type":"FeatureCollection","features":[{"type":"Feature","geometry":{"type":"MultiPolygon","coordinates":[[[[-0.104603,51.506856],[-0.104656,51.506857],[-0.104651,51.506946],[-0.105029,51.506946],[-0.105067,51.506816],[-0.10517,51.506828],[-0.105124,51.506982],[-0.105062,51.506981],[-0.105056,51.507075],[-0.105637,51.507075],[-0.105971,51.507088],[-0.105992,51.507089],[-0.106003,51.507092],[-0.106078,51.507095],[-0.106084,51.506886],[-0.10605,51.50656],[-0.106017,51.506293],[-0.106013,51.50628],[-0.106009,51.506255],[-0.106009,51.506234],[-0.106002,51.50617],[-0.105978,51.506027],[-0.10595,51.505897],[-0.105745,51.505909],[-0.105849,51.506195],[-0.105653,51.506309],[-0.10565,51.506481],[-0.105612,51.506484],[-0.105592,51.506489],[-0.105553,51.506507],[-0.105472,51.506561],[-0.105255,51.506549],[-0.104679,51.50637],[-0.104623,51.506397],[-0.104603,51.506856]]]]},"properties":{"slot_id":"future_growth_1","lineage_id":"future_growth_1-newstart-20260927T153100+0300","page_generation":null,"batch_id":"batch-20260930T205400+0300-entity-7010003594","evidence_scope":"coverage_area","coverage_area_id":"planning-data-entity:7010003594","source_url":"https://www.planning.data.gov.uk/entity/7010003594","final_url":"https://www.planning.data.gov.uk/entity/7010003594","access_utc":"2026-09-30T17:54:00Z","data_date":"2025-05-21","license":"Open Government Licence v3.0","source_file_sha256":"81c35d53ff1be4eb2eb0c87e9a3283219da881755f22675587d683556e31e0b2","evidence_slice_sha256":"8738a20617843fabebed86d335d87423bbb47c7db82619acab8a006bfde36542","field_evidence":{"entity":7010003594,"reference":"178","name":"Site allocation NSP22: Land between Paris Gardens, Colombo Street, Blackfriars Road and Stamford Street Site allocation NSP","dataset":"article-4-direction-area","quality":"authoritative","organisation":"London Borough of Southwark","notes":"Change of use from Class E to residential is restricted","future_growth_basis":"official named site-allocation-labelled authoritative coverage; dataset itself is Article 4 direction area"},"confidence_score_0_100":88,"evidence_grade":"A-","fake_data":false,"spatial_binding_method":"coverage polygon for downstream local OpenCode spatial join against canonical parcels","semantic_caveat":"Planning Data classifies this entity as article-4-direction-area; future-growth relevance is based on the authoritative entity name explicitly identifying Site allocation NSP22, not on the Article 4 restriction alone."}}]}
