{
  "type": "FeatureCollection",
  "features": [
    {
      "type": "Feature",
      "geometry": {
        "type": "MultiPolygon",
        "coordinates": [
          [
            [
              [
                -1.134901,
                53.523148
              ],
              [
                -1.134924,
                53.523126
              ],
              [
                -1.134943,
                53.523133
              ],
              [
                -1.134964,
                53.523116
              ],
              [
                -1.135036,
                53.523141
              ],
              [
                -1.135155,
                53.523035
              ],
              [
                -1.135075,
                53.523003
              ],
              [
                -1.13518,
                53.522906
              ],
              [
                -1.135163,
                53.522899
              ],
              [
                -1.135174,
                53.522875
              ],
              [
                -1.13496,
                53.522834
              ],
              [
                -1.1349,
                53.522809
              ],
              [
                -1.134859,
                53.522896
              ],
              [
                -1.134859,
                53.522932
              ],
              [
                -1.13469,
                53.523089
              ],
              [
                -1.134802,
                53.523133
              ],
              [
                -1.134818,
                53.523116
              ],
              [
                -1.134901,
                53.523148
              ]
            ]
          ]
        ]
      },
      "properties": {
        "slot_id": "future_growth_3",
        "lineage_id": "future_growth_3-newstart-20261001T203100Z",
        "page_generation": "null",
        "accepted_as_parcel": false,
        "source_area_count_contribution": 1,
        "exact_identifier": "115",
        "secondary_exact_identifier": "entity:1802782",
        "source_entity": "115 - Former Post Office, 24 Priory Place, Doncaster",
        "exact_identifier_provided": true,
        "coverage_polygon_provided": true,
        "identifier_namespace": "Planning Data brownfield-site reference, Doncaster",
        "source_url": "https://www.planning.data.gov.uk/entity/1802782",
        "final_url": "https://www.planning.data.gov.uk/entity/1802782",
        "access_utc": "2026-10-08T06:22:36Z",
        "data_date": "2025-12-03",
        "license": "Open Government Licence v3.0; © Crown copyright and database right 2026",
        "authority": "Doncaster Metropolitan Borough Council",
        "site_address": "Former Post Office, 24 Priory Place, Doncaster",
        "field_evidence": {
          "curie": "brownfield-site:115",
          "prefix": "brownfield-site",
          "reference": "115",
          "name": "Former Post Office, 24 Priory Place, Doncaster",
          "dataset": "brownfield-site",
          "organisation-entity": "local-authority:DNC",
          "start-date": "",
          "end-date": "",
          "entry-date": "2025-12-03",
          "typology": "geography",
          "geometry": "MULTIPOLYGON (((-1.134901 53.523148, -1.134924 53.523126, -1.134943 53.523133, -1.134964 53.523116, -1.135036 53.523141, -1.135155 53.523035, -1.135075 53.523003, -1.13518 53.522906, -1.135163 53.522899, -1.135174 53.522875, -1.13496 53.522834, -1.1349 53.522809, -1.134859 53.522896, -1.134859 53.522932, -1.13469 53.523089, -1.134802 53.523133, -1.134818 53.523116, -1.134901 53.523148)))",
          "point": "POINT (-1.134954 53.522994)",
          "entity": 1802782,
          "quality": "authoritative",
          "brownfield-site": "115"
        },
        "source_payload_sha256": "82ace886b2cd1639e79bb7916d5e47a0af58cc27db57fb5be64e0ac78c3ccafd",
        "source_payload_sha256_basis": "UTF-8 SHA-256 of canonicalized official entity field_evidence JSON",
        "evidence_slice_sha256": "b56843a36b7a37b8588384d3db1c7f4023983d7fb5875c563da087a3754d92a2",
        "evidence_grade": "A",
        "confidence_score_0_100": 99,
        "evidence_scope": "official_polygon_from_planning_data_brownfield_site_entity",
        "fake_data": false,
        "spatial_binding_method": "MHCLG Planning Data official WKT MultiPolygon; canonical parcel spatial join delegated to local OpenCode",
        "planned_building_count_contribution": 0
      }
    }
  ]
}
