{"type":"FeatureCollection","features":[{"type":"Feature","id":"sefton-brownfield-land-register-2026:B0128","geometry":null,"properties":{"slot_id":"future_growth_4","lineage_id":"fg4-e4c9076d6f554f00","page_generation":1,"owner":"future_growth_4","partition":"future_growth","semantic_mode":"SOURCE_AREA_EXACT_IDENTIFIER","dataset":"sefton-brownfield-land-register-2026","entity":"B0128","reference":"B0128","quality":"authoritative","organisation":"Sefton Council","name":"2 Well Lane, Bootle","source_url":"https://www.sefton.gov.uk/planning-building-control/planning-policy-including-local-plan-and-neighbourhood-planning/brownfield-land-register/","final_url":"https://www.sefton.gov.uk/planning-building-control/planning-policy-including-local-plan-and-neighbourhood-planning/brownfield-land-register/","access_utc":"2026-10-05T04:23:00Z","data_date":"2026-07-01","license":"Open Government Licence","field_evidence":{"reference":"B0128","site_name":"2","street_name":"Well Lane","settlement":"Bootle","register_part":1,"register_last_updated":"2026-07-01"},"evidence_slice_sha256":"3170caae1f0afcab3f9d78fc7f2e430ff1f13f6aad39ee0532e2df694e0ec3fb","confidence_score_0_100":99,"confidence":0.99,"evidence_grade":"A","exact_identifier_provided":true,"coverage_polygon_provided":false,"fake_data":false,"join_mode":"LOCAL_OPENCODE_SPATIAL_JOIN_PENDING","direct_parcel":false,"source_area_count_contribution":1,"planned_building_count_contribution":0}}]}