{"type":"FeatureCollection","name":"height_difference_2","features":[],"metadata":{"slot_id":"height_difference_2","lineage_id":"height_difference_2_20260930T001051Z","page_generation":1,"partition":"source_area","schema":"AAYS_LAYER24_EVIDENCE_V1","fake_data":false,"owner":"cagdas aydin","batch_id":"batch_0101_govuk_nhle_service_metadata_cross_slot_blocker_20261006T164700+0300","cursor":"BLOCKED_GOVUK_NHLE_SERVICE_METADATA_WITHOUT_HD2_CANONICAL_OR_RECORD_GEOMETRY","source_area_count":0,"accepted_count":0,"unmatched_count":1,"source_window_path":"incoming/layer24/building_type_7/BT7-e778d2c2-3425-46ea-a261-2494bfcbd18d/batch_0105_20261006T131500Z/","reason":"EXACT_BLOCKER: after repeated zero-acceptance rounds, the method was materially changed from repository binding-delta audit to a previously unused official public no-login GOV.UK API Catalogue / Historic England NHLE service-metadata window. The catalogue confirms the official NHLE ArcGIS FeatureServer, listed-building polygon coverage, EPSG:27700, daily updates and Open Government Licence, but exposes no individual Exeter feature payload, no record-bound polygon coordinates, no height_difference_2 canonical_parcel_id, and no exact official DEM/LIDAR tile selector. The family start criterion therefore remains unsatisfied; no DEM/LIDAR source window was opened. Local OpenCode must publish a non-null height_difference_2 canonical_parcel_id with BUILDING_PRESENT plus parcel geometry/bbox, or an exact missing official DEM/LIDAR tile selector, before Height Difference source acceptance."}}
