{"type":"FeatureCollection","features":[{"type":"Feature","geometry":null,"properties":{"slot_id":"planned_buildings_1","lineage_id":"planned_buildings_1-0ffc4ebd6c6e4e41","semantic_mode":"DISTINCT_BUILDINGS","planned_building_id":"planning-application:2025/2153/FPA::REPLACEMENT_SELF_BUILD_DWELLING","building_status":"PLANNED","building_name":"Replacement self-build dwelling, Brookside Stainton","planning_reference":"2025/2153/FPA","authority":"Westmorland & Furness Council","source_url":"https://planningregister.westmorlandandfurness.gov.uk/Planning/Display/2025/2153/FPA","final_url":"https://planningregister.westmorlandandfurness.gov.uk/Planning/Display/2025/2153/FPA","access_utc":"2026-10-04T08:52:00Z","source_data_date":"2025-11-06","license":"Open Government Licence v3.0","geometry_role":"official planning register exposes no machine-readable application point or building footprint in the retrieved record; geometry null; no geometry inferred","field_evidence":"Official Valid Full Application states demolition of the existing dwelling and construction of a replacement self-build dwelling; status Officer Consideration and decision Pending.","identity_limitation":"The proposal explicitly identifies exactly one replacement self-build dwelling; the existing dwelling to be demolished is not counted as new.","confidence_score_0_100":98,"evidence_grade":"A","fake_data":false}}]}