{"type":"FeatureCollection","features":[{"type":"Feature","id":"CHERWELL_25_01556_F_REPLACEMENT_GARAGE_01","geometry":null,"properties":{"slot_id":"planned_buildings_4","owner":"planned_buildings_4","lineage_id":"pb4-8debc7c8ddf348a2","page_generation":1,"partition":"layer24","schema":"AAYS_LAYER24_EVIDENCE_V1","semantic_mode":"PLANNED_BUILDINGS_OFFICIAL_REFERENCE_DISTINCT_STRUCTURE","batch_id":"20261006T160048Z-cherwell-25-01556-f-window-001","publisher":"Cherwell District Council","source_family":"CHERWELL_PLANNING_REGISTER","source_url":"https://planningregister.cherwell.gov.uk/Planning/Display/25/01556/F","final_url":"https://planningregister.cherwell.gov.uk/Planning/Display/25/01556/F","access_utc":"2026-10-06T16:00:48Z","data_date":"2025-06-12","license":"Public planning register; document copyright/usage remains governed by council register terms","planning_reference":"25/01556/F","location":"9 Cherwell Avenue Kidlington OX5 2JL","proposal":"Demolition and re-build of existing garage, extension of existing rear extension and removal of lawned area to frontage to add provision for parking","status":"Application Permitted","geometry_status":"NOT_MATERIALIZED_LOCAL_OPENCODE","field_evidence":"Official Cherwell District Council Planning Register application 25/01556/F. Application Type: Full Development. Status: Application Permitted. Valid date: 12/06/2025. Location: 9 Cherwell Avenue Kidlington OX5 2JL. Proposal: Demolition and re-build of existing garage, extension of existing rear extension and removal of lawned area to frontage to add provision for parking. Decision: Permitted. Decision Issued Date: 07/08/2025. Official documents include Proposed Site Plan file 9 CA 106.pdf, Proposed Floor/Roof Plan file 9 CA 103 C.pdf, and Proposed Elevations file 9 CA 104 C.pdf. The official proposal specifies demolition and re-build of the existing garage; this record represents the single replacement garage as one distinct planned structure. The rear extension and frontage parking works are alterations/site works and are not counted as additional distinct structures. Geometry/materialization is deferred to local OpenCode.","evidence_slice_sha256":"f896c1b1bec7f12ff6f9511cc2027bd6c390bd0af045c709de17ef9eb63af889","confidence":0.99,"evidence_grade":"A_OFFICIAL_LOCAL_AUTHORITY_PLANNING_REGISTER_SINGLE_REPLACEMENT_GARAGE_PERMITTED","fake_data":false,"source_record_id":"CHERWELL_25_01556_F_REPLACEMENT_GARAGE_01","planned_building":"replacement garage","official_plan_reference":"9 CA 106; 9 CA 103 C; 9 CA 104 C","official_plan_description":"Proposed Site Plan; Proposed Floor/Roof Plan; Proposed Elevations"}}]}
