{
  "type":"FeatureCollection",
  "features":[{
    "type":"Feature",
    "geometry":null,
    "properties":{
      "slot_id":"future_growth_1",
      "lineage_id":"future_growth_1-newstart-20260927T153100+0300",
      "page_generation":null,
      "accepted_as_parcel":false,
      "source_area_count_contribution":1,
      "exact_identifier":"SHAAP 03 – 151 Stamford Hill, N16 5LG",
      "exact_identifier_provided":true,
      "coverage_polygon_provided":false,
      "identifier_namespace":"Hackney Stamford Hill AAP site allocation",
      "access_utc":"2026-10-01T06:39:00Z",
      "data_date":"2024-02",
      "source_url":"https://consultation.hackney.gov.uk/communications-engagement/shaap-regulation-19/user_uploads/stamford-hill-aap--reg-19---february-2024.pdf",
      "final_url":"https://consultation.hackney.gov.uk/communications-engagement/shaap-regulation-19/user_uploads/stamford-hill-aap--reg-19---february-2024.pdf",
      "authority":"Hackney Council",
      "ward":"Springfield",
      "area_ha":0.19,
      "existing_use":"Retail",
      "planning_context":["Local Plan 2033 Policy PP4 Stamford Hill","LP34 Stoke Newington, Stamford Hill and Finsbury Park"],
      "district_centre":true,
      "ptal":5,
      "identified_by":"Council",
      "timescale":"Medium Term",
      "confidence_score_0_100":97,
      "evidence_grade":"A",
      "evidence_scope":"exact_official_identifier",
      "fake_data":false,
      "spatial_binding_method":"official exact site-allocation identifier; canonical geometry resolution, parcel spatial join and materialization delegated to local OpenCode",
      "planned_building_count_contribution":0
    }
  }]
}
