{"type":"FeatureCollection","name":"future_growth_6","features":[{"type":"Feature","id":"local-plan-boundary:E60000288","geometry":null,"properties":{"source_area_id":"local-plan-boundary:E60000288","source_area_name":"Bath and North East Somerset Council","source_entity":4211054,"source_reference":"E60000288","organisation":"Bath and North East Somerset Council","organisation_curie":"government-organisation:D1342","dataset":"local-plan-boundary","typology":"geography","quality":"authoritative","entry_date":"2026-03-18","evidence_type":"exact_coverage_identifier","confidence_score_0_100":100,"evidence_grade":"A_OFFICIAL_AUTHORITATIVE","fake_data":false,"canonical_parcel_id":null,"parcel_match_status":"DEFERRED_TO_LOCAL_OPENCODE"}}]}
