{"type":"FeatureCollection","features":[{"type":"Feature","geometry":null,"properties":{"slot_id":"future_growth_ 2","lineage_id":"future_growth_ 2-newstart-20261001T203100Z","page_generation":1,"owner":"future_growth_ 2","partition":"future_growth","semantic_mode":"SOURCE_AREA_EXACT_IDENTIFIER","accepted_as_parcel":false,"source_area_count_contribution":1,"exact_identifier":"HL84","exact_identifier_provided":true,"coverage_polygon_provided":false,"identifier_namespace":"Hastings SHELAA 2020 site reference","access_utc":"2026-10-03T09:32:00Z","data_date":"2020","source_url":"https://www.hastings.gov.uk/planning/policy/new-local-plan/site-allocation/HL84/","final_url":"https://www.hastings.gov.uk/planning/policy/new-local-plan/site-allocation/HL84/","dataset_url":"https://www.hastings.gov.uk/planning/policy/new-local-plan/reg18-evidence-base/shelaa-evidence/","license":"Crown Copyright and database rights [2020], OS [100021328]; viewing terms stated on source page.","authority":"Hastings Borough Council","site_address":"Pilot Field, Elphinstone Road","hectares":null,"point":null,"maximum_net_dwellings":120,"minimum_net_dwellings":null,"planning_permission_status":null,"confidence_score_0_100":99,"confidence":0.99,"evidence_grade":"A","evidence_scope":"official_exact_identifier","field_evidence":{"consultation_closed":"2021-03-24","indicative_capacity_net_residential_dwellings":120,"reference":"HL84","register":"SHELAA 2020","site_name":"Pilot Field, Elphinstone Road","use":"Residential"},"evidence_slice_sha256":"290cf013050662a0c6801243710f231feed7f4d7eb50ef996f08bf4d67ec8270","fake_data":false,"spatial_binding_method":"exact official Hastings Borough Council SHELAA site-allocation identifier; canonical parcel spatial join/materialization delegated to local OpenCode","planned_building_count_contribution":0}}]}