{"type":"FeatureCollection","name":"future_growth_6","features":[{"type":"Feature","id":"development-policy-area:local-authority-eng:BUC:LPBE1:2021-01-08","geometry":{"type":"MultiPolygon","coordinates":[[[[-0.701897,51.579808],[-0.701937,51.579826],[-0.697148,51.581413],[-0.695101,51.579993],[-0.693957,51.579044],[-0.694803,51.578702],[-0.696432,51.578189],[-0.696702,51.578132],[-0.697324,51.578079],[-0.697524,51.578257],[-0.697532,51.578347],[-0.697677,51.578373],[-0.697866,51.578483],[-0.69835,51.578826],[-0.698538,51.578741],[-0.69885,51.578865],[-0.698841,51.57889],[-0.699563,51.579232],[-0.699603,51.579256],[-0.699569,51.579296],[-0.699699,51.579355],[-0.699785,51.579343],[-0.699874,51.579266],[-0.699935,51.57929],[-0.700072,51.579156],[-0.700914,51.579169],[-0.701031,51.579479],[-0.701375,51.579402],[-0.701469,51.579632],[-0.701897,51.579808]]]]},"properties":{"semantic_identity":"development-policy-area:local-authority-eng:BUC:LPBE1:2021-01-08","source_area_id":"LPBE1","source_area_type":"adopted_local_plan_residential_allocation","name":"Slate Meadow","allocated_use":"Residential development","policy":"BE1","organisation":"local-authority-eng:BUC","source_url":"https://github.com/digital-land/development-policy-area/blob/111f7b992aa0c7efe39611b4003607141631a4f2/docs/local-authority-eng/BUC/LPBE1/geometry.geojson","source_final_url":"https://raw.githubusercontent.com/digital-land/development-policy-area/111f7b992aa0c7efe39611b4003607141631a4f2/docs/local-authority-eng/BUC/LPBE1/geometry.geojson","http_status":200,"source_data_date":"2021-01-08","plan_adopted_date":"2019-08","source_version":"git-blob:5bd4430dae7627709c9e96e34de010c700450efa","licence":"Open Government Licence v3.0 (Digital Land repository default; source-specific rights may apply)","source_sha256":"f91802311402a0ef7cec579afe145b6d0bfb8717f7d2dabaa6ed254aff6d6521","evidence_slice_sha256":"42ff8192804deb69db07e24357ccbcbb6be12470954c99fa14fef4fb5ddb2194","field_evidence":{"geometry":"docs/local-authority-eng/BUC/LPBE1/geometry.geojson:geometry","source_identifier":"docs/local-authority-eng/BUC/LPBE1/geometry.geojson:properties.geography","site_name":"docs/local-authority-eng/BUC/LPBE1/geometry.geojson:properties.name","data_date":"docs/local-authority-eng/BUC/LPBE1/geometry.geojson:properties.entry-date","residential_allocation":"https://www.buckinghamshire.gov.uk/documents/9736/Wycombe-District-Local-Plan-Adopted-August-2019-accessible.pdf#policy-BE1"},"confidence":0.98,"evidence_grade":"A_OFFICIAL_GIS_AND_ADOPTED_PLAN","fake_data":false}}],"properties":{"state":"SOURCE_AREAS_PRODUCED_LOCAL_BINDING_PENDING","source_area_count":86,"source_area_count_delta":1,"accepted_count":0,"duplicate_count":0,"rejected_count":0,"unmatched_count":13,"materialized_parcel_count":0,"direct_parcel_count":0,"verified_no_building_count":0,"unprocessed_count":13,"planned_building_count":0,"producer_before_count":85,"producer_delta":1,"producer_after_count":86,"cursor":"OFFICIAL_BUCKINGHAMSHIRE_WYCOMBE:BE1:SLATE_MEADOW:GITBLOB:5bd4430dae7627709c9e96e34de010c700450efa","first_missing_criterion":"LOCAL_CANONICAL_PARCEL_IDENTIFIER_BINDING_MATERIALIZATION","fake_data":false}}
