{"type":"FeatureCollection","features":[{"type":"Feature","id":"CHERWELL_25_01186_F_TWO_STOREY_DWELLING_01","geometry":null,"properties":{"slot_id":"planned_buildings_4","owner":"planned_buildings_4","lineage_id":"pb4-8debc7c8ddf348a2","page_generation":1,"partition":"layer24","schema":"AAYS_LAYER24_EVIDENCE_V1","semantic_mode":"PLANNED_BUILDINGS_OFFICIAL_REFERENCE_DISTINCT_STRUCTURE","batch_id":"20261007T023005Z-cherwell-25-01186-f-window-001","publisher":"Cherwell District Council","source_family":"CHERWELL_PLANNING_REGISTER","source_url":"https://planningregister.cherwell.gov.uk/Planning/Display/25/01186/F","final_url":"https://planningregister.cherwell.gov.uk/Planning/Display/25/01186/F","access_utc":"2026-10-07T02:30:05Z","data_date":"2025-05-16","license":"Public planning register; document copyright/usage remains governed by council register terms","planning_reference":"25/01186/F","location":"Garage At 2 The Limes Oxford Road Banbury OX16 9AN","proposal":"Demolition of existing garage and erection of a flat-roofed two-storey dwelling","status":"Appeal Allowed (Against Refusal)","geometry_status":"NOT_MATERIALIZED_LOCAL_OPENCODE","field_evidence":"Official Cherwell District Council Planning Register application 25/01186/F. Application Type: Full Development. Status: Appeal Allowed (Against Refusal). Valid date: 16/05/2025. Location: Garage At 2 The Limes Oxford Road Banbury OX16 9AN. Proposal: Demolition of existing garage and erection of a flat-roofed two-storey dwelling. Decision: Appeal Allowed (Against Refusal). Decision Issued Date: 11/07/2025. Appeal Decision: Appeal Allowed. Appeal Decision Date: 26/11/2025. Official documents include Proposed Site Plan drawing AB 2 and Proposed elevations/floor plans drawing AB 3. The official proposal identifies one flat-roofed two-storey dwelling; the proposed site plan and dedicated proposed elevations/floor plans support the same single planned structure. Geometry/materialization is deferred to local OpenCode.","evidence_slice_sha256":"30dc27242684c60d8c994a03302a59858339f56c9ca4e1307cfb0434f8c87ba9","confidence":0.99,"evidence_grade":"A_OFFICIAL_LOCAL_AUTHORITY_PLANNING_REGISTER_SINGLE_TWO_STOREY_DWELLING_APPEAL_ALLOWED","fake_data":false,"source_record_id":"CHERWELL_25_01186_F_TWO_STOREY_DWELLING_01","planned_building":"flat-roofed two-storey dwelling","official_plan_reference":"AB 2; AB 3","official_plan_description":"Proposed Site Plan; Proposed elevations/floor plans"}}]}
