{"type":"FeatureCollection","schema_family":"AAYS_LAYER24_EVIDENCE_V1","category":"AAYS_SOURCE_AREA_V1","slot_id":"gas_emissions_5","lineage_id":"gas_emissions_5__new_start__20260927T104100Z","features":[{"type":"Feature","geometry":null,"properties":{"source_id":"ONS_ELS_GHG_E09000013_WINDOW_001","coverage_area_id":"E09000013","coverage_area_name":"Hammersmith and Fulham","coverage_binding":"EXACT_OFFICIAL_IDENTIFIER","data_period":"2005-2024","latest_data_year":2024,"indicator":"Greenhouse gas emissions, tCO2e per capita","canonical_parcel_id":null,"match_status":"UNPROCESSED_LOCAL_OPENCODE_SPATIAL_JOIN_REQUIRED","fake_data":false}}],"metadata":{"source_area_count":14,"accepted_count":0,"materialized_parcel_count":0,"direct_parcel_count":0,"verified_no_building_count":0,"unprocessed_count":1,"planned_building_count":0}}
