{"type":"FeatureCollection","features":[{"type":"Feature","geometry":null,"properties":{"slot_id":"future_growth_1","lineage_id":"future_growth_1-newstart-20260927T153100+0300","page_generation":null,"accepted_as_parcel":false,"source_area_count_contribution":1,"exact_identifier":"PONOR1","exact_identifier_provided":true,"alternate_identifier":"NOR1","coverage_polygon_provided":false,"identifier_namespace":"Broads Authority Preferred Options Local Plan policy","site_name":"Utilities Site, Norwich","access_utc":"2026-10-07T06:09:00Z","data_date":"2024-05-17","source_url":"https://www.broads-authority.gov.uk/planning/planning-policies/local-plan-for-the-broads/preferred-options/norwich","final_url":"https://www.broads-authority.gov.uk/planning/planning-policies/local-plan-for-the-broads/preferred-options/norwich","supporting_url":"https://www.broads-authority.gov.uk/planning/planning-policies/local-plan-for-the-broads/preferred-options/housing-and-residential-moorings","license":"Publicly accessible Broads Authority planning-policy pages; page-specific reuse licence not stated on the source pages","authority":"Broads Authority","development_type":"mixed-use","potential_dwellings":271,"delivery_timing":"after 2035, towards the end of the plan period","plan_stage":"Preferred Options","monitoring_status":"allocation listed among allocations that had not commenced at the monitoring snapshot","evidence_grade":"A","confidence_score_0_100":99,"evidence_scope":"exact Broads Authority Preferred Options policy PONOR1/NOR1 Utilities Site plus official housing trajectory and delivery timing","evidence_slice_sha256":"632b86b39cdfa1cc98f9fc807809b9c0b63d9ca4c44afe904d6d5bc0365735ff","fake_data":false,"spatial_binding_method":"official PONOR1/NOR1 policy identifier plus policy-map/web-map links; exact boundary extraction, canonical parcel spatial join and materialization delegated to local OpenCode","planned_building_count_contribution":0}}]}