{
  "type": "FeatureCollection",
  "name": "height_difference_3_source_area",
  "features": [
    {
      "type": "Feature",
      "id": "OS_OPEN_ZOOMSTACK_LOCAL_BUILDINGS_METADATA_20260927",
      "geometry": {
        "type": "Polygon",
        "coordinates": [
          [
            [
              -8.655,
              49.9
            ],
            [
              1.79,
              49.9
            ],
            [
              1.79,
              60.85
            ],
            [
              -8.655,
              60.85
            ],
            [
              -8.655,
              49.9
            ]
          ]
        ]
      },
      "properties": {
        "record_kind": "source_area",
        "source_area_id": "OS_OPEN_ZOOMSTACK_LOCAL_BUILDINGS_METADATA_20260927",
        "authority": "Ordnance Survey",
        "dataset": "OS Open Zoomstack",
        "national_data_library_id": "d34f5fb0-b40e-4641-a989-9c1f6f11348c",
        "harvest_guid": "5f1ec104-f61b-48f9-99f3-f31da8a8fb7d",
        "building_layer": "local_buildings",
        "building_geometry": "Polygon",
        "building_uuid_field": "uuid",
        "dataset_crs": "EPSG:27700",
        "geometry_semantics": "official dataset metadata extent envelope; actual local_buildings polygons must be materialized locally",
        "local_join_required": true,
        "accepted_count_delta": 0
      }
    }
  ],
  "properties": {
    "slot_id": "height_difference_3",
    "lineage_id": "6e8e709b6bad7b9807055e2b8b5de98cd4945ee3dee57825e72ba1b824eadd0f",
    "partition": {
      "start": 61523,
      "end": 92283,
      "count": 30761
    },
    "category": "AAYS_SOURCE_AREA_V1",
    "source_area_count": 1,
    "accepted_count": 0,
    "accepted_count_semantics": "canonical parcel acceptance only; unchanged",
    "not_parcel_progress": true
  }
}
