{"type":"FeatureCollection","features":[{"type":"Feature","geometry":null,"properties":{"slot_id":"future_growth_1","lineage_id":"future_growth_1-newstart-20260927T153100+0300","page_generation":null,"accepted_as_parcel":false,"source_area_count_contribution":1,"exact_identifier":"SHLAA0866","exact_identifier_provided":true,"coverage_polygon_provided":false,"identifier_namespace":"Brighton & Hove City Council brownfield land / SHLAA reference","site_name":"(Natwest) 153 Preston Road (EM2)","access_utc":"2026-10-04T13:40:00Z","data_date":"2025-12-01","source_url":"https://www.planning.data.gov.uk/entity/1701995","final_url":"https://www.planning.data.gov.uk/entity/1701995","site_plan_url":"https://new.brighton-hove.gov.uk/sites/default/files/planning_bc_regen/policy/brownfield-sites/shlaa0866-natwest-153-preston-road.pdf","license":"Open Government Licence v3.0","authority":"Brighton and Hove City Council","entity":1701995,"point_wkt":"POINT (-0.145672 50.837161)","hectares":0.31,"deliverable":"yes","minimum_net_dwellings":40,"maximum_net_dwellings":40,"planning_permission_status":"not-permissioned","ownership_status":"not-owned-by-a-public-authority","notes":"CPP1 DA4(3) Strategic Allocation | No planning permission.","evidence_grade":"A","confidence_score_0_100":99,"evidence_scope":"exact Planning Data authoritative brownfield entity 1701995 / SHLAA0866 plus linked official Brighton & Hove City Council site plan","evidence_slice_sha256":"713ab5fdfc4e699220a28b9848df77554f5fc3e97d1ab9c42aff459cf9a8c612","fake_data":false,"spatial_binding_method":"official exact SHLAA0866 brownfield-register identifier plus linked council site plan; exact boundary extraction, canonical parcel spatial join and materialization delegated to local OpenCode","planned_building_count_contribution":0}}]}