{"type":"FeatureCollection","features":[{"type":"Feature","id":"ons-ogp-wd-may-2026-bsc:E05009390","geometry":null,"properties":{"evidence_scope":"coverage_area","coverage_area_id":"E05009390","coverage_area_name":"Campden","identifier_scheme":"ONS_OGP_WD26_WARD_CODE_BINDING","exact_official_identifier":"E05009390","source_resolution":"ONS_OGP_MAY_2026_BSC_SUPER_GENERALISED_200M_COASTLINE","time_window":"2026-05","measurement_date":"2026-05","measurement_method":"official ONS Open Geography Portal May 2026 ward-boundary service binding","spatial_binding_method":"FEATURE_EXTRACTION_AND_PARCEL_JOIN_DEFERRED_TO_LOCAL_OPENCODE","source_url":"https://services1.arcgis.com/ESMARspQHYMw9BZ9/ArcGIS/rest/services/Wards_%28May_2026%29_Boundaries_UK_BSC/MapServer","final_url":"https://services1.arcgis.com/ESMARspQHYMw9BZ9/ArcGIS/rest/services/Wards_%28May_2026%29_Boundaries_UK_BSC/MapServer","accessed_at_utc":"2026-10-06T01:41:00Z","data_date":"2026-05","licence":"Contains both Ordnance Survey and ONS Intellectual Property Rights","sha256":"656a488a642122411ae34575ea6630c7eccc473d6d7f4c8c14026b2a19ddd581","field_evidence":{"service_name":"Wards_(May_2026)_Boundaries_UK_BSC","layer_name":"WD_MAY_2026_UK_BSC","layer_id":0,"boundary_resolution":"BSC Super Generalised (200m) - clipped to the coastline (Mean High Water mark)","feature_access_service":"https://services1.arcgis.com/ESMARspQHYMw9BZ9/arcgis/rest/services/WD_MAY_2026_UK_BSC/FeatureServer","wfs_service":"https://dservices1.arcgis.com/ESMARspQHYMw9BZ9/arcgis/services/Wards_(May_2026)_Boundaries_UK_BSC/WFSServer?request=getcapabilities&service=wfs","metadata_uri":"https://www.arcgis.com/sharing/rest/content/items/33d2b956a41041fa828f0140bdf4795a/info/metadata/metadata.xml?format=default","mapserver_spatial_reference_epsg":3857,"target_ward_code":"E05009390","target_ward_name":"Campden","binding_status":"OFFICIAL_WARD_BOUNDARY_SERVICE_BINDING_BY_PREVIOUSLY_VERIFIED_WARD_CODE","feature_query_status":"FEATURE_EXTRACTION_DEFERRED_TO_LOCAL_OPENCODE","geometry_materialized":false,"source_url":"https://services1.arcgis.com/ESMARspQHYMw9BZ9/ArcGIS/rest/services/Wards_%28May_2026%29_Boundaries_UK_BSC/MapServer","accessed_at_utc":"2026-10-06T01:41:00Z"},"evidence_slice_sha256":"80a9c76c73e9cf2dc2a0268cb482d08068ed277b05dfd7948fd3ec793b1c4712","confidence_score_0_100":98,"evidence_grade":"A","fake_data":false,"source_window_id":"ons_ogp_WD_MAY_2026_UK_BSC_E05009390_sps5_20261006_v1","cursor":"ons_ogp_WD_MAY_2026_UK_BSC_E05009390_sps5_20261006_v1:record=1"}}]}
