{"type":"FeatureCollection","name":"height_difference_5","metadata":{"slot_id":"height_difference_5","owner":"height_difference_5","lineage_id":"height_difference_5-eb56f92ed3f0514c","page_generation":1,"schema":"AAYS_LAYER24_EVIDENCE_V1","partition":"layer24","semantic_mode_state":"ABSENT_IN_PRIOR_PHYSICAL_STATE_PRESERVED_BY_OMISSION","batch_id":"20261006T083500Z_spatialni_data_supply_metadata_form_crs","record_policy":"Official Spatial NI general SRS guidance evidence only; no Belfast LiDAR CRS, tile/file, geometry or parcel binding synthesized.","fake_data":false},"features":[{"type":"Feature","geometry":null,"properties":{"slot_id":"height_difference_5","owner":"height_difference_5","lineage_id":"height_difference_5-eb56f92ed3f0514c","page_generation":1,"schema":"AAYS_LAYER24_EVIDENCE_V1","partition":"layer24","batch_id":"20261006T083500Z_spatialni_data_supply_metadata_form_crs","source_record_id":"SPATIALNI:DATA_SUPPLY_METADATA_FORM_CRS","source_url":"https://support.spatialni.gov.uk/nima/DownloadDocs/Guidance/SpatialNI_Data_Supply_Metadata_Form.pdf","access_utc":"2026-10-06T08:35:00Z","required_building_state":"BUILDING_PRESENT","binding_status":"LOCAL_OPENCODE_BUILDING_PRESENT_EXACT_TILE_BIND_REQUIRED","published_srs_option":"Irish Grid (TM65) [EPSG:29902]","dataset_specific_crs":null,"exact_tile_identifier":null,"evidence_slice_sha256":"574894d2e5fbebd9f8fbacd25aa349dafe8102ea804829ba9f6fa56a07a816ea","accepted_count_contribution":0,"source_area_count_contribution":0,"fake_data":false}}]}
