{"features":[{"geometry":{"coordinates":[[[[-2.001083,55.77126],[-2.00113,55.771253],[-2.001124,55.771241],[-2.001209,55.771229],[-2.001215,55.77124],[-2.001306,55.771226],[-2.0013,55.771216],[-2.001387,55.771203],[-2.001393,55.771213],[-2.001437,55.771207],[-2.001389,55.771078],[-2.001347,55.771084],[-2.001354,55.771112],[-2.001349,55.771112],[-2.001365,55.77115],[-2.001274,55.771163],[-2.001248,55.771105],[-2.001205,55.771111],[-2.001216,55.771136],[-2.001168,55.771143],[-2.001182,55.771174],[-2.001099,55.771187],[-2.001086,55.77116],[-2.001039,55.771167],[-2.001083,55.77126]]]],"type":"MultiPolygon"},"id":"42154138","properties":{"access_utc":"2026-10-04T07:05:00Z","batch_id":"batch-0043","building_evidence_status":"BUILDING_PRESENT","building_type":"listed_building","building_use":null,"canonical_parcel_id":null,"confidence_score_0_100":94,"data_date":"2013-08-19","evidence_grade":"A","evidence_slice_sha256":"0b74a33533c0b85a5bc34f89de5692c5a012d87f866c4b75d296fb1d9a4e07e7","fake_data":false,"field_evidence":{"footprint":"official listed-building-outline MULTIPOLYGON","name":"12-18, Parade","reference":"1042431","type":"official dataset classification: listed-building-outline","use":"no use inferred"},"final_url":"https://www.planning.data.gov.uk/entity/42154138","licence":"Open Government Licence v3.0","lineage_id":"building_type_9-20261001T200900Z-newstart","local_spatial_join_required":true,"page_generation":1,"parcel_status":"UNPROCESSED","poi_accepted":false,"slot_id":"building_type_9","source_dataset":"listed-building-outline","source_entity":42154138,"source_organisation":"Northumberland County Council","source_reference":"1042431","source_url":"https://www.planning.data.gov.uk/entity/42154138"},"type":"Feature"},{"geometry":{"coordinates":[[[[-1.670368,55.108749],[-1.670476,55.10875],[-1.67048,55.108506],[-1.670364,55.108505],[-1.670364,55.108489],[-1.670322,55.108489],[-1.670313,55.108478],[-1.67029,55.108478],[-1.67027,55.108487],[-1.670186,55.108486],[-1.670186,55.108502],[-1.670151,55.1085],[-1.670153,55.10855],[-1.670152,55.108589],[-1.670179,55.108588],[-1.670183,55.1086],[-1.670262,55.1086],[-1.670262,55.10859],[-1.670332,55.10859],[-1.670333,55.10864],[-1.670368,55.108639],[-1.670368,55.108749]]]],"type":"MultiPolygon"},"id":"42152992","properties":{"access_utc":"2026-10-04T07:05:00Z","batch_id":"batch-0043","building_evidence_status":"BUILDING_PRESENT","building_type":"listed_building","building_use":null,"canonical_parcel_id":null,"confidence_score_0_100":94,"data_date":"2024-08-22","evidence_grade":"A","evidence_slice_sha256":"30e1f3245c9de74b81017f8472829cde4ad10c2328b1c4e17dd0971dffe65d96","fake_data":false,"field_evidence":{"footprint":"official listed-building-outline MULTIPOLYGON","name":"The Old Vicarage","reference":"1025120","type":"official dataset classification: listed-building-outline","use":"no use inferred"},"final_url":"https://www.planning.data.gov.uk/entity/42152992","licence":"Open Government Licence v3.0","lineage_id":"building_type_9-20261001T200900Z-newstart","local_spatial_join_required":true,"page_generation":1,"parcel_status":"UNPROCESSED","poi_accepted":false,"slot_id":"building_type_9","source_dataset":"listed-building-outline","source_entity":42152992,"source_organisation":"Northumberland County Council","source_reference":"1025120","source_url":"https://www.planning.data.gov.uk/entity/42152992"},"type":"Feature"},{"geometry":{"coordinates":[[[[-1.613389,55.389093],[-1.613359,55.389096],[-1.613363,55.389129],[-1.613602,55.389122],[-1.613576,55.388943],[-1.613411,55.388949],[-1.613421,55.389019],[-1.613378,55.389021],[-1.613389,55.389093]]]],"type":"MultiPolygon"},"id":"42153519","properties":{"access_utc":"2026-10-04T07:05:00Z","batch_id":"batch-0043","building_evidence_status":"BUILDING_PRESENT","building_type":"listed_building","building_use":null,"canonical_parcel_id":null,"confidence_score_0_100":94,"data_date":"2013-08-19","evidence_grade":"A","evidence_slice_sha256":"79f28f661e7c0ccdb44abf793a8dd4716529d89150346a334b7ecbe7ac1f1d91","fake_data":false,"field_evidence":{"footprint":"official listed-building-outline MULTIPOLYGON","name":"The Hall","reference":"1041811","type":"official dataset classification: listed-building-outline","use":"no use inferred"},"final_url":"https://www.planning.data.gov.uk/entity/42153519","licence":"Open Government Licence v3.0","lineage_id":"building_type_9-20261001T200900Z-newstart","local_spatial_join_required":true,"page_generation":1,"parcel_status":"UNPROCESSED","poi_accepted":false,"slot_id":"building_type_9","source_dataset":"listed-building-outline","source_entity":42153519,"source_organisation":"Northumberland County Council","source_reference":"1041811","source_url":"https://www.planning.data.gov.uk/entity/42153519"},"type":"Feature"},{"geometry":{"coordinates":[[[[-2.001839,55.766915],[-2.001739,55.766893],[-2.001643,55.767016],[-2.001735,55.767039],[-2.001839,55.766915]]]],"type":"MultiPolygon"},"id":"42154136","properties":{"access_utc":"2026-10-04T07:05:00Z","batch_id":"batch-0043","building_evidence_status":"BUILDING_PRESENT","building_type":"listed_building","building_use":null,"canonical_parcel_id":null,"confidence_score_0_100":94,"data_date":"2013-08-19","evidence_grade":"A","evidence_slice_sha256":"ae097e16e74f3c2a006126a153264711861a45e55240f9f2754f56acd06a3228","fake_data":false,"field_evidence":{"footprint":"official listed-building-outline MULTIPOLYGON","name":"Avenue House","reference":"1042429","type":"official dataset classification: listed-building-outline","use":"no use inferred"},"final_url":"https://www.planning.data.gov.uk/entity/42154136","licence":"Open Government Licence v3.0","lineage_id":"building_type_9-20261001T200900Z-newstart","local_spatial_join_required":true,"page_generation":1,"parcel_status":"UNPROCESSED","poi_accepted":false,"slot_id":"building_type_9","source_dataset":"listed-building-outline","source_entity":42154136,"source_organisation":"Northumberland County Council","source_reference":"1042429","source_url":"https://www.planning.data.gov.uk/entity/42154136"},"type":"Feature"},{"geometry":{"coordinates":[[[[-2.002734,55.766711],[-2.002698,55.766765],[-2.002789,55.766783],[-2.002779,55.766799],[-2.002899,55.766822],[-2.002975,55.766702],[-2.002846,55.766675],[-2.002833,55.766695],[-2.002755,55.766678],[-2.002734,55.766711]]]],"type":"MultiPolygon"},"id":"42154133","properties":{"access_utc":"2026-10-04T07:05:00Z","batch_id":"batch-0043","building_evidence_status":"BUILDING_PRESENT","building_type":"listed_building","building_use":null,"canonical_parcel_id":null,"confidence_score_0_100":94,"data_date":"2013-08-19","evidence_grade":"A","evidence_slice_sha256":"406d6e604bfcaddb4e68db61abda22394cc4dbc6ba7d485d6af53a68b344cea2","fake_data":false,"field_evidence":{"footprint":"official listed-building-outline MULTIPOLYGON","name":"25 And 27, Palace Street","reference":"1042426","type":"official dataset classification: listed-building-outline","use":"no use inferred"},"final_url":"https://www.planning.data.gov.uk/entity/42154133","licence":"Open Government Licence v3.0","lineage_id":"building_type_9-20261001T200900Z-newstart","local_spatial_join_required":true,"page_generation":1,"parcel_status":"UNPROCESSED","poi_accepted":false,"slot_id":"building_type_9","source_dataset":"listed-building-outline","source_entity":42154133,"source_organisation":"Northumberland County Council","source_reference":"1042426","source_url":"https://www.planning.data.gov.uk/entity/42154133"},"type":"Feature"},{"geometry":{"coordinates":[[[[-2.003869,55.76824],[-2.003873,55.768242],[-2.003841,55.768279],[-2.003874,55.768288],[-2.003842,55.768326],[-2.003924,55.768348],[-2.00403,55.768225],[-2.00391,55.768191],[-2.003869,55.76824]]]],"type":"MultiPolygon"},"id":"42153367","properties":{"access_utc":"2026-10-04T07:05:00Z","batch_id":"batch-0043","building_evidence_status":"BUILDING_PRESENT","building_type":"listed_building","building_use":null,"canonical_parcel_id":null,"confidence_score_0_100":94,"data_date":"2013-08-19","evidence_grade":"A","evidence_slice_sha256":"717abaa8600da58b364ace531ade5106ba675d94d8470d40ccd5987eb662d9f3","fake_data":false,"field_evidence":{"footprint":"official listed-building-outline MULTIPOLYGON","name":"26, Bridge Street","reference":"1041659","type":"official dataset classification: listed-building-outline","use":"no use inferred"},"final_url":"https://www.planning.data.gov.uk/entity/42153367","licence":"Open Government Licence v3.0","lineage_id":"building_type_9-20261001T200900Z-newstart","local_spatial_join_required":true,"page_generation":1,"parcel_status":"UNPROCESSED","poi_accepted":false,"slot_id":"building_type_9","source_dataset":"listed-building-outline","source_entity":42153367,"source_organisation":"Northumberland County Council","source_reference":"1041659","source_url":"https://www.planning.data.gov.uk/entity/42153367"},"type":"Feature"}],"name":"building_type_9_batch_0043","type":"FeatureCollection"}