{"type":"FeatureCollection","features":[{"type":"Feature","geometry":null,"properties":{"slot_id":"future_growth_1","lineage_id":"future_growth_1-newstart-20260927T153100+0300","page_generation":null,"accepted_as_parcel":false,"source_area_count_contribution":1,"exact_identifier":"S5","exact_identifier_provided":true,"coverage_polygon_provided":false,"identifier_namespace":"Camden Local Plan 2026-2041 site allocation","site_name":"120–136 Camley Street","access_utc":"2026-10-02T20:36:00Z","data_date":"2025-10-03","source_url":"https://www.camden.gov.uk/draft-new-local-plan","final_url":"https://www.camden.gov.uk/draft-new-local-plan","evidence_url":"https://www.camden.gov.uk/documents/d/guest/ed85-draft-camden-local-plan-2026-2041-allocated-sites-up-to-1-ha","plan_url":"https://www.camden.gov.uk/documents/d/guest/camden-local-plan-proposed-submission-draft-april-2025_low-res_with-links_reduced","license":"London Borough of Camden public planning-policy/examination documents; document-specific reuse licence not stated on the source pages","authority":"London Borough of Camden","scheme_size_hectares":0.5,"indicative_capacity_additional_homes":110,"plan_horizon":"2026-2041","plan_stage":"Proposed Submission Draft submitted for independent examination on 2025-10-03","evidence_grade":"A","confidence_score_0_100":99,"evidence_scope":"exact Camden Local Plan site allocation S5 plus current council plan-status page and examination evidence ED85","evidence_slice_sha256":"021e5269660f716608f790e3e69bcbff05c39112a99fb4b0c958b35ba0203fb9","fake_data":false,"spatial_binding_method":"official S5 allocation identifier plus submitted-plan/examination evidence; exact site boundary resolution, canonical parcel spatial join and materialization delegated to local OpenCode","planned_building_count_contribution":0}}]}