{
  "type": "FeatureCollection",
  "features": [
    {
      "type": "Feature",
      "id": "brownfield-site:1802725:58",
      "geometry": {
        "type": "MultiPolygon",
        "coordinates": [
          [
            [
              [
                -1.133195,
                53.523676
              ],
              [
                -1.133303,
                53.52373
              ],
              [
                -1.133386,
                53.523779
              ],
              [
                -1.133437,
                53.523807
              ],
              [
                -1.133474,
                53.523779
              ],
              [
                -1.13344,
                53.523764
              ],
              [
                -1.13353,
                53.523695
              ],
              [
                -1.133307,
                53.523592
              ],
              [
                -1.133195,
                53.523676
              ]
            ]
          ]
        ]
      },
      "properties": {
        "slot_id": "future_growth_7",
        "lineage_id": "future_growth_7_open_source_v2_20260813",
        "page_generation": null,
        "batch_id": "batch_20261008T044342Z_bfs1802725",
        "semantic_mode": "AREA_JOIN",
        "semantic_identity": "brownfield-site:1802725:58",
        "official_entity_id": 1802725,
        "official_reference": "58",
        "organisation": "Doncaster Metropolitan Borough Council",
        "source_url": "https://www.planning.data.gov.uk/entity/1802725",
        "final_url": "https://www.planning.data.gov.uk/entity/1802725",
        "http_status": null,
        "http_status_evidence": "official public entity text available; HTTP response code not exposed to producer",
        "accessed_utc": "2026-10-08T04:43:42Z",
        "data_date": "2025-12-03",
        "data_version": "official entry 2025-12-03",
        "licence": "Open Government Licence v3.0",
        "licence_url": "https://www.planning.data.gov.uk/dataset/brownfield-site",
        "dataset": "brownfield-site",
        "entity": 1802725,
        "reference": "58",
        "source_window": "brownfield-site:entity:1802725:entry-2025-12-03",
        "source_sha256": "d08ecbe77d1e9f4acb86be537df314bdfd992381d4ae68e2a424d319b546f1bc",
        "source_sha256_basis": "canonical official field_evidence JSON; not source HTML byte hash",
        "field_evidence": {
          "entry-date": "2025-12-03",
          "start-date": "",
          "end-date": "",
          "entity": 1802725,
          "name": "13 Scot Lane, Doncaster, DN1 1EW",
          "dataset": "brownfield-site",
          "typology": "geography",
          "reference": "58",
          "prefix": "brownfield-site",
          "organisation-entity": "109",
          "geometry": "MULTIPOLYGON (((-1.133195 53.523676, -1.133303 53.52373, -1.133386 53.523779, -1.133437 53.523807, -1.133474 53.523779, -1.13344 53.523764, -1.13353 53.523695, -1.133307 53.523592, -1.133195 53.523676)))",
          "point": "POINT (-1.133366 53.523693)",
          "quality": "authoritative",
          "brownfield-site": "58",
          "organisation-curie": "local-authority:DNC"
        },
        "evidence_slice_sha256": "050fc31261876295063b7ee1b17241a42ece946bfd3ba6de4c14a7957860df26",
        "evidence_grade": "A_EXACT_OFFICIAL_IDENTIFIER",
        "confidence_score_0_100": 95,
        "official_geometry_available": true,
        "official_geometry_type": "MULTIPOLYGON",
        "source_geometry_materialized_here": true,
        "point_not_used_as_coverage": true,
        "source_area_only": true,
        "fake_data": false
      }
    }
  ]
}
