{"type":"FeatureCollection","features":[{"type":"Feature","id":480499,"geometry":{"type":"MultiPolygon","coordinates":[[[[-73.904306481667,40.706474946929],[-73.904316259083,40.70646537541],[-73.904279605723,40.706443694826],[-73.904269829488,40.706453266344],[-73.904183939342,40.706402458233],[-73.904246093659,40.706341609222],[-73.904330373445,40.706391464107],[-73.904319145603,40.706402457231],[-73.904357462488,40.706425122544],[-73.904368690326,40.706414130316],[-73.904443956212,40.706458652901],[-73.904381801966,40.706519502018],[-73.904306481667,40.706474946929]]]]},"properties":{"source_id":"480499","building_type":"Building","building_present":true,"DOITT_ID":"480499","BIN":"4083456","FEATURE_CODE":"2100","BASE_BBL":"4034860061","OBJECTID":1028988,"construction_year":1910,"geom_source":"Photogrammetric","ground_elevation":107.0,"height_roof":34.76,"last_edited_date":"2020 Jan 28 12:24:50 PM","last_status_type":"Constructed","mappluto_bbl":"4034860061","length":86.11768795637576,"evidence_grade":"A_OFFICIAL_CITY_BUILDING_FOOTPRINT_AND_TYPE"}}]}
