{"type":"FeatureCollection","name":"security_public_safety_6","features":[],"metadata":{"slot_id":"security_public_safety_6","lineage_id":"SECPS6_20260930T003421Z_01","page_generation":1,"batch_id":"BATCH_20261006T001138Z_DATA_POLICE_GLOUCESTERSHIRE_NEIGHBOURHOODS_BLOCKER","source_window_id":"data_police_gloucestershire_neighbourhoods_api_2026-10-06","source_url":"https://data.police.uk/api/gloucestershire/neighbourhoods","final_url":"https://data.police.uk/api/gloucestershire/neighbourhoods","landing_url":"https://data.police.uk/","documentation_url":"https://data.police.uk/docs/method/neighbourhoods/","accessed_utc":"2026-10-06T00:11:38Z","data_date":null,"license":"Open Government Licence v3.0","new_source_records":0,"source_area_count_delta":0,"cumulative_source_area_count":58,"accepted_count":0,"duplicate_count":0,"rejected_count":0,"unmatched_count":0,"materialized_parcel_count":0,"direct_parcel_count":0,"planned_building_count":0,"cursor":null,"window_complete":false,"dataset_complete":false,"exact_blocker":"DATA_POLICE_GLOUCESTERSHIRE_NEIGHBOURHOODS_PAYLOAD_UNAVAILABLE_CURRENT_TOOLCHAIN","local_spatial_join_required":true,"fake_data":false}}
