{"type":"FeatureCollection","features":[{"type":"Feature","id":"crawley-brownfield-land-register-part-one-december-2025:CBCBLR010","geometry":null,"properties":{"slot_id":"future_growth_4","lineage_id":"fg4-e4c9076d6f554f00","page_generation":1,"owner":"future_growth_4","partition":"future_growth","semantic_mode":"SOURCE_AREA_EXACT_IDENTIFIER","dataset":"crawley-brownfield-land-register-part-one-december-2025","entity":"CBCBLR010","reference":"CBCBLR010","quality":"authoritative","organisation":"Crawley Borough Council","name":"County Buildings, Northgate, Crawley","site_address":"County Buildings, Northgate, Crawley","source_url":"https://crawley.gov.uk/planning/planning-policy/engagement-and-monitoring/brownfield-land-register/publications/brownfield-land-register-part-one-text-summary/brownfield-land-register-part-one-text-summary","final_url":"https://crawley.gov.uk/planning/planning-policy/engagement-and-monitoring/brownfield-land-register/publications/brownfield-land-register-part-one-text-summary/brownfield-land-register-part-one-text-summary","access_utc":"2026-10-05T01:28:00Z","data_date":"2025-12-04","license":"Crawley Borough Council official publication; no explicit reuse licence stated on source page","field_evidence":{"reference":"CBCBLR010","site_name_address":"County Buildings, Northgate, Crawley","hectares":1.07,"ownership_status":"owned by a public authority","planning_status":"not permissioned","deliverable_within_five_years":"unknown","capacity_min_dwellings":50,"capacity_max_dwellings":150,"capacity_basis":"maximum 150 from early feasibility studies; minimum 50 from the 2015 Local Plan housing trajectory","local_plan_allocation":"Town Centre Key Opportunity Site for residential and/or town centre uses in Policies TC3 and H2 of the Crawley Borough Local Plan 2023 to 2040","housing_trajectory_dwellings":135,"office_floorspace_sqm":5200,"first_added_date":"2017-11-29","end_date":"not applicable"},"evidence_slice_sha256":"8c743dbcc77591d709fb5a383e050d7563540e5b49c4393d6d243a18af0daf0c","confidence_score_0_100":99,"confidence":0.99,"evidence_grade":"A","exact_identifier_provided":true,"coverage_polygon_provided":false,"fake_data":false,"join_mode":"LOCAL_OPENCODE_SPATIAL_JOIN_PENDING","direct_parcel":false,"source_area_count_contribution":1,"planned_building_count_contribution":0}}]}