{
  "type": "FeatureCollection",
  "features": [{"type":"Feature","geometry":null,"properties":{"slot_id":"future_growth_7","lineage_id":"future_growth_7_open_source_v2_20260813","page_generation":null,"batch_id":"batch_20260930T180500Z_lbcblr083","future_growth_evidence_type":"brownfield_land_exact_official_identifier","official_entity_id":1702390,"official_reference":"LBCBLR083","dataset":"brownfield-land","organisation":"London Borough of Camden","organisation_curie":"local-authority:CMD","source_url":"https://www.planning.data.gov.uk/entity/1702390","final_url":"https://www.planning.data.gov.uk/entity/1702390","accessed_utc":"2026-09-30T18:05:00Z","data_date":"2025-12-07","start_date":"2017-12-22","planning_permission_date":"2022-11-24","licence":"Open Government Licence v3.0","field_evidence":{"future_growth":["dataset=brownfield-land","deliverable=yes","planning-permission-status=permissioned"],"identifier":["entity=1702390","reference=LBCBLR083"],"coverage_note":"No polygon was present in the official entity record; exact official identifier retained for local canonical spatial resolution."},"evidence_slice_sha256":"8b9a4a2af53abf476aea8f56286fa5a1199c533d42d15ee0b1b0c08f9faf70a2","confidence_score_0_100":92,"evidence_grade":"A_EXACT_OFFICIAL_IDENTIFIER","fake_data":false}}]
}
