{
  "type": "FeatureCollection",
  "features": [
    {"type":"Feature","id":"planned_buildings_2-gla-oa-bexley-riverside-2025","geometry":null,"properties":{"slot_id":"planned_buildings_2","source_dataset_id":"london_datastore_opportunity_area_pen_portraits_2025","source_window_index":0,"official_site_key":"GLA-OA-2025-BEXLEY-RIVERSIDE","canonical_record_key":"london-datastore:opportunity-area-pen-portraits-2025:bexley-riverside","planned_project_name":"Bexley Riverside Opportunity Area","planned_project_type":"opportunity_area_regeneration_masterplan","planned_building_value":null,"planned_building_probability":null,"planned_building_complete_month":null,"matching_method":"direct_official_site_record_no_parcel_match","source_resource_name":"2025_Bexley_Riverside_OA_Pen_Portrait.pdf","source_license":"UK Open Government Licence (OGL v3)","demo_only":true,"fake_data":false,"final_ready":false,"production_merge":false}},
    {"type":"Feature","id":"planned_buildings_2-gla-oa-brent-cross-cricklewood-2025","geometry":null,"properties":{"slot_id":"planned_buildings_2","source_dataset_id":"london_datastore_opportunity_area_pen_portraits_2025","source_window_index":1,"official_site_key":"GLA-OA-2025-BRENT-CROSS-CRICKLEWOOD","canonical_record_key":"london-datastore:opportunity-area-pen-portraits-2025:brent-cross-cricklewood","planned_project_name":"Brent Cross Cricklewood Opportunity Area","planned_project_type":"opportunity_area_regeneration_masterplan","planned_building_value":null,"planned_building_probability":null,"planned_building_complete_month":null,"matching_method":"direct_official_site_record_no_parcel_match","source_resource_name":"2025_Brent_Cross_Cricklewood_Pen_Portrait.pdf","source_license":"UK Open Government Licence (OGL v3)","demo_only":true,"fake_data":false,"final_ready":false,"production_merge":false}},
    {"type":"Feature","id":"planned_buildings_2-gla-oa-bromley-2025","geometry":null,"properties":{"slot_id":"planned_buildings_2","source_dataset_id":"london_datastore_opportunity_area_pen_portraits_2025","source_window_index":2,"official_site_key":"GLA-OA-2025-BROMLEY","canonical_record_key":"london-datastore:opportunity-area-pen-portraits-2025:bromley","planned_project_name":"Bromley Opportunity Area","planned_project_type":"opportunity_area_regeneration_masterplan","planned_building_value":null,"planned_building_probability":null,"planned_building_complete_month":null,"matching_method":"direct_official_site_record_no_parcel_match","source_resource_name":"2025_Bromley_OA_Pen_Portrait.pdf","source_license":"UK Open Government Licence (OGL v3)","demo_only":true,"fake_data":false,"final_ready":false,"production_merge":false}},
    {"type":"Feature","id":"planned_buildings_2-gla-oa-canada-water-2025","geometry":null,"properties":{"slot_id":"planned_buildings_2","source_dataset_id":"london_datastore_opportunity_area_pen_portraits_2025","source_window_index":3,"official_site_key":"GLA-OA-2025-CANADA-WATER","canonical_record_key":"london-datastore:opportunity-area-pen-portraits-2025:canada-water","planned_project_name":"Canada Water Opportunity Area","planned_project_type":"opportunity_area_regeneration_masterplan","planned_building_value":null,"planned_building_probability":null,"planned_building_complete_month":null,"matching_method":"direct_official_site_record_no_parcel_match","source_resource_name":"2025_Canada_Water_OA_Pen_Portrait.pdf","source_license":"UK Open Government Licence (OGL v3)","demo_only":true,"fake_data":false,"final_ready":false,"production_merge":false}},
    {"type":"Feature","id":"planned_buildings_2-gla-oa-charlton-riverside-2025","geometry":null,"properties":{"slot_id":"planned_buildings_2","source_dataset_id":"london_datastore_opportunity_area_pen_portraits_2025","source_window_index":4,"official_site_key":"GLA-OA-2025-CHARLTON-RIVERSIDE","canonical_record_key":"london-datastore:opportunity-area-pen-portraits-2025:charlton-riverside","planned_project_name":"Charlton Riverside Opportunity Area","planned_project_type":"opportunity_area_regeneration_masterplan","planned_building_value":null,"planned_building_probability":null,"planned_building_complete_month":null,"matching_method":"direct_official_site_record_no_parcel_match","source_resource_name":"2025_Charlton Riverside_OA_Pen_Portrait.pdf","source_license":"UK Open Government Licence (OGL v3)","demo_only":true,"fake_data":false,"final_ready":false,"production_merge":false}},
    {"type":"Feature","id":"planned_buildings_2-gla-oa-city-fringe-2025","geometry":null,"properties":{"slot_id":"planned_buildings_2","source_dataset_id":"london_datastore_opportunity_area_pen_portraits_2025","source_window_index":5,"official_site_key":"GLA-OA-2025-CITY-FRINGE","canonical_record_key":"london-datastore:opportunity-area-pen-portraits-2025:city-fringe","planned_project_name":"City Fringe Opportunity Area","planned_project_type":"opportunity_area_regeneration_masterplan","planned_building_value":null,"planned_building_probability":null,"planned_building_complete_month":null,"matching_method":"direct_official_site_record_no_parcel_match","source_resource_name":"2025_City Fringe_OA_Pen_Portrait.pdf","source_license":"UK Open Government Licence (OGL v3)","demo_only":true,"fake_data":false,"final_ready":false,"production_merge":false}},
    {"type":"Feature","id":"planned_buildings_2-gla-oa-clapham-junction-2025","geometry":null,"properties":{"slot_id":"planned_buildings_2","source_dataset_id":"london_datastore_opportunity_area_pen_portraits_2025","source_window_index":6,"official_site_key":"GLA-OA-2025-CLAPHAM-JUNCTION","canonical_record_key":"london-datastore:opportunity-area-pen-portraits-2025:clapham-junction","planned_project_name":"Clapham Junction Opportunity Area","planned_project_type":"opportunity_area_regeneration_masterplan","planned_building_value":null,"planned_building_probability":null,"planned_building_complete_month":null,"matching_method":"direct_official_site_record_no_parcel_match","source_resource_name":"2025_Clapham_Junction_OA_Pen_Portrait.pdf","source_license":"UK Open Government Licence (OGL v3)","demo_only":true,"fake_data":false,"final_ready":false,"production_merge":false}},
    {"type":"Feature","id":"planned_buildings_2-gla-oa-colindale-burnt-oak-2025","geometry":null,"properties":{"slot_id":"planned_buildings_2","source_dataset_id":"london_datastore_opportunity_area_pen_portraits_2025","source_window_index":7,"official_site_key":"GLA-OA-2025-COLINDALE-BURNT-OAK","canonical_record_key":"london-datastore:opportunity-area-pen-portraits-2025:colindale-burnt-oak","planned_project_name":"Colindale Burnt Oak Opportunity Area","planned_project_type":"opportunity_area_regeneration_masterplan","planned_building_value":null,"planned_building_probability":null,"planned_building_complete_month":null,"matching_method":"direct_official_site_record_no_parcel_match","source_resource_name":"2025_Colindale_Burnt_Oak_Pen_OA_Portrait.pdf","source_license":"UK Open Government Licence (OGL v3)","demo_only":true,"fake_data":false,"final_ready":false,"production_merge":false}},
    {"type":"Feature","id":"planned_buildings_2-gla-oa-croydon-2025","geometry":null,"properties":{"slot_id":"planned_buildings_2","source_dataset_id":"london_datastore_opportunity_area_pen_portraits_2025","source_window_index":8,"official_site_key":"GLA-OA-2025-CROYDON","canonical_record_key":"london-datastore:opportunity-area-pen-portraits-2025:croydon","planned_project_name":"Croydon Opportunity Area","planned_project_type":"opportunity_area_regeneration_masterplan","planned_building_value":null,"planned_building_probability":null,"planned_building_complete_month":null,"matching_method":"direct_official_site_record_no_parcel_match","source_resource_name":"2025_Croydon_OA_Pen_Portrait.pdf","source_license":"UK Open Government Licence (OGL v3)","demo_only":true,"fake_data":false,"final_ready":false,"production_merge":false}},
    {"type":"Feature","id":"planned_buildings_2-gla-oa-deptford-creek-greenwich-riverside-2025","geometry":null,"properties":{"slot_id":"planned_buildings_2","source_dataset_id":"london_datastore_opportunity_area_pen_portraits_2025","source_window_index":9,"official_site_key":"GLA-OA-2025-DEPTFORD-CREEK-GREENWICH-RIVERSIDE","canonical_record_key":"london-datastore:opportunity-area-pen-portraits-2025:deptford-creek-greenwich-riverside","planned_project_name":"Deptford Creek / Greenwich Riverside Opportunity Area","planned_project_type":"opportunity_area_regeneration_masterplan","planned_building_value":null,"planned_building_probability":null,"planned_building_complete_month":null,"matching_method":"direct_official_site_record_no_parcel_match","source_resource_name":"2025_Deptford_Creek_Greenwich_R_OA_Pen_Portrait.pdf","source_license":"UK Open Government Licence (OGL v3)","demo_only":true,"fake_data":false,"final_ready":false,"production_merge":false}},
    {"type":"Feature","id":"planned_buildings_2-gla-oa-earls-court-2025","geometry":null,"properties":{"slot_id":"planned_buildings_2","source_dataset_id":"london_datastore_opportunity_area_pen_portraits_2025","source_window_index":10,"official_site_key":"GLA-OA-2025-EARLS-COURT","canonical_record_key":"london-datastore:opportunity-area-pen-portraits-2025:earls-court","planned_project_name":"Earls Court Opportunity Area","planned_project_type":"opportunity_area_regeneration_masterplan","planned_building_value":null,"planned_building_probability":null,"planned_building_complete_month":null,"matching_method":"direct_official_site_record_no_parcel_match","source_resource_name":"2025_Earls_Court_OA_Pen_Portrait.pdf","source_license":"UK Open Government Licence (OGL v3)","demo_only":true,"fake_data":false,"final_ready":false,"production_merge":false}},
    {"type":"Feature","id":"planned_buildings_2-gla-oa-elephant-castle-2025","geometry":null,"properties":{"slot_id":"planned_buildings_2","source_dataset_id":"london_datastore_opportunity_area_pen_portraits_2025","source_window_index":11,"official_site_key":"GLA-OA-2025-ELEPHANT-CASTLE","canonical_record_key":"london-datastore:opportunity-area-pen-portraits-2025:elephant-castle","planned_project_name":"Elephant & Castle Opportunity Area","planned_project_type":"opportunity_area_regeneration_masterplan","planned_building_value":null,"planned_building_probability":null,"planned_building_complete_month":null,"matching_method":"direct_official_site_record_no_parcel_match","source_resource_name":"2025_Elephant_Castle_OA_Pen_Portrait.pdf","source_license":"UK Open Government Licence (OGL v3)","demo_only":true,"fake_data":false,"final_ready":false,"production_merge":false}}
  ],
  "metadata": {
    "schema_version": 1,
    "slot_id": "planned_buildings_2",
    "continuation_key": "planned_buildings_2_open_source_v2_20260813",
    "run_id": "20260818T015108Z",
    "source_index": 1,
    "source_family": "gla_opportunity_area_pen_portraits",
    "source_window_indices": [0,1,2,3,4,5,6,7,8,9,10,11],
    "batch_indices": [8,9,10,11,12,13,14,15,16,17,18,19],
    "canonical_feature_count_before": 372,
    "features_added": 12,
    "logical_feature_count_after": 384,
    "unique_real_site_project_before": 213,
    "unique_real_site_project_added": 12,
    "unique_real_site_project_after": 225,
    "duplicate_count_new": 0,
    "reprocessed_window_count": 0,
    "zero_result_windows": 0,
    "nearest_match_used": false,
    "parcel_match_used": false,
    "scoring_rule_status": "METHODOLOGY_APPROVAL_REQUIRED",
    "planned_building_value_write_count": 0,
    "planned_building_probability_write_count": 0,
    "planned_building_complete_month_write_count": 0,
    "next_source_index": 1,
    "next_source_window_index": 12,
    "next_batch_index": 20,
    "canonical_latest_overwritten": false,
    "mirror_only": true,
    "demo_only": true,
    "fake_data": false,
    "final_ready": false,
    "production_merge": false
  }
}
