{"type":"FeatureCollection","features":[{"type":"Feature","geometry":null,"properties":{"slot_id":"future_growth_1","lineage_id":"future_growth_1-newstart-20260927T153100+0300","page_generation":null,"accepted_as_parcel":false,"source_area_count_contribution":1,"exact_identifier":"Thamesmead and Abbey Wood","exact_identifier_provided":true,"coverage_polygon_provided":false,"identifier_namespace":"London Plan Opportunity Area","site_name":"Thamesmead and Abbey Wood Opportunity Area","access_utc":"2026-10-04T14:50:00Z","data_date":"2020-12-01","source_url":"https://data.london.gov.uk/dataset/london-plan-opportunity-areas-2jxjl","final_url":"https://data.london.gov.uk/dataset/london-plan-opportunity-areas-2jxjl","opportunity_area_url":"https://www.london.gov.uk/programmes-strategies/planning/implementing-london-plan/londons-opportunity-areas/oa-locations/thamesmead-and-abbey-wood-opportunity-area","adoption_decision_url":"https://www.london.gov.uk/decisions/md2696-thamesmead-and-abbey-wood-opportunity-area-planning-framework","license":"Open Government Licence v2","authority":"Greater London Authority","boroughs":["London Borough of Bexley","Royal Borough of Greenwich"],"designation_type":"Opportunity Area","london_plan_indicative_homes_2041":8000,"london_plan_indicative_jobs_2041":4000,"oapf_potential_homes_with_transport":15500,"oapf_potential_jobs_with_transport":8000,"dataset_geometry":"Custom Polygons","dataset_format":"GeoPackage","dataset_spatial_reference_epsg":27700,"evidence_grade":"A","confidence_score_0_100":99,"evidence_scope":"exact GLA Opportunity Area identifier plus adopted 2020 OAPF and official custom-polygon Opportunity Areas dataset","evidence_slice_sha256":"187a5d4b73c666f5e16bc252cc2cfc4bb6bf8b37bce656e57dc53e25313c8fe5","fake_data":false,"spatial_binding_method":"official Opportunity Area identifier plus GLA custom-polygon Opportunity Areas dataset; exact polygon feature extraction, canonical parcel spatial join and materialization delegated to local OpenCode","planned_building_count_contribution":0}}]}