{
  "type": "FeatureCollection",
  "features": [
    {
      "type": "Feature",
      "id": "planning-data:brownfield-site:WBR/17/0163",
      "geometry": {
        "type": "MultiPolygon",
        "coordinates": [
          [
            [
              [
                -0.195132,
                51.460066
              ],
              [
                -0.195135,
                51.460129
              ],
              [
                -0.195078,
                51.460406
              ],
              [
                -0.196355,
                51.460398
              ],
              [
                -0.197014,
                51.460392
              ],
              [
                -0.197403,
                51.460369
              ],
              [
                -0.197397,
                51.460319
              ],
              [
                -0.19723,
                51.460095
              ],
              [
                -0.196828,
                51.459531
              ],
              [
                -0.196834,
                51.459528
              ],
              [
                -0.196724,
                51.459375
              ],
              [
                -0.196596,
                51.459406
              ],
              [
                -0.196543,
                51.459415
              ],
              [
                -0.196552,
                51.459432
              ],
              [
                -0.196506,
                51.459442
              ],
              [
                -0.196515,
                51.459459
              ],
              [
                -0.196465,
                51.45947
              ],
              [
                -0.196432,
                51.459409
              ],
              [
                -0.196429,
                51.459408
              ],
              [
                -0.196374,
                51.459417
              ],
              [
                -0.196349,
                51.459432
              ],
              [
                -0.196226,
                51.459441
              ],
              [
                -0.196205,
                51.459431
              ],
              [
                -0.196148,
                51.459429
              ],
              [
                -0.195989,
                51.459408
              ],
              [
                -0.195887,
                51.459376
              ],
              [
                -0.195778,
                51.459329
              ],
              [
                -0.195746,
                51.459313
              ],
              [
                -0.195624,
                51.459259
              ],
              [
                -0.195308,
                51.45933
              ],
              [
                -0.194921,
                51.459374
              ],
              [
                -0.194921,
                51.459381
              ],
              [
                -0.194814,
                51.459393
              ],
              [
                -0.194772,
                51.459404
              ],
              [
                -0.194604,
                51.45944
              ],
              [
                -0.194644,
                51.459512
              ],
              [
                -0.194631,
                51.459521
              ],
              [
                -0.194632,
                51.459667
              ],
              [
                -0.194631,
                51.459751
              ],
              [
                -0.194557,
                51.45984
              ],
              [
                -0.194631,
                51.459869
              ],
              [
                -0.194801,
                51.459929
              ],
              [
                -0.194847,
                51.459933
              ],
              [
                -0.194898,
                51.459945
              ],
              [
                -0.195132,
                51.460008
              ],
              [
                -0.195122,
                51.460066
              ],
              [
                -0.195132,
                51.460066
              ]
            ]
          ]
        ]
      },
      "properties": {
        "semantic_identity": "planning-data:brownfield-site:WBR/17/0163",
        "source_area_id": "planning-data:brownfield-site:WBR/17/0163",
        "source_area_type": "brownfield-site",
        "source_reference": "WBR/17/0163",
        "source_entity": 1802406,
        "source_name": "Frogmore Depot, Dormay Street",
        "source_dataset": "brownfield-site",
        "organisation": "London Borough of Wandsworth",
        "organisation_entity": "local-authority:WND",
        "data_date": "2020-12-22",
        "entry_date": "2020-12-22",
        "source_url": "https://www.planning.data.gov.uk/entity/1802406",
        "final_url": "https://www.planning.data.gov.uk/entity/1802406",
        "source_geometry_wkt_sha256": "96f3295900862f244a4167437f3d44b113d0e35f180df6f70f2c3c3041a6fedd",
        "evidence_slice_sha256": "eef67c7799a46264baa3deaa15ba793cf2f526030b1bc3dcb60b2bd2bd6bd093",
        "license": "Open Government Licence v3.0",
        "evidence_grade": "B",
        "confidence": 0.78,
        "source_quality": "some",
        "semantic_mode": "AREA_JOIN",
        "canonical_binding_status": "NOT_ATTEMPTED_LOCAL_OPENCODE",
        "fake_data": false
      }
    }
  ]
}
