{"type":"FeatureCollection","features":[{"type":"Feature","geometry":null,"properties":{"slot_id":"future_growth_1","lineage_id":"future_growth_1-newstart-20260927T153100+0300","page_generation":null,"accepted_as_parcel":false,"source_area_count_contribution":1,"exact_identifier":"CCF2","exact_identifier_provided":true,"coverage_polygon_provided":false,"identifier_namespace":"Shipley and Canal Road Corridor AAP site reference","site_name":"Bolton Road","access_utc":"2026-10-04T10:44:00Z","data_date":"2017-12-12","source_url":"https://gis.bradford.gov.uk/server/rest/services/Open_Data/SCRC_AAP/MapServer/1","final_url":"https://gis.bradford.gov.uk/server/rest/services/Open_Data/SCRC_AAP/MapServer/1","adoption_page_url":"https://www.bradford.gov.uk/planning-and-building-control/planning-policy/shipley-and-canal-road-corridor-area-action-plan-dpd/?Folder=%5CShipleyActionPlan%5CAdoption","adopted_plan_url":"https://www.bradford.gov.uk/media/x4zpcnyx/01-adopted-shipley-and-canal-road-corridor-area-action-plan-december-2017.pdf","license":"Bradford Council public GIS service and adopted planning documents; layer-specific reuse licence not stated in the public service metadata","authority":"City of Bradford Metropolitan District Council","site_area_hectares":0.31,"indicative_dwelling_capacity":16,"density_description":"medium/high density","policy_renderer_value":"SCRC/CCF1,CCF2","feature_layer_id":1,"feature_layer_name":"Shipley Canal Road Corridor AAP Policy","feature_layer_geometry_type":"esriGeometryPolygon","feature_layer_spatial_reference_epsg":3857,"evidence_grade":"A","confidence_score_0_100":99,"evidence_scope":"exact adopted Bradford SCRC AAP allocation CCF2 plus authority-hosted polygon Feature Layer metadata","evidence_slice_sha256":"fb8909e1b2e23a202a8cccb6fd7d757cfdf5cd52def2d72e87f998b9b60c3bcf","fake_data":false,"spatial_binding_method":"official Bradford CCF2 allocation identifier plus authority-hosted polygon layer 1; raw coordinates not fabricated; exact polygon resolution, canonical parcel spatial join and materialization delegated to local OpenCode","planned_building_count_contribution":0}}]}