{"type":"FeatureCollection","features":[{"type":"Feature","geometry":{"type":"MultiPolygon","coordinates":[[[[-5.052683,50.427924],[-5.052953,50.427855],[-5.053075,50.427835],[-5.053229,50.427797],[-5.053437,50.427775],[-5.053595,50.427417],[-5.053539,50.427377],[-5.053432,50.42735],[-5.053111,50.427297],[-5.053053,50.427296],[-5.052897,50.427319],[-5.052862,50.427316],[-5.052793,50.427283],[-5.05276,50.427278],[-5.052694,50.427283],[-5.052683,50.427296],[-5.052637,50.427314],[-5.052604,50.427312],[-5.052579,50.427369],[-5.052521,50.427372],[-5.052523,50.427495],[-5.052552,50.427661],[-5.052601,50.427778],[-5.052683,50.427924]]]]},"properties":{"slot_id":"future_growth_3","lineage_id":"future_growth_3-newstart-20261001T203100Z","page_generation":null,"accepted_as_parcel":false,"source_area_count_contribution":1,"exact_identifier":"BR295","exact_identifier_provided":true,"coverage_polygon_provided":true,"identifier_namespace":"Planning Data brownfield-site reference","secondary_exact_identifier":"entity:1802855","source_entity":"BR295 - Whipsiderry Hotel, Trevelgue Road, Newquay, TR7 3LY","access_utc":"2026-10-03T20:12:00Z","data_date":"2023-12-12","source_url":"https://www.planning.data.gov.uk/entity/1802855","final_url":"https://www.planning.data.gov.uk/entity/1802855","license":"Open Government Licence v3.0; attribution © Crown copyright and database right 2026.","authority":"Cornwall Council","site_address":"Whipsiderry Hotel, Trevelgue Road, Newquay, TR7 3LY","field_evidence":{"reference":"BR295","entity":1802855,"dataset":"Brownfield site","organisation":"Cornwall Council","start_date":"2023-12-12","entry_date":"2023-12-12","name":"Whipsiderry Hotel, Trevelgue Road, Newquay, TR7 3LY","typology":"geography","quality":"authoritative","geometry_wkt":"MULTIPOLYGON (((-5.052683 50.427924, -5.052953 50.427855, -5.053075 50.427835, -5.053229 50.427797, -5.053437 50.427775, -5.053595 50.427417, -5.053539 50.427377, -5.053432 50.42735, -5.053111 50.427297, -5.053053 50.427296, -5.052897 50.427319, -5.052862 50.427316, -5.052793 50.427283, -5.05276 50.427278, -5.052694 50.427283, -5.052683 50.427296, -5.052637 50.427314, -5.052604 50.427312, -5.052579 50.427369, -5.052521 50.427372, -5.052523 50.427495, -5.052552 50.427661, -5.052601 50.427778, -5.052683 50.427924)))","point_wkt":"POINT (-5.05301 50.427569)"},"source_payload_sha256":"df03831f0c21cfed5e135dc74f011c6ff1162ff8eb246640dc801de37fb36cf2","source_payload_sha256_basis":"canonicalized official Planning Data brownfield-site reference BR295 evidence fields","evidence_slice_sha256":"be77906780586ddbed788a86d74642c9a1ef2e6c264b511b5e88b1567140eb17","evidence_grade":"A","confidence_score_0_100":99,"evidence_scope":"direct_official_multipolygon_from_planning_data_brownfield_site_entity","fake_data":false,"spatial_binding_method":"official Planning Data brownfield-site entity 1802855 publishes a direct authoritative MultiPolygon boundary; canonical parcel spatial join and materialization delegated to local OpenCode","planned_building_count_contribution":0}}]}