{"type":"FeatureCollection","features":[{"type":"Feature","id":"planned_buildings_2-planning-data-brownfield-1730468","geometry":null,"properties":{"entity":1730468,"reference":"B19","canonical_record_key":"planning-data:brownfield-land:1730468","planned_project_name":"Car Park Bakers Lane Epping CM16 5","planned_project_status":"not-permissioned","borough":"Epping Forest District Council","official_hectares":0.42,"official_deliverable":true,"official_minimum_net_dwellings":31,"official_maximum_net_dwellings":31,"planned_building_value":null,"planned_building_probability":null,"planned_building_complete_month":null,"source_quality":"authoritative","source_url":"https://www.planning.data.gov.uk/entity/1730468","source_license":"Open Government Licence v3.0","fake_data":false}}],"metadata":{"slot_id":"planned_buildings_2","batch_index":288,"source_index":24,"source_window":{"resource_index":2,"limit":1},"feature_count_before":624,"feature_count_after":625,"unique_real_site_project_before":465,"unique_real_site_project_after":466,"duplicate_count_new":0,"nearest_match_used":false,"parcel_match_used":false,"geometry_inference_used":false,"mirror_only":true}}