{"type":"FeatureCollection","features":[{"type":"Feature","id":"planned_buildings_2-planning-data-brownfield-1723080","geometry":null,"properties":{"entity":1723080,"reference":"BR/27","canonical_record_key":"planning-data:brownfield-land:1723080","planned_project_name":"Watton-at-Stone Depot, Station Road, Watton-at-Stone, SG14 3SH","planned_project_status":"permissioned","borough":"East Hertfordshire District Council","official_hectares":0.44,"official_deliverable":true,"official_minimum_net_dwellings":10,"official_maximum_net_dwellings":null,"planned_building_value":null,"planned_building_probability":null,"planned_building_complete_month":null,"source_quality":"authoritative","source_url":"https://www.planning.data.gov.uk/entity/1723080","source_license":"Open Government Licence v3.0","fake_data":false}}],"metadata":{"slot_id":"planned_buildings_2","batch_index":283,"source_index":23,"source_window":{"resource_index":4,"limit":1},"feature_count_before":620,"feature_count_after":621,"unique_real_site_project_before":461,"unique_real_site_project_after":462,"duplicate_count_new":0,"nearest_match_used":false,"parcel_match_used":false,"geometry_inference_used":false,"mirror_only":true}}