{"type":"FeatureCollection","features":[{"type":"Feature","id":"planned_buildings_2-planning-data-brownfield-1740797","geometry":null,"properties":{"entity":1740797,"reference":"BR/31","canonical_record_key":"planning-data:brownfield-land:1740797","planned_project_name":"Land and Buildings to the East of Netherfield Lane, Stanstead Abbotts, Herts, SG12 8HE","planned_project_status":"permissioned","borough":"East Hertfordshire District Council","official_hectares":1.3,"official_deliverable":true,"official_minimum_net_dwellings":20,"official_maximum_net_dwellings":null,"planned_building_value":null,"planned_building_probability":null,"planned_building_complete_month":null,"source_quality":"authoritative","source_url":"https://www.planning.data.gov.uk/entity/1740797","source_license":"Open Government Licence v3.0","fake_data":false}}],"metadata":{"slot_id":"planned_buildings_2","batch_index":284,"source_index":23,"source_window":{"resource_index":5,"limit":1},"feature_count_before":621,"feature_count_after":622,"unique_real_site_project_before":462,"unique_real_site_project_after":463,"duplicate_count_new":0,"nearest_match_used":false,"parcel_match_used":false,"geometry_inference_used":false,"mirror_only":true}}