{"type":"FeatureCollection","features":[{"type":"Feature","id":"planned_buildings_2-planning-data-brownfield-1713097","geometry":null,"properties":{"entity":1713097,"reference":"BR090","canonical_record_key":"planning-data:brownfield-land:1713097","planned_project_name":"111 Church Hill Loughton IG10 4BE","planned_project_status":"not-permissioned","borough":"Epping Forest District Council","official_hectares":0.02,"official_deliverable":null,"official_minimum_net_dwellings":null,"official_maximum_net_dwellings":null,"planned_building_value":null,"planned_building_probability":null,"planned_building_complete_month":null,"source_quality":"authoritative","source_url":"https://www.planning.data.gov.uk/entity/1713097","source_license":"Open Government Licence v3.0","fake_data":false}}],"metadata":{"slot_id":"planned_buildings_2","batch_index":286,"source_index":24,"source_window":{"resource_index":0,"limit":1},"feature_count_before":622,"feature_count_after":623,"unique_real_site_project_before":463,"unique_real_site_project_after":464,"duplicate_count_new":0,"nearest_match_used":false,"parcel_match_used":false,"geometry_inference_used":false,"mirror_only":true}}