{"type":"FeatureCollection","features":[{"type":"Feature","geometry":null,"properties":{"slot_id":"future_growth_3","lineage_id":"future_growth_3-newstart-20261001T203100Z","page_generation":null,"accepted_as_parcel":false,"source_area_count_contribution":1,"exact_identifier":"AL/CRS 5","exact_identifier_provided":true,"coverage_polygon_provided":false,"identifier_namespace":"Tunbridge Wells Local Plan 2020-2038 adopted site-allocation policy reference","secondary_exact_identifier":"FeatureServer layer:10","source_entity":"AL/CRS 5 - Adopted Local Plan Site Allocation","access_utc":"2026-10-02T20:09:08Z","data_date":"2025-12-10","source_url":"https://tunbridgewells.gov.uk/planning/planning-policy/local-plan/adoption-borough-local-plan-documents","final_url":"https://services.arcgis.com/tghlG7ZjtJZbhYYT/arcgis/rest/services/TWBC_Local_Plan__Adopted_2025__Interactive_Policies_Map_v2_WFL1/FeatureServer","license":"Open Government Licence v3.0 for Tunbridge Wells local-plan open data metadata; mapping content may also include Crown copyright/database right constraints.","authority":"Tunbridge Wells Borough Council","site_address":"Site Allocation AL/CRS 5, Tunbridge Wells Borough","field_evidence":{"reference":"AL/CRS 5","dataset":"Tunbridge Wells Local Plan GIS open data set / Adopted 2025 Interactive Policies Map","organisation":"Tunbridge Wells Borough Council","local_plan":"Tunbridge Wells Local Plan 2020-2038","adoption_date":"2025-12-10","service_item_id":"20f00d0e071f4c7b9cb2b5150b66bffe","service_layer_id":10,"service_layer_name":"Site Allocation (AL/CRS 5)"},"source_payload_sha256":"0797db74d189e236d7ee5dcce38b597597f00d6610e57190752001a5d6d6a753","source_payload_sha256_basis":"canonicalized official Tunbridge Wells Borough Council adopted-plan GIS layer evidence fields","evidence_slice_sha256":"8dae3a35c3ac84c558317e6b4ac984153b22f74a2cfd3cc396c7c346196c77ce","evidence_grade":"A","confidence_score_0_100":98,"evidence_scope":"exact_official_identifier_from_adopted_council_gis_feature_service_layer","fake_data":false,"spatial_binding_method":"official Tunbridge Wells Borough Council Adopted 2025 Interactive Policies Map FeatureServer layer 10, exact reference AL/CRS 5; canonical parcel spatial join and materialization delegated to local OpenCode","planned_building_count_contribution":0}}]}