{
  "features": [
    {
      "geometry": null,
      "id": "cambridgeshire:CamCity_City_Centre",
      "properties": {
        "accepted_as_parcel": false,
        "access_utc": "2026-10-02T14:17:00Z",
        "canonical_binding": "LOCAL_OPENCODE_PENDING_NOT_CLAIMED",
        "confidence_score_0_100": 100,
        "data_date": "2026-10-02 access snapshot",
        "direct_parcel": false,
        "evidence_grade": "A_OFFICIAL_PUBLIC_API_EXACT_IDENTIFIER",
        "fake_data": false,
        "force_id": "cambridgeshire",
        "identifier": "CamCity_City_Centre",
        "identifier_field": "id",
        "identifier_version": "data.police.uk force-specific neighbourhood identifier",
        "name": "Cambridge City Centre and West",
        "record_type": "SOURCE_AREA_EXACT_IDENTIFIER",
        "source_area_counted": true,
        "source_url": "https://data.police.uk/api/cambridgeshire/neighbourhoods"
      },
      "type": "Feature"
    },
    {
      "geometry": null,
      "id": "cambridgeshire:CamCity_East_City",
      "properties": {
        "accepted_as_parcel": false,
        "access_utc": "2026-10-02T14:17:00Z",
        "canonical_binding": "LOCAL_OPENCODE_PENDING_NOT_CLAIMED",
        "confidence_score_0_100": 100,
        "data_date": "2026-10-02 access snapshot",
        "direct_parcel": false,
        "evidence_grade": "A_OFFICIAL_PUBLIC_API_EXACT_IDENTIFIER",
        "fake_data": false,
        "force_id": "cambridgeshire",
        "identifier": "CamCity_East_City",
        "identifier_field": "id",
        "identifier_version": "data.police.uk force-specific neighbourhood identifier",
        "name": "Cambridge East",
        "record_type": "SOURCE_AREA_EXACT_IDENTIFIER",
        "source_area_counted": true,
        "source_url": "https://data.police.uk/api/cambridgeshire/neighbourhoods"
      },
      "type": "Feature"
    },
    {
      "geometry": null,
      "id": "cambridgeshire:CamCity_North_City",
      "properties": {
        "accepted_as_parcel": false,
        "access_utc": "2026-10-02T14:17:00Z",
        "canonical_binding": "LOCAL_OPENCODE_PENDING_NOT_CLAIMED",
        "confidence_score_0_100": 100,
        "data_date": "2026-10-02 access snapshot",
        "direct_parcel": false,
        "evidence_grade": "A_OFFICIAL_PUBLIC_API_EXACT_IDENTIFIER",
        "fake_data": false,
        "force_id": "cambridgeshire",
        "identifier": "CamCity_North_City",
        "identifier_field": "id",
        "identifier_version": "data.police.uk force-specific neighbourhood identifier",
        "name": "Cambridge North",
        "record_type": "SOURCE_AREA_EXACT_IDENTIFIER",
        "source_area_counted": true,
        "source_url": "https://data.police.uk/api/cambridgeshire/neighbourhoods"
      },
      "type": "Feature"
    },
    {
      "geometry": null,
      "id": "cambridgeshire:CamCity_South_City",
      "properties": {
        "accepted_as_parcel": false,
        "access_utc": "2026-10-02T14:17:00Z",
        "canonical_binding": "LOCAL_OPENCODE_PENDING_NOT_CLAIMED",
        "confidence_score_0_100": 100,
        "data_date": "2026-10-02 access snapshot",
        "direct_parcel": false,
        "evidence_grade": "A_OFFICIAL_PUBLIC_API_EXACT_IDENTIFIER",
        "fake_data": false,
        "force_id": "cambridgeshire",
        "identifier": "CamCity_South_City",
        "identifier_field": "id",
        "identifier_version": "data.police.uk force-specific neighbourhood identifier",
        "name": "Cambridge South",
        "record_type": "SOURCE_AREA_EXACT_IDENTIFIER",
        "source_area_counted": true,
        "source_url": "https://data.police.uk/api/cambridgeshire/neighbourhoods"
      },
      "type": "Feature"
    },
    {
      "geometry": null,
      "id": "cambridgeshire:East_Cambridgeshire",
      "properties": {
        "accepted_as_parcel": false,
        "access_utc": "2026-10-02T14:17:00Z",
        "canonical_binding": "LOCAL_OPENCODE_PENDING_NOT_CLAIMED",
        "confidence_score_0_100": 100,
        "data_date": "2026-10-02 access snapshot",
        "direct_parcel": false,
        "evidence_grade": "A_OFFICIAL_PUBLIC_API_EXACT_IDENTIFIER",
        "fake_data": false,
        "force_id": "cambridgeshire",
        "identifier": "East_Cambridgeshire",
        "identifier_field": "id",
        "identifier_version": "data.police.uk force-specific neighbourhood identifier",
        "name": "East Cambridgeshire",
        "record_type": "SOURCE_AREA_EXACT_IDENTIFIER",
        "source_area_counted": true,
        "source_url": "https://data.police.uk/api/cambridgeshire/neighbourhoods"
      },
      "type": "Feature"
    },
    {
      "geometry": null,
      "id": "cambridgeshire:Huntingdon_and_Yaxley",
      "properties": {
        "accepted_as_parcel": false,
        "access_utc": "2026-10-02T14:17:00Z",
        "canonical_binding": "LOCAL_OPENCODE_PENDING_NOT_CLAIMED",
        "confidence_score_0_100": 100,
        "data_date": "2026-10-02 access snapshot",
        "direct_parcel": false,
        "evidence_grade": "A_OFFICIAL_PUBLIC_API_EXACT_IDENTIFIER",
        "fake_data": false,
        "force_id": "cambridgeshire",
        "identifier": "Huntingdon_and_Yaxley",
        "identifier_field": "id",
        "identifier_version": "data.police.uk force-specific neighbourhood identifier",
        "name": "Huntingdon",
        "record_type": "SOURCE_AREA_EXACT_IDENTIFIER",
        "source_area_counted": true,
        "source_url": "https://data.police.uk/api/cambridgeshire/neighbourhoods"
      },
      "type": "Feature"
    },
    {
      "geometry": null,
      "id": "cambridgeshire:March",
      "properties": {
        "accepted_as_parcel": false,
        "access_utc": "2026-10-02T14:17:00Z",
        "canonical_binding": "LOCAL_OPENCODE_PENDING_NOT_CLAIMED",
        "confidence_score_0_100": 100,
        "data_date": "2026-10-02 access snapshot",
        "direct_parcel": false,
        "evidence_grade": "A_OFFICIAL_PUBLIC_API_EXACT_IDENTIFIER",
        "fake_data": false,
        "force_id": "cambridgeshire",
        "identifier": "March",
        "identifier_field": "id",
        "identifier_version": "data.police.uk force-specific neighbourhood identifier",
        "name": "March",
        "record_type": "SOURCE_AREA_EXACT_IDENTIFIER",
        "source_area_counted": true,
        "source_url": "https://data.police.uk/api/cambridgeshire/neighbourhoods"
      },
      "type": "Feature"
    },
    {
      "geometry": null,
      "id": "cambridgeshire:Peterborough_Central",
      "properties": {
        "accepted_as_parcel": false,
        "access_utc": "2026-10-02T14:17:00Z",
        "canonical_binding": "LOCAL_OPENCODE_PENDING_NOT_CLAIMED",
        "confidence_score_0_100": 100,
        "data_date": "2026-10-02 access snapshot",
        "direct_parcel": false,
        "evidence_grade": "A_OFFICIAL_PUBLIC_API_EXACT_IDENTIFIER",
        "fake_data": false,
        "force_id": "cambridgeshire",
        "identifier": "Peterborough_Central",
        "identifier_field": "id",
        "identifier_version": "data.police.uk force-specific neighbourhood identifier",
        "name": "Peterborough Central",
        "record_type": "SOURCE_AREA_EXACT_IDENTIFIER",
        "source_area_counted": true,
        "source_url": "https://data.police.uk/api/cambridgeshire/neighbourhoods"
      },
      "type": "Feature"
    },
    {
      "geometry": null,
      "id": "cambridgeshire:Peterborough_City_Centre",
      "properties": {
        "accepted_as_parcel": false,
        "access_utc": "2026-10-02T14:17:00Z",
        "canonical_binding": "LOCAL_OPENCODE_PENDING_NOT_CLAIMED",
        "confidence_score_0_100": 100,
        "data_date": "2026-10-02 access snapshot",
        "direct_parcel": false,
        "evidence_grade": "A_OFFICIAL_PUBLIC_API_EXACT_IDENTIFIER",
        "fake_data": false,
        "force_id": "cambridgeshire",
        "identifier": "Peterborough_City_Centre",
        "identifier_field": "id",
        "identifier_version": "data.police.uk force-specific neighbourhood identifier",
        "name": "Peterborough City Centre",
        "record_type": "SOURCE_AREA_EXACT_IDENTIFIER",
        "source_area_counted": true,
        "source_url": "https://data.police.uk/api/cambridgeshire/neighbourhoods"
      },
      "type": "Feature"
    },
    {
      "geometry": null,
      "id": "cambridgeshire:Peterborough_Eastern",
      "properties": {
        "accepted_as_parcel": false,
        "access_utc": "2026-10-02T14:17:00Z",
        "canonical_binding": "LOCAL_OPENCODE_PENDING_NOT_CLAIMED",
        "confidence_score_0_100": 100,
        "data_date": "2026-10-02 access snapshot",
        "direct_parcel": false,
        "evidence_grade": "A_OFFICIAL_PUBLIC_API_EXACT_IDENTIFIER",
        "fake_data": false,
        "force_id": "cambridgeshire",
        "identifier": "Peterborough_Eastern",
        "identifier_field": "id",
        "identifier_version": "data.police.uk force-specific neighbourhood identifier",
        "name": "Peterborough East",
        "record_type": "SOURCE_AREA_EXACT_IDENTIFIER",
        "source_area_counted": true,
        "source_url": "https://data.police.uk/api/cambridgeshire/neighbourhoods"
      },
      "type": "Feature"
    },
    {
      "geometry": null,
      "id": "cambridgeshire:Peterborough_Northern",
      "properties": {
        "accepted_as_parcel": false,
        "access_utc": "2026-10-02T14:17:00Z",
        "canonical_binding": "LOCAL_OPENCODE_PENDING_NOT_CLAIMED",
        "confidence_score_0_100": 100,
        "data_date": "2026-10-02 access snapshot",
        "direct_parcel": false,
        "evidence_grade": "A_OFFICIAL_PUBLIC_API_EXACT_IDENTIFIER",
        "fake_data": false,
        "force_id": "cambridgeshire",
        "identifier": "Peterborough_Northern",
        "identifier_field": "id",
        "identifier_version": "data.police.uk force-specific neighbourhood identifier",
        "name": "Peterborough North",
        "record_type": "SOURCE_AREA_EXACT_IDENTIFIER",
        "source_area_counted": true,
        "source_url": "https://data.police.uk/api/cambridgeshire/neighbourhoods"
      },
      "type": "Feature"
    },
    {
      "geometry": null,
      "id": "cambridgeshire:Peterborough_Southern",
      "properties": {
        "accepted_as_parcel": false,
        "access_utc": "2026-10-02T14:17:00Z",
        "canonical_binding": "LOCAL_OPENCODE_PENDING_NOT_CLAIMED",
        "confidence_score_0_100": 100,
        "data_date": "2026-10-02 access snapshot",
        "direct_parcel": false,
        "evidence_grade": "A_OFFICIAL_PUBLIC_API_EXACT_IDENTIFIER",
        "fake_data": false,
        "force_id": "cambridgeshire",
        "identifier": "Peterborough_Southern",
        "identifier_field": "id",
        "identifier_version": "data.police.uk force-specific neighbourhood identifier",
        "name": "Peterborough South",
        "record_type": "SOURCE_AREA_EXACT_IDENTIFIER",
        "source_area_counted": true,
        "source_url": "https://data.police.uk/api/cambridgeshire/neighbourhoods"
      },
      "type": "Feature"
    },
    {
      "geometry": null,
      "id": "cambridgeshire:South_Cambridgeshire",
      "properties": {
        "accepted_as_parcel": false,
        "access_utc": "2026-10-02T14:17:00Z",
        "canonical_binding": "LOCAL_OPENCODE_PENDING_NOT_CLAIMED",
        "confidence_score_0_100": 100,
        "data_date": "2026-10-02 access snapshot",
        "direct_parcel": false,
        "evidence_grade": "A_OFFICIAL_PUBLIC_API_EXACT_IDENTIFIER",
        "fake_data": false,
        "force_id": "cambridgeshire",
        "identifier": "South_Cambridgeshire",
        "identifier_field": "id",
        "identifier_version": "data.police.uk force-specific neighbourhood identifier",
        "name": "South Cambridgeshire",
        "record_type": "SOURCE_AREA_EXACT_IDENTIFIER",
        "source_area_counted": true,
        "source_url": "https://data.police.uk/api/cambridgeshire/neighbourhoods"
      },
      "type": "Feature"
    },
    {
      "geometry": null,
      "id": "cambridgeshire:St_Ives_and_Ramsey",
      "properties": {
        "accepted_as_parcel": false,
        "access_utc": "2026-10-02T14:17:00Z",
        "canonical_binding": "LOCAL_OPENCODE_PENDING_NOT_CLAIMED",
        "confidence_score_0_100": 100,
        "data_date": "2026-10-02 access snapshot",
        "direct_parcel": false,
        "evidence_grade": "A_OFFICIAL_PUBLIC_API_EXACT_IDENTIFIER",
        "fake_data": false,
        "force_id": "cambridgeshire",
        "identifier": "St_Ives_and_Ramsey",
        "identifier_field": "id",
        "identifier_version": "data.police.uk force-specific neighbourhood identifier",
        "name": "St Ives",
        "record_type": "SOURCE_AREA_EXACT_IDENTIFIER",
        "source_area_counted": true,
        "source_url": "https://data.police.uk/api/cambridgeshire/neighbourhoods"
      },
      "type": "Feature"
    },
    {
      "geometry": null,
      "id": "cambridgeshire:St_Neots",
      "properties": {
        "accepted_as_parcel": false,
        "access_utc": "2026-10-02T14:17:00Z",
        "canonical_binding": "LOCAL_OPENCODE_PENDING_NOT_CLAIMED",
        "confidence_score_0_100": 100,
        "data_date": "2026-10-02 access snapshot",
        "direct_parcel": false,
        "evidence_grade": "A_OFFICIAL_PUBLIC_API_EXACT_IDENTIFIER",
        "fake_data": false,
        "force_id": "cambridgeshire",
        "identifier": "St_Neots",
        "identifier_field": "id",
        "identifier_version": "data.police.uk force-specific neighbourhood identifier",
        "name": "St Neots",
        "record_type": "SOURCE_AREA_EXACT_IDENTIFIER",
        "source_area_counted": true,
        "source_url": "https://data.police.uk/api/cambridgeshire/neighbourhoods"
      },
      "type": "Feature"
    },
    {
      "geometry": null,
      "id": "cambridgeshire:Wisbech",
      "properties": {
        "accepted_as_parcel": false,
        "access_utc": "2026-10-02T14:17:00Z",
        "canonical_binding": "LOCAL_OPENCODE_PENDING_NOT_CLAIMED",
        "confidence_score_0_100": 100,
        "data_date": "2026-10-02 access snapshot",
        "direct_parcel": false,
        "evidence_grade": "A_OFFICIAL_PUBLIC_API_EXACT_IDENTIFIER",
        "fake_data": false,
        "force_id": "cambridgeshire",
        "identifier": "Wisbech",
        "identifier_field": "id",
        "identifier_version": "data.police.uk force-specific neighbourhood identifier",
        "name": "Wisbech",
        "record_type": "SOURCE_AREA_EXACT_IDENTIFIER",
        "source_area_counted": true,
        "source_url": "https://data.police.uk/api/cambridgeshire/neighbourhoods"
      },
      "type": "Feature"
    }
  ],
  "name": "security_public_safety_3",
  "properties": {
    "accepted_count": 0,
    "batch_id": "20261002T141700Z-police-api-cambridgeshire-npt-000-015",
    "fake_data": false,
    "lineage_id": "L24-SPS3-57442c9c2a0f429be2d2",
    "page_generation": 1,
    "partition": {
      "count": 30761,
      "end": 92283,
      "start": 61523
    },
    "schema": "AAYS_LAYER24_EVIDENCE_V1",
    "slot_id": "security_public_safety_3",
    "source_area_count": 16
  },
  "type": "FeatureCollection"
}
