{"type":"FeatureCollection","features":[{"type":"Feature","geometry":null,"properties":{"slot_id":"future_growth_1","lineage_id":"future_growth_1-newstart-20260927T153100+0300","page_generation":null,"accepted_as_parcel":false,"source_area_count_contribution":1,"exact_identifier":"AIB 2","exact_identifier_provided":true,"coverage_polygon_provided":false,"identifier_namespace":"Hambleton Local Plan 2022 site allocation","site_name":"South of Lyngarth Farm, Bedale","access_utc":"2026-10-03T17:10:00Z","data_date":"2022-02-22","source_url":"https://map-services.hambleton.gov.uk/arcgis/rest/services/AGOL/LocalPlanPoliciesMap2022/MapServer/274","final_url":"https://map-services.hambleton.gov.uk/arcgis/rest/services/AGOL/LocalPlanPoliciesMap2022/MapServer/274","policy_url":"https://democracy.hambleton.gov.uk/documents/s27486/Hambleton%20Local%20Plan%20adoption.pdf","policy_schedule_url":"https://democracy.hambleton.gov.uk/documents/s15267/Hambleton%20Local%20Plan%20Publication%20Draft.pdf","post_adoption_evidence_url":"https://democracy.hambleton.gov.uk/documents/g2195/Public%20reports%20pack%2009th-Jun-2022%2013.30%20Planning%20Committee.pdf?T=10","license":"Hambleton District Council public Local Plan map service; itemInfo licenseInfo 'Static representaion'; © Crown copyright [and database rights] 2022 OS 100018555","authority":"Hambleton District Council","housing_capacity":60,"policy":"HG1 Housing Delivery","allocation_status":"adopted housing allocation","gis_layer_id":274,"gis_layer_name":"Allocations","gis_geometry_type":"esriGeometryPolygon","gis_spatial_reference_epsg":27700,"gis_supported_query_formats":["JSON","AMF","geoJSON"],"evidence_grade":"A","confidence_score_0_100":99,"evidence_scope":"official adopted Hambleton Local Plan 2022 AIB 2 allocation, authority-hosted Local Plan polygon layer and post-adoption planning committee confirmation","evidence_slice_sha256":"ec5e02cd3b016bdf307919487e85aaa7bc3081451414168385ea1bba14417ab5","source_window_payload_sha256":"eeefc333da6a6bc6aadda311f92f7b86e7fd46505ae179a2828e4b99fca37f7d","fake_data":false,"spatial_binding_method":"official exact allocation identifier AIB 2 plus authority-hosted adopted Local Plan esriGeometryPolygon layer; exact polygon query, canonical parcel spatial join and materialization delegated to local OpenCode","planned_building_count_contribution":0}}]}