{"type":"FeatureCollection","features":[{"type":"Feature","id":"CHERWELL_25_00002_F_GARAGE_01","geometry":null,"properties":{"slot_id":"planned_buildings_4","owner":"planned_buildings_4","lineage_id":"pb4-8debc7c8ddf348a2","page_generation":1,"partition":"layer24","schema":"AAYS_LAYER24_EVIDENCE_V1","semantic_mode":"PLANNED_BUILDINGS_OFFICIAL_REFERENCE_DISTINCT_STRUCTURE","batch_id":"20261002T192446Z-cherwell-25-00002-f-window-001","publisher":"Cherwell District Council","source_family":"CHERWELL_PLANNING_REGISTER","source_url":"https://planningregister.cherwell.gov.uk/Planning/Display/25/00002/F","final_url":"https://planningregister.cherwell.gov.uk/Planning/Display/25/00002/F","access_utc":"2026-10-02T19:24:46Z","data_date":"2025-01-02","license":"Public planning register; document copyright/usage remains governed by council register terms","planning_reference":"25/00002/F","location":"32 Kings End Bicester OX26 2AA","proposal":"Construction of replacement garage with connected bin and bike store and external parking bay","status":"Application Permitted","geometry_status":"NOT_MATERIALIZED_LOCAL_OPENCODE","field_evidence":"Official Cherwell District Council Planning Register application 25/00002/F. Application Type: Full Development. Status: Application Permitted. Valid date: 02/01/2025. Location: 32 Kings End Bicester OX26 2AA. Proposal: Construction of replacement garage with connected bin and bike store and external parking bay. Decision: Permitted. Decision Issued Date: 24/02/2025. Official documents include Site/Block Plan - Proposed 2425-004, Proposed Plans 2425-005, and Proposed Sections & Elevations 2425-006. One distinct new planned structure is counted from the official proposal and proposed drawings: a replacement garage with connected bin and bike store. The external parking bay is excluded because it is not a building. Geometry/materialization is deferred to local OpenCode.","evidence_slice_sha256":"4de775d3aac5b47b33780ca46564863ed66953f492d330baeacc7d8d5c47e641","confidence":0.99,"evidence_grade":"A_OFFICIAL_LOCAL_AUTHORITY_PLANNING_REGISTER_SINGLE_DISTINCT_GARAGE_WITH_CONNECTED_BIN_BIKE_STORE_PERMITTED","fake_data":false,"source_record_id":"CHERWELL_25_00002_F_GARAGE_01","planned_building":"replacement garage with connected bin and bike store","official_plan_reference":"2425-005","official_plan_description":"Proposed Plans"}}]}
