{"type":"FeatureCollection","name":"security_public_safety_6","features":[{"type":"Feature","id":"cambridgeshire:CamCity_City_Centre","geometry":null,"properties":{"force_id":"cambridgeshire","source_area_id":"CamCity_City_Centre","source_area_key":"cambridgeshire:CamCity_City_Centre","source_area_name":"Cambridge City Centre and West","source_area_kind":"police_neighbourhood_team_exact_identifier","source_window_id":"data_police_cambridgeshire_neighbourhoods_2026-10-01","source_url":"https://data.police.uk/api/cambridgeshire/neighbourhoods","final_url":"https://data.police.uk/api/cambridgeshire/neighbourhoods","accessed_utc":"2026-10-01T20:32:00Z","data_date":"2026-10-01","license":"Open Government Licence v3.0","source_record_ordinal":1,"evidence_type":"exact_identifier","evidence_slice_sha256":"0c12e55f07291e6c4aee4563d1b23afa7433c9adbc49d6bcd30403e7e95d5454","field_evidence":{"force_id":"Request path segment 'cambridgeshire' from official data.police.uk API","source_area_id":"Official API id field","source_area_name":"Official API name field","geometry":"No polygon geometry claimed in this batch"},"confidence_score_0_100":99,"evidence_grade":"A_OFFICIAL_PRIMARY_API","fake_data":false,"canonical_parcel_id":null,"parcel_match_status":"DEFERRED_TO_LOCAL_OPENCODE"}},{"type":"Feature","id":"cambridgeshire:CamCity_East_City","geometry":null,"properties":{"force_id":"cambridgeshire","source_area_id":"CamCity_East_City","source_area_key":"cambridgeshire:CamCity_East_City","source_area_name":"Cambridge East","source_area_kind":"police_neighbourhood_team_exact_identifier","source_window_id":"data_police_cambridgeshire_neighbourhoods_2026-10-01","source_url":"https://data.police.uk/api/cambridgeshire/neighbourhoods","final_url":"https://data.police.uk/api/cambridgeshire/neighbourhoods","accessed_utc":"2026-10-01T20:32:00Z","data_date":"2026-10-01","license":"Open Government Licence v3.0","source_record_ordinal":2,"evidence_type":"exact_identifier","evidence_slice_sha256":"0c12e55f07291e6c4aee4563d1b23afa7433c9adbc49d6bcd30403e7e95d5454","field_evidence":{"force_id":"Request path segment 'cambridgeshire' from official data.police.uk API","source_area_id":"Official API id field","source_area_name":"Official API name field","geometry":"No polygon geometry claimed in this batch"},"confidence_score_0_100":99,"evidence_grade":"A_OFFICIAL_PRIMARY_API","fake_data":false,"canonical_parcel_id":null,"parcel_match_status":"DEFERRED_TO_LOCAL_OPENCODE"}},{"type":"Feature","id":"cambridgeshire:CamCity_North_City","geometry":null,"properties":{"force_id":"cambridgeshire","source_area_id":"CamCity_North_City","source_area_key":"cambridgeshire:CamCity_North_City","source_area_name":"Cambridge North","source_area_kind":"police_neighbourhood_team_exact_identifier","source_window_id":"data_police_cambridgeshire_neighbourhoods_2026-10-01","source_url":"https://data.police.uk/api/cambridgeshire/neighbourhoods","final_url":"https://data.police.uk/api/cambridgeshire/neighbourhoods","accessed_utc":"2026-10-01T20:32:00Z","data_date":"2026-10-01","license":"Open Government Licence v3.0","source_record_ordinal":3,"evidence_type":"exact_identifier","evidence_slice_sha256":"0c12e55f07291e6c4aee4563d1b23afa7433c9adbc49d6bcd30403e7e95d5454","field_evidence":{"force_id":"Request path segment 'cambridgeshire' from official data.police.uk API","source_area_id":"Official API id field","source_area_name":"Official API name field","geometry":"No polygon geometry claimed in this batch"},"confidence_score_0_100":99,"evidence_grade":"A_OFFICIAL_PRIMARY_API","fake_data":false,"canonical_parcel_id":null,"parcel_match_status":"DEFERRED_TO_LOCAL_OPENCODE"}},{"type":"Feature","id":"cambridgeshire:CamCity_South_City","geometry":null,"properties":{"force_id":"cambridgeshire","source_area_id":"CamCity_South_City","source_area_key":"cambridgeshire:CamCity_South_City","source_area_name":"Cambridge South","source_area_kind":"police_neighbourhood_team_exact_identifier","source_window_id":"data_police_cambridgeshire_neighbourhoods_2026-10-01","source_url":"https://data.police.uk/api/cambridgeshire/neighbourhoods","final_url":"https://data.police.uk/api/cambridgeshire/neighbourhoods","accessed_utc":"2026-10-01T20:32:00Z","data_date":"2026-10-01","license":"Open Government Licence v3.0","source_record_ordinal":4,"evidence_type":"exact_identifier","evidence_slice_sha256":"0c12e55f07291e6c4aee4563d1b23afa7433c9adbc49d6bcd30403e7e95d5454","field_evidence":{"force_id":"Request path segment 'cambridgeshire' from official data.police.uk API","source_area_id":"Official API id field","source_area_name":"Official API name field","geometry":"No polygon geometry claimed in this batch"},"confidence_score_0_100":99,"evidence_grade":"A_OFFICIAL_PRIMARY_API","fake_data":false,"canonical_parcel_id":null,"parcel_match_status":"DEFERRED_TO_LOCAL_OPENCODE"}},{"type":"Feature","id":"cambridgeshire:East_Cambridgeshire","geometry":null,"properties":{"force_id":"cambridgeshire","source_area_id":"East_Cambridgeshire","source_area_key":"cambridgeshire:East_Cambridgeshire","source_area_name":"East Cambridgeshire","source_area_kind":"police_neighbourhood_team_exact_identifier","source_window_id":"data_police_cambridgeshire_neighbourhoods_2026-10-01","source_url":"https://data.police.uk/api/cambridgeshire/neighbourhoods","final_url":"https://data.police.uk/api/cambridgeshire/neighbourhoods","accessed_utc":"2026-10-01T20:32:00Z","data_date":"2026-10-01","license":"Open Government Licence v3.0","source_record_ordinal":5,"evidence_type":"exact_identifier","evidence_slice_sha256":"0c12e55f07291e6c4aee4563d1b23afa7433c9adbc49d6bcd30403e7e95d5454","field_evidence":{"force_id":"Request path segment 'cambridgeshire' from official data.police.uk API","source_area_id":"Official API id field","source_area_name":"Official API name field","geometry":"No polygon geometry claimed in this batch"},"confidence_score_0_100":99,"evidence_grade":"A_OFFICIAL_PRIMARY_API","fake_data":false,"canonical_parcel_id":null,"parcel_match_status":"DEFERRED_TO_LOCAL_OPENCODE"}},{"type":"Feature","id":"cambridgeshire:Huntingdon_and_Yaxley","geometry":null,"properties":{"force_id":"cambridgeshire","source_area_id":"Huntingdon_and_Yaxley","source_area_key":"cambridgeshire:Huntingdon_and_Yaxley","source_area_name":"Huntingdon","source_area_kind":"police_neighbourhood_team_exact_identifier","source_window_id":"data_police_cambridgeshire_neighbourhoods_2026-10-01","source_url":"https://data.police.uk/api/cambridgeshire/neighbourhoods","final_url":"https://data.police.uk/api/cambridgeshire/neighbourhoods","accessed_utc":"2026-10-01T20:32:00Z","data_date":"2026-10-01","license":"Open Government Licence v3.0","source_record_ordinal":6,"evidence_type":"exact_identifier","evidence_slice_sha256":"0c12e55f07291e6c4aee4563d1b23afa7433c9adbc49d6bcd30403e7e95d5454","field_evidence":{"force_id":"Request path segment 'cambridgeshire' from official data.police.uk API","source_area_id":"Official API id field","source_area_name":"Official API name field","geometry":"No polygon geometry claimed in this batch"},"confidence_score_0_100":99,"evidence_grade":"A_OFFICIAL_PRIMARY_API","fake_data":false,"canonical_parcel_id":null,"parcel_match_status":"DEFERRED_TO_LOCAL_OPENCODE"}},{"type":"Feature","id":"cambridgeshire:March","geometry":null,"properties":{"force_id":"cambridgeshire","source_area_id":"March","source_area_key":"cambridgeshire:March","source_area_name":"March","source_area_kind":"police_neighbourhood_team_exact_identifier","source_window_id":"data_police_cambridgeshire_neighbourhoods_2026-10-01","source_url":"https://data.police.uk/api/cambridgeshire/neighbourhoods","final_url":"https://data.police.uk/api/cambridgeshire/neighbourhoods","accessed_utc":"2026-10-01T20:32:00Z","data_date":"2026-10-01","license":"Open Government Licence v3.0","source_record_ordinal":7,"evidence_type":"exact_identifier","evidence_slice_sha256":"0c12e55f07291e6c4aee4563d1b23afa7433c9adbc49d6bcd30403e7e95d5454","field_evidence":{"force_id":"Request path segment 'cambridgeshire' from official data.police.uk API","source_area_id":"Official API id field","source_area_name":"Official API name field","geometry":"No polygon geometry claimed in this batch"},"confidence_score_0_100":99,"evidence_grade":"A_OFFICIAL_PRIMARY_API","fake_data":false,"canonical_parcel_id":null,"parcel_match_status":"DEFERRED_TO_LOCAL_OPENCODE"}},{"type":"Feature","id":"cambridgeshire:Peterborough_Central","geometry":null,"properties":{"force_id":"cambridgeshire","source_area_id":"Peterborough_Central","source_area_key":"cambridgeshire:Peterborough_Central","source_area_name":"Peterborough Central","source_area_kind":"police_neighbourhood_team_exact_identifier","source_window_id":"data_police_cambridgeshire_neighbourhoods_2026-10-01","source_url":"https://data.police.uk/api/cambridgeshire/neighbourhoods","final_url":"https://data.police.uk/api/cambridgeshire/neighbourhoods","accessed_utc":"2026-10-01T20:32:00Z","data_date":"2026-10-01","license":"Open Government Licence v3.0","source_record_ordinal":8,"evidence_type":"exact_identifier","evidence_slice_sha256":"0c12e55f07291e6c4aee4563d1b23afa7433c9adbc49d6bcd30403e7e95d5454","field_evidence":{"force_id":"Request path segment 'cambridgeshire' from official data.police.uk API","source_area_id":"Official API id field","source_area_name":"Official API name field","geometry":"No polygon geometry claimed in this batch"},"confidence_score_0_100":99,"evidence_grade":"A_OFFICIAL_PRIMARY_API","fake_data":false,"canonical_parcel_id":null,"parcel_match_status":"DEFERRED_TO_LOCAL_OPENCODE"}},{"type":"Feature","id":"cambridgeshire:Peterborough_City_Centre","geometry":null,"properties":{"force_id":"cambridgeshire","source_area_id":"Peterborough_City_Centre","source_area_key":"cambridgeshire:Peterborough_City_Centre","source_area_name":"Peterborough City Centre","source_area_kind":"police_neighbourhood_team_exact_identifier","source_window_id":"data_police_cambridgeshire_neighbourhoods_2026-10-01","source_url":"https://data.police.uk/api/cambridgeshire/neighbourhoods","final_url":"https://data.police.uk/api/cambridgeshire/neighbourhoods","accessed_utc":"2026-10-01T20:32:00Z","data_date":"2026-10-01","license":"Open Government Licence v3.0","source_record_ordinal":9,"evidence_type":"exact_identifier","evidence_slice_sha256":"0c12e55f07291e6c4aee4563d1b23afa7433c9adbc49d6bcd30403e7e95d5454","field_evidence":{"force_id":"Request path segment 'cambridgeshire' from official data.police.uk API","source_area_id":"Official API id field","source_area_name":"Official API name field","geometry":"No polygon geometry claimed in this batch"},"confidence_score_0_100":99,"evidence_grade":"A_OFFICIAL_PRIMARY_API","fake_data":false,"canonical_parcel_id":null,"parcel_match_status":"DEFERRED_TO_LOCAL_OPENCODE"}},{"type":"Feature","id":"cambridgeshire:Peterborough_Eastern","geometry":null,"properties":{"force_id":"cambridgeshire","source_area_id":"Peterborough_Eastern","source_area_key":"cambridgeshire:Peterborough_Eastern","source_area_name":"Peterborough East","source_area_kind":"police_neighbourhood_team_exact_identifier","source_window_id":"data_police_cambridgeshire_neighbourhoods_2026-10-01","source_url":"https://data.police.uk/api/cambridgeshire/neighbourhoods","final_url":"https://data.police.uk/api/cambridgeshire/neighbourhoods","accessed_utc":"2026-10-01T20:32:00Z","data_date":"2026-10-01","license":"Open Government Licence v3.0","source_record_ordinal":10,"evidence_type":"exact_identifier","evidence_slice_sha256":"0c12e55f07291e6c4aee4563d1b23afa7433c9adbc49d6bcd30403e7e95d5454","field_evidence":{"force_id":"Request path segment 'cambridgeshire' from official data.police.uk API","source_area_id":"Official API id field","source_area_name":"Official API name field","geometry":"No polygon geometry claimed in this batch"},"confidence_score_0_100":99,"evidence_grade":"A_OFFICIAL_PRIMARY_API","fake_data":false,"canonical_parcel_id":null,"parcel_match_status":"DEFERRED_TO_LOCAL_OPENCODE"}},{"type":"Feature","id":"cambridgeshire:Peterborough_Northern","geometry":null,"properties":{"force_id":"cambridgeshire","source_area_id":"Peterborough_Northern","source_area_key":"cambridgeshire:Peterborough_Northern","source_area_name":"Peterborough North","source_area_kind":"police_neighbourhood_team_exact_identifier","source_window_id":"data_police_cambridgeshire_neighbourhoods_2026-10-01","source_url":"https://data.police.uk/api/cambridgeshire/neighbourhoods","final_url":"https://data.police.uk/api/cambridgeshire/neighbourhoods","accessed_utc":"2026-10-01T20:32:00Z","data_date":"2026-10-01","license":"Open Government Licence v3.0","source_record_ordinal":11,"evidence_type":"exact_identifier","evidence_slice_sha256":"0c12e55f07291e6c4aee4563d1b23afa7433c9adbc49d6bcd30403e7e95d5454","field_evidence":{"force_id":"Request path segment 'cambridgeshire' from official data.police.uk API","source_area_id":"Official API id field","source_area_name":"Official API name field","geometry":"No polygon geometry claimed in this batch"},"confidence_score_0_100":99,"evidence_grade":"A_OFFICIAL_PRIMARY_API","fake_data":false,"canonical_parcel_id":null,"parcel_match_status":"DEFERRED_TO_LOCAL_OPENCODE"}},{"type":"Feature","id":"cambridgeshire:Peterborough_Southern","geometry":null,"properties":{"force_id":"cambridgeshire","source_area_id":"Peterborough_Southern","source_area_key":"cambridgeshire:Peterborough_Southern","source_area_name":"Peterborough South","source_area_kind":"police_neighbourhood_team_exact_identifier","source_window_id":"data_police_cambridgeshire_neighbourhoods_2026-10-01","source_url":"https://data.police.uk/api/cambridgeshire/neighbourhoods","final_url":"https://data.police.uk/api/cambridgeshire/neighbourhoods","accessed_utc":"2026-10-01T20:32:00Z","data_date":"2026-10-01","license":"Open Government Licence v3.0","source_record_ordinal":12,"evidence_type":"exact_identifier","evidence_slice_sha256":"0c12e55f07291e6c4aee4563d1b23afa7433c9adbc49d6bcd30403e7e95d5454","field_evidence":{"force_id":"Request path segment 'cambridgeshire' from official data.police.uk API","source_area_id":"Official API id field","source_area_name":"Official API name field","geometry":"No polygon geometry claimed in this batch"},"confidence_score_0_100":99,"evidence_grade":"A_OFFICIAL_PRIMARY_API","fake_data":false,"canonical_parcel_id":null,"parcel_match_status":"DEFERRED_TO_LOCAL_OPENCODE"}},{"type":"Feature","id":"cambridgeshire:South_Cambridgeshire","geometry":null,"properties":{"force_id":"cambridgeshire","source_area_id":"South_Cambridgeshire","source_area_key":"cambridgeshire:South_Cambridgeshire","source_area_name":"South Cambridgeshire","source_area_kind":"police_neighbourhood_team_exact_identifier","source_window_id":"data_police_cambridgeshire_neighbourhoods_2026-10-01","source_url":"https://data.police.uk/api/cambridgeshire/neighbourhoods","final_url":"https://data.police.uk/api/cambridgeshire/neighbourhoods","accessed_utc":"2026-10-01T20:32:00Z","data_date":"2026-10-01","license":"Open Government Licence v3.0","source_record_ordinal":13,"evidence_type":"exact_identifier","evidence_slice_sha256":"0c12e55f07291e6c4aee4563d1b23afa7433c9adbc49d6bcd30403e7e95d5454","field_evidence":{"force_id":"Request path segment 'cambridgeshire' from official data.police.uk API","source_area_id":"Official API id field","source_area_name":"Official API name field","geometry":"No polygon geometry claimed in this batch"},"confidence_score_0_100":99,"evidence_grade":"A_OFFICIAL_PRIMARY_API","fake_data":false,"canonical_parcel_id":null,"parcel_match_status":"DEFERRED_TO_LOCAL_OPENCODE"}},{"type":"Feature","id":"cambridgeshire:St_Ives_and_Ramsey","geometry":null,"properties":{"force_id":"cambridgeshire","source_area_id":"St_Ives_and_Ramsey","source_area_key":"cambridgeshire:St_Ives_and_Ramsey","source_area_name":"St Ives","source_area_kind":"police_neighbourhood_team_exact_identifier","source_window_id":"data_police_cambridgeshire_neighbourhoods_2026-10-01","source_url":"https://data.police.uk/api/cambridgeshire/neighbourhoods","final_url":"https://data.police.uk/api/cambridgeshire/neighbourhoods","accessed_utc":"2026-10-01T20:32:00Z","data_date":"2026-10-01","license":"Open Government Licence v3.0","source_record_ordinal":14,"evidence_type":"exact_identifier","evidence_slice_sha256":"0c12e55f07291e6c4aee4563d1b23afa7433c9adbc49d6bcd30403e7e95d5454","field_evidence":{"force_id":"Request path segment 'cambridgeshire' from official data.police.uk API","source_area_id":"Official API id field","source_area_name":"Official API name field","geometry":"No polygon geometry claimed in this batch"},"confidence_score_0_100":99,"evidence_grade":"A_OFFICIAL_PRIMARY_API","fake_data":false,"canonical_parcel_id":null,"parcel_match_status":"DEFERRED_TO_LOCAL_OPENCODE"}},{"type":"Feature","id":"cambridgeshire:St_Neots","geometry":null,"properties":{"force_id":"cambridgeshire","source_area_id":"St_Neots","source_area_key":"cambridgeshire:St_Neots","source_area_name":"St Neots","source_area_kind":"police_neighbourhood_team_exact_identifier","source_window_id":"data_police_cambridgeshire_neighbourhoods_2026-10-01","source_url":"https://data.police.uk/api/cambridgeshire/neighbourhoods","final_url":"https://data.police.uk/api/cambridgeshire/neighbourhoods","accessed_utc":"2026-10-01T20:32:00Z","data_date":"2026-10-01","license":"Open Government Licence v3.0","source_record_ordinal":15,"evidence_type":"exact_identifier","evidence_slice_sha256":"0c12e55f07291e6c4aee4563d1b23afa7433c9adbc49d6bcd30403e7e95d5454","field_evidence":{"force_id":"Request path segment 'cambridgeshire' from official data.police.uk API","source_area_id":"Official API id field","source_area_name":"Official API name field","geometry":"No polygon geometry claimed in this batch"},"confidence_score_0_100":99,"evidence_grade":"A_OFFICIAL_PRIMARY_API","fake_data":false,"canonical_parcel_id":null,"parcel_match_status":"DEFERRED_TO_LOCAL_OPENCODE"}},{"type":"Feature","id":"cambridgeshire:Wisbech","geometry":null,"properties":{"force_id":"cambridgeshire","source_area_id":"Wisbech","source_area_key":"cambridgeshire:Wisbech","source_area_name":"Wisbech","source_area_kind":"police_neighbourhood_team_exact_identifier","source_window_id":"data_police_cambridgeshire_neighbourhoods_2026-10-01","source_url":"https://data.police.uk/api/cambridgeshire/neighbourhoods","final_url":"https://data.police.uk/api/cambridgeshire/neighbourhoods","accessed_utc":"2026-10-01T20:32:00Z","data_date":"2026-10-01","license":"Open Government Licence v3.0","source_record_ordinal":16,"evidence_type":"exact_identifier","evidence_slice_sha256":"0c12e55f07291e6c4aee4563d1b23afa7433c9adbc49d6bcd30403e7e95d5454","field_evidence":{"force_id":"Request path segment 'cambridgeshire' from official data.police.uk API","source_area_id":"Official API id field","source_area_name":"Official API name field","geometry":"No polygon geometry claimed in this batch"},"confidence_score_0_100":99,"evidence_grade":"A_OFFICIAL_PRIMARY_API","fake_data":false,"canonical_parcel_id":null,"parcel_match_status":"DEFERRED_TO_LOCAL_OPENCODE"}}],"metadata":{"slot_id":"security_public_safety_6","lineage_id":"SECPS6_20260930T003421Z_01","page_generation":1,"batch_id":"BATCH_20261001T203200Z_CAMBS_NEIGHBOURHOODS","source_window_id":"data_police_cambridgeshire_neighbourhoods_2026-10-01","source_url":"https://data.police.uk/api/cambridgeshire/neighbourhoods","final_url":"https://data.police.uk/api/cambridgeshire/neighbourhoods","accessed_utc":"2026-10-01T20:32:00Z","data_date":"2026-10-01","license":"Open Government Licence v3.0","evidence_slice_sha256":"0c12e55f07291e6c4aee4563d1b23afa7433c9adbc49d6bcd30403e7e95d5454","new_source_records":16,"source_area_count_delta":16,"cumulative_source_area_count":38,"accepted_count":0,"materialized_parcel_count":0,"direct_parcel_count":0,"verified_no_building_count":0,"unprocessed_count":0,"planned_building_count":0,"cursor":null,"window_complete":true,"dataset_complete":false,"local_spatial_join_required":true,"fake_data":false}}
