{"type":"FeatureCollection","features":[{"type":"Feature","geometry":null,"properties":{"slot_id":"planned_buildings_1","lineage_id":"planned_buildings_1-0ffc4ebd6c6e4e41","semantic_mode":"DISTINCT_BUILDINGS","planned_building_id":"planning-application:RB2026/1013::DWELLING_01","building_status":"PLANNED","building_name":"Self-build semi-detached dwelling 1, Builders Yard Co-operative Street West Melton","planning_reference":"RB2026/1013","authority":"Rotherham Metropolitan Borough Council","source_url":"https://planning.rotherham.gov.uk/fulldetail.asp?AltRef=RB2026%2F1013","final_url":"https://planning.rotherham.gov.uk/fulldetail.asp?AltRef=RB2026%2F1013","access_utc":"2026-10-02T19:20:00Z","source_data_date":"2026-07-22","license":"Open Government Licence v3.0","geometry_role":"official planning page exposes no machine-readable point or building footprint; geometry null; no geometry inferred","field_evidence":"Official Registered/Valid outline application explicitly states erection of 2 self build semi-detached dwellings with all matters reserved; the official page states no decision.","identity_limitation":"Exactly two new dwellings explicitly stated by the source are counted; no additional building is inferred.","confidence_score_0_100":98,"evidence_grade":"A","fake_data":false}},{"type":"Feature","geometry":null,"properties":{"slot_id":"planned_buildings_1","lineage_id":"planned_buildings_1-0ffc4ebd6c6e4e41","semantic_mode":"DISTINCT_BUILDINGS","planned_building_id":"planning-application:RB2026/1013::DWELLING_02","building_status":"PLANNED","building_name":"Self-build semi-detached dwelling 2, Builders Yard Co-operative Street West Melton","planning_reference":"RB2026/1013","authority":"Rotherham Metropolitan Borough Council","source_url":"https://planning.rotherham.gov.uk/fulldetail.asp?AltRef=RB2026%2F1013","final_url":"https://planning.rotherham.gov.uk/fulldetail.asp?AltRef=RB2026%2F1013","access_utc":"2026-10-02T19:20:00Z","source_data_date":"2026-07-22","license":"Open Government Licence v3.0","geometry_role":"official planning page exposes no machine-readable point or building footprint; geometry null; no geometry inferred","field_evidence":"Official Registered/Valid outline application explicitly states erection of 2 self build semi-detached dwellings with all matters reserved; the official page states no decision.","identity_limitation":"Exactly two new dwellings explicitly stated by the source are counted; no additional building is inferred.","confidence_score_0_100":98,"evidence_grade":"A","fake_data":false}}]}
