{"type":"FeatureCollection","name":"building_type_2_batch_0027","features":[{"type":"Feature","id":"42200473","geometry":{"type":"MultiPolygon","coordinates":[[[[-2.16105,50.856744],[-2.161052,50.856744],[-2.160995,50.856663],[-2.16096,50.856633],[-2.160946,50.856639],[-2.160882,50.856583],[-2.160815,50.856614],[-2.160834,50.856636],[-2.16083,50.856638],[-2.16089,50.856706],[-2.160841,50.856715],[-2.160829,50.8567],[-2.160797,50.85671],[-2.160785,50.856695],[-2.160754,50.856705],[-2.160816,50.856787],[-2.16105,50.856744]]]]},"properties":{"slot_id":"building_type_2","lineage_id":"building_type_2-20260930T173100Z-newstart","batch_id":"batch-0027","page_generation":1,"source_entity":42200473,"source_reference":"LB/1304768","source_dataset":"listed-building-outline","source_organisation":"Dorset Council","building_evidence_status":"BUILDING_PRESENT","parcel_status":"UNPROCESSED","canonical_parcel_id":null,"building_type":"listed_building","building_use":null,"poi_accepted":false,"field_evidence":{"footprint":"official listed-building-outline MULTIPOLYGON","type":"official dataset classification: listed-building-outline","reference":"LB/1304768","quality":"authoritative","name":"9-13, EAST STREET"},"source_url":"https://www.planning.data.gov.uk/entity/42200473","final_url":"https://www.planning.data.gov.uk/entity/42200473","access_utc":"2026-10-03T01:47:49Z","data_date":"1950-10-27","licence":"Open Government Licence v3.0","evidence_slice_sha256":"241ba815434179bd6adf37c1d6befee47c8e5d1dce2fa4b554c5cfbf1b01f9bc","confidence_score_0_100":96,"evidence_grade":"A","fake_data":false,"local_spatial_join_required":true}}]}