{
  "features": [
    {
      "geometry": null,
      "id": "cheshire:ellesmere-port:neston-and-parkgate",
      "properties": {
        "accepted_as_parcel": false,
        "access_utc": "2026-10-08T00:41:00Z",
        "canonical_binding": "LOCAL_OPENCODE_PENDING_NOT_CLAIMED",
        "canonical_url": "https://www.cheshire.police.uk/area/your-area/cheshire/ellesmere-port/neston-and-parkgate/",
        "confidence_score_0_100": 100,
        "data_date": "2026-10-08 access snapshot",
        "direct_parcel": false,
        "duplicate": false,
        "evidence_grade": "A_OFFICIAL_FORCE_WEBSITE_EXACT_AREA_SLUG",
        "fake_data": false,
        "force_id": "cheshire",
        "http_status": 200,
        "identifier": "neston-and-parkgate",
        "identifier_field": "canonical_team_slug",
        "identifier_version": "Cheshire Constabulary Ellesmere Port team URL slug",
        "name": "Neston and Parkgate",
        "parent_area": "Ellesmere Port",
        "record_type": "SOURCE_AREA_EXACT_IDENTIFIER",
        "source_area_counted": true,
        "source_url": "https://www.cheshire.police.uk/area/your-area/cheshire/ellesmere-port/neston-and-parkgate/"
      },
      "type": "Feature"
    }
  ],
  "name": "security_public_safety_3",
  "properties": {
    "accepted_count": 0,
    "batch_id": "20261008T004100Z-cheshire-ellesmere-port-neston-and-parkgate-snt-slug-000",
    "fake_data": false,
    "lineage_id": "L24-SPS3-57442c9c2a0f429be2d2",
    "page_generation": 1,
    "partition": {
      "count": 30761,
      "end": 92283,
      "start": 61523
    },
    "schema": "AAYS_LAYER24_EVIDENCE_V1",
    "slot_id": "security_public_safety_3",
    "source_area_count": 1
  },
  "type": "FeatureCollection"
}
