{"type":"FeatureCollection","features":[{"type":"Feature","geometry":null,"properties":{"slot_id":"planned_buildings_1","lineage_id":"planned_buildings_1-0ffc4ebd6c6e4e41","semantic_mode":"DISTINCT_BUILDINGS","planned_building_id":"planning-application:RB2026/0765::TWO_STOREY_MIXED_USE_BUILDING","building_status":"PLANNED","building_name":"Two-storey mixed-use building, Land Adj Behind 19-24 Bridge Street Swinton","planning_reference":"RB2026/0765","authority":"Rotherham Metropolitan Borough Council","source_url":"https://planning.rotherham.gov.uk/fastweblive/results.asp?AddressPrefix=&AgentName=&ApplicantName=&ApplicationNumber=&AreaTeam=&CaseOfficer=&Consultant=&DateDecidedEnd=&DateDecidedStart=&DateReceivedEnd=12%2F06%2F2026&DateReceivedStart=23%2F05%2F2026&DecisionDescription=&DecisionLevel=&Locality=&Nothing=2&ParishName=&Postcode=&Scroll=3&ShowDecided=&Sort1=FullAddressPrefix&Sort2=DateReceived+DESC&Submit=Search&WardMember=","final_url":"https://planning.rotherham.gov.uk/fastweblive/results.asp?AddressPrefix=&AgentName=&ApplicantName=&ApplicationNumber=&AreaTeam=&CaseOfficer=&Consultant=&DateDecidedEnd=&DateDecidedStart=&DateReceivedEnd=12%2F06%2F2026&DateReceivedStart=23%2F05%2F2026&DecisionDescription=&DecisionLevel=&Locality=&Nothing=2&ParishName=&Postcode=&Scroll=3&ShowDecided=&Sort1=FullAddressPrefix&Sort2=DateReceived+DESC&Submit=Search&WardMember=","access_utc":"2026-10-03T05:53:00Z","source_data_date":"2026-06-01","license":"Open Government Licence v3.0","geometry_role":"official current-applications search-results window exposes no machine-readable point or building footprint; geometry null; no geometry inferred","field_evidence":"Official current-applications listing explicitly states demolition of buildings and erection of one two storey building to provide a retail unit and flats; current official listing leaves Decision Sent Date and Decision Date blank.","identity_limitation":"Exactly one new two storey building explicitly stated by the source is counted; retail and flat units are uses within that building and are not counted as separate buildings; demolished buildings are not counted as new.","confidence_score_0_100":96,"evidence_grade":"A","fake_data":false}}]}