{"type":"FeatureCollection","features":[{"type":"Feature","geometry":{"type":"MultiPolygon","coordinates":[[[[-5.053961,50.424506],[-5.054014,50.424501],[-5.054098,50.424472],[-5.054176,50.424458],[-5.053852,50.424189],[-5.053597,50.424313],[-5.053767,50.424465],[-5.053961,50.424506]]]]},"properties":{"slot_id":"future_growth_3","lineage_id":"future_growth_3-newstart-20261001T203100Z","page_generation":null,"accepted_as_parcel":false,"source_area_count_contribution":1,"exact_identifier":"BR293","exact_identifier_provided":true,"coverage_polygon_provided":true,"identifier_namespace":"Planning Data brownfield-site reference","secondary_exact_identifier":"entity:1802819","source_entity":"BR293 - 15 Alexandra Road, Newquay, Cornwall, TR7 3ND","access_utc":"2026-10-03T05:27:00Z","data_date":"2023-12-12","source_url":"https://www.planning.data.gov.uk/entity/1802819","final_url":"https://www.planning.data.gov.uk/entity/1802819","license":"Open Government Licence v3.0; attribution © Crown copyright and database right 2026.","authority":"Cornwall Council","site_address":"15 Alexandra Road, Newquay, Cornwall, TR7 3ND","field_evidence":{"reference":"BR293","entity":1802819,"dataset":"brownfield-site","organisation":"Cornwall Council","entry_date":"2023-12-12","site_name":"15 Alexandra Road, Newquay, Cornwall, TR7 3ND","geometry":"MULTIPOLYGON (((-5.053961 50.424506, -5.054014 50.424501, -5.054098 50.424472, -5.054176 50.424458, -5.053852 50.424189, -5.053597 50.424313, -5.053767 50.424465, -5.053961 50.424506)))","point":"POINT (-5.053875 50.424366)","quality":"authoritative","brownfield_site":"BR293"},"source_payload_sha256":"49cb9bc90358ddee05062d9a5efb631a8bf8528a0a9e5b53533b3f555431bdd7","source_payload_sha256_basis":"canonicalized official Planning Data Cornwall brownfield-site BR293 evidence fields","evidence_slice_sha256":"4a60479923349f344d0dd4b6a820a1d0681ec9d5b73aac94f67b8f8cc0522b5b","evidence_grade":"A","confidence_score_0_100":99,"evidence_scope":"official_polygon_from_authoritative_planning_data_brownfield_site","fake_data":false,"spatial_binding_method":"official Planning Data brownfield-site BR293 / entity 1802819 MultiPolygon boundary; canonical parcel spatial join and materialization delegated to local OpenCode","planned_building_count_contribution":0}}]}