{"features":[{"geometry":null,"properties":{"accepted_as_parcel":false,"access_utc":"2026-10-01T22:17:54Z","confidence":0.99,"confidence_score_0_100":99,"coverage_polygon_provided":false,"data_date":"2025-07","evidence_grade":"A","evidence_slice_sha256":"a936f690c0be353270a1ed549805502d238528f16955ba9327b38f46099a7fc0","exact_identifier":"Wales","exact_identifier_provided":true,"fake_data":false,"field_evidence":{"additional_residential_premises_with_full_fibre_approx":100000,"data_date":"2025-07","decent_broadband_unavailable_approx_premises":6000,"decent_broadband_unavailable_reduction_approx":2000,"full_fibre_change_pp_vs_july_2024":10,"full_fibre_residential_pct":78,"full_fibre_take_up_pct_july_2024":39,"full_fibre_take_up_pct_july_2025":49,"location":"Wales","publication_date":"2025-11-19","publisher":"Ofcom","report":"Nations report 2025","section":"Broadband"},"final_url":"https://www.ofcom.org.uk/phones-and-broadband/coverage-and-speeds/nations-report-2025","identifier_namespace":"Ofcom nation location","license":"Ofcom copyright and information re-use terms","lineage_id":"internet_access_4-newstart-20261001T205200Z","owner":"cagdas aydin","page_generation":1,"partition":"plan0","publication_date":"2025-11-19","semantic_mode":"SOURCE_AREA_EXACT_IDENTIFIER","sha256":"a936f690c0be353270a1ed549805502d238528f16955ba9327b38f46099a7fc0","slot_id":"internet_access_4","source_area_count_contribution":1,"source_url":"https://www.ofcom.org.uk/phones-and-broadband/coverage-and-speeds/nations-report-2025","spatial_binding_method":"official Ofcom nation identifier; canonical parcel spatial join/materialization delegated to local OpenCode"},"type":"Feature"}],"name":"internet_access_4","type":"FeatureCollection"}