{"type":"FeatureCollection","features":[{"type":"Feature","id":"planned_buildings_2-planning-data-brownfield-ref-B038","geometry":null,"properties":{"reference":"B038","canonical_record_key":"planning-data:brownfield-land-ref:B038","planned_project_name":"Land and garages adjacent to 1 Lavinia Avenue","borough":"Watford Borough Council","official_hectares":0.08,"official_deliverable":true,"official_minimum_net_dwellings":5,"official_maximum_net_dwellings":5,"planned_building_value":null,"planned_building_probability":null,"planned_building_complete_month":null,"source_quality":"authoritative","fake_data":false}}],"metadata":{"slot_id":"planned_buildings_2","batch_index":236,"source_index":19,"source_window":{"resource_index":5,"limit":1},"feature_count_before":577,"feature_count_after":578,"unique_real_site_project_before":418,"unique_real_site_project_after":419,"duplicate_count_new":0,"nearest_match_used":false,"parcel_match_used":false,"geometry_inference_used":false,"mirror_only":true}}