{"type":"FeatureCollection","features":[{"type":"Feature","id":"planned_buildings_2-planning-data-brownfield-ref-B044","geometry":null,"properties":{"reference":"B044","canonical_record_key":"planning-data:brownfield-land-ref:B044","planned_project_name":"Land and garages between 139 and 149 Queens Road","borough":"Watford Borough Council","official_hectares":0.05,"official_deliverable":true,"official_minimum_net_dwellings":5,"official_maximum_net_dwellings":5,"planned_building_value":null,"planned_building_probability":null,"planned_building_complete_month":null,"source_quality":"authoritative","fake_data":false}}],"metadata":{"slot_id":"planned_buildings_2","batch_index":239,"source_index":19,"source_window":{"resource_index":8,"limit":1},"feature_count_before":580,"feature_count_after":581,"unique_real_site_project_before":421,"unique_real_site_project_after":422,"duplicate_count_new":0,"nearest_match_used":false,"parcel_match_used":false,"geometry_inference_used":false,"mirror_only":true}}