{"type":"FeatureCollection","features":[{"type":"Feature","id":"planned_buildings_2-planning-data-brownfield-ref-B010","geometry":null,"properties":{"reference":"B010","canonical_record_key":"planning-data:brownfield-land-ref:B010","planned_project_name":"Bowman's Green Garages, Meriden","borough":"Watford Borough Council","official_hectares":0.1,"official_deliverable":true,"official_minimum_net_dwellings":4,"official_maximum_net_dwellings":4,"planned_building_value":null,"planned_building_probability":null,"planned_building_complete_month":null,"source_quality":"authoritative","fake_data":false}}],"metadata":{"slot_id":"planned_buildings_2","batch_index":232,"source_index":19,"source_window":{"resource_index":1,"limit":1},"feature_count_before":573,"feature_count_after":574,"unique_real_site_project_before":414,"unique_real_site_project_after":415,"duplicate_count_new":0,"nearest_match_used":false,"parcel_match_used":false,"geometry_inference_used":false,"mirror_only":true}}