{"type":"FeatureCollection","features":[{"type":"Feature","id":"planned_buildings_2-planning-data-brownfield-ref-B039","geometry":null,"properties":{"reference":"B039","canonical_record_key":"planning-data:brownfield-land-ref:B039","planned_project_name":"Land and buildings at 5 Sheepcot Drive","borough":"Watford Borough Council","official_hectares":0.17,"official_deliverable":true,"official_minimum_net_dwellings":9,"official_maximum_net_dwellings":9,"planned_building_value":null,"planned_building_probability":null,"planned_building_complete_month":null,"source_quality":"authoritative","fake_data":false}}],"metadata":{"slot_id":"planned_buildings_2","batch_index":237,"source_index":19,"source_window":{"resource_index":6,"limit":1},"feature_count_before":578,"feature_count_after":579,"unique_real_site_project_before":419,"unique_real_site_project_after":420,"duplicate_count_new":0,"nearest_match_used":false,"parcel_match_used":false,"geometry_inference_used":false,"mirror_only":true}}