{"type":"FeatureCollection","features":[{"type":"Feature","id":"planned_buildings_2-planning-data-brownfield-ref-B025","geometry":null,"properties":{"reference":"B025","canonical_record_key":"planning-data:brownfield-land-ref:B025","planned_project_name":"Land at Balmoral Road, adjacent to railway line and The Gym","borough":"Watford Borough Council","official_hectares":0.06,"official_deliverable":true,"official_minimum_net_dwellings":9,"official_maximum_net_dwellings":9,"planned_building_value":null,"planned_building_probability":null,"planned_building_complete_month":null,"source_quality":"authoritative","fake_data":false}}],"metadata":{"slot_id":"planned_buildings_2","batch_index":233,"source_index":19,"source_window":{"resource_index":2,"limit":1},"feature_count_before":574,"feature_count_after":575,"unique_real_site_project_before":415,"unique_real_site_project_after":416,"duplicate_count_new":0,"nearest_match_used":false,"parcel_match_used":false,"geometry_inference_used":false,"mirror_only":true}}