{"type":"FeatureCollection","features":[{"type":"Feature","id":"planned_buildings_2-planning-data-brownfield-ref-B048","geometry":null,"properties":{"reference":"B048","canonical_record_key":"planning-data:brownfield-land-ref:B048","planned_project_name":"120-122 Exchange Road","borough":"Watford Borough Council","official_hectares":0.05,"official_deliverable":true,"official_minimum_net_dwellings":5,"official_maximum_net_dwellings":5,"planned_building_value":null,"planned_building_probability":null,"planned_building_complete_month":null,"source_quality":"authoritative","fake_data":false}}],"metadata":{"slot_id":"planned_buildings_2","batch_index":240,"source_index":19,"source_window":{"resource_index":9,"limit":1},"feature_count_before":581,"feature_count_after":582,"unique_real_site_project_before":422,"unique_real_site_project_after":423,"duplicate_count_new":0,"nearest_match_used":false,"parcel_match_used":false,"geometry_inference_used":false,"mirror_only":true}}