{"type":"FeatureCollection","features":[{"type":"Feature","geometry":null,"properties":{"slot_id":"planned_buildings_1","lineage_id":"planned_buildings_1-0ffc4ebd6c6e4e41","semantic_mode":"DISTINCT_BUILDINGS","planned_building_id":"planning-application:2026/0364/FPA::SELF_BUILD_BUNGALOW","building_status":"PLANNED","building_name":"Proposed self-build bungalow, Land off Park View Lane Alston","planning_reference":"2026/0364/FPA","authority":"Westmorland & Furness Council","source_url":"https://planningregister.westmorlandandfurness.gov.uk/Planning/Display/2026/0364/FPA","final_url":"https://planningregister.westmorlandandfurness.gov.uk/Planning/Display/2026/0364/FPA","access_utc":"2026-10-03T16:34:38Z","source_data_date":"2026-02-16","license":"Open Government Licence v3.0","geometry_role":"official planning register exposes no machine-readable application point or building footprint in the retrieved record; geometry null; no geometry inferred","field_evidence":"Official Valid Full Application states a proposed self-build bungalow; status Officer Consideration and decision Pending.","identity_limitation":"This record represents the one self-build bungalow explicitly stated by the source.","confidence_score_0_100":98,"evidence_grade":"A","fake_data":false}}]}