{"type":"FeatureCollection","features":[{"type":"Feature","geometry":null,"properties":{"slot_id":"future_growth_1","lineage_id":"future_growth_1-newstart-20260927T153100+0300","page_generation":null,"accepted_as_parcel":false,"source_area_count_contribution":1,"exact_identifier":"MUA24","exact_identifier_provided":true,"coverage_polygon_provided":false,"identifier_namespace":"Doncaster Local Plan allocation site reference","site_name":null,"access_utc":"2026-10-02T00:24:00Z","data_date":"2024-03-31","source_url":"https://www.doncaster.gov.uk/services/planning/monitoring-and-implementation","final_url":"https://www.doncaster.gov.uk/services/planning/monitoring-and-implementation","report_url":"https://www.doncaster.gov.uk/Documents/DocumentView/Stream/Media/Default/Planning/Documents/Policy%20Monitoring/RLA/Doncaster%20Residential%20Land%20Availability%20Summary%202023%20-%2024%20FINAL.pdf","license":"City of Doncaster Council public website; report-specific reuse licence not stated","authority":"City of Doncaster Council","location":"MUA","pp_net_as_per_rla":80,"remaining_at_base_date":80,"built_2018_23_net":0,"built_2023_24":0,"total_built_2018_24":0,"remaining":80,"status":"Not started","allocated_for":80,"evidence_grade":"A","confidence_score_0_100":99,"evidence_scope":"exact official Local Plan allocation identifier plus current annual council implementation-monitoring status row","evidence_slice_sha256":"265c892e9ad884ee59cc1d4e66c7a1932d12963a34396a87a83a823100a00fd5","fake_data":false,"spatial_binding_method":"official Doncaster RLA exact allocation identifier MUA24; allocation-boundary resolution, canonical parcel spatial join and materialization delegated to local OpenCode","planned_building_count_contribution":0}}]}