{
  "type": "FeatureCollection",
  "name": "building_type_2_canterbury_st_martin",
  "features": [
    {
      "type": "Feature",
      "geometry": {
        "type": "MultiPolygon",
        "coordinates": [
          [
            [
              [
                1.093842,
                51.278101
              ],
              [
                1.093843,
                51.278106
              ],
              [
                1.093818,
                51.278108
              ],
              [
                1.093787,
                51.278105
              ],
              [
                1.093774,
                51.278082
              ],
              [
                1.093593,
                51.278095
              ],
              [
                1.093595,
                51.278081
              ],
              [
                1.093522,
                51.278087
              ],
              [
                1.09352,
                51.278078
              ],
              [
                1.093538,
                51.278076
              ],
              [
                1.093533,
                51.278046
              ],
              [
                1.093514,
                51.278048
              ],
              [
                1.093513,
                51.278039
              ],
              [
                1.093586,
                51.278034
              ],
              [
                1.093584,
                51.278017
              ],
              [
                1.093777,
                51.277999
              ],
              [
                1.093781,
                51.27802
              ],
              [
                1.093957,
                51.278007
              ],
              [
                1.093966,
                51.278056
              ],
              [
                1.09387,
                51.278063
              ],
              [
                1.093877,
                51.278099
              ],
              [
                1.093842,
                51.278101
              ]
            ]
          ]
        ]
      },
      "properties": {
        "slot_id": "building_type_2",
        "lineage_id": "building_type_2-20260930T173100Z-newstart",
        "page_generation": 1,
        "batch_id": "20261008T012012Z_CANTERBURY_ST_MARTIN_42111655",
        "source_entity": 42111655,
        "source_reference": "{D845BB60-C294-4925-B95D-F48433F7D625}",
        "source_dataset": "listed-building-outline",
        "source_organisation": "Canterbury City Council",
        "building_evidence_status": "BUILDING_PRESENT",
        "parcel_status": "UNPROCESSED",
        "canonical_parcel_id": null,
        "building_type": "church",
        "building_use": null,
        "poi_accepted": false,
        "field_evidence": {
          "footprint": "official Canterbury City Council listed-building-outline MULTIPOLYGON",
          "type": "source name CHURCH OF ST MARTIN -> church; not mere listing designation",
          "reference": "{D845BB60-C294-4925-B95D-F48433F7D625}",
          "quality": "authoritative",
          "name": "ST MARTINS HILL, CHURCH OF ST MARTIN",
          "source_geometry": "official page WKT",
          "source_dataset": "listed-building-outline"
        },
        "source_url": "https://www.planning.data.gov.uk/entity/42111655",
        "final_url": "https://www.planning.data.gov.uk/entity/42111655",
        "http_status": null,
        "http_status_note": "not exposed by web-rendered official page; receiver validation required",
        "access_utc": "2026-10-08T01:20:12.679Z",
        "data_date": "2024-12-13",
        "licence": "Open Government Licence v3.0",
        "source_sha256": "57c467d60dba2e5629a9df283435d5e34017be2d4ea6e1823f14706c60f8d510",
        "source_sha256_scope": "archived structured evidence slice, not original HTTP bytes",
        "evidence_slice_sha256": "57c467d60dba2e5629a9df283435d5e34017be2d4ea6e1823f14706c60f8d510",
        "confidence_score_0_100": 94,
        "evidence_grade": "B",
        "fake_data": false,
        "local_spatial_join_required": true
      }
    }
  ]
}
