{"type":"FeatureCollection","features":[{"type":"Feature","id":"planned_buildings_2-planning-data-brownfield-1735635","geometry":null,"properties":{"entity":1735635,"reference":"18/06722/F","canonical_record_key":"planning-data:brownfield-land:1735635","planned_project_name":"Land At Little Paradise & Stafford Street Bristol BS3 4DE","official_hectares":0.53,"official_minimum_net_dwellings":316,"official_maximum_net_dwellings":316,"planned_building_value":null,"planned_building_probability":null,"planned_building_complete_month":null,"source_url":"https://www.planning.data.gov.uk/entity/1735635","source_quality":"official_planning_data_brownfield_record","fake_data":false}}],"metadata":{"slot_id":"planned_buildings_2","batch_index":171,"source_index":11,"source_window":{"resource_index":6,"limit":1},"feature_count_before":520,"feature_count_after":521,"unique_real_site_project_before":361,"unique_real_site_project_after":362,"duplicate_count_new":0,"nearest_match_used":false,"parcel_match_used":false,"geometry_inference_used":false,"mirror_only":true}}