{"type":"FeatureCollection","features":[{"type":"Feature","id":"planned_buildings_2-planning-data-brownfield-1735633","geometry":null,"properties":{"entity":1735633,"reference":"18/06709/F","canonical_record_key":"planning-data:brownfield-land:1735633","planned_project_name":"60 - 66 East Street Bedminster Bristol BS3 4HD","official_hectares":0.2,"official_minimum_net_dwellings":50,"official_maximum_net_dwellings":50,"planned_building_value":null,"planned_building_probability":null,"planned_building_complete_month":null,"source_url":"https://www.planning.data.gov.uk/entity/1735633","source_quality":"official_planning_data_brownfield_record","fake_data":false}}],"metadata":{"slot_id":"planned_buildings_2","batch_index":173,"source_index":11,"source_window":{"resource_index":8,"limit":1},"feature_count_before":522,"feature_count_after":523,"unique_real_site_project_before":363,"unique_real_site_project_after":364,"duplicate_count_new":0,"nearest_match_used":false,"parcel_match_used":false,"geometry_inference_used":false,"mirror_only":true}}