{"type":"FeatureCollection","features":[{"type":"Feature","id":"planned_buildings_2-planning-data-brownfield-1735594","geometry":null,"properties":{"entity":1735594,"reference":"21/02701/F","canonical_record_key":"planning-data:brownfield-land:1735594","planned_project_name":"Former Bank Of England Building 12 - 14 Broad Street Bristol BS1 2HL","official_hectares":0.04,"planned_building_value":null,"planned_building_probability":null,"planned_building_complete_month":null,"source_url":"https://www.planning.data.gov.uk/entity/1735594","source_quality":"authoritative","fake_data":false}}],"metadata":{"slot_id":"planned_buildings_2","batch_index":174,"source_index":11,"source_window":{"resource_index":9,"limit":1},"feature_count_before":523,"feature_count_after":524,"unique_real_site_project_before":364,"unique_real_site_project_after":365,"duplicate_count_new":0,"nearest_match_used":false,"parcel_match_used":false,"geometry_inference_used":false,"mirror_only":true}}