{"type":"FeatureCollection","features":[{"type":"Feature","id":"planned_buildings_2-planning-data-brownfield-1729392","geometry":null,"properties":{"entity":1729392,"reference":"BR00187","canonical_record_key":"planning-data:brownfield-land:1729392","planned_project_name":"Wembley Park Station, Police Station and Adjacent Land Bridge Road","official_hectares":0.33,"planned_building_value":null,"planned_building_probability":null,"planned_building_complete_month":null,"source_url":"https://www.planning.data.gov.uk/entity/1729392","source_quality":"authoritative","fake_data":false}}],"metadata":{"slot_id":"planned_buildings_2","batch_index":167,"source_index":11,"source_window":{"resource_index":2,"limit":1},"feature_count_before":516,"feature_count_after":517,"unique_real_site_project_before":357,"unique_real_site_project_after":358,"duplicate_count_new":0,"nearest_match_used":false,"parcel_match_used":false,"geometry_inference_used":false,"mirror_only":true}}