{"type":"FeatureCollection","features":[{"type":"Feature","id":"planned_buildings_2-planning-data-brownfield-1735640","geometry":null,"properties":{"entity":1735640,"reference":"19/06226/F","canonical_record_key":"planning-data:brownfield-land:1735640","planned_project_name":"Land At Redcross Lane Old Market Bristol BS2 0BE","official_hectares":0.13,"official_minimum_net_dwellings":34,"official_maximum_net_dwellings":34,"planned_building_value":null,"planned_building_probability":null,"planned_building_complete_month":null,"source_url":"https://www.planning.data.gov.uk/entity/1735640","source_quality":"official_planning_data_brownfield_record","fake_data":false}}],"metadata":{"slot_id":"planned_buildings_2","batch_index":165,"source_index":11,"source_window":{"resource_index":0,"limit":1},"feature_count_before":514,"feature_count_after":515,"unique_real_site_project_before":355,"unique_real_site_project_after":356,"duplicate_count_new":0,"nearest_match_used":false,"parcel_match_used":false,"geometry_inference_used":false,"mirror_only":true}}