{"type":"FeatureCollection","name":"building_type_9_batch_0013","features":[{"type":"Feature","id":"42133169","geometry":{"type":"MultiPolygon","coordinates":[[[[-2.607693,51.456236],[-2.607709,51.456236],[-2.60771,51.456221],[-2.607756,51.456222],[-2.607764,51.456122],[-2.607692,51.456121],[-2.607693,51.456236]]]]},"properties":{"slot_id":"building_type_9","lineage_id":"building_type_9-20261001T200900Z-newstart","batch_id":"batch-0013","page_generation":1,"source_entity":42133169,"source_reference":"77/01194/PRINC","source_dataset":"listed-building-outline","source_organisation":"Bristol City Council","building_evidence_status":"BUILDING_PRESENT","parcel_status":"UNPROCESSED","canonical_parcel_id":null,"building_type":"listed_building","building_use":null,"poi_accepted":false,"field_evidence":{"footprint":"official listed-building-outline MULTIPOLYGON","type":"official dataset classification: listed-building-outline","name":"7-9 Triangle South Bristol BS8 1EY","reference":"77/01194/PRINC","use":"no use inferred"},"source_url":"https://www.planning.data.gov.uk/entity/42133169","final_url":"https://www.planning.data.gov.uk/entity/42133169","access_utc":"2026-10-02T03:58:00Z","data_date":"1977-03-04","licence":"Open Government Licence v3.0","evidence_slice_sha256":"6aa2f3ab97acbfcafe60b94dc1a8cd70db695adb3bccf09edceb35bfd783ac0d","confidence_score_0_100":94,"evidence_grade":"A","fake_data":false,"local_spatial_join_required":true}},{"type":"Feature","id":"42132720","geometry":{"type":"MultiPolygon","coordinates":[[[[-2.611004,51.453575],[-2.611006,51.453642],[-2.611187,51.453639],[-2.611184,51.453571],[-2.611004,51.453575]]]]},"properties":{"slot_id":"building_type_9","lineage_id":"building_type_9-20261001T200900Z-newstart","batch_id":"batch-0013","page_generation":1,"source_entity":42132720,"source_reference":"59/01141/PRINC","source_dataset":"listed-building-outline","source_organisation":"Bristol City Council","building_evidence_status":"BUILDING_PRESENT","parcel_status":"UNPROCESSED","canonical_parcel_id":null,"building_type":"listed_building","building_use":null,"poi_accepted":false,"field_evidence":{"footprint":"official listed-building-outline MULTIPOLYGON","type":"official dataset classification: listed-building-outline","name":"5 Bellevue Bristol BS8 1DA","reference":"59/01141/PRINC","use":"no use inferred"},"source_url":"https://www.planning.data.gov.uk/entity/42132720","final_url":"https://www.planning.data.gov.uk/entity/42132720","access_utc":"2026-10-02T03:58:00Z","data_date":"1959-01-08","licence":"Open Government Licence v3.0","evidence_slice_sha256":"8ccc738961aa621f166529c215f23bc3ea26e125c1065a1258f60ebbd5e2ba1a","confidence_score_0_100":94,"evidence_grade":"A","fake_data":false,"local_spatial_join_required":true}},{"type":"Feature","id":"42133385","geometry":{"type":"MultiPolygon","coordinates":[[[[-2.596802,51.4531],[-2.596804,51.453157],[-2.596744,51.453154],[-2.5967,51.45315],[-2.596697,51.453165],[-2.596743,51.453169],[-2.596738,51.453202],[-2.596759,51.453204],[-2.596861,51.453212],[-2.596968,51.453216],[-2.596967,51.453197],[-2.597024,51.453196],[-2.597018,51.453099],[-2.596802,51.4531]]]]},"properties":{"slot_id":"building_type_9","lineage_id":"building_type_9-20261001T200900Z-newstart","batch_id":"batch-0013","page_generation":1,"source_entity":42133385,"source_reference":"74/00058/PRINC","source_dataset":"listed-building-outline","source_organisation":"Bristol City Council","building_evidence_status":"BUILDING_PRESENT","parcel_status":"UNPROCESSED","canonical_parcel_id":null,"building_type":"listed_building","building_use":null,"poi_accepted":false,"field_evidence":{"footprint":"official listed-building-outline MULTIPOLYGON","type":"official dataset classification: listed-building-outline","name":"4 Broad Quay Bristol BS1 4DA","reference":"74/00058/PRINC","use":"no use inferred"},"source_url":"https://www.planning.data.gov.uk/entity/42133385","final_url":"https://www.planning.data.gov.uk/entity/42133385","access_utc":"2026-10-02T03:58:00Z","data_date":"1974-03-20","licence":"Open Government Licence v3.0","evidence_slice_sha256":"92544b8d20ec989d54d16b0465d7733d0253760a97af75fd1541d1b8a385c158","confidence_score_0_100":94,"evidence_grade":"A","fake_data":false,"local_spatial_join_required":true}},{"type":"Feature","id":"42132141","geometry":{"type":"MultiPolygon","coordinates":[[[[-2.626859,51.473238],[-2.627005,51.473382],[-2.62707,51.473356],[-2.627085,51.47336],[-2.627113,51.473348],[-2.627116,51.473338],[-2.627126,51.473333],[-2.627025,51.473237],[-2.626944,51.473269],[-2.626897,51.473223],[-2.626859,51.473238]]]]},"properties":{"slot_id":"building_type_9","lineage_id":"building_type_9-20261001T200900Z-newstart","batch_id":"batch-0013","page_generation":1,"source_entity":42132141,"source_reference":"94/00230/PRINC","source_dataset":"listed-building-outline","source_organisation":"Bristol City Council","building_evidence_status":"BUILDING_PRESENT","parcel_status":"UNPROCESSED","canonical_parcel_id":null,"building_type":"listed_building","building_use":null,"poi_accepted":false,"field_evidence":{"footprint":"official listed-building-outline MULTIPOLYGON","type":"official dataset classification: listed-building-outline","name":"28 Downleaze Bristol BS9 1LY","reference":"94/00230/PRINC","use":"no use inferred"},"source_url":"https://www.planning.data.gov.uk/entity/42132141","final_url":"https://www.planning.data.gov.uk/entity/42132141","access_utc":"2026-10-02T03:58:00Z","data_date":"1994-12-30","licence":"Open Government Licence v3.0","evidence_slice_sha256":"8df821f73cfee08a2cf841d8f66618c50dfb775e74bcddb7d3c2e251b92e6211","confidence_score_0_100":94,"evidence_grade":"A","fake_data":false,"local_spatial_join_required":true}},{"type":"Feature","id":"42132239","geometry":{"type":"MultiPolygon","coordinates":[[[[-2.627586,51.473468],[-2.627575,51.473472],[-2.62756,51.473468],[-2.627536,51.473478],[-2.627533,51.473489],[-2.627466,51.473516],[-2.627565,51.473614],[-2.62765,51.473581],[-2.627683,51.473613],[-2.62772,51.473598],[-2.627586,51.473468]]]]},"properties":{"slot_id":"building_type_9","lineage_id":"building_type_9-20261001T200900Z-newstart","batch_id":"batch-0013","page_generation":1,"source_entity":42132239,"source_reference":"94/00189/PRINC","source_dataset":"listed-building-outline","source_organisation":"Bristol City Council","building_evidence_status":"BUILDING_PRESENT","parcel_status":"UNPROCESSED","canonical_parcel_id":null,"building_type":"listed_building","building_use":null,"poi_accepted":false,"field_evidence":{"footprint":"official listed-building-outline MULTIPOLYGON","type":"official dataset classification: listed-building-outline","name":"39 Downleaze Bristol BS9 1LX","reference":"94/00189/PRINC","use":"no use inferred"},"source_url":"https://www.planning.data.gov.uk/entity/42132239","final_url":"https://www.planning.data.gov.uk/entity/42132239","access_utc":"2026-10-02T03:58:00Z","data_date":"1994-12-30","licence":"Open Government Licence v3.0","evidence_slice_sha256":"d08bdb945f67c8cc385906a192c2336d6ec662fb761718d8160ebc86bbf2ef14","confidence_score_0_100":94,"evidence_grade":"A","fake_data":false,"local_spatial_join_required":true}},{"type":"Feature","id":"42132729","geometry":{"type":"MultiPolygon","coordinates":[[[[-2.610978,51.452836],[-2.610981,51.452903],[-2.611155,51.452901],[-2.611152,51.452833],[-2.610978,51.452836]]]]},"properties":{"slot_id":"building_type_9","lineage_id":"building_type_9-20261001T200900Z-newstart","batch_id":"batch-0013","page_generation":1,"source_entity":42132729,"source_reference":"59/01130/PRINC","source_dataset":"listed-building-outline","source_organisation":"Bristol City Council","building_evidence_status":"BUILDING_PRESENT","parcel_status":"UNPROCESSED","canonical_parcel_id":null,"building_type":"listed_building","building_use":null,"poi_accepted":false,"field_evidence":{"footprint":"official listed-building-outline MULTIPOLYGON","type":"official dataset classification: listed-building-outline","name":"5 Bellevue Bristol BS8 1DA","reference":"59/01130/PRINC","use":"no use inferred"},"source_url":"https://www.planning.data.gov.uk/entity/42132729","final_url":"https://www.planning.data.gov.uk/entity/42132729","access_utc":"2026-10-02T03:58:00Z","data_date":"1959-01-08","licence":"Open Government Licence v3.0","evidence_slice_sha256":"22f525ccd22ef08568c284f14578519a0bab527a7e8c68b3700451528a41830e","confidence_score_0_100":94,"evidence_grade":"A","fake_data":false,"local_spatial_join_required":true}}]}