{"type":"FeatureCollection","name":"future_growth_9_batch_79","demo_only":true,"metadata":{"schema_version":3,"slot_id":"future_growth_9","continuation_key":"future_growth_9_open_source_v2_20260813","run_id":"future_growth_9_bounded12_20260818T115429Z","batch_index":79,"feature_count_before":78,"feature_count_added":1,"feature_count_after":79,"source_window":{"dataset":"brownfield-land","window_index":78,"window_size":1,"entity":1712213},"fake_data":false,"final_ready":false,"production_merge":false,"duplicate_count":0,"nearest_match_used":false},"features":[{"type":"Feature","id":"future_growth_9:planning_data_bradford:qb-031","geometry":{"type":"Point","coordinates":[-1.860229,53.772402]},"properties":{"slot_id":"future_growth_9","source_feature_id":"QB/031","planning_data_entity":1712213,"source_url":"https://www.planning.data.gov.uk/entity/1712213","source_dataset_url":"https://www.planning.data.gov.uk/dataset/brownfield-land","source_entry_date":"2019-12-01","source_sha256":"a451f2f19ca9377303aa3bec6056db3912f304c86f1de6008169ed1c8b97dfe7","license":"Open Government Licence v3.0","planning_status":"permissioned","future_growth_evidence_type":"direct_project","direct_project_evidence":true,"evidence_summary":"Official current brownfield record states the former reservoir site has permission for 5 units.","matching_method":"direct official brownfield-land reference identity plus published WGS84 point; no nearest matching, no cross-parcel identity inference","accuracy_scale_1_4":4,"future_growth_value":null,"future_growth_probability":null,"site_name":"Former reservoir, Mountain","hectares":0.47,"net_dwellings_range_from":5,"net_dwellings_range_to":5,"fake_data":false,"final_ready":false,"production_merge":false,"demo_only":true}}]}