{"type":"FeatureCollection","name":"future_growth_9_batch_75","demo_only":true,"metadata":{"schema_version":3,"slot_id":"future_growth_9","continuation_key":"future_growth_9_open_source_v2_20260813","run_id":"future_growth_9_bounded12_20260818T115429Z","batch_index":75,"feature_count_before":74,"feature_count_added":1,"feature_count_after":75,"source_window":{"dataset":"brownfield-land","window_index":74,"window_size":1,"entity":1720470},"fake_data":false,"final_ready":false,"production_merge":false,"duplicate_count":0,"nearest_match_used":false},"features":[{"type":"Feature","id":"future_growth_9:planning_data_bradford:sw-038","geometry":{"type":"Point","coordinates":[-1.778074,53.791917]},"properties":{"slot_id":"future_growth_9","source_feature_id":"SW/038","planning_data_entity":1720470,"source_url":"https://www.planning.data.gov.uk/entity/1720470","source_dataset_url":"https://www.planning.data.gov.uk/dataset/brownfield-land","source_entry_date":"2022-11-01","source_sha256":"8f935f84715f7768a6235fb154dc7c279f77fe6220013592014cd52541fa7480","license":"Open Government Licence v3.0","planning_status":"permissioned","future_growth_evidence_type":"area_proxy","direct_project_evidence":false,"evidence_summary":"Official current brownfield record marks St Andrews Mill deliverable and permissioned; no residential unit count or project identity is inferred.","matching_method":"direct official brownfield-land reference identity plus published WGS84 point; no nearest matching, no cross-parcel identity inference","accuracy_scale_1_4":3,"future_growth_value":null,"future_growth_probability":null,"site_name":"St Andrews Mill, Legrams Lane","hectares":0.59,"net_dwellings_range_from":0,"net_dwellings_range_to":0,"fake_data":false,"final_ready":false,"production_merge":false,"demo_only":true}}]}