{"type":"FeatureCollection","name":"future_growth_9_batch_73","demo_only":true,"metadata":{"schema_version":3,"slot_id":"future_growth_9","continuation_key":"future_growth_9_open_source_v2_20260813","run_id":"future_growth_9_bounded12_20260818T115429Z","batch_index":73,"feature_count_before":72,"feature_count_added":1,"feature_count_after":73,"source_window":{"dataset":"brownfield-land","window_index":72,"window_size":1,"entity":1720474},"fake_data":false,"final_ready":false,"production_merge":false,"duplicate_count":0,"nearest_match_used":false},"features":[{"type":"Feature","id":"future_growth_9:planning_data_bradford:sw-139","geometry":{"type":"Point","coordinates":[-1.770536,53.785261]},"properties":{"slot_id":"future_growth_9","source_feature_id":"SW/139","planning_data_entity":1720474,"source_url":"https://www.planning.data.gov.uk/entity/1720474","source_dataset_url":"https://www.planning.data.gov.uk/dataset/brownfield-land","source_entry_date":"2022-11-01","source_sha256":"6094fdfac878d60c43282ea36350f52f80787e7828b734a85450a9f88523ba94","license":"Open Government Licence v3.0","future_growth_evidence_type":"area_proxy","direct_project_evidence":false,"evidence_summary":"Official current authoritative brownfield record identifies All Saints Rd with capacity for 50 net dwellings.","matching_method":"direct official brownfield-land reference identity plus published WGS84 point; no nearest matching, no cross-parcel identity inference","accuracy_scale_1_4":3,"future_growth_value":null,"future_growth_probability":null,"site_name":"All Saints Rd","hectares":1.34,"net_dwellings_range_from":50,"net_dwellings_range_to":50,"planning_status":"not-permissioned","fake_data":false,"final_ready":false,"production_merge":false,"demo_only":true}}]}