{"type":"FeatureCollection","name":"future_growth_9_batch_80","demo_only":true,"metadata":{"schema_version":3,"slot_id":"future_growth_9","continuation_key":"future_growth_9_open_source_v2_20260813","run_id":"future_growth_9_bounded12_20260818T115429Z","batch_index":80,"feature_count_before":78,"feature_count_added":1,"feature_count_after":79,"source_window":{"dataset":"brownfield-land","window_index":79,"window_size":1,"entity":1712281},"fake_data":false,"final_ready":false,"production_merge":false,"duplicate_count":0,"nearest_match_used":false,"count_reconciled_after_historical_duplicate_batch_74":true},"features":[{"type":"Feature","id":"future_growth_9:planning_data_bradford:th-015","geometry":{"type":"Point","coordinates":[-1.854762,53.792559]},"properties":{"slot_id":"future_growth_9","source_feature_id":"TH/015","planning_data_entity":1712281,"source_url":"https://www.planning.data.gov.uk/entity/1712281","source_dataset_url":"https://www.planning.data.gov.uk/dataset/brownfield-land","source_entry_date":"2018-11-01","source_sha256":"02ce887923821aa3bbc8b3fac557a2ebd5ff71e19d71c47d31e66136b2931f81","license":"Open Government Licence v3.0","planning_status":"not-permissioned","future_growth_evidence_type":"area_proxy","direct_project_evidence":false,"evidence_summary":"Official current brownfield record identifies the remaining James Street development site as available; a new application is likely necessary, with capacity 13 to 16 dwellings.","matching_method":"direct official brownfield-land reference identity plus published WGS84 point; no nearest matching, no cross-parcel identity inference","accuracy_scale_1_4":3,"future_growth_value":null,"future_growth_probability":null,"site_name":"James Street, Thornton","hectares":0.33,"net_dwellings_range_from":13,"net_dwellings_range_to":16,"fake_data":false,"final_ready":false,"production_merge":false,"demo_only":true}}]}
