{"type":"FeatureCollection","metadata":{"slot_id":"security_public_safety_1","lineage_id":null,"page_generation":null,"source_area_count":309,"source_area_delta_this_turn":50,"latest_evidence_window":"LFB_FOIA4310_1_STATION_CODES_051_100_20261004T181500Z","batch_scope":"DELTA_FEATURES_ONLY","source_evidence_ref":"source_evidence.json","first_missing_criterion":"LOCAL_OPENCODE_EXACT_IDENTIFIER_TO_CANONICAL_SPATIAL_BINDING"},"features":[{"type":"Feature","geometry":null,"properties":{"exact_identifier":"H41","exact_identifier_type":"london-fire.gov.uk.fire_station.code","coverage_area_name":"Kingston","source_record_index":51}},{"type":"Feature","geometry":null,"properties":{"exact_identifier":"H22","exact_identifier_type":"london-fire.gov.uk.fire_station.code","coverage_area_name":"Lambeth","source_record_index":52}},{"type":"Feature","geometry":null,"properties":{"exact_identifier":"H23","exact_identifier_type":"london-fire.gov.uk.fire_station.code","coverage_area_name":"Lambeth River","source_record_index":53}},{"type":"Feature","geometry":null,"properties":{"exact_identifier":"E29","exact_identifier_type":"london-fire.gov.uk.fire_station.code","coverage_area_name":"Lee Green","source_record_index":54}},{"type":"Feature","geometry":null,"properties":{"exact_identifier":"E21","exact_identifier_type":"london-fire.gov.uk.fire_station.code","coverage_area_name":"Lewisham","source_record_index":55}},{"type":"Feature","geometry":null,"properties":{"exact_identifier":"F29","exact_identifier_type":"london-fire.gov.uk.fire_station.code","coverage_area_name":"Leyton","source_record_index":56}},{"type":"Feature","geometry":null,"properties":{"exact_identifier":"F30","exact_identifier_type":"london-fire.gov.uk.fire_station.code","coverage_area_name":"Leytonstone","source_record_index":57}},{"type":"Feature","geometry":null,"properties":{"exact_identifier":"A38","exact_identifier_type":"london-fire.gov.uk.fire_station.code","coverage_area_name":"Mill Hill","source_record_index":58}},{"type":"Feature","geometry":null,"properties":{"exact_identifier":"F23","exact_identifier_type":"london-fire.gov.uk.fire_station.code","coverage_area_name":"Millwall","source_record_index":59}},{"type":"Feature","geometry":null,"properties":{"exact_identifier":"H36","exact_identifier_type":"london-fire.gov.uk.fire_station.code","coverage_area_name":"Mitcham","source_record_index":60}},{"type":"Feature","geometry":null,"properties":{"exact_identifier":"E38","exact_identifier_type":"london-fire.gov.uk.fire_station.code","coverage_area_name":"New Cross","source_record_index":61}},{"type":"Feature","geometry":null,"properties":{"exact_identifier":"H40","exact_identifier_type":"london-fire.gov.uk.fire_station.code","coverage_area_name":"New Malden","source_record_index":62}},{"type":"Feature","geometry":null,"properties":{"exact_identifier":"H32","exact_identifier_type":"london-fire.gov.uk.fire_station.code","coverage_area_name":"Norbury","source_record_index":63}},{"type":"Feature","geometry":null,"properties":{"exact_identifier":"G27","exact_identifier_type":"london-fire.gov.uk.fire_station.code","coverage_area_name":"North Kensington","source_record_index":64}},{"type":"Feature","geometry":null,"properties":{"exact_identifier":"G31","exact_identifier_type":"london-fire.gov.uk.fire_station.code","coverage_area_name":"Northolt","source_record_index":65}},{"type":"Feature","geometry":null,"properties":{"exact_identifier":"E35","exact_identifier_type":"london-fire.gov.uk.fire_station.code","coverage_area_name":"Old Kent Road","source_record_index":66}},{"type":"Feature","geometry":null,"properties":{"exact_identifier":"E41","exact_identifier_type":"london-fire.gov.uk.fire_station.code","coverage_area_name":"Orpington","source_record_index":67}},{"type":"Feature","geometry":null,"properties":{"exact_identifier":"A21","exact_identifier_type":"london-fire.gov.uk.fire_station.code","coverage_area_name":"Paddington","source_record_index":68}},{"type":"Feature","geometry":null,"properties":{"exact_identifier":"G29","exact_identifier_type":"london-fire.gov.uk.fire_station.code","coverage_area_name":"Park Royal","source_record_index":69}},{"type":"Feature","geometry":null,"properties":{"exact_identifier":"E37","exact_identifier_type":"london-fire.gov.uk.fire_station.code","coverage_area_name":"Peckham","source_record_index":70}},{"type":"Feature","geometry":null,"properties":{"exact_identifier":"F45","exact_identifier_type":"london-fire.gov.uk.fire_station.code","coverage_area_name":"Plaistow","source_record_index":71}},{"type":"Feature","geometry":null,"properties":{"exact_identifier":"E25","exact_identifier_type":"london-fire.gov.uk.fire_station.code","coverage_area_name":"Plumstead","source_record_index":72}},{"type":"Feature","geometry":null,"properties":{"exact_identifier":"F22","exact_identifier_type":"london-fire.gov.uk.fire_station.code","coverage_area_name":"Poplar","source_record_index":73}},{"type":"Feature","geometry":null,"properties":{"exact_identifier":"H29","exact_identifier_type":"london-fire.gov.uk.fire_station.code","coverage_area_name":"Purley","source_record_index":74}},{"type":"Feature","geometry":null,"properties":{"exact_identifier":"H42","exact_identifier_type":"london-fire.gov.uk.fire_station.code","coverage_area_name":"Richmond","source_record_index":75}},{"type":"Feature","geometry":null,"properties":{"exact_identifier":"F38","exact_identifier_type":"london-fire.gov.uk.fire_station.code","coverage_area_name":"Romford","source_record_index":76}},{"type":"Feature","geometry":null,"properties":{"exact_identifier":"G32","exact_identifier_type":"london-fire.gov.uk.fire_station.code","coverage_area_name":"Ruislip","source_record_index":77}},{"type":"Feature","geometry":null,"properties":{"exact_identifier":"F25","exact_identifier_type":"london-fire.gov.uk.fire_station.code","coverage_area_name":"Shadwell","source_record_index":78}},{"type":"Feature","geometry":null,"properties":{"exact_identifier":"F24","exact_identifier_type":"london-fire.gov.uk.fire_station.code","coverage_area_name":"Shoreditch","source_record_index":79}},{"type":"Feature","geometry":null,"properties":{"exact_identifier":"E40","exact_identifier_type":"london-fire.gov.uk.fire_station.code","coverage_area_name":"Sidcup","source_record_index":80}},{"type":"Feature","geometry":null,"properties":{"exact_identifier":"A24","exact_identifier_type":"london-fire.gov.uk.fire_station.code","coverage_area_name":"Soho","source_record_index":81}},{"type":"Feature","geometry":null,"properties":{"exact_identifier":"G24","exact_identifier_type":"london-fire.gov.uk.fire_station.code","coverage_area_name":"Southall","source_record_index":82}},{"type":"Feature","geometry":null,"properties":{"exact_identifier":"A36","exact_identifier_type":"london-fire.gov.uk.fire_station.code","coverage_area_name":"Southgate","source_record_index":83}},{"type":"Feature","geometry":null,"properties":{"exact_identifier":"G22","exact_identifier_type":"london-fire.gov.uk.fire_station.code","coverage_area_name":"Stanmore","source_record_index":84}},{"type":"Feature","geometry":null,"properties":{"exact_identifier":"F32","exact_identifier_type":"london-fire.gov.uk.fire_station.code","coverage_area_name":"Stoke Newington","source_record_index":85}},{"type":"Feature","geometry":null,"properties":{"exact_identifier":"F21","exact_identifier_type":"london-fire.gov.uk.fire_station.code","coverage_area_name":"Stratford","source_record_index":86}},{"type":"Feature","geometry":null,"properties":{"exact_identifier":"H39","exact_identifier_type":"london-fire.gov.uk.fire_station.code","coverage_area_name":"Surbiton","source_record_index":87}},{"type":"Feature","geometry":null,"properties":{"exact_identifier":"H38","exact_identifier_type":"london-fire.gov.uk.fire_station.code","coverage_area_name":"Sutton","source_record_index":88}},{"type":"Feature","geometry":null,"properties":{"exact_identifier":"H35","exact_identifier_type":"london-fire.gov.uk.fire_station.code","coverage_area_name":"Tooting","source_record_index":89}},{"type":"Feature","geometry":null,"properties":{"exact_identifier":"A33","exact_identifier_type":"london-fire.gov.uk.fire_station.code","coverage_area_name":"Tottenham","source_record_index":90}},{"type":"Feature","geometry":null,"properties":{"exact_identifier":"H43","exact_identifier_type":"london-fire.gov.uk.fire_station.code","coverage_area_name":"Twickenham","source_record_index":91}},{"type":"Feature","geometry":null,"properties":{"exact_identifier":"H37","exact_identifier_type":"london-fire.gov.uk.fire_station.code","coverage_area_name":"Wallington","source_record_index":92}},{"type":"Feature","geometry":null,"properties":{"exact_identifier":"F36","exact_identifier_type":"london-fire.gov.uk.fire_station.code","coverage_area_name":"Walthamstow","source_record_index":93}},{"type":"Feature","geometry":null,"properties":{"exact_identifier":"H33","exact_identifier_type":"london-fire.gov.uk.fire_station.code","coverage_area_name":"Wandsworth","source_record_index":94}},{"type":"Feature","geometry":null,"properties":{"exact_identifier":"G30","exact_identifier_type":"london-fire.gov.uk.fire_station.code","coverage_area_name":"Wembley","source_record_index":95}},{"type":"Feature","geometry":null,"properties":{"exact_identifier":"F40","exact_identifier_type":"london-fire.gov.uk.fire_station.code","coverage_area_name":"Wennington","source_record_index":96}},{"type":"Feature","geometry":null,"properties":{"exact_identifier":"A41","exact_identifier_type":"london-fire.gov.uk.fire_station.code","coverage_area_name":"West Hampstead","source_record_index":97}},{"type":"Feature","geometry":null,"properties":{"exact_identifier":"H25","exact_identifier_type":"london-fire.gov.uk.fire_station.code","coverage_area_name":"West Norwood","source_record_index":98}},{"type":"Feature","geometry":null,"properties":{"exact_identifier":"F33","exact_identifier_type":"london-fire.gov.uk.fire_station.code","coverage_area_name":"Whitechapel","source_record_index":99}},{"type":"Feature","geometry":null,"properties":{"exact_identifier":"G28","exact_identifier_type":"london-fire.gov.uk.fire_station.code","coverage_area_name":"Willesden","source_record_index":100}}]}
