{"type":"FeatureCollection","features":[{"type":"Feature","geometry":{"type":"MultiPolygon","coordinates":[[[[-0.104758,51.504122],[-0.105293,51.504128],[-0.105473,51.504119],[-0.10639,51.504137],[-0.106523,51.504131],[-0.106533,51.504032],[-0.106497,51.503834],[-0.106391,51.503509],[-0.106334,51.503485],[-0.105559,51.503648],[-0.104994,51.503782],[-0.104947,51.503784],[-0.104946,51.503773],[-0.104828,51.503799],[-0.10476,51.503851],[-0.104734,51.5039],[-0.104743,51.503901],[-0.104741,51.504068],[-0.104758,51.504122]]]]},"properties":{"evidence_scope":"authoritative_polygon_geometry","coverage_area_id":"Planning Data entity 7010003604: Site allocation NSP20: Southwark Station and 1 Joan Street","official_identifier":"article-4-direction-area:188","source_resolution":"authoritative MultiPolygon geometry captured from the official Planning Data entity; site-allocation label NSP20 is carried in the authoritative entity name","source_url":"https://www.planning.data.gov.uk/entity/7010003604","final_url":"https://www.planning.data.gov.uk/entity/7010003604","access_utc":"2026-10-03T02:05:00Z","data_date":"2025-05-21","licence":"Open Government Licence v3.0","measurement_method":"official Planning Data authoritative geography entity MultiPolygon","spatial_binding_method":"local OpenCode spatial join/materialization against canonical parcel polygons; not performed here","confidence_score_0_100":100,"evidence_grade":"authoritative_polygon_geometry","fake_data":false,"upstream_file_sha256":null,"upstream_file_sha256_reason":"raw upstream entity/GeoJSON bytes were not exposed by the available retrieval path; no hash invented","source_window_payload_sha256":"da52be4b73e20b108b01b905eda6f474399792f258215cca02a655bc68ce5828","field_evidence":{"entry-date":"2025-05-21","start-date":"","end-date":"","entity":7010003604,"name":"Site allocation NSP20: Southwark Station and 1 Joan Street","dataset":"article-4-direction-area","typology":"geography","reference":"188","prefix":"article-4-direction-area","organisation-entity":"329","geometry":"MULTIPOLYGON (((-0.104758 51.504122, -0.105293 51.504128, -0.105473 51.504119, -0.10639 51.504137, -0.106523 51.504131, -0.106533 51.504032, -0.106497 51.503834, -0.106391 51.503509, -0.106334 51.503485, -0.105559 51.503648, -0.104994 51.503782, -0.104947 51.503784, -0.104946 51.503773, -0.104828 51.503799, -0.10476 51.503851, -0.104734 51.5039, -0.104743 51.503901, -0.104741 51.504068, -0.104758 51.504122)))","point":"POINT (-0.105725 51.503879)","quality":"authoritative","notes":"Change of use from Class E to residential is restricted","article-4-direction":"188","permitted-development-rights":"None given","site-allocation-label":"NSP20"}}}]}
