{
  "type": "FeatureCollection",
  "name": "building_type_2_norton_windmill",
  "features": [
    {
      "type": "Feature",
      "geometry": {
        "type": "MultiPolygon",
        "coordinates": [
          [
            [
              [
                -1.187353,
                53.626817
              ],
              [
                -1.187366,
                53.626824
              ],
              [
                -1.187393,
                53.626831
              ],
              [
                -1.187421,
                53.626827
              ],
              [
                -1.187435,
                53.626823
              ],
              [
                -1.187449,
                53.626816
              ],
              [
                -1.187456,
                53.626808
              ],
              [
                -1.187458,
                53.62679
              ],
              [
                -1.187454,
                53.626781
              ],
              [
                -1.187449,
                53.626775
              ],
              [
                -1.187433,
                53.626765
              ],
              [
                -1.187417,
                53.626762
              ],
              [
                -1.187398,
                53.626761
              ],
              [
                -1.187368,
                53.626765
              ],
              [
                -1.187359,
                53.626768
              ],
              [
                -1.187342,
                53.626785
              ],
              [
                -1.18734,
                53.626798
              ],
              [
                -1.187345,
                53.626809
              ],
              [
                -1.187353,
                53.626817
              ]
            ]
          ]
        ]
      },
      "properties": {
        "slot_id": "building_type_2",
        "lineage_id": "building_type_2-20260930T173100Z-newstart",
        "page_generation": 1,
        "batch_id": "20261008T041328Z_NORTON_WINDMILL_42113106",
        "source_entity": 42113106,
        "source_reference": "1151467",
        "source_dataset": "listed-building-outline",
        "source_organisation": "Doncaster Metropolitan Borough Council",
        "building_evidence_status": "BUILDING_PRESENT",
        "parcel_status": "UNPROCESSED",
        "canonical_parcel_id": null,
        "building_type": "windmill",
        "building_use": null,
        "poi_accepted": false,
        "field_evidence": {
          "footprint": "official single-structure circular MultiPolygon listed-building-outline, reference 1151467",
          "type": "Historic England Grade II listed tower mill, official reference 1151467",
          "use": "Historic England historic entry states tower mill converted to house, not present-day use",
          "source_geometry": "MULTIPOLYGON (((-1.187353 53.626817, -1.187366 53.626824, -1.187393 53.626831, -1.187421 53.626827, -1.187435 53.626823, -1.187449 53.626816, -1.187456 53.626808, -1.187458 53.62679, -1.187454 53.626781, -1.187449 53.626775, -1.187433 53.626765, -1.187417 53.626762, -1.187398 53.626761, -1.187368 53.626765, -1.187359 53.626768, -1.187342 53.626785, -1.18734 53.626798, -1.187345 53.626809, -1.187353 53.626817)))",
          "quality": "authoritative"
        },
        "source_url": "https://www.planning.data.gov.uk/entity/42113106",
        "final_url": "https://www.planning.data.gov.uk/entity/42113106",
        "http_status": null,
        "http_status_note": "HTTP status unavailable from source page retrieval",
        "access_utc": "2026-10-08T04:13:28.042Z",
        "data_date": "2024-08-23",
        "licence": "Open Government Licence v3.0",
        "source_sha256": "e313b1290e70ee09488c5e2b7929fd4733ab64ee484e067256d5b5b82b62a01a",
        "source_sha256_scope": "archived source field evidence slice, not server bytes",
        "evidence_slice_sha256": "e313b1290e70ee09488c5e2b7929fd4733ab64ee484e067256d5b5b82b62a01a",
        "confidence_score_0_100": 95,
        "evidence_grade": "A",
        "fake_data": false,
        "local_spatial_join_required": true
      }
    }
  ]
}
