{"type":"FeatureCollection","name":"height_difference_5","metadata":{"slot_id":"height_difference_5","owner":"height_difference_5","lineage_id":"height_difference_5-eb56f92ed3f0514c","page_generation":1,"schema":"AAYS_LAYER24_EVIDENCE_V1","partition":"layer24","semantic_mode_state":"ABSENT_IN_PRIOR_PHYSICAL_STATE_PRESERVED_BY_OMISSION","batch_id":"20261002T125001Z_osni_river_basin_lidar_2009_resources","record_policy":"18 official ZIP resource records; no parcel/tile geometry, archive-internal tile/file or CRS synthesized.","fake_data":false},"features":[{"type":"Feature","geometry":null,"properties":{"slot_id":"height_difference_5","owner":"height_difference_5","lineage_id":"height_difference_5-eb56f92ed3f0514c","page_generation":1,"schema":"AAYS_LAYER24_EVIDENCE_V1","partition":"layer24","batch_id":"20261002T125001Z_osni_river_basin_lidar_2009_resources","source_record_id":"OSNI_RIVER_BASIN_LIDAR_2009:25eb310e-17ea-47c4-9162-5e5473e0f766","source_url":"https://admin.opendatani.gov.uk/dataset/osni-open-data-river-basin-lidar-2009-dtms-and-dsms","resource_url":"https://admin.opendatani.gov.uk/dataset/osni-open-data-river-basin-lidar-2009-dtms-and-dsms/resource/25eb310e-17ea-47c4-9162-5e5473e0f766","download_url":null,"access_utc":"2026-10-02T12:50:01Z","publisher":"Land & Property Services – Ordnance Survey of Northern Ireland","dataset":"OSNI Open Data: River Basin LIDAR 2009 - DTMs and DSMs","resource_name":"Ballyclare Point Cloud DTM Data in ASCII format","resource_id":"25eb310e-17ea-47c4-9162-5e5473e0f766","format":"ZIP","crs":null,"crs_status":"ARCHIVE_TILE_CRS_NOT_EXPOSED_IN_RETRIEVED_OFFICIAL_WINDOW_DO_NOT_INFER","tile_size_m":[1000,1000],"native_resolution_m":1,"point_cloud_spacing_m":0.2,"licence":"UK Open Government Licence (OGL)","exact_tile_identifier":null,"canonical_parcel_id":null,"required_building_state":"BUILDING_PRESENT","binding_status":"LOCAL_OPENCODE_BUILDING_PRESENT_EXACT_TILE_BIND_REQUIRED","source_area_count_contribution":0,"accepted_count_contribution":0,"evidence_slice_sha256":"ea0d4f274d8fc0e4babcc1481ee439a6bc4b834b30d1dc08fc1a1e673652ddcf","confidence_score_0_100":99,"evidence_grade":"A_OFFICIAL_LIDAR_DTM_RESOURCE_INDEX_B_ARCHIVE_BYTES_EXACT_TILE_CRS_REQUIRED","fake_data":false}},{"type":"Feature","geometry":null,"properties":{"slot_id":"height_difference_5","owner":"height_difference_5","lineage_id":"height_difference_5-eb56f92ed3f0514c","page_generation":1,"schema":"AAYS_LAYER24_EVIDENCE_V1","partition":"layer24","batch_id":"20261002T125001Z_osni_river_basin_lidar_2009_resources","source_record_id":"OSNI_RIVER_BASIN_LIDAR_2009:ba0bc3d5-297c-4d88-8118-884ec73268a8","source_url":"https://admin.opendatani.gov.uk/dataset/osni-open-data-river-basin-lidar-2009-dtms-and-dsms","resource_url":"https://admin.opendatani.gov.uk/dataset/osni-open-data-river-basin-lidar-2009-dtms-and-dsms/resource/ba0bc3d5-297c-4d88-8118-884ec73268a8","download_url":null,"access_utc":"2026-10-02T12:50:01Z","publisher":"Land & Property Services – Ordnance Survey of Northern Ireland","dataset":"OSNI Open Data: River Basin LIDAR 2009 - DTMs and DSMs","resource_name":"Ballyclare_23_04_2009","resource_id":"ba0bc3d5-297c-4d88-8118-884ec73268a8","format":"ZIP","crs":null,"crs_status":"ARCHIVE_TILE_CRS_NOT_EXPOSED_IN_RETRIEVED_OFFICIAL_WINDOW_DO_NOT_INFER","tile_size_m":[1000,1000],"native_resolution_m":1,"point_cloud_spacing_m":0.2,"licence":"UK Open Government Licence (OGL)","exact_tile_identifier":null,"canonical_parcel_id":null,"required_building_state":"BUILDING_PRESENT","binding_status":"LOCAL_OPENCODE_BUILDING_PRESENT_EXACT_TILE_BIND_REQUIRED","source_area_count_contribution":0,"accepted_count_contribution":0,"evidence_slice_sha256":"ea0d4f274d8fc0e4babcc1481ee439a6bc4b834b30d1dc08fc1a1e673652ddcf","confidence_score_0_100":99,"evidence_grade":"A_OFFICIAL_LIDAR_DTM_RESOURCE_INDEX_B_ARCHIVE_BYTES_EXACT_TILE_CRS_REQUIRED","fake_data":false}},{"type":"Feature","geometry":null,"properties":{"slot_id":"height_difference_5","owner":"height_difference_5","lineage_id":"height_difference_5-eb56f92ed3f0514c","page_generation":1,"schema":"AAYS_LAYER24_EVIDENCE_V1","partition":"layer24","batch_id":"20261002T125001Z_osni_river_basin_lidar_2009_resources","source_record_id":"OSNI_RIVER_BASIN_LIDAR_2009:a1bd8f10-347f-4a02-a891-1cdd79acba8c","source_url":"https://admin.opendatani.gov.uk/dataset/osni-open-data-river-basin-lidar-2009-dtms-and-dsms","resource_url":"https://admin.opendatani.gov.uk/dataset/osni-open-data-river-basin-lidar-2009-dtms-and-dsms/resource/a1bd8f10-347f-4a02-a891-1cdd79acba8c","download_url":null,"access_utc":"2026-10-02T12:50:01Z","publisher":"Land & Property Services – Ordnance Survey of Northern Ireland","dataset":"OSNI Open Data: River Basin LIDAR 2009 - DTMs and DSMs","resource_name":"Clady_10_03_2009","resource_id":"a1bd8f10-347f-4a02-a891-1cdd79acba8c","format":"ZIP","crs":null,"crs_status":"ARCHIVE_TILE_CRS_NOT_EXPOSED_IN_RETRIEVED_OFFICIAL_WINDOW_DO_NOT_INFER","tile_size_m":[1000,1000],"native_resolution_m":1,"point_cloud_spacing_m":0.2,"licence":"UK Open Government Licence (OGL)","exact_tile_identifier":null,"canonical_parcel_id":null,"required_building_state":"BUILDING_PRESENT","binding_status":"LOCAL_OPENCODE_BUILDING_PRESENT_EXACT_TILE_BIND_REQUIRED","source_area_count_contribution":0,"accepted_count_contribution":0,"evidence_slice_sha256":"ea0d4f274d8fc0e4babcc1481ee439a6bc4b834b30d1dc08fc1a1e673652ddcf","confidence_score_0_100":99,"evidence_grade":"A_OFFICIAL_LIDAR_DTM_RESOURCE_INDEX_B_ARCHIVE_BYTES_EXACT_TILE_CRS_REQUIRED","fake_data":false}},{"type":"Feature","geometry":null,"properties":{"slot_id":"height_difference_5","owner":"height_difference_5","lineage_id":"height_difference_5-eb56f92ed3f0514c","page_generation":1,"schema":"AAYS_LAYER24_EVIDENCE_V1","partition":"layer24","batch_id":"20261002T125001Z_osni_river_basin_lidar_2009_resources","source_record_id":"OSNI_RIVER_BASIN_LIDAR_2009:1cca3913-2aef-4235-a004-d1a79dfd2e2d","source_url":"https://admin.opendatani.gov.uk/dataset/osni-open-data-river-basin-lidar-2009-dtms-and-dsms","resource_url":"https://admin.opendatani.gov.uk/dataset/osni-open-data-river-basin-lidar-2009-dtms-and-dsms/resource/1cca3913-2aef-4235-a004-d1a79dfd2e2d","download_url":null,"access_utc":"2026-10-02T12:50:01Z","publisher":"Land & Property Services – Ordnance Survey of Northern Ireland","dataset":"OSNI Open Data: River Basin LIDAR 2009 - DTMs and DSMs","resource_name":"Downpatrick_05_05_2009","resource_id":"1cca3913-2aef-4235-a004-d1a79dfd2e2d","format":"ZIP","crs":null,"crs_status":"ARCHIVE_TILE_CRS_NOT_EXPOSED_IN_RETRIEVED_OFFICIAL_WINDOW_DO_NOT_INFER","tile_size_m":[1000,1000],"native_resolution_m":1,"point_cloud_spacing_m":0.2,"licence":"UK Open Government Licence (OGL)","exact_tile_identifier":null,"canonical_parcel_id":null,"required_building_state":"BUILDING_PRESENT","binding_status":"LOCAL_OPENCODE_BUILDING_PRESENT_EXACT_TILE_BIND_REQUIRED","source_area_count_contribution":0,"accepted_count_contribution":0,"evidence_slice_sha256":"ea0d4f274d8fc0e4babcc1481ee439a6bc4b834b30d1dc08fc1a1e673652ddcf","confidence_score_0_100":99,"evidence_grade":"A_OFFICIAL_LIDAR_DTM_RESOURCE_INDEX_B_ARCHIVE_BYTES_EXACT_TILE_CRS_REQUIRED","fake_data":false}},{"type":"Feature","geometry":null,"properties":{"slot_id":"height_difference_5","owner":"height_difference_5","lineage_id":"height_difference_5-eb56f92ed3f0514c","page_generation":1,"schema":"AAYS_LAYER24_EVIDENCE_V1","partition":"layer24","batch_id":"20261002T125001Z_osni_river_basin_lidar_2009_resources","source_record_id":"OSNI_RIVER_BASIN_LIDAR_2009:094d0e48-454e-4ec4-9809-a18e89c19cf3","source_url":"https://admin.opendatani.gov.uk/dataset/osni-open-data-river-basin-lidar-2009-dtms-and-dsms","resource_url":"https://admin.opendatani.gov.uk/dataset/osni-open-data-river-basin-lidar-2009-dtms-and-dsms/resource/094d0e48-454e-4ec4-9809-a18e89c19cf3","download_url":null,"access_utc":"2026-10-02T12:50:01Z","publisher":"Land & Property Services – Ordnance Survey of Northern Ireland","dataset":"OSNI Open Data: River Basin LIDAR 2009 - DTMs and DSMs","resource_name":"Downpatrick_05_05_2009_Point_Cloud_DSM_J43_45","resource_id":"094d0e48-454e-4ec4-9809-a18e89c19cf3","format":"ZIP","crs":null,"crs_status":"ARCHIVE_TILE_CRS_NOT_EXPOSED_IN_RETRIEVED_OFFICIAL_WINDOW_DO_NOT_INFER","tile_size_m":[1000,1000],"native_resolution_m":1,"point_cloud_spacing_m":0.2,"licence":"UK Open Government Licence (OGL)","exact_tile_identifier":null,"canonical_parcel_id":null,"required_building_state":"BUILDING_PRESENT","binding_status":"LOCAL_OPENCODE_BUILDING_PRESENT_EXACT_TILE_BIND_REQUIRED","source_area_count_contribution":0,"accepted_count_contribution":0,"evidence_slice_sha256":"ea0d4f274d8fc0e4babcc1481ee439a6bc4b834b30d1dc08fc1a1e673652ddcf","confidence_score_0_100":99,"evidence_grade":"A_OFFICIAL_LIDAR_DTM_RESOURCE_INDEX_B_ARCHIVE_BYTES_EXACT_TILE_CRS_REQUIRED","fake_data":false}},{"type":"Feature","geometry":null,"properties":{"slot_id":"height_difference_5","owner":"height_difference_5","lineage_id":"height_difference_5-eb56f92ed3f0514c","page_generation":1,"schema":"AAYS_LAYER24_EVIDENCE_V1","partition":"layer24","batch_id":"20261002T125001Z_osni_river_basin_lidar_2009_resources","source_record_id":"OSNI_RIVER_BASIN_LIDAR_2009:cbfe4db3-4d37-4e73-9dcf-b6d2a8023aab","source_url":"https://admin.opendatani.gov.uk/dataset/osni-open-data-river-basin-lidar-2009-dtms-and-dsms","resource_url":"https://admin.opendatani.gov.uk/dataset/osni-open-data-river-basin-lidar-2009-dtms-and-dsms/resource/cbfe4db3-4d37-4e73-9dcf-b6d2a8023aab","download_url":null,"access_utc":"2026-10-02T12:50:01Z","publisher":"Land & Property Services – Ordnance Survey of Northern Ireland","dataset":"OSNI Open Data: River Basin LIDAR 2009 - DTMs and DSMs","resource_name":"Downpatrick_05_05_2009_Point_Cloud_DSM_J46_49","resource_id":"cbfe4db3-4d37-4e73-9dcf-b6d2a8023aab","format":"ZIP","crs":null,"crs_status":"ARCHIVE_TILE_CRS_NOT_EXPOSED_IN_RETRIEVED_OFFICIAL_WINDOW_DO_NOT_INFER","tile_size_m":[1000,1000],"native_resolution_m":1,"point_cloud_spacing_m":0.2,"licence":"UK Open Government Licence (OGL)","exact_tile_identifier":null,"canonical_parcel_id":null,"required_building_state":"BUILDING_PRESENT","binding_status":"LOCAL_OPENCODE_BUILDING_PRESENT_EXACT_TILE_BIND_REQUIRED","source_area_count_contribution":0,"accepted_count_contribution":0,"evidence_slice_sha256":"ea0d4f274d8fc0e4babcc1481ee439a6bc4b834b30d1dc08fc1a1e673652ddcf","confidence_score_0_100":99,"evidence_grade":"A_OFFICIAL_LIDAR_DTM_RESOURCE_INDEX_B_ARCHIVE_BYTES_EXACT_TILE_CRS_REQUIRED","fake_data":false}},{"type":"Feature","geometry":null,"properties":{"slot_id":"height_difference_5","owner":"height_difference_5","lineage_id":"height_difference_5-eb56f92ed3f0514c","page_generation":1,"schema":"AAYS_LAYER24_EVIDENCE_V1","partition":"layer24","batch_id":"20261002T125001Z_osni_river_basin_lidar_2009_resources","source_record_id":"OSNI_RIVER_BASIN_LIDAR_2009:850d8e5c-4112-4cf9-985a-748c7b3a4a23","source_url":"https://admin.opendatani.gov.uk/dataset/osni-open-data-river-basin-lidar-2009-dtms-and-dsms","resource_url":"https://admin.opendatani.gov.uk/dataset/osni-open-data-river-basin-lidar-2009-dtms-and-dsms/resource/850d8e5c-4112-4cf9-985a-748c7b3a4a23","download_url":null,"access_utc":"2026-10-02T12:50:01Z","publisher":"Land & Property Services – Ordnance Survey of Northern Ireland","dataset":"OSNI Open Data: River Basin LIDAR 2009 - DTMs and DSMs","resource_name":"Downpatrick_05_05_2009_Point_Cloud_DSM_J50_53","resource_id":"850d8e5c-4112-4cf9-985a-748c7b3a4a23","format":"ZIP","crs":null,"crs_status":"ARCHIVE_TILE_CRS_NOT_EXPOSED_IN_RETRIEVED_OFFICIAL_WINDOW_DO_NOT_INFER","tile_size_m":[1000,1000],"native_resolution_m":1,"point_cloud_spacing_m":0.2,"licence":"UK Open Government Licence (OGL)","exact_tile_identifier":null,"canonical_parcel_id":null,"required_building_state":"BUILDING_PRESENT","binding_status":"LOCAL_OPENCODE_BUILDING_PRESENT_EXACT_TILE_BIND_REQUIRED","source_area_count_contribution":0,"accepted_count_contribution":0,"evidence_slice_sha256":"ea0d4f274d8fc0e4babcc1481ee439a6bc4b834b30d1dc08fc1a1e673652ddcf","confidence_score_0_100":99,"evidence_grade":"A_OFFICIAL_LIDAR_DTM_RESOURCE_INDEX_B_ARCHIVE_BYTES_EXACT_TILE_CRS_REQUIRED","fake_data":false}},{"type":"Feature","geometry":null,"properties":{"slot_id":"height_difference_5","owner":"height_difference_5","lineage_id":"height_difference_5-eb56f92ed3f0514c","page_generation":1,"schema":"AAYS_LAYER24_EVIDENCE_V1","partition":"layer24","batch_id":"20261002T125001Z_osni_river_basin_lidar_2009_resources","source_record_id":"OSNI_RIVER_BASIN_LIDAR_2009:17fd43ba-3f90-45e3-8d89-229d9c2cd3f7","source_url":"https://admin.opendatani.gov.uk/dataset/osni-open-data-river-basin-lidar-2009-dtms-and-dsms","resource_url":"https://admin.opendatani.gov.uk/dataset/osni-open-data-river-basin-lidar-2009-dtms-and-dsms/resource/17fd43ba-3f90-45e3-8d89-229d9c2cd3f7","download_url":null,"access_utc":"2026-10-02T12:50:01Z","publisher":"Land & Property Services – Ordnance Survey of Northern Ireland","dataset":"OSNI Open Data: River Basin LIDAR 2009 - DTMs and DSMs","resource_name":"Downpatrick_05_05_2009_Point_Cloud_DTM","resource_id":"17fd43ba-3f90-45e3-8d89-229d9c2cd3f7","format":"ZIP","crs":null,"crs_status":"ARCHIVE_TILE_CRS_NOT_EXPOSED_IN_RETRIEVED_OFFICIAL_WINDOW_DO_NOT_INFER","tile_size_m":[1000,1000],"native_resolution_m":1,"point_cloud_spacing_m":0.2,"licence":"UK Open Government Licence (OGL)","exact_tile_identifier":null,"canonical_parcel_id":null,"required_building_state":"BUILDING_PRESENT","binding_status":"LOCAL_OPENCODE_BUILDING_PRESENT_EXACT_TILE_BIND_REQUIRED","source_area_count_contribution":0,"accepted_count_contribution":0,"evidence_slice_sha256":"ea0d4f274d8fc0e4babcc1481ee439a6bc4b834b30d1dc08fc1a1e673652ddcf","confidence_score_0_100":99,"evidence_grade":"A_OFFICIAL_LIDAR_DTM_RESOURCE_INDEX_B_ARCHIVE_BYTES_EXACT_TILE_CRS_REQUIRED","fake_data":false}},{"type":"Feature","geometry":null,"properties":{"slot_id":"height_difference_5","owner":"height_difference_5","lineage_id":"height_difference_5-eb56f92ed3f0514c","page_generation":1,"schema":"AAYS_LAYER24_EVIDENCE_V1","partition":"layer24","batch_id":"20261002T125001Z_osni_river_basin_lidar_2009_resources","source_record_id":"OSNI_RIVER_BASIN_LIDAR_2009:d10ce95b-37f2-439c-b1e2-48daf516dff5","source_url":"https://admin.opendatani.gov.uk/dataset/osni-open-data-river-basin-lidar-2009-dtms-and-dsms","resource_url":"https://admin.opendatani.gov.uk/dataset/osni-open-data-river-basin-lidar-2009-dtms-and-dsms/resource/d10ce95b-37f2-439c-b1e2-48daf516dff5","download_url":null,"access_utc":"2026-10-02T12:50:01Z","publisher":"Land & Property Services – Ordnance Survey of Northern Ireland","dataset":"OSNI Open Data: River Basin LIDAR 2009 - DTMs and DSMs","resource_name":"Londonderry_30_04_2009.zip","resource_id":"d10ce95b-37f2-439c-b1e2-48daf516dff5","format":"ZIP","crs":null,"crs_status":"ARCHIVE_TILE_CRS_NOT_EXPOSED_IN_RETRIEVED_OFFICIAL_WINDOW_DO_NOT_INFER","tile_size_m":[1000,1000],"native_resolution_m":1,"point_cloud_spacing_m":0.2,"licence":"UK Open Government Licence (OGL)","exact_tile_identifier":null,"canonical_parcel_id":null,"required_building_state":"BUILDING_PRESENT","binding_status":"LOCAL_OPENCODE_BUILDING_PRESENT_EXACT_TILE_BIND_REQUIRED","source_area_count_contribution":0,"accepted_count_contribution":0,"evidence_slice_sha256":"ea0d4f274d8fc0e4babcc1481ee439a6bc4b834b30d1dc08fc1a1e673652ddcf","confidence_score_0_100":99,"evidence_grade":"A_OFFICIAL_LIDAR_DTM_RESOURCE_INDEX_B_ARCHIVE_BYTES_EXACT_TILE_CRS_REQUIRED","fake_data":false}},{"type":"Feature","geometry":null,"properties":{"slot_id":"height_difference_5","owner":"height_difference_5","lineage_id":"height_difference_5-eb56f92ed3f0514c","page_generation":1,"schema":"AAYS_LAYER24_EVIDENCE_V1","partition":"layer24","batch_id":"20261002T125001Z_osni_river_basin_lidar_2009_resources","source_record_id":"OSNI_RIVER_BASIN_LIDAR_2009:66ff1661-f717-4c07-b21d-fc0d745c26cf","source_url":"https://admin.opendatani.gov.uk/dataset/osni-open-data-river-basin-lidar-2009-dtms-and-dsms","resource_url":"https://admin.opendatani.gov.uk/dataset/osni-open-data-river-basin-lidar-2009-dtms-and-dsms/resource/66ff1661-f717-4c07-b21d-fc0d745c26cf","download_url":null,"access_utc":"2026-10-02T12:50:01Z","publisher":"Land & Property Services – Ordnance Survey of Northern Ireland","dataset":"OSNI Open Data: River Basin LIDAR 2009 - DTMs and DSMs","resource_name":"Londonderry_30_04_2009_Point_Cloud_DSM_C34_C39","resource_id":"66ff1661-f717-4c07-b21d-fc0d745c26cf","format":"ZIP","crs":null,"crs_status":"ARCHIVE_TILE_CRS_NOT_EXPOSED_IN_RETRIEVED_OFFICIAL_WINDOW_DO_NOT_INFER","tile_size_m":[1000,1000],"native_resolution_m":1,"point_cloud_spacing_m":0.2,"licence":"UK Open Government Licence (OGL)","exact_tile_identifier":null,"canonical_parcel_id":null,"required_building_state":"BUILDING_PRESENT","binding_status":"LOCAL_OPENCODE_BUILDING_PRESENT_EXACT_TILE_BIND_REQUIRED","source_area_count_contribution":0,"accepted_count_contribution":0,"evidence_slice_sha256":"ea0d4f274d8fc0e4babcc1481ee439a6bc4b834b30d1dc08fc1a1e673652ddcf","confidence_score_0_100":99,"evidence_grade":"A_OFFICIAL_LIDAR_DTM_RESOURCE_INDEX_B_ARCHIVE_BYTES_EXACT_TILE_CRS_REQUIRED","fake_data":false}},{"type":"Feature","geometry":null,"properties":{"slot_id":"height_difference_5","owner":"height_difference_5","lineage_id":"height_difference_5-eb56f92ed3f0514c","page_generation":1,"schema":"AAYS_LAYER24_EVIDENCE_V1","partition":"layer24","batch_id":"20261002T125001Z_osni_river_basin_lidar_2009_resources","source_record_id":"OSNI_RIVER_BASIN_LIDAR_2009:155ca85c-d03a-4206-9884-67fd499c4d20","source_url":"https://admin.opendatani.gov.uk/dataset/osni-open-data-river-basin-lidar-2009-dtms-and-dsms","resource_url":"https://admin.opendatani.gov.uk/dataset/osni-open-data-river-basin-lidar-2009-dtms-and-dsms/resource/155ca85c-d03a-4206-9884-67fd499c4d20","download_url":null,"access_utc":"2026-10-02T12:50:01Z","publisher":"Land & Property Services – Ordnance Survey of Northern Ireland","dataset":"OSNI Open Data: River Basin LIDAR 2009 - DTMs and DSMs","resource_name":"Londonderry_30_04_2009_Point_Cloud_DSM_C40_C44","resource_id":"155ca85c-d03a-4206-9884-67fd499c4d20","format":"ZIP","crs":null,"crs_status":"ARCHIVE_TILE_CRS_NOT_EXPOSED_IN_RETRIEVED_OFFICIAL_WINDOW_DO_NOT_INFER","tile_size_m":[1000,1000],"native_resolution_m":1,"point_cloud_spacing_m":0.2,"licence":"UK Open Government Licence (OGL)","exact_tile_identifier":null,"canonical_parcel_id":null,"required_building_state":"BUILDING_PRESENT","binding_status":"LOCAL_OPENCODE_BUILDING_PRESENT_EXACT_TILE_BIND_REQUIRED","source_area_count_contribution":0,"accepted_count_contribution":0,"evidence_slice_sha256":"ea0d4f274d8fc0e4babcc1481ee439a6bc4b834b30d1dc08fc1a1e673652ddcf","confidence_score_0_100":99,"evidence_grade":"A_OFFICIAL_LIDAR_DTM_RESOURCE_INDEX_B_ARCHIVE_BYTES_EXACT_TILE_CRS_REQUIRED","fake_data":false}},{"type":"Feature","geometry":null,"properties":{"slot_id":"height_difference_5","owner":"height_difference_5","lineage_id":"height_difference_5-eb56f92ed3f0514c","page_generation":1,"schema":"AAYS_LAYER24_EVIDENCE_V1","partition":"layer24","batch_id":"20261002T125001Z_osni_river_basin_lidar_2009_resources","source_record_id":"OSNI_RIVER_BASIN_LIDAR_2009:1ee18519-fbb8-4414-a95d-296b7b96690c","source_url":"https://admin.opendatani.gov.uk/dataset/osni-open-data-river-basin-lidar-2009-dtms-and-dsms","resource_url":"https://admin.opendatani.gov.uk/dataset/osni-open-data-river-basin-lidar-2009-dtms-and-dsms/resource/1ee18519-fbb8-4414-a95d-296b7b96690c","download_url":null,"access_utc":"2026-10-02T12:50:01Z","publisher":"Land & Property Services – Ordnance Survey of Northern Ireland","dataset":"OSNI Open Data: River Basin LIDAR 2009 - DTMs and DSMs","resource_name":"Londonderry_30_04_2009_Point_Cloud_DSM_C45_C49","resource_id":"1ee18519-fbb8-4414-a95d-296b7b96690c","format":"ZIP","crs":null,"crs_status":"ARCHIVE_TILE_CRS_NOT_EXPOSED_IN_RETRIEVED_OFFICIAL_WINDOW_DO_NOT_INFER","tile_size_m":[1000,1000],"native_resolution_m":1,"point_cloud_spacing_m":0.2,"licence":"UK Open Government Licence (OGL)","exact_tile_identifier":null,"canonical_parcel_id":null,"required_building_state":"BUILDING_PRESENT","binding_status":"LOCAL_OPENCODE_BUILDING_PRESENT_EXACT_TILE_BIND_REQUIRED","source_area_count_contribution":0,"accepted_count_contribution":0,"evidence_slice_sha256":"ea0d4f274d8fc0e4babcc1481ee439a6bc4b834b30d1dc08fc1a1e673652ddcf","confidence_score_0_100":99,"evidence_grade":"A_OFFICIAL_LIDAR_DTM_RESOURCE_INDEX_B_ARCHIVE_BYTES_EXACT_TILE_CRS_REQUIRED","fake_data":false}},{"type":"Feature","geometry":null,"properties":{"slot_id":"height_difference_5","owner":"height_difference_5","lineage_id":"height_difference_5-eb56f92ed3f0514c","page_generation":1,"schema":"AAYS_LAYER24_EVIDENCE_V1","partition":"layer24","batch_id":"20261002T125001Z_osni_river_basin_lidar_2009_resources","source_record_id":"OSNI_RIVER_BASIN_LIDAR_2009:64e374ca-535d-43ec-bf06-1183a18685a0","source_url":"https://admin.opendatani.gov.uk/dataset/osni-open-data-river-basin-lidar-2009-dtms-and-dsms","resource_url":"https://admin.opendatani.gov.uk/dataset/osni-open-data-river-basin-lidar-2009-dtms-and-dsms/resource/64e374ca-535d-43ec-bf06-1183a18685a0","download_url":null,"access_utc":"2026-10-02T12:50:01Z","publisher":"Land & Property Services – Ordnance Survey of Northern Ireland","dataset":"OSNI Open Data: River Basin LIDAR 2009 - DTMs and DSMs","resource_name":"Londonderry_30_04_2009_Point_Cloud_DTM","resource_id":"64e374ca-535d-43ec-bf06-1183a18685a0","format":"ZIP","crs":null,"crs_status":"ARCHIVE_TILE_CRS_NOT_EXPOSED_IN_RETRIEVED_OFFICIAL_WINDOW_DO_NOT_INFER","tile_size_m":[1000,1000],"native_resolution_m":1,"point_cloud_spacing_m":0.2,"licence":"UK Open Government Licence (OGL)","exact_tile_identifier":null,"canonical_parcel_id":null,"required_building_state":"BUILDING_PRESENT","binding_status":"LOCAL_OPENCODE_BUILDING_PRESENT_EXACT_TILE_BIND_REQUIRED","source_area_count_contribution":0,"accepted_count_contribution":0,"evidence_slice_sha256":"ea0d4f274d8fc0e4babcc1481ee439a6bc4b834b30d1dc08fc1a1e673652ddcf","confidence_score_0_100":99,"evidence_grade":"A_OFFICIAL_LIDAR_DTM_RESOURCE_INDEX_B_ARCHIVE_BYTES_EXACT_TILE_CRS_REQUIRED","fake_data":false}},{"type":"Feature","geometry":null,"properties":{"slot_id":"height_difference_5","owner":"height_difference_5","lineage_id":"height_difference_5-eb56f92ed3f0514c","page_generation":1,"schema":"AAYS_LAYER24_EVIDENCE_V1","partition":"layer24","batch_id":"20261002T125001Z_osni_river_basin_lidar_2009_resources","source_record_id":"OSNI_RIVER_BASIN_LIDAR_2009:f6364c57-0b47-46ab-b2ee-dcd1af7cbcbb","source_url":"https://admin.opendatani.gov.uk/dataset/osni-open-data-river-basin-lidar-2009-dtms-and-dsms","resource_url":"https://admin.opendatani.gov.uk/dataset/osni-open-data-river-basin-lidar-2009-dtms-and-dsms/resource/f6364c57-0b47-46ab-b2ee-dcd1af7cbcbb","download_url":null,"access_utc":"2026-10-02T12:50:01Z","publisher":"Land & Property Services – Ordnance Survey of Northern Ireland","dataset":"OSNI Open Data: River Basin LIDAR 2009 - DTMs and DSMs","resource_name":"Maghera_20_04_2009","resource_id":"f6364c57-0b47-46ab-b2ee-dcd1af7cbcbb","format":"ZIP","crs":null,"crs_status":"ARCHIVE_TILE_CRS_NOT_EXPOSED_IN_RETRIEVED_OFFICIAL_WINDOW_DO_NOT_INFER","tile_size_m":[1000,1000],"native_resolution_m":1,"point_cloud_spacing_m":0.2,"licence":"UK Open Government Licence (OGL)","exact_tile_identifier":null,"canonical_parcel_id":null,"required_building_state":"BUILDING_PRESENT","binding_status":"LOCAL_OPENCODE_BUILDING_PRESENT_EXACT_TILE_BIND_REQUIRED","source_area_count_contribution":0,"accepted_count_contribution":0,"evidence_slice_sha256":"ea0d4f274d8fc0e4babcc1481ee439a6bc4b834b30d1dc08fc1a1e673652ddcf","confidence_score_0_100":99,"evidence_grade":"A_OFFICIAL_LIDAR_DTM_RESOURCE_INDEX_B_ARCHIVE_BYTES_EXACT_TILE_CRS_REQUIRED","fake_data":false}},{"type":"Feature","geometry":null,"properties":{"slot_id":"height_difference_5","owner":"height_difference_5","lineage_id":"height_difference_5-eb56f92ed3f0514c","page_generation":1,"schema":"AAYS_LAYER24_EVIDENCE_V1","partition":"layer24","batch_id":"20261002T125001Z_osni_river_basin_lidar_2009_resources","source_record_id":"OSNI_RIVER_BASIN_LIDAR_2009:61cb1745-3108-4bda-8cb9-bec2293f9b28","source_url":"https://admin.opendatani.gov.uk/dataset/osni-open-data-river-basin-lidar-2009-dtms-and-dsms","resource_url":"https://admin.opendatani.gov.uk/dataset/osni-open-data-river-basin-lidar-2009-dtms-and-dsms/resource/61cb1745-3108-4bda-8cb9-bec2293f9b28","download_url":null,"access_utc":"2026-10-02T12:50:01Z","publisher":"Land & Property Services – Ordnance Survey of Northern Ireland","dataset":"OSNI Open Data: River Basin LIDAR 2009 - DTMs and DSMs","resource_name":"Maghera_20_04_2009_Point_Clouds","resource_id":"61cb1745-3108-4bda-8cb9-bec2293f9b28","format":"ZIP","crs":null,"crs_status":"ARCHIVE_TILE_CRS_NOT_EXPOSED_IN_RETRIEVED_OFFICIAL_WINDOW_DO_NOT_INFER","tile_size_m":[1000,1000],"native_resolution_m":1,"point_cloud_spacing_m":0.2,"licence":"UK Open Government Licence (OGL)","exact_tile_identifier":null,"canonical_parcel_id":null,"required_building_state":"BUILDING_PRESENT","binding_status":"LOCAL_OPENCODE_BUILDING_PRESENT_EXACT_TILE_BIND_REQUIRED","source_area_count_contribution":0,"accepted_count_contribution":0,"evidence_slice_sha256":"ea0d4f274d8fc0e4babcc1481ee439a6bc4b834b30d1dc08fc1a1e673652ddcf","confidence_score_0_100":99,"evidence_grade":"A_OFFICIAL_LIDAR_DTM_RESOURCE_INDEX_B_ARCHIVE_BYTES_EXACT_TILE_CRS_REQUIRED","fake_data":false}},{"type":"Feature","geometry":null,"properties":{"slot_id":"height_difference_5","owner":"height_difference_5","lineage_id":"height_difference_5-eb56f92ed3f0514c","page_generation":1,"schema":"AAYS_LAYER24_EVIDENCE_V1","partition":"layer24","batch_id":"20261002T125001Z_osni_river_basin_lidar_2009_resources","source_record_id":"OSNI_RIVER_BASIN_LIDAR_2009:e8f39ae2-da9a-44f1-8681-cecfbdfdd894","source_url":"https://admin.opendatani.gov.uk/dataset/osni-open-data-river-basin-lidar-2009-dtms-and-dsms","resource_url":"https://admin.opendatani.gov.uk/dataset/osni-open-data-river-basin-lidar-2009-dtms-and-dsms/resource/e8f39ae2-da9a-44f1-8681-cecfbdfdd894","download_url":null,"access_utc":"2026-10-02T12:50:01Z","publisher":"Land & Property Services – Ordnance Survey of Northern Ireland","dataset":"OSNI Open Data: River Basin LIDAR 2009 - DTMs and DSMs","resource_name":"Portadown_27_04_2009_Point_Cloud","resource_id":"e8f39ae2-da9a-44f1-8681-cecfbdfdd894","format":"ZIP","crs":null,"crs_status":"ARCHIVE_TILE_CRS_NOT_EXPOSED_IN_RETRIEVED_OFFICIAL_WINDOW_DO_NOT_INFER","tile_size_m":[1000,1000],"native_resolution_m":1,"point_cloud_spacing_m":0.2,"licence":"UK Open Government Licence (OGL)","exact_tile_identifier":null,"canonical_parcel_id":null,"required_building_state":"BUILDING_PRESENT","binding_status":"LOCAL_OPENCODE_BUILDING_PRESENT_EXACT_TILE_BIND_REQUIRED","source_area_count_contribution":0,"accepted_count_contribution":0,"evidence_slice_sha256":"ea0d4f274d8fc0e4babcc1481ee439a6bc4b834b30d1dc08fc1a1e673652ddcf","confidence_score_0_100":99,"evidence_grade":"A_OFFICIAL_LIDAR_DTM_RESOURCE_INDEX_B_ARCHIVE_BYTES_EXACT_TILE_CRS_REQUIRED","fake_data":false}},{"type":"Feature","geometry":null,"properties":{"slot_id":"height_difference_5","owner":"height_difference_5","lineage_id":"height_difference_5-eb56f92ed3f0514c","page_generation":1,"schema":"AAYS_LAYER24_EVIDENCE_V1","partition":"layer24","batch_id":"20261002T125001Z_osni_river_basin_lidar_2009_resources","source_record_id":"OSNI_RIVER_BASIN_LIDAR_2009:4ca85c2c-277d-4991-8c22-36be93767181","source_url":"https://admin.opendatani.gov.uk/dataset/osni-open-data-river-basin-lidar-2009-dtms-and-dsms","resource_url":"https://admin.opendatani.gov.uk/dataset/osni-open-data-river-basin-lidar-2009-dtms-and-dsms/resource/4ca85c2c-277d-4991-8c22-36be93767181","download_url":null,"access_utc":"2026-10-02T12:50:01Z","publisher":"Land & Property Services – Ordnance Survey of Northern Ireland","dataset":"OSNI Open Data: River Basin LIDAR 2009 - DTMs and DSMs","resource_name":"Portadown_27_04_2009_DSM_1M","resource_id":"4ca85c2c-277d-4991-8c22-36be93767181","format":"ZIP","crs":null,"crs_status":"ARCHIVE_TILE_CRS_NOT_EXPOSED_IN_RETRIEVED_OFFICIAL_WINDOW_DO_NOT_INFER","tile_size_m":[1000,1000],"native_resolution_m":1,"point_cloud_spacing_m":0.2,"licence":"UK Open Government Licence (OGL)","exact_tile_identifier":null,"canonical_parcel_id":null,"required_building_state":"BUILDING_PRESENT","binding_status":"LOCAL_OPENCODE_BUILDING_PRESENT_EXACT_TILE_BIND_REQUIRED","source_area_count_contribution":0,"accepted_count_contribution":0,"evidence_slice_sha256":"ea0d4f274d8fc0e4babcc1481ee439a6bc4b834b30d1dc08fc1a1e673652ddcf","confidence_score_0_100":99,"evidence_grade":"A_OFFICIAL_LIDAR_DTM_RESOURCE_INDEX_B_ARCHIVE_BYTES_EXACT_TILE_CRS_REQUIRED","fake_data":false}},{"type":"Feature","geometry":null,"properties":{"slot_id":"height_difference_5","owner":"height_difference_5","lineage_id":"height_difference_5-eb56f92ed3f0514c","page_generation":1,"schema":"AAYS_LAYER24_EVIDENCE_V1","partition":"layer24","batch_id":"20261002T125001Z_osni_river_basin_lidar_2009_resources","source_record_id":"OSNI_RIVER_BASIN_LIDAR_2009:85f9f4f6-5eb0-486a-80f4-be1c6b8e294a","source_url":"https://admin.opendatani.gov.uk/dataset/osni-open-data-river-basin-lidar-2009-dtms-and-dsms","resource_url":"https://admin.opendatani.gov.uk/dataset/osni-open-data-river-basin-lidar-2009-dtms-and-dsms/resource/85f9f4f6-5eb0-486a-80f4-be1c6b8e294a","download_url":"https://admin.opendatani.gov.uk/dataset/d179414f-be86-4a8a-9911-708d960fe55b/resource/85f9f4f6-5eb0-486a-80f4-be1c6b8e294a/download/portadown_27_04_2009_dtm_1m.zip","access_utc":"2026-10-02T12:50:01Z","publisher":"Land & Property Services – Ordnance Survey of Northern Ireland","dataset":"OSNI Open Data: River Basin LIDAR 2009 - DTMs and DSMs","resource_name":"Portadown_27_04_2009_DTM_1M","resource_id":"85f9f4f6-5eb0-486a-80f4-be1c6b8e294a","format":"ZIP","crs":null,"crs_status":"ARCHIVE_TILE_CRS_NOT_EXPOSED_IN_RETRIEVED_OFFICIAL_WINDOW_DO_NOT_INFER","tile_size_m":[1000,1000],"native_resolution_m":1,"point_cloud_spacing_m":0.2,"licence":"UK Open Government Licence (OGL)","exact_tile_identifier":null,"canonical_parcel_id":null,"required_building_state":"BUILDING_PRESENT","binding_status":"LOCAL_OPENCODE_BUILDING_PRESENT_EXACT_TILE_BIND_REQUIRED","source_area_count_contribution":0,"accepted_count_contribution":0,"evidence_slice_sha256":"ea0d4f274d8fc0e4babcc1481ee439a6bc4b834b30d1dc08fc1a1e673652ddcf","confidence_score_0_100":99,"evidence_grade":"A_OFFICIAL_LIDAR_DTM_RESOURCE_INDEX_B_ARCHIVE_BYTES_EXACT_TILE_CRS_REQUIRED","fake_data":false}}]}
