{"type":"FeatureCollection","features":[{"type":"Feature","geometry":null,"properties":{"schema":"AAYS_LAYER24_EVIDENCE_V1","slot_id":"security_public_safety_4","lineage_id":"L24-SPS4-57de1ed0eaf0f860383f","page_generation":13,"criterion":"Security/Public Safety","record_role":"OFFICIAL_WARD_CRIME_CURRENT_SERIES_ROW","source_record_index":1,"group":"ARSON AND CRIMINAL DAMAGE","subgroup":"CRIMINAL DAMAGE","ward_name":"Abbey (KG)","ward_code":"E05014053","borough":"Barking and Dagenham","series_start":"202406","series_end":"202605","monthly_values":{"202406":6,"202407":4,"202408":4,"202409":4,"202410":6,"202411":5,"202412":3,"202501":7,"202502":2,"202503":5,"202504":5,"202505":4,"202506":3,"202507":8,"202508":11,"202509":8,"202510":3,"202511":4,"202512":7,"202601":4,"202602":7,"202603":4,"202604":2,"202605":6},"source_url":"https://www.data.gov.uk/dataset/c4ef659c-ae35-44fe-b058-a6db8e358413/mps-recorded-crime-geographic-breakdown1/datafile/e7894ce6-5edd-41fb-9140-8eae863d62f7/preview","access_utc":"2026-10-01T11:30:00Z","license":"Open Government Licence v3.0","field_evidence":"National Data Library preview row 1 for current MPS Ward Level Crime.csv","evidence_slice_sha256":"72c62201d6a672a45b10ae317738e0d9f4d4bb4802afa5561c533d1f6b9aac4f","confidence_score_0_100":99,"evidence_grade":"A","join_state":"UNPROCESSED_LOCAL_JOIN","fake_data":false}},{"type":"Feature","geometry":null,"properties":{"schema":"AAYS_LAYER24_EVIDENCE_V1","slot_id":"security_public_safety_4","lineage_id":"L24-SPS4-57de1ed0eaf0f860383f","page_generation":13,"criterion":"Security/Public Safety","record_role":"OFFICIAL_WARD_CRIME_CURRENT_SERIES_ROW","source_record_index":2,"group":"ARSON AND CRIMINAL DAMAGE","subgroup":"CRIMINAL DAMAGE","ward_name":"Eastbury","ward_code":"E05014060","borough":"Barking and Dagenham","series_start":"202406","series_end":"202605","monthly_values":{"202406":6,"202407":5,"202408":8,"202409":4,"202410":6,"202411":7,"202412":8,"202501":3,"202502":6,"202503":4,"202504":4,"202505":8,"202506":4,"202507":10,"202508":11,"202509":3,"202510":1,"202511":4,"202512":4,"202601":3,"202602":7,"202603":9,"202604":8,"202605":5},"source_url":"https://www.data.gov.uk/dataset/c4ef659c-ae35-44fe-b058-a6db8e358413/mps-recorded-crime-geographic-breakdown1/datafile/e7894ce6-5edd-41fb-9140-8eae863d62f7/preview","access_utc":"2026-10-01T11:30:00Z","license":"Open Government Licence v3.0","field_evidence":"National Data Library preview row 2 for current MPS Ward Level Crime.csv","evidence_slice_sha256":"72c62201d6a672a45b10ae317738e0d9f4d4bb4802afa5561c533d1f6b9aac4f","confidence_score_0_100":99,"evidence_grade":"A","join_state":"UNPROCESSED_LOCAL_JOIN","fake_data":false}},{"type":"Feature","geometry":null,"properties":{"schema":"AAYS_LAYER24_EVIDENCE_V1","slot_id":"security_public_safety_4","lineage_id":"L24-SPS4-57de1ed0eaf0f860383f","page_generation":13,"criterion":"Security/Public Safety","record_role":"OFFICIAL_WARD_CRIME_CURRENT_SERIES_ROW","source_record_index":3,"group":"ARSON AND CRIMINAL DAMAGE","subgroup":"ARSON","ward_name":"Eastbrook & Rush Green","ward_code":"E05014059","borough":"Barking and Dagenham","series_start":"202406","series_end":"202605","monthly_values":{"202406":0,"202407":0,"202408":0,"202409":0,"202410":0,"202411":0,"202412":0,"202501":0,"202502":0,"202503":0,"202504":2,"202505":1,"202506":1,"202507":2,"202508":1,"202509":1,"202510":0,"202511":0,"202512":1,"202601":0,"202602":0,"202603":0,"202604":0,"202605":1},"source_url":"https://www.data.gov.uk/dataset/c4ef659c-ae35-44fe-b058-a6db8e358413/mps-recorded-crime-geographic-breakdown1/datafile/e7894ce6-5edd-41fb-9140-8eae863d62f7/preview","access_utc":"2026-10-01T11:30:00Z","license":"Open Government Licence v3.0","field_evidence":"National Data Library preview row 3 for current MPS Ward Level Crime.csv","evidence_slice_sha256":"72c62201d6a672a45b10ae317738e0d9f4d4bb4802afa5561c533d1f6b9aac4f","confidence_score_0_100":99,"evidence_grade":"A","join_state":"UNPROCESSED_LOCAL_JOIN","fake_data":false}},{"type":"Feature","geometry":null,"properties":{"schema":"AAYS_LAYER24_EVIDENCE_V1","slot_id":"security_public_safety_4","lineage_id":"L24-SPS4-57de1ed0eaf0f860383f","page_generation":13,"criterion":"Security/Public Safety","record_role":"OFFICIAL_WARD_CRIME_CURRENT_SERIES_ROW","source_record_index":4,"group":"ARSON AND CRIMINAL DAMAGE","subgroup":"CRIMINAL DAMAGE","ward_name":"Longbridge","ward_code":"E05014064","borough":"Barking and Dagenham","series_start":"202406","series_end":"202605","monthly_values":{"202406":4,"202407":6,"202408":2,"202409":1,"202410":2,"202411":4,"202412":0,"202501":3,"202502":0,"202503":2,"202504":5,"202505":3,"202506":5,"202507":7,"202508":3,"202509":4,"202510":6,"202511":7,"202512":4,"202601":1,"202602":3,"202603":3,"202604":3,"202605":4},"source_url":"https://www.data.gov.uk/dataset/c4ef659c-ae35-44fe-b058-a6db8e358413/mps-recorded-crime-geographic-breakdown1/datafile/e7894ce6-5edd-41fb-9140-8eae863d62f7/preview","access_utc":"2026-10-01T11:30:00Z","license":"Open Government Licence v3.0","field_evidence":"National Data Library preview row 4 for current MPS Ward Level Crime.csv","evidence_slice_sha256":"72c62201d6a672a45b10ae317738e0d9f4d4bb4802afa5561c533d1f6b9aac4f","confidence_score_0_100":99,"evidence_grade":"A","join_state":"UNPROCESSED_LOCAL_JOIN","fake_data":false}}]}
