{"type":"FeatureCollection","name":"height_difference_2","features":[],"metadata":{"slot_id":"height_difference_2","lineage_id":"height_difference_2_20260930T001051Z","page_generation":1,"partition":"source_area","schema":"AAYS_LAYER24_EVIDENCE_V1","fake_data":false,"owner":"cagdas aydin","batch_id":"batch_0093_post_batch0092_changed_producer_start_criterion_blocker_20261006T113000+0300","cursor":"BLOCKED_POST_BATCH_0092_CHANGED_PRODUCER_NO_HD2_CANONICAL_OR_TILE_BINDING","source_area_count":0,"accepted_count":0,"unmatched_count":1,"reason":"EXACT_BLOCKER: after repeated zero-acceptance rounds, the method was materially changed from exact singleton source-window harvesting to a post-batch_0092 changed-producer start-criterion audit. Immutable batch_0092 commit 1c1abe4cea2698a6440cc6b0bf28b6780cbc8d87 was reconstructed and its required artifact/sidecar set was verified before the delta review. From batch_0092 through scan head 28bdf01f0ffdb50141c7cc7a16a312b162a39589, no new height_difference_2 slot-bound canonical parcel/materialization or exact DEM/LIDAR tile binding was added. The new Planning Data Chillenden Windmill producer candidate (entity 42119124, linked building entity 31569063) is BUILDING_PRESENT with authoritative MultiPolygon geometry and OGL v3.0 evidence, but exposes no canonical_parcel_id and no exact DEM/LIDAR tile selector. Using it would require the local OpenCode canonical parcel spatial join/materialization reserved by contract. Therefore the family start criterion remains unsatisfied and no external DEM/LIDAR source window was opened. Local OpenCode must publish a non-null slot-bound canonical_parcel_id with BUILDING_PRESENT and parcel geometry/bbox or an exact official DEM/LIDAR tile selector."}}
