{"type":"FeatureCollection","name":"future_growth_6","features":[{"type":"Feature","id":"development-policy-area:local-authority-eng:BUC:LPHW:2021-01-08","geometry":{"type":"MultiPolygon","coordinates":[[[[-0.722767,51.6187],[-0.722456,51.618983],[-0.722353,51.619012],[-0.721958,51.618586],[-0.722012,51.618567],[-0.721608,51.618113],[-0.72216,51.617921],[-0.72241,51.618194],[-0.722493,51.618202],[-0.722575,51.61829],[-0.722639,51.61832],[-0.72285,51.618321],[-0.72299,51.618381],[-0.722902,51.618461],[-0.722938,51.618545],[-0.722767,51.6187]]]]},"properties":{"semantic_identity":"development-policy-area:local-authority-eng:BUC:LPHW:2021-01-08","source_area_id":"LPHW","source_area_type":"adopted_local_plan_local_employment_area_policy_coverage","name":"High Wycombe Business Park","allocated_use":"Local employment policy designation (DM28; Appendix G), existing employment coverage","policy":"DM28; Appendix G","organisation":"local-authority-eng:BUC","source_url":"https://github.com/digital-land/development-policy-area/blob/111f7b992aa0c7efe39611b4003607141631a4f2/docs/local-authority-eng/BUC/LPHW/geometry.geojson","source_final_url":"https://raw.githubusercontent.com/digital-land/development-policy-area/111f7b992aa0c7efe39611b4003607141631a4f2/docs/local-authority-eng/BUC/LPHW/geometry.geojson","http_status":200,"source_data_date":"2021-01-08","plan_adopted_date":"2019-08","source_version":"111f7b992aa0c7efe39611b4003607141631a4f2:git-blob:552c2a528aecf1d9abcfb6ba9924c4540c79cd3e","licence":"Open Government Licence v3.0 (Digital Land; source-specific rights apply)","source_sha256":"974c501ad3ee5e661dca7ec882b8a2a1a465024603e85e33dd0141105d4ad4b7","evidence_slice_sha256":"c873cd9747955a67535a44fb6f2f56d8d93b2aada62b3af0313e8be4da842f0e","field_evidence":{"geometry":"docs/local-authority-eng/BUC/LPHW/geometry.geojson:geometry","official_identifier":"docs/local-authority-eng/BUC/LPHW/geometry.geojson:properties.geography","name":"docs/local-authority-eng/BUC/LPHW/geometry.geojson:properties.name","date":"docs/local-authority-eng/BUC/LPHW/geometry.geojson:properties.entry-date","allocated_use":"https://buckinghamshire-gov-uk.s3.amazonaws.com/documents/Wycombe-District-Local-Plan-Adopted-August-2019-accessible.pdf#Appendix_G"},"confidence":0.97,"evidence_grade":"A_OFFICIAL_GIS_AND_ADOPTED_LOCAL_EMPLOYMENT_PLAN","fake_data":false}},{"type":"Feature","id":"development-policy-area:local-authority-eng:BUC:LPBAK:2021-01-08","geometry":{"type":"MultiPolygon","coordinates":[[[[-0.76146,51.633397],[-0.761129,51.633425],[-0.760743,51.633369],[-0.760915,51.633029],[-0.76092,51.63293],[-0.761091,51.632618],[-0.761075,51.632584],[-0.760801,51.632529],[-0.761069,51.632037],[-0.761116,51.631915],[-0.761101,51.631889],[-0.761284,51.631897],[-0.762196,51.632102],[-0.76146,51.633397]]]]},"properties":{"semantic_identity":"development-policy-area:local-authority-eng:BUC:LPBAK:2021-01-08","source_area_id":"LPBAK","source_area_type":"adopted_local_plan_local_employment_area_policy_coverage","name":"Baker Street","allocated_use":"Local employment policy designation (DM28; Appendix G), existing employment coverage","policy":"DM28; Appendix G","organisation":"local-authority-eng:BUC","source_url":"https://github.com/digital-land/development-policy-area/blob/111f7b992aa0c7efe39611b4003607141631a4f2/docs/local-authority-eng/BUC/LPBAK/geometry.geojson","source_final_url":"https://raw.githubusercontent.com/digital-land/development-policy-area/111f7b992aa0c7efe39611b4003607141631a4f2/docs/local-authority-eng/BUC/LPBAK/geometry.geojson","http_status":200,"source_data_date":"2021-01-08","plan_adopted_date":"2019-08","source_version":"111f7b992aa0c7efe39611b4003607141631a4f2:git-blob:f9c0a027df594c9b8c53c3471e63639aa02c0ca5","licence":"Open Government Licence v3.0 (Digital Land; source-specific rights apply)","source_sha256":"4edf4157e8f3d099cae887780b4332e7ec1bc4c915c55700dee06705c8939a6c","evidence_slice_sha256":"c873cd9747955a67535a44fb6f2f56d8d93b2aada62b3af0313e8be4da842f0e","field_evidence":{"geometry":"docs/local-authority-eng/BUC/LPBAK/geometry.geojson:geometry","official_identifier":"docs/local-authority-eng/BUC/LPBAK/geometry.geojson:properties.geography","name":"docs/local-authority-eng/BUC/LPBAK/geometry.geojson:properties.name","date":"docs/local-authority-eng/BUC/LPBAK/geometry.geojson:properties.entry-date","allocated_use":"https://buckinghamshire-gov-uk.s3.amazonaws.com/documents/Wycombe-District-Local-Plan-Adopted-August-2019-accessible.pdf#Appendix_G"},"confidence":0.97,"evidence_grade":"A_OFFICIAL_GIS_AND_ADOPTED_LOCAL_EMPLOYMENT_PLAN","fake_data":false}},{"type":"Feature","id":"development-policy-area:local-authority-eng:BUC:LPKCH:2021-01-08","geometry":{"type":"MultiPolygon","coordinates":[[[[-0.766965,51.631416],[-0.76625,51.632129],[-0.765398,51.631822],[-0.765826,51.631401],[-0.765672,51.631342],[-0.765996,51.631031],[-0.766965,51.631416]]]]},"properties":{"semantic_identity":"development-policy-area:local-authority-eng:BUC:LPKCH:2021-01-08","source_area_id":"LPKCH","source_area_type":"adopted_local_plan_local_employment_area_policy_coverage","name":"Kitchener Road","allocated_use":"Local employment policy designation (DM28; Appendix G), existing employment coverage","policy":"DM28; Appendix G","organisation":"local-authority-eng:BUC","source_url":"https://github.com/digital-land/development-policy-area/blob/111f7b992aa0c7efe39611b4003607141631a4f2/docs/local-authority-eng/BUC/LPKCH/geometry.geojson","source_final_url":"https://raw.githubusercontent.com/digital-land/development-policy-area/111f7b992aa0c7efe39611b4003607141631a4f2/docs/local-authority-eng/BUC/LPKCH/geometry.geojson","http_status":200,"source_data_date":"2021-01-08","plan_adopted_date":"2019-08","source_version":"111f7b992aa0c7efe39611b4003607141631a4f2:git-blob:b6a6097a0693ffe3c6f4cf53a41f6ff2aa4208d4","licence":"Open Government Licence v3.0 (Digital Land; source-specific rights apply)","source_sha256":"0cda3125aa1e000969b15b03d126ff642779d40668fa9ec9039e16edc2909aab","evidence_slice_sha256":"c873cd9747955a67535a44fb6f2f56d8d93b2aada62b3af0313e8be4da842f0e","field_evidence":{"geometry":"docs/local-authority-eng/BUC/LPKCH/geometry.geojson:geometry","official_identifier":"docs/local-authority-eng/BUC/LPKCH/geometry.geojson:properties.geography","name":"docs/local-authority-eng/BUC/LPKCH/geometry.geojson:properties.name","date":"docs/local-authority-eng/BUC/LPKCH/geometry.geojson:properties.entry-date","allocated_use":"https://buckinghamshire-gov-uk.s3.amazonaws.com/documents/Wycombe-District-Local-Plan-Adopted-August-2019-accessible.pdf#Appendix_G"},"confidence":0.97,"evidence_grade":"A_OFFICIAL_GIS_AND_ADOPTED_LOCAL_EMPLOYMENT_PLAN","fake_data":false}},{"type":"Feature","id":"development-policy-area:local-authority-eng:BUC:LPBEL:2021-01-08","geometry":{"type":"MultiPolygon","coordinates":[[[[-0.754505,51.635912],[-0.754824,51.635435],[-0.754922,51.635456],[-0.754853,51.635558],[-0.755224,51.635642],[-0.755138,51.636049],[-0.755195,51.636237],[-0.755243,51.636595],[-0.755619,51.637263],[-0.755905,51.637854],[-0.755903,51.638128],[-0.755513,51.638344],[-0.755224,51.638338],[-0.755055,51.638948],[-0.754615,51.639036],[-0.754223,51.639063],[-0.754311,51.637496],[-0.754389,51.636621],[-0.754505,51.635912]]]]},"properties":{"semantic_identity":"development-policy-area:local-authority-eng:BUC:LPBEL:2021-01-08","source_area_id":"LPBEL","source_area_type":"adopted_local_plan_local_employment_area_policy_coverage","name":"Bellfield Road","allocated_use":"Local employment policy designation (DM28; Appendix G), existing employment coverage","policy":"DM28; Appendix G","organisation":"local-authority-eng:BUC","source_url":"https://github.com/digital-land/development-policy-area/blob/111f7b992aa0c7efe39611b4003607141631a4f2/docs/local-authority-eng/BUC/LPBEL/geometry.geojson","source_final_url":"https://raw.githubusercontent.com/digital-land/development-policy-area/111f7b992aa0c7efe39611b4003607141631a4f2/docs/local-authority-eng/BUC/LPBEL/geometry.geojson","http_status":200,"source_data_date":"2021-01-08","plan_adopted_date":"2019-08","source_version":"111f7b992aa0c7efe39611b4003607141631a4f2:git-blob:ebde3219372517455ed4e39a9ce3883c82220515","licence":"Open Government Licence v3.0 (Digital Land; source-specific rights apply)","source_sha256":"3e569148b97de0d1e14d4b300b3bddfef6bb73b63ee5be76b83519fa0e1eff58","evidence_slice_sha256":"c873cd9747955a67535a44fb6f2f56d8d93b2aada62b3af0313e8be4da842f0e","field_evidence":{"geometry":"docs/local-authority-eng/BUC/LPBEL/geometry.geojson:geometry","official_identifier":"docs/local-authority-eng/BUC/LPBEL/geometry.geojson:properties.geography","name":"docs/local-authority-eng/BUC/LPBEL/geometry.geojson:properties.name","date":"docs/local-authority-eng/BUC/LPBEL/geometry.geojson:properties.entry-date","allocated_use":"https://buckinghamshire-gov-uk.s3.amazonaws.com/documents/Wycombe-District-Local-Plan-Adopted-August-2019-accessible.pdf#Appendix_G"},"confidence":0.97,"evidence_grade":"A_OFFICIAL_GIS_AND_ADOPTED_LOCAL_EMPLOYMENT_PLAN","fake_data":false}},{"type":"Feature","id":"development-policy-area:local-authority-eng:BUC:LPSTA:2021-01-08","geometry":{"type":"MultiPolygon","coordinates":[[[[-0.700407,51.608628],[-0.70034,51.608665],[-0.700388,51.608726],[-0.699863,51.608888],[-0.700403,51.609568],[-0.70025,51.609641],[-0.699943,51.609604],[-0.699837,51.609505],[-0.699668,51.609455],[-0.699628,51.609321],[-0.699429,51.60919],[-0.699334,51.609064],[-0.698896,51.6092],[-0.698816,51.60905],[-0.69882,51.608983],[-0.698894,51.608881],[-0.6994,51.608391],[-0.699756,51.608157],[-0.699768,51.608071],[-0.699697,51.608065],[-0.699928,51.607846],[-0.700069,51.607832],[-0.700253,51.60791],[-0.700756,51.608374],[-0.700726,51.608444],[-0.700407,51.608628]]]]},"properties":{"semantic_identity":"development-policy-area:local-authority-eng:BUC:LPSTA:2021-01-08","source_area_id":"LPSTA","source_area_type":"adopted_local_plan_local_employment_area_policy_coverage","name":"Station Road Loudwater","allocated_use":"Local employment policy designation (DM28; Appendix G), existing employment coverage","policy":"DM28; Appendix G","organisation":"local-authority-eng:BUC","source_url":"https://github.com/digital-land/development-policy-area/blob/111f7b992aa0c7efe39611b4003607141631a4f2/docs/local-authority-eng/BUC/LPSTA/geometry.geojson","source_final_url":"https://raw.githubusercontent.com/digital-land/development-policy-area/111f7b992aa0c7efe39611b4003607141631a4f2/docs/local-authority-eng/BUC/LPSTA/geometry.geojson","http_status":200,"source_data_date":"2021-01-08","plan_adopted_date":"2019-08","source_version":"111f7b992aa0c7efe39611b4003607141631a4f2:git-blob:7a750b3455743020f8c2c48d22bce6dd6bb85c36","licence":"Open Government Licence v3.0 (Digital Land; source-specific rights apply)","source_sha256":"6fd20eba4c61a667cd79596dea7b8efccaeeaf01410b6d88aaa071693cfb0c7c","evidence_slice_sha256":"c873cd9747955a67535a44fb6f2f56d8d93b2aada62b3af0313e8be4da842f0e","field_evidence":{"geometry":"docs/local-authority-eng/BUC/LPSTA/geometry.geojson:geometry","official_identifier":"docs/local-authority-eng/BUC/LPSTA/geometry.geojson:properties.geography","name":"docs/local-authority-eng/BUC/LPSTA/geometry.geojson:properties.name","date":"docs/local-authority-eng/BUC/LPSTA/geometry.geojson:properties.entry-date","allocated_use":"https://buckinghamshire-gov-uk.s3.amazonaws.com/documents/Wycombe-District-Local-Plan-Adopted-August-2019-accessible.pdf#Appendix_G"},"confidence":0.97,"evidence_grade":"A_OFFICIAL_GIS_AND_ADOPTED_LOCAL_EMPLOYMENT_PLAN","fake_data":false}}],"properties":{"state":"SOURCE_AREAS_PRODUCED_LOCAL_BINDING_PENDING","source_area_count":121,"source_area_count_delta":5,"accepted_count":0,"duplicate_count":0,"rejected_count":0,"unmatched_count":13,"materialized_parcel_count":0,"direct_parcel_count":0,"verified_no_building_count":0,"unprocessed_count":13,"planned_building_count":0,"producer_before_count":116,"producer_delta":5,"producer_after_count":121,"cursor":"OFFICIAL_BUC_LOCAL_EMPLOYMENT:LPHW_LPBAK_LPKCH_LPBEL_LPSTA:edade9a566835de9","first_missing_criterion":"LOCAL_CANONICAL_PARCEL_IDENTIFIER_BINDING_MATERIALIZATION","fake_data":false}}
