{"type":"FeatureCollection","features":[{"type":"Feature","id":"rochdale-brownfield-register-pennines:SH 0569","geometry":null,"properties":{"slot_id":"future_growth_4","lineage_id":"fg4-e4c9076d6f554f00","page_generation":1,"owner":"future_growth_4","partition":"future_growth","semantic_mode":"SOURCE_AREA_EXACT_IDENTIFIER","dataset":"rochdale-brownfield-register-pennines","entity":"SH 0569","reference":"SH 0569","quality":"authoritative","organisation":"Rochdale Borough Council","name":"Land off Durn Street, Durn, Littleborough","site_address":"Land off Durn Street, Durn, Littleborough","source_url":"https://www.rochdale.gov.uk/planning-permission/brownfield-register/7","final_url":"https://www.rochdale.gov.uk/planning-permission/brownfield-register/7","access_utc":"2026-10-07T10:36:00Z","data_date":"","license":"not stated on source page","field_evidence":{"reference":"SH 0569","site_name_address":"Land off Durn Street, Durn, Littleborough","register_area":"Pennines","register_scope":"Firgrove, Littleborough, Milnrow, Newhey, Smallbridge and Wardle"},"evidence_slice_sha256":"f1c73f0a7c0fa8326486155b2ed72df51072bbd5fede32a3657dbcdd604e27f6","confidence_score_0_100":99,"confidence":0.99,"evidence_grade":"A","exact_identifier_provided":true,"coverage_polygon_provided":false,"fake_data":false,"join_mode":"LOCAL_OPENCODE_SPATIAL_JOIN_PENDING","direct_parcel":false,"source_area_count_contribution":1,"planned_building_count_contribution":0}}]}