{"type":"FeatureCollection","features":[{"type":"Feature","geometry":null,"properties":{"slot_id":"future_growth_1","lineage_id":"future_growth_1-newstart-20260927T153100+0300","page_generation":null,"accepted_as_parcel":false,"source_area_count_contribution":1,"exact_identifier":"Goole","exact_identifier_provided":true,"coverage_polygon_provided":false,"identifier_namespace":"HM Revenue & Customs Humber Freeport tax site","site_name":"Goole Freeport tax site","access_utc":"2026-10-03T20:06:00Z","data_date":"2024-02-13","source_url":"https://www.gov.uk/government/publications/maps-of-humber-freeport-tax-sites","final_url":"https://www.gov.uk/government/publications/maps-of-humber-freeport-tax-sites","license":"Open Government Licence v3.0","authority":"HM Revenue & Customs","freeport":"Humber Freeport","tax_site_identifier":"Goole","designation_status":"designated and recognised in law","designation_effective_date":"2024-02-13","source_page_last_updated":"2024-01-18","boundary_update_note":"A map was added on 18 January 2024 to reflect boundary changes at the Goole tax site.","official_map_document_label":"Goole","stated_policy_purpose":"tax reliefs to bring investment, trade and jobs to regenerate regions","evidence_grade":"A","confidence_score_0_100":99,"evidence_scope":"exact HMRC Goole Freeport tax-site identifier, legal designation statement, effective date and official boundary-map publication","evidence_slice_sha256":"e328c088847bff1e93559997642e6a41dcfed2c10e43f08508c6d14bfeca2585","fake_data":false,"spatial_binding_method":"official HMRC Goole tax-site identifier and linked boundary map; exact boundary extraction, canonical parcel spatial join and materialization delegated to local OpenCode","planned_building_count_contribution":0}}]}