{"type":"FeatureCollection","features":[{"type":"Feature","geometry":{"type":"MultiPolygon","coordinates":[[[[-0.085563,51.513278],[-0.085631,51.51328],[-0.085633,51.513272],[-0.085633,51.513261],[-0.085659,51.513227],[-0.085666,51.513127],[-0.085535,51.513119],[-0.085536,51.513116],[-0.085284,51.513101],[-0.085283,51.513108],[-0.085205,51.513103],[-0.085205,51.513153],[-0.085212,51.513228],[-0.085255,51.513229],[-0.085259,51.513275],[-0.085289,51.513275],[-0.08529,51.513272],[-0.085563,51.513278]]]]},"properties":{"entry-date":"1950-01-04","start-date":"1950-01-04","end-date":"","entity":42136210,"name":"CHURCH OF ST MICHAEL","dataset":"listed-building-outline","typology":"geography","reference":"1922","prefix":"listed-building-outline","quality":"authoritative","geometry_type":"MultiPolygon"}}],"source_url":"https://www.planning.data.gov.uk/entity/42136210","final_url":"https://www.planning.data.gov.uk/entity/42136210","source_window_id":"PLANNING_DATA_LISTED_BUILDING_OUTLINE_ENTITY_42136210_068","public_no_login":true,"license":"Open Government Licence v3.0","publisher":"Ministry of Housing, Communities and Local Government (Planning Data)","fake_data":false}