{"type":"FeatureCollection","name":"height_difference_5","metadata":{"slot_id":"height_difference_5","owner":"height_difference_5","lineage_id":"height_difference_5-eb56f92ed3f0514c","page_generation":1,"schema":"AAYS_LAYER24_EVIDENCE_V1","partition":"layer24","semantic_mode_state":"ABSENT_IN_PRIOR_PHYSICAL_STATE_PRESERVED_BY_OMISSION","batch_id":"20261006T205300Z_nidirect_10m_dtm_technical_context_only","record_policy":"Official nidirect OSNI 10m DTM technical context only; no Belfast 2006 LiDAR tile/file, parcel binding, geometry or CRS synthesized.","fake_data":false},"features":[{"type":"Feature","geometry":null,"properties":{"slot_id":"height_difference_5","owner":"height_difference_5","lineage_id":"height_difference_5-eb56f92ed3f0514c","page_generation":1,"schema":"AAYS_LAYER24_EVIDENCE_V1","partition":"layer24","batch_id":"20261006T205300Z_nidirect_10m_dtm_technical_context_only","source_record_id":"OSNI_NIDIRECT:10M_DTM_TECHNICAL_PAGE","source_url":"https://www.nidirect.gov.uk/articles/10m-digital-terrain-model-height-data","access_utc":"2026-10-06T20:53:00Z","required_building_state":"BUILDING_PRESENT","binding_status":"LOCAL_OPENCODE_BUILDING_PRESENT_EXACT_TILE_BIND_REQUIRED","product_family":"OSNI 10m Digital Terrain Model","grid_spacing_m":10,"tile_size_km":[9.6,6.4],"vertical_reference":"metres above mean sea level at Belfast Lough","historical_belfast_2006_lidar_match":false,"exact_tile_identifier":null,"crs":null,"evidence_slice_sha256":"821df82876caa1e40484562d5c05cf1b7e2f2c696d6da480a671d0dc2e862464","accepted_count_contribution":0,"source_area_count_contribution":0,"fake_data":false}}]}
