{"type":"FeatureCollection","features":[{"type":"Feature","id":"gedling-brownfield-register-2025-data:G20","geometry":null,"properties":{"slot_id":"future_growth_4","lineage_id":"fg4-e4c9076d6f554f00","page_generation":1,"owner":"future_growth_4","partition":"future_growth","semantic_mode":"SOURCE_AREA_EXACT_IDENTIFIER","dataset":"gedling-brownfield-register-2025-data","entity":"G20","reference":"G20","quality":"authoritative","organisation":"Gedling Borough Council","name":"Bestwood Business Park, Park Road, Bestwood Village","site_address":"Bestwood Business Park, Park Road, Bestwood Village","source_url":"https://www.data.gov.uk/dataset/3e4aa091-b307-49e7-b880-374873c25785/brownfield-register-2025-data/datafile/705dbf66-6da2-4bf0-a04a-677e13ea852d/preview","final_url":"https://www.data.gov.uk/dataset/3e4aa091-b307-49e7-b880-374873c25785/brownfield-register-2025-data/datafile/705dbf66-6da2-4bf0-a04a-677e13ea852d/preview","access_utc":"2026-10-05T13:13:00Z","data_date":"2026-01-07","license":"None stated in dataset metadata","field_evidence":{"organisation_uri":"http://opendatacommunities.org/id/district-council/gedling","site_reference":"G20","site_name_address":"Bestwood Business Park, Park Road, Bestwood Village","geo_y":53.020485,"geo_x":-1.180971,"hectares":6.01,"ownership_status":"not owned by a public authority","planning_status":"not permissioned","permission_type":"","permission_date":"n/a","deliverable":"","net_dwellings_range_from":220,"net_dwellings_range_to":220,"allocation_reference":"H13","lapsed_planning_reference":"2014/0214","notes":"Allocated in the Local Planning Document as site H13; outline permission 2014/0214 for up to 220 homes lapsed in March 2018","first_added_date":"2017-04-01","last_updated_date":"2022-12-08","shape_length_m":1130.52160149224,"shape_area_m2":60059.82786103},"evidence_slice_sha256":"87e1ab346b2b8e6a77e89718939c041a72c2248d25c51f85b7c263660061b565","confidence_score_0_100":99,"confidence":0.99,"evidence_grade":"A","exact_identifier_provided":true,"coverage_polygon_provided":false,"coverage_geometry_available":true,"point_coordinate_provided":true,"fake_data":false,"join_mode":"LOCAL_OPENCODE_SPATIAL_JOIN_PENDING","direct_parcel":false,"source_area_count_contribution":1,"planned_building_count_contribution":0}}]}