{"type":"FeatureCollection","features":[{"type":"Feature","geometry":null,"properties":{"schema":"AAYS_LAYER24_EVIDENCE_V1","slot_id":"security_public_safety_4","lineage_id":"L24-SPS4-57de1ed0eaf0f860383f","page_generation":12,"criterion":"Security/Public Safety","record_role":"OFFICIAL_WARD_CRIME_TIME_SERIES_ROW","source_record_index":1,"ward_code":"E05000026","ward_name":"Abbey","borough":"Barking and Dagenham","major_category":"Violence Against the Person","minor_category":"ABH","series_start":"200101","series_end_visible":"201003","visible_first_12_month_values":[5,15,5,8,9,5,6,10,9,10,8,6],"source_url":"https://www.data.gov.uk/dataset/c4ef659c-ae35-44fe-b058-a6db8e358413/mps-recorded-crime-geographic-breakdown1/datafile/ade21dbf-0e7c-476e-a9a2-7cd6df5230fc/preview","access_utc":"2026-10-01T06:25:00Z","license":"Open Government Licence v3.0","field_evidence":"National Data Library preview row 1 for MPS Ward Level Crime.csv","evidence_slice_sha256":"56d6b5ca546073dc83b84a01b1da8699886f0aaba2307a2fdb85781a81ec52b2","confidence_score_0_100":98,"evidence_grade":"A","join_state":"UNPROCESSED_LOCAL_JOIN","fake_data":false}},{"type":"Feature","geometry":null,"properties":{"schema":"AAYS_LAYER24_EVIDENCE_V1","slot_id":"security_public_safety_4","lineage_id":"L24-SPS4-57de1ed0eaf0f860383f","page_generation":12,"criterion":"Security/Public Safety","record_role":"OFFICIAL_WARD_CRIME_TIME_SERIES_ROW","source_record_index":2,"ward_code":"E05000027","ward_name":"Alibon","borough":"Barking and Dagenham","major_category":"Violence Against the Person","minor_category":"ABH","series_start":"200101","series_end_visible":"201003","visible_first_12_month_values":[0,4,2,5,2,1,0,3,0,4,2,5],"source_url":"https://www.data.gov.uk/dataset/c4ef659c-ae35-44fe-b058-a6db8e358413/mps-recorded-crime-geographic-breakdown1/datafile/ade21dbf-0e7c-476e-a9a2-7cd6df5230fc/preview","access_utc":"2026-10-01T06:25:00Z","license":"Open Government Licence v3.0","field_evidence":"National Data Library preview row 2 for MPS Ward Level Crime.csv","evidence_slice_sha256":"56d6b5ca546073dc83b84a01b1da8699886f0aaba2307a2fdb85781a81ec52b2","confidence_score_0_100":98,"evidence_grade":"A","join_state":"UNPROCESSED_LOCAL_JOIN","fake_data":false}},{"type":"Feature","geometry":null,"properties":{"schema":"AAYS_LAYER24_EVIDENCE_V1","slot_id":"security_public_safety_4","lineage_id":"L24-SPS4-57de1ed0eaf0f860383f","page_generation":12,"criterion":"Security/Public Safety","record_role":"OFFICIAL_WARD_CRIME_TIME_SERIES_ROW","source_record_index":3,"ward_code":"E05000028","ward_name":"Becontree","borough":"Barking and Dagenham","major_category":"Violence Against the Person","minor_category":"ABH","series_start":"200101","series_end_visible":"201003","visible_first_12_month_values":[4,3,1,4,10,2,2,7,4,2,1,3],"source_url":"https://www.data.gov.uk/dataset/c4ef659c-ae35-44fe-b058-a6db8e358413/mps-recorded-crime-geographic-breakdown1/datafile/ade21dbf-0e7c-476e-a9a2-7cd6df5230fc/preview","access_utc":"2026-10-01T06:25:00Z","license":"Open Government Licence v3.0","field_evidence":"National Data Library preview row 3 for MPS Ward Level Crime.csv","evidence_slice_sha256":"56d6b5ca546073dc83b84a01b1da8699886f0aaba2307a2fdb85781a81ec52b2","confidence_score_0_100":98,"evidence_grade":"A","join_state":"UNPROCESSED_LOCAL_JOIN","fake_data":false}},{"type":"Feature","geometry":null,"properties":{"schema":"AAYS_LAYER24_EVIDENCE_V1","slot_id":"security_public_safety_4","lineage_id":"L24-SPS4-57de1ed0eaf0f860383f","page_generation":12,"criterion":"Security/Public Safety","record_role":"OFFICIAL_WARD_CRIME_TIME_SERIES_ROW","source_record_index":4,"ward_code":"E05000029","ward_name":"Chadwell Heath","borough":"Barking and Dagenham","major_category":"Violence Against the Person","minor_category":"ABH","series_start":"200101","series_end_visible":"201003","visible_first_12_month_values":[7,5,5,4,2,4,3,6,5,1,3,3],"source_url":"https://www.data.gov.uk/dataset/c4ef659c-ae35-44fe-b058-a6db8e358413/mps-recorded-crime-geographic-breakdown1/datafile/ade21dbf-0e7c-476e-a9a2-7cd6df5230fc/preview","access_utc":"2026-10-01T06:25:00Z","license":"Open Government Licence v3.0","field_evidence":"National Data Library preview row 4 for MPS Ward Level Crime.csv","evidence_slice_sha256":"56d6b5ca546073dc83b84a01b1da8699886f0aaba2307a2fdb85781a81ec52b2","confidence_score_0_100":98,"evidence_grade":"A","join_state":"UNPROCESSED_LOCAL_JOIN","fake_data":false}}]}
