{
  "type": "FeatureCollection",
  "features": [
    {
      "type": "Feature",
      "id": "planning-data:brownfield-site:WBR/18/0015",
      "geometry": {
        "type": "MultiPolygon",
        "coordinates": [
          [
            [
              [
                -0.197103,
                51.457274
              ],
              [
                -0.197165,
                51.45739
              ],
              [
                -0.197209,
                51.457404
              ],
              [
                -0.197311,
                51.457379
              ],
              [
                -0.197265,
                51.457245
              ],
              [
                -0.197103,
                51.457274
              ]
            ]
          ]
        ]
      },
      "properties": {
        "semantic_identity": "planning-data:brownfield-site:WBR/18/0015",
        "source_area_id": "planning-data:brownfield-site:WBR/18/0015",
        "source_area_type": "brownfield-site",
        "source_reference": "WBR/18/0015",
        "source_entity": 1800398,
        "source_name": "130-132 Wandsworth High Street",
        "source_dataset": "brownfield-site",
        "organisation": "London Borough of Wandsworth",
        "organisation_entity": "local-authority:WND",
        "data_date": "2020-12-22",
        "entry_date": "2020-12-22",
        "source_url": "https://www.planning.data.gov.uk/entity/1800398",
        "final_url": "https://www.planning.data.gov.uk/entity/1800398",
        "source_geometry_wkt_sha256": "f3643e0f53de8a9d747796fe0e087a8e879461cb8351911167011c8e8b1b1c53",
        "evidence_slice_sha256": "ab5dfe44238cffbcacd8988beaa75bc29b8d5b0114d9c601a8cc8c7e3918a593",
        "license": "Open Government Licence v3.0",
        "evidence_grade": "B",
        "confidence": 0.78,
        "source_quality": "some",
        "semantic_mode": "AREA_JOIN",
        "canonical_binding_status": "NOT_ATTEMPTED_LOCAL_OPENCODE",
        "fake_data": false
      }
    }
  ]
}
