{"type":"FeatureCollection","features":[{"type":"Feature","id":"CHERWELL_24_02098_F_GARAGE_01","geometry":null,"properties":{"slot_id":"planned_buildings_4","owner":"planned_buildings_4","lineage_id":"pb4-8debc7c8ddf348a2","page_generation":1,"partition":"layer24","schema":"AAYS_LAYER24_EVIDENCE_V1","semantic_mode":"PLANNED_BUILDINGS_OFFICIAL_REFERENCE_DISTINCT_STRUCTURE","batch_id":"20261005T052959Z-cherwell-24-02098-f-window-001","publisher":"Cherwell District Council","source_family":"CHERWELL_PLANNING_REGISTER","source_url":"https://planningregister.cherwell.gov.uk/Planning/Display/24/02098/F","final_url":"https://planningregister.cherwell.gov.uk/Planning/Display/24/02098/F","access_utc":"2026-10-05T05:29:59Z","data_date":"2024-08-01","license":"Public planning register; document copyright/usage remains governed by council register terms","planning_reference":"24/02098/F","location":"Merton Croft West End Lane Merton Bicester OX25 2NG","proposal":"Erection of Garage","status":"Application Permitted","geometry_status":"NOT_MATERIALIZED_LOCAL_OPENCODE","field_evidence":"Official Cherwell District Council Planning Register application 24/02098/F. Application Type: Full Development. Status: Application Permitted. Valid date: 01/08/2024. Location: Merton Croft West End Lane Merton Bicester OX25 2NG. Proposal: Erection of Garage. Decision: Permitted. Decision Issued Date: 11/10/2024. Official documents include Site Location Plan DWG.No. 01 - 00; Proposed Block Plan DWG.NO. 05 - 00; Proposed Garage Plan & Elevations DWG.No. 06 - 01; Proposed South Section DWG.No. 07 - 01; Delegated Officer Report; and Decision Notice. The official proposal and proposed-plan set identify one distinct new garage. Existing studio/cottage plans are not counted as planned structures. Geometry/materialization is deferred to local OpenCode.","evidence_slice_sha256":"372ecfeb29b9b984233d090d033dea1e6f082f67d6358ac597534958755a4b5a","confidence":0.99,"evidence_grade":"A_OFFICIAL_LOCAL_AUTHORITY_PLANNING_REGISTER_SINGLE_GARAGE_PERMITTED","fake_data":false,"source_record_id":"CHERWELL_24_02098_F_GARAGE_01","planned_building":"new garage","official_plan_reference":"DWG.NO. 05 - 00; DWG.No. 06 - 01","official_plan_description":"Proposed Block Plan; Proposed Garage Plan & Elevations"}}]}
