{"type":"FeatureCollection","name":"internet_access_5_ofcom_cn2025_nations_coverage","metadata":{"schema":"AAYS_SOURCE_AREA_V1","target_schema":"AAYS_LAYER24_EVIDENCE_V1","category":"Internet Access","slot_id":"internet_access_5","owner":"internet_access_5","lineage_id":"internet_access_5__20260927T155800+0300__newstart","page_generation":1,"partition":"UNRESOLVED_NO_PRIOR_OWNERSHIP_ARTIFACT","semantic_mode":"EXACT_OFFICIAL_IDENTIFIER","batch_id":"batch_0005_ofcom_cn2025_nations_0001_0005_20261001T013600Z","geometry_evidence_mode":"EXACT_OFFICIAL_IDENTIFIER","exact_identifier_type":"OFCOM_LOCATION_LABEL","source_url":"https://www.ofcom.org.uk/siteassets/resources/documents/research-and-data/multi-sector/infrastructure-research/connected-nations-2025/connected-nations-2025-scotland-report.pdf","final_url":"https://www.ofcom.org.uk/siteassets/resources/documents/research-and-data/multi-sector/infrastructure-research/connected-nations-2025/connected-nations-2025-scotland-report.pdf","access_utc":"2026-10-01T01:36:00Z","data_date":"2025-07","publication_date":"2025-11-19","licence":"Open Government Licence","source_window_file_sha256":"b9460ff6a850c9f8193ab09b6ea449a84c3e87ea8886d4773ef7101c63f89f4a","spatial_binding_method":"OFCOM_LOCATION_LABEL_TO_OFFICIAL_BOUNDARY_LOCAL_OPENCODE","confidence_score_0_100":98,"evidence_grade":"A_PRIMARY_OFFICIAL_REPORT_TABLE","fake_data":false},"features":[{"type":"Feature","geometry":null,"properties":{"schema":"AAYS_LAYER24_EVIDENCE_V1","slot_id":"internet_access_5","owner":"internet_access_5","lineage_id":"internet_access_5__20260927T155800+0300__newstart","page_generation":1,"partition":"UNRESOLVED_NO_PRIOR_OWNERSHIP_ARTIFACT","semantic_mode":"EXACT_OFFICIAL_IDENTIFIER","source_row":1,"exact_identifier_type":"OFCOM_LOCATION_LABEL","exact_identifier":"UK","gigabit_capable_residential_pct":87,"full_fibre_residential_pct":78,"superfast_residential_pct":98,"unable_to_get_decent_all_properties_pct":0.1,"source_authority":"Ofcom","source_report":"Connected Nations 2025 Scotland Report","source_table":"Figure 2.1 Summary of broadband coverage at a fixed location across the UK and nations","data_date":"2025-07","publication_date":"2025-11-19","source_url":"https://www.ofcom.org.uk/siteassets/resources/documents/research-and-data/multi-sector/infrastructure-research/connected-nations-2025/connected-nations-2025-scotland-report.pdf","final_url":"https://www.ofcom.org.uk/siteassets/resources/documents/research-and-data/multi-sector/infrastructure-research/connected-nations-2025/connected-nations-2025-scotland-report.pdf","access_utc":"2026-10-01T01:36:00Z","licence":"Open Government Licence","field_evidence":{"exact_identifier":"Figure 2.1 row 1 location","gigabit_capable_residential_pct":"Figure 2.1 row 1 gigabit-capable","full_fibre_residential_pct":"Figure 2.1 row 1 full fibre","superfast_residential_pct":"Figure 2.1 row 1 superfast","unable_to_get_decent_all_properties_pct":"Figure 2.1 row 1 unable to get decent"},"evidence_slice_sha256":"b16d0a958c3d96d091bba5c651de8bd1e3285778ddfa6aa8acda25c9e9e09510","source_window_file_sha256":"b9460ff6a850c9f8193ab09b6ea449a84c3e87ea8886d4773ef7101c63f89f4a","confidence_score_0_100":98,"evidence_grade":"A_PRIMARY_OFFICIAL_REPORT_TABLE","fake_data":false,"accepted_as_parcel":false,"match_state":"PENDING_LOCAL_OPENCODE_OFFICIAL_BOUNDARY_BINDING_AND_SPATIAL_JOIN"}},{"type":"Feature","geometry":null,"properties":{"schema":"AAYS_LAYER24_EVIDENCE_V1","slot_id":"internet_access_5","owner":"internet_access_5","lineage_id":"internet_access_5__20260927T155800+0300__newstart","page_generation":1,"partition":"UNRESOLVED_NO_PRIOR_OWNERSHIP_ARTIFACT","semantic_mode":"EXACT_OFFICIAL_IDENTIFIER","source_row":2,"exact_identifier_type":"OFCOM_LOCATION_LABEL","exact_identifier":"Scotland","gigabit_capable_residential_pct":81,"full_fibre_residential_pct":71,"superfast_residential_pct":97,"unable_to_get_decent_all_properties_pct":0.4,"source_authority":"Ofcom","source_report":"Connected Nations 2025 Scotland Report","source_table":"Figure 2.1 Summary of broadband coverage at a fixed location across the UK and nations","data_date":"2025-07","publication_date":"2025-11-19","source_url":"https://www.ofcom.org.uk/siteassets/resources/documents/research-and-data/multi-sector/infrastructure-research/connected-nations-2025/connected-nations-2025-scotland-report.pdf","final_url":"https://www.ofcom.org.uk/siteassets/resources/documents/research-and-data/multi-sector/infrastructure-research/connected-nations-2025/connected-nations-2025-scotland-report.pdf","access_utc":"2026-10-01T01:36:00Z","licence":"Open Government Licence","field_evidence":{"exact_identifier":"Figure 2.1 row 2 location","gigabit_capable_residential_pct":"Figure 2.1 row 2 gigabit-capable","full_fibre_residential_pct":"Figure 2.1 row 2 full fibre","superfast_residential_pct":"Figure 2.1 row 2 superfast","unable_to_get_decent_all_properties_pct":"Figure 2.1 row 2 unable to get decent"},"evidence_slice_sha256":"d32c72deb7e5682463f07ddb82b434c01cd030a9c961ea27c105fda3bd55d488","source_window_file_sha256":"b9460ff6a850c9f8193ab09b6ea449a84c3e87ea8886d4773ef7101c63f89f4a","confidence_score_0_100":98,"evidence_grade":"A_PRIMARY_OFFICIAL_REPORT_TABLE","fake_data":false,"accepted_as_parcel":false,"match_state":"PENDING_LOCAL_OPENCODE_OFFICIAL_BOUNDARY_BINDING_AND_SPATIAL_JOIN"}},{"type":"Feature","geometry":null,"properties":{"schema":"AAYS_LAYER24_EVIDENCE_V1","slot_id":"internet_access_5","owner":"internet_access_5","lineage_id":"internet_access_5__20260927T155800+0300__newstart","page_generation":1,"partition":"UNRESOLVED_NO_PRIOR_OWNERSHIP_ARTIFACT","semantic_mode":"EXACT_OFFICIAL_IDENTIFIER","source_row":3,"exact_identifier_type":"OFCOM_LOCATION_LABEL","exact_identifier":"Northern Ireland","gigabit_capable_residential_pct":96,"full_fibre_residential_pct":95,"superfast_residential_pct":99,"unable_to_get_decent_all_properties_pct":0.2,"source_authority":"Ofcom","source_report":"Connected Nations 2025 Scotland Report","source_table":"Figure 2.1 Summary of broadband coverage at a fixed location across the UK and nations","data_date":"2025-07","publication_date":"2025-11-19","source_url":"https://www.ofcom.org.uk/siteassets/resources/documents/research-and-data/multi-sector/infrastructure-research/connected-nations-2025/connected-nations-2025-scotland-report.pdf","final_url":"https://www.ofcom.org.uk/siteassets/resources/documents/research-and-data/multi-sector/infrastructure-research/connected-nations-2025/connected-nations-2025-scotland-report.pdf","access_utc":"2026-10-01T01:36:00Z","licence":"Open Government Licence","field_evidence":{"exact_identifier":"Figure 2.1 row 3 location","gigabit_capable_residential_pct":"Figure 2.1 row 3 gigabit-capable","full_fibre_residential_pct":"Figure 2.1 row 3 full fibre","superfast_residential_pct":"Figure 2.1 row 3 superfast","unable_to_get_decent_all_properties_pct":"Figure 2.1 row 3 unable to get decent"},"evidence_slice_sha256":"a853d574a834db6c59d110c43bf4a15eb7a2105a4ab0f6b21dfbf19132e13871","source_window_file_sha256":"b9460ff6a850c9f8193ab09b6ea449a84c3e87ea8886d4773ef7101c63f89f4a","confidence_score_0_100":98,"evidence_grade":"A_PRIMARY_OFFICIAL_REPORT_TABLE","fake_data":false,"accepted_as_parcel":false,"match_state":"PENDING_LOCAL_OPENCODE_OFFICIAL_BOUNDARY_BINDING_AND_SPATIAL_JOIN"}},{"type":"Feature","geometry":null,"properties":{"schema":"AAYS_LAYER24_EVIDENCE_V1","slot_id":"internet_access_5","owner":"internet_access_5","lineage_id":"internet_access_5__20260927T155800+0300__newstart","page_generation":1,"partition":"UNRESOLVED_NO_PRIOR_OWNERSHIP_ARTIFACT","semantic_mode":"EXACT_OFFICIAL_IDENTIFIER","source_row":4,"exact_identifier_type":"OFCOM_LOCATION_LABEL","exact_identifier":"Wales","gigabit_capable_residential_pct":81,"full_fibre_residential_pct":78,"superfast_residential_pct":97,"unable_to_get_decent_all_properties_pct":0.4,"source_authority":"Ofcom","source_report":"Connected Nations 2025 Scotland Report","source_table":"Figure 2.1 Summary of broadband coverage at a fixed location across the UK and nations","data_date":"2025-07","publication_date":"2025-11-19","source_url":"https://www.ofcom.org.uk/siteassets/resources/documents/research-and-data/multi-sector/infrastructure-research/connected-nations-2025/connected-nations-2025-scotland-report.pdf","final_url":"https://www.ofcom.org.uk/siteassets/resources/documents/research-and-data/multi-sector/infrastructure-research/connected-nations-2025/connected-nations-2025-scotland-report.pdf","access_utc":"2026-10-01T01:36:00Z","licence":"Open Government Licence","field_evidence":{"exact_identifier":"Figure 2.1 row 4 location","gigabit_capable_residential_pct":"Figure 2.1 row 4 gigabit-capable","full_fibre_residential_pct":"Figure 2.1 row 4 full fibre","superfast_residential_pct":"Figure 2.1 row 4 superfast","unable_to_get_decent_all_properties_pct":"Figure 2.1 row 4 unable to get decent"},"evidence_slice_sha256":"304d739dd6a9465bcf610494ca1c2dc00b07ba7c6e9d7e2d2df43c6d06c1d06d","source_window_file_sha256":"b9460ff6a850c9f8193ab09b6ea449a84c3e87ea8886d4773ef7101c63f89f4a","confidence_score_0_100":98,"evidence_grade":"A_PRIMARY_OFFICIAL_REPORT_TABLE","fake_data":false,"accepted_as_parcel":false,"match_state":"PENDING_LOCAL_OPENCODE_OFFICIAL_BOUNDARY_BINDING_AND_SPATIAL_JOIN"}},{"type":"Feature","geometry":null,"properties":{"schema":"AAYS_LAYER24_EVIDENCE_V1","slot_id":"internet_access_5","owner":"internet_access_5","lineage_id":"internet_access_5__20260927T155800+0300__newstart","page_generation":1,"partition":"UNRESOLVED_NO_PRIOR_OWNERSHIP_ARTIFACT","semantic_mode":"EXACT_OFFICIAL_IDENTIFIER","source_row":5,"exact_identifier_type":"OFCOM_LOCATION_LABEL","exact_identifier":"England","gigabit_capable_residential_pct":88,"full_fibre_residential_pct":79,"superfast_residential_pct":98,"unable_to_get_decent_all_properties_pct":0.1,"source_authority":"Ofcom","source_report":"Connected Nations 2025 Scotland Report","source_table":"Figure 2.1 Summary of broadband coverage at a fixed location across the UK and nations","data_date":"2025-07","publication_date":"2025-11-19","source_url":"https://www.ofcom.org.uk/siteassets/resources/documents/research-and-data/multi-sector/infrastructure-research/connected-nations-2025/connected-nations-2025-scotland-report.pdf","final_url":"https://www.ofcom.org.uk/siteassets/resources/documents/research-and-data/multi-sector/infrastructure-research/connected-nations-2025/connected-nations-2025-scotland-report.pdf","access_utc":"2026-10-01T01:36:00Z","licence":"Open Government Licence","field_evidence":{"exact_identifier":"Figure 2.1 row 5 location","gigabit_capable_residential_pct":"Figure 2.1 row 5 gigabit-capable","full_fibre_residential_pct":"Figure 2.1 row 5 full fibre","superfast_residential_pct":"Figure 2.1 row 5 superfast","unable_to_get_decent_all_properties_pct":"Figure 2.1 row 5 unable to get decent"},"evidence_slice_sha256":"cb21842891b258c5e63bdaa83752eb0b3eb70fe48fbd8c0930ed4480d3f086e9","source_window_file_sha256":"b9460ff6a850c9f8193ab09b6ea449a84c3e87ea8886d4773ef7101c63f89f4a","confidence_score_0_100":98,"evidence_grade":"A_PRIMARY_OFFICIAL_REPORT_TABLE","fake_data":false,"accepted_as_parcel":false,"match_state":"PENDING_LOCAL_OPENCODE_OFFICIAL_BOUNDARY_BINDING_AND_SPATIAL_JOIN"}}]}
