{"type":"FeatureCollection","name":"height_difference_2","features":[],"metadata":{"slot_id":"height_difference_2","lineage_id":"height_difference_2_20260930T001051Z","page_generation":1,"partition":"source_area","schema":"AAYS_LAYER24_EVIDENCE_V1","fake_data":false,"owner":"cagdas aydin","batch_id":"batch_0044_post_batch0043_changed_producer_field_audit_blocker_20261003T151800+0300","cursor":"BLOCKED_POST_BATCH_0043_CHANGED_PRODUCER_AUDIT_NO_HD2_CANONICAL_OR_TILE_BINDING","source_area_count":0,"accepted_count":0,"unmatched_count":1,"external_source_window_opened":false,"scan_head_sha":"f99fe1c267b2859c4e337e07813356e412b9ec9e","reason":"EXACT_BLOCKER: after repeated zero-acceptance rounds, the method was materially changed from path-filtered history scanning to a direct field audit of newly changed producer artifacts after immutable batch_0043 commit 2732d86bcee9460368ad1c9a0407a2986c4db694 through scan head f99fe1c267b2859c4e337e07813356e412b9ec9e. No height_difference_2 path delta or slot-bound canonical/materialization artifact was added. The new BUILDING_PRESENT Old Schoolhouse producer record (Planning Data entity 42153784; linked building entity 31499816) carries authoritative MultiPolygon geometry but no canonical_parcel_id and no exact DEM/LIDAR tile selector; accepting it would require the local OpenCode canonical parcel spatial join reserved by contract. Current repository search also yielded no height_difference_2 canonical_parcel_id/BUILDING_PRESENT or DEM/LIDAR tile binding hit. Therefore the family start criterion remains unsatisfied; no external source or DEM/LIDAR window was opened. Local OpenCode must publish a non-null slot-bound canonical_parcel_id with BUILDING_PRESENT and parcel geometry/bbox or an exact official DEM/LIDAR tile selector before Height Difference source acceptance."}}
