{"type":"FeatureCollection","name":"height_difference_2","features":[],"metadata":{"slot_id":"height_difference_2","lineage_id":"height_difference_2_20260930T001051Z","page_generation":1,"partition":"source_area","schema":"AAYS_LAYER24_EVIDENCE_V1","fake_data":false,"owner":"cagdas aydin","batch_id":"batch_0025_cross_slot_lidar_delta_blocker_20261002T100200Z","source_window_opened":false,"cursor":"BLOCKED_CROSS_SLOT_LIDAR_DATASET_WITHOUT_SLOT_BOUND_TILE_OR_CANONICAL_PARCEL","source_area_count":0,"accepted_count":0,"reason":"EXACT_BLOCKER: new verified post-checkpoint height_difference-family deltas were reviewed. height_difference_5 adds official Scottish Government LiDAR Phase 2 DTM dataset evidence, but its record has canonical_parcel_id=null, exact_tile_identifier=null, CRS=null, and native_resolution_m=null. height_difference_1 independently records that local OpenCode must supply a BUILDING_PRESENT parcel geometry or exact official DTM tile binding before further source acceptance. These deltas do not provide an admissible parcel-bound DEM/LIDAR selector for height_difference_2, so no new external source window is opened."}}
