{"type":"FeatureCollection","name":"building_type_1","metadata":{"slot_id":"building_type_1","lineage_id":"building_type_1-0df24f39-4a36-409e-9ec8-f6410f0c25ee","batch_id":"20261001T052100Z_planningdata_listedbuildingoutline_reject_r1","source_window":"Planning Data listed-building-outline official no-login entity pages; 5 records inspected","result":"REJECTED_FOR_BUILDING_TYPE_SLOT","reason":"Polygon geometry is an authoritative listed-building outline, but the dataset states it shows the extent of land associated with the listing and does not consistently show curtilage; therefore it is not accepted as a strict building footprint under this slot contract.","fake_data":false},"features":[]}
