{"type":"FeatureCollection","features":[{"type":"Feature","properties":{"slot_id":"building_type_3","lineage_id":"building_type_3-new-20260927T1328+0300","batch_id":"BT3-P98G61-20261007-PLANNINGDATA-LBO42154040","cursor":"BT3-P98G61-20261007-PLANNINGDATA-LBO42154040-p98","building_state":"BUILDING_PRESENT","source_record_id":"planning-data:listed-building-outline:42154040","entity":42154040,"reference":"1042333","name":"The Tankerville Arms","building_type_use":"hotel","type_use_evidence":"official_name=The Tankerville Arms; official_notes=Hotel","dataset":"listed-building-outline","quality":"authoritative","start_date":"1986-05-14","entry_date":"2013-01-29","organisation":"Northumberland County Council","listed_building":"1042333","source_url":"https://www.planning.data.gov.uk/entity/42154040","final_url":"https://www.planning.data.gov.uk/entity/42154040","source_version":"Planning Data listed-building-outline entity 42154040 reference 1042333; authoritative Northumberland County Council; entry-date 2013-01-29; name The Tankerville Arms; notes identify Hotel","access_utc":"2026-10-07T01:00:00Z","data_date":"2013-01-29","license":"Open Government Licence v3.0; © Crown copyright and database right 2025","source_file_sha256":"ca0a4fee1ed54fb13c7ea75df0543d5566ef8aaf0ef2275a22cf62a43d2e78e7","evidence_slice_sha256":"d52ae7b96907fa5769250cd2a1e77822c9c93acd4401e22dd816b731087adf8e","field_evidence":["entity","reference","name","dataset","organisation","start-date","entry-date","geometry","notes","listed-building"],"confidence_score_0_100":99,"evidence_grade":"A_OFFICIAL_GOVERNMENT_BUILDING_OUTLINE_AND_NAMED_TYPE_USE","fake_data":false},"geometry":{"type":"MultiPolygon","coordinates":[[[[-2.015903,55.551269],[-2.016089,55.551288],[-2.016103,55.551247],[-2.016298,55.551267],[-2.016322,55.551192],[-2.016153,55.551174],[-2.016167,55.55113],[-2.016441,55.551159],[-2.016468,55.551077],[-2.016123,55.55104],[-2.016133,55.55101],[-2.016082,55.551005],[-2.016072,55.551035],[-2.015982,55.551026],[-2.015903,55.551269]]]]}}]}
