{"type":"FeatureCollection","features":[{"type":"Feature","id":"CHERWELL_25_02372_F_DETACHED_GARAGE_01","geometry":null,"properties":{"slot_id":"planned_buildings_4","owner":"planned_buildings_4","lineage_id":"pb4-8debc7c8ddf348a2","page_generation":1,"partition":"layer24","schema":"AAYS_LAYER24_EVIDENCE_V1","semantic_mode":"PLANNED_BUILDINGS_OFFICIAL_REFERENCE_DISTINCT_STRUCTURE","batch_id":"20261007T030549Z-cherwell-25-02372-f-window-001","publisher":"Cherwell District Council","source_family":"CHERWELL_PLANNING_REGISTER","source_url":"https://planningregister.cherwell.gov.uk/Planning/Display/25/02372/F","final_url":"https://planningregister.cherwell.gov.uk/Planning/Display/25/02372/F","access_utc":"2026-10-07T03:05:49Z","data_date":"2025-09-12","license":"Public planning register; document copyright/usage remains governed by council register terms","planning_reference":"25/02372/F","location":"Balscote House Chapel Lane Balscote OX15 6JN","proposal":"Air source heat pump and solar panels to main dwelling and erection of detached garage","status":"Application Permitted","geometry_status":"NOT_MATERIALIZED_LOCAL_OPENCODE","field_evidence":"Official Cherwell District Council Planning Register application 25/02372/F. Application Type: Full Development. Status: Application Permitted. Valid date: 12/09/2025. Location: Balscote House Chapel Lane Balscote OX15 6JN. Proposal: Air source heat pump and solar panels to main dwelling and erection of detached garage. Decision: Permitted. Decision Issued Date: 27/02/2026. Official documents include Proposed Layout and Location drawing 03 - B (8150-03b) and Proposed Garage drawing 05 - B (8150-05b). The delegated officer report records revised drawings 8150-03b, 8150-04b and 8150-05b and notes additional details on the proposed garage. The official proposal identifies one detached garage; the proposed layout and dedicated proposed garage drawing support the same single planned structure. Geometry/materialization is deferred to local OpenCode.","evidence_slice_sha256":"175d34f62755d95e789e1ba4d88e8b01f6727308731e30191847d4271fdbfc78","confidence":0.99,"evidence_grade":"A_OFFICIAL_LOCAL_AUTHORITY_PLANNING_REGISTER_SINGLE_DETACHED_GARAGE_PERMITTED","fake_data":false,"source_record_id":"CHERWELL_25_02372_F_DETACHED_GARAGE_01","planned_building":"detached garage","official_plan_reference":"03 - B; 05 - B","official_plan_description":"Proposed Layout and Location; Proposed Garage"}}]}
