{
  "type": "FeatureCollection",
  "features": [
    {
      "type": "Feature",
      "geometry": {
        "type": "Polygon",
        "coordinates": [
          [
            [
              -2.357427947864529,
              53.5429152173694
            ],
            [
              -2.357688814201653,
              53.542802261752804
            ],
            [
              -2.357766006973175,
              53.54286548873809
            ],
            [
              -2.357504835621131,
              53.542978085898376
            ],
            [
              -2.357427947864529,
              53.5429152173694
            ]
          ]
        ]
      },
      "properties": {
        "slot_id": "building_type_3",
        "lineage_id": "building_type_3-new-20260927T1328+0300",
        "owner": "cagdas aydin",
        "partition": "building_type_3",
        "page_generation": 61,
        "semantic_mode": null,
        "batch_id": "BT3-P112G61-20261008-OSOML-GM-WORSHIP-BOLTON10",
        "cursor": "BT3-P112G61-20261008-OSOML-GM-WORSHIP-BOLTON10-p112",
        "building_state": "BUILDING_PRESENT",
        "source_record_id": "os-openmap-local:important-building:2ABD920C-F92C-42AE-A5D9-7AA1EDCBE3CF",
        "semantic_identity": "os-openmap-local:important-building:2ABD920C-F92C-42AE-A5D9-7AA1EDCBE3CF",
        "source_row_ordinal": 1,
        "name": "Unknown",
        "building_type_use": "place_of_worship",
        "type_use_evidence": "OS CLASSIFICA=Place Of Worship; BUILDGTHEM=Religious Buildings; FEATCODE=15025",
        "dataset": "OS OpenMap Local ImportantBuilding",
        "quality": "OS-derived generalized building footprint",
        "coordinate_reference_system": "OGC:CRS84; source OS EPSG:27700",
        "ID": "2ABD920C-F92C-42AE-A5D9-7AA1EDCBE3CF",
        "DISTNAME": "Unknown",
        "BUILDGTHEM": "Religious Buildings",
        "CLASSIFICA": "Place Of Worship",
        "FEATCODE": 15025,
        "area_code": "E08000001",
        "area_name": "Bolton",
        "authority": "Ordnance Survey OS OpenMap Local via Trafford Data Lab local government data service",
        "source_url": "https://github.com/traffordDataLab/open_data/blob/4d9d4e650aa326a2efdb46c495433fc388e5a046/places_of_worship/gm_places_of_worship_RAW.geojson",
        "final_url": "https://github.com/traffordDataLab/open_data/blob/4d9d4e650aa326a2efdb46c495433fc388e5a046/places_of_worship/gm_places_of_worship_RAW.geojson",
        "http_status": 200,
        "access_utc": "2026-10-08T06:36:38.402Z",
        "data_date": "July 2018, source revision 2018-07-17",
        "source_version": "OS OpenMap Local ImportantBuilding, Greater Manchester places of worship RAW, Trafford Data Lab July 2018, revision 4d9d4e650aa326a2efdb46c495433fc388e5a046, blob 0aafb5f8866e22e06a93b695e4822a055588e62f",
        "license": "Open Government Licence v3.0; Contains OS data © Crown copyright and database right 2018",
        "source_file_sha256": "c82464e01e30879859c59e6c47748434dc57b1609f297b578d9bf3402b90df29",
        "field_evidence": [
          "ID",
          "DISTNAME",
          "BUILDGTHEM",
          "CLASSIFICA",
          "FEATCODE",
          "area_name",
          "geometry"
        ],
        "confidence_score_0_100": 95,
        "evidence_grade": "A_OS_OPENMAP_LOCAL_CLASSIFIED_BUILDING_POLYGON",
        "official_public_no_login": true,
        "fake_data": false,
        "evidence_slice_sha256": "86c2ff6e6b99fe04dc8fee72cbde6f7dfff5cb5fc82b4471b09cadf07881d683"
      }
    },
    {
      "type": "Feature",
      "geometry": {
        "type": "Polygon",
        "coordinates": [
          [
            [
              -2.35716253253239,
              53.543688563097234
            ],
            [
              -2.356679825319808,
              53.54358627869749
            ],
            [
              -2.356756446786204,
              53.54345607786483
            ],
            [
              -2.357240036912019,
              53.54355584256719
            ],
            [
              -2.35716253253239,
              53.543688563097234
            ]
          ]
        ]
      },
      "properties": {
        "slot_id": "building_type_3",
        "lineage_id": "building_type_3-new-20260927T1328+0300",
        "owner": "cagdas aydin",
        "partition": "building_type_3",
        "page_generation": 61,
        "semantic_mode": null,
        "batch_id": "BT3-P112G61-20261008-OSOML-GM-WORSHIP-BOLTON10",
        "cursor": "BT3-P112G61-20261008-OSOML-GM-WORSHIP-BOLTON10-p112",
        "building_state": "BUILDING_PRESENT",
        "source_record_id": "os-openmap-local:important-building:66BA80FC-4C9C-4D5E-AEF6-50B5AC23B9CE",
        "semantic_identity": "os-openmap-local:important-building:66BA80FC-4C9C-4D5E-AEF6-50B5AC23B9CE",
        "source_row_ordinal": 2,
        "name": "St Saviour's Church",
        "building_type_use": "place_of_worship",
        "type_use_evidence": "OS CLASSIFICA=Place Of Worship; BUILDGTHEM=Religious Buildings; FEATCODE=15025",
        "dataset": "OS OpenMap Local ImportantBuilding",
        "quality": "OS-derived generalized building footprint",
        "coordinate_reference_system": "OGC:CRS84; source OS EPSG:27700",
        "ID": "66BA80FC-4C9C-4D5E-AEF6-50B5AC23B9CE",
        "DISTNAME": "St Saviour's Church",
        "BUILDGTHEM": "Religious Buildings",
        "CLASSIFICA": "Place Of Worship",
        "FEATCODE": 15025,
        "area_code": "E08000001",
        "area_name": "Bolton",
        "authority": "Ordnance Survey OS OpenMap Local via Trafford Data Lab local government data service",
        "source_url": "https://github.com/traffordDataLab/open_data/blob/4d9d4e650aa326a2efdb46c495433fc388e5a046/places_of_worship/gm_places_of_worship_RAW.geojson",
        "final_url": "https://github.com/traffordDataLab/open_data/blob/4d9d4e650aa326a2efdb46c495433fc388e5a046/places_of_worship/gm_places_of_worship_RAW.geojson",
        "http_status": 200,
        "access_utc": "2026-10-08T06:36:38.402Z",
        "data_date": "July 2018, source revision 2018-07-17",
        "source_version": "OS OpenMap Local ImportantBuilding, Greater Manchester places of worship RAW, Trafford Data Lab July 2018, revision 4d9d4e650aa326a2efdb46c495433fc388e5a046, blob 0aafb5f8866e22e06a93b695e4822a055588e62f",
        "license": "Open Government Licence v3.0; Contains OS data © Crown copyright and database right 2018",
        "source_file_sha256": "c82464e01e30879859c59e6c47748434dc57b1609f297b578d9bf3402b90df29",
        "field_evidence": [
          "ID",
          "DISTNAME",
          "BUILDGTHEM",
          "CLASSIFICA",
          "FEATCODE",
          "area_name",
          "geometry"
        ],
        "confidence_score_0_100": 95,
        "evidence_grade": "A_OS_OPENMAP_LOCAL_CLASSIFIED_BUILDING_POLYGON",
        "official_public_no_login": true,
        "fake_data": false,
        "evidence_slice_sha256": "de48092424d17c79106e602b66bb9021c76ad3ea25591068737c4e9b399a4e6e"
      }
    },
    {
      "type": "Feature",
      "geometry": {
        "type": "Polygon",
        "coordinates": [
          [
            [
              -2.370414881825577,
              53.547727784571194
            ],
            [
              -2.370935118850148,
              53.547694442090524
            ],
            [
              -2.370957292550184,
              53.54781382895281
            ],
            [
              -2.370682311539944,
              53.54783095109705
            ],
            [
              -2.370696746926429,
              53.54791117263177
            ],
            [
              -2.370589937691528,
              53.547916177824064
            ],
            [
              -2.370578786494544,
              53.54784906914064
            ],
            [
              -2.370435180110695,
              53.547857244334644
            ],
            [
              -2.370414881825577,
              53.547727784571194
            ]
          ]
        ]
      },
      "properties": {
        "slot_id": "building_type_3",
        "lineage_id": "building_type_3-new-20260927T1328+0300",
        "owner": "cagdas aydin",
        "partition": "building_type_3",
        "page_generation": 61,
        "semantic_mode": null,
        "batch_id": "BT3-P112G61-20261008-OSOML-GM-WORSHIP-BOLTON10",
        "cursor": "BT3-P112G61-20261008-OSOML-GM-WORSHIP-BOLTON10-p112",
        "building_state": "BUILDING_PRESENT",
        "source_record_id": "os-openmap-local:important-building:CBC353BC-7885-4750-8BBF-3EBEFF5B9FA3",
        "semantic_identity": "os-openmap-local:important-building:CBC353BC-7885-4750-8BBF-3EBEFF5B9FA3",
        "source_row_ordinal": 3,
        "name": "Holy Trinity Church",
        "building_type_use": "place_of_worship",
        "type_use_evidence": "OS CLASSIFICA=Place Of Worship; BUILDGTHEM=Religious Buildings; FEATCODE=15025",
        "dataset": "OS OpenMap Local ImportantBuilding",
        "quality": "OS-derived generalized building footprint",
        "coordinate_reference_system": "OGC:CRS84; source OS EPSG:27700",
        "ID": "CBC353BC-7885-4750-8BBF-3EBEFF5B9FA3",
        "DISTNAME": "Holy Trinity Church",
        "BUILDGTHEM": "Religious Buildings",
        "CLASSIFICA": "Place Of Worship",
        "FEATCODE": 15025,
        "area_code": "E08000001",
        "area_name": "Bolton",
        "authority": "Ordnance Survey OS OpenMap Local via Trafford Data Lab local government data service",
        "source_url": "https://github.com/traffordDataLab/open_data/blob/4d9d4e650aa326a2efdb46c495433fc388e5a046/places_of_worship/gm_places_of_worship_RAW.geojson",
        "final_url": "https://github.com/traffordDataLab/open_data/blob/4d9d4e650aa326a2efdb46c495433fc388e5a046/places_of_worship/gm_places_of_worship_RAW.geojson",
        "http_status": 200,
        "access_utc": "2026-10-08T06:36:38.402Z",
        "data_date": "July 2018, source revision 2018-07-17",
        "source_version": "OS OpenMap Local ImportantBuilding, Greater Manchester places of worship RAW, Trafford Data Lab July 2018, revision 4d9d4e650aa326a2efdb46c495433fc388e5a046, blob 0aafb5f8866e22e06a93b695e4822a055588e62f",
        "license": "Open Government Licence v3.0; Contains OS data © Crown copyright and database right 2018",
        "source_file_sha256": "c82464e01e30879859c59e6c47748434dc57b1609f297b578d9bf3402b90df29",
        "field_evidence": [
          "ID",
          "DISTNAME",
          "BUILDGTHEM",
          "CLASSIFICA",
          "FEATCODE",
          "area_name",
          "geometry"
        ],
        "confidence_score_0_100": 95,
        "evidence_grade": "A_OS_OPENMAP_LOCAL_CLASSIFIED_BUILDING_POLYGON",
        "official_public_no_login": true,
        "fake_data": false,
        "evidence_slice_sha256": "98b50481bea44b6644d8a28d101163a28fa8af6ae4729622d5d9f58b05121c59"
      }
    },
    {
      "type": "Feature",
      "geometry": {
        "type": "Polygon",
        "coordinates": [
          [
            [
              -2.37087230276927,
              53.55992090019692
            ],
            [
              -2.370884538897176,
              53.56000804942108
            ],
            [
              -2.37050834572652,
              53.56002674338409
            ],
            [
              -2.370496110366008,
              53.55993959412042
            ],
            [
              -2.37087230276927,
              53.55992090019692
            ]
          ]
        ]
      },
      "properties": {
        "slot_id": "building_type_3",
        "lineage_id": "building_type_3-new-20260927T1328+0300",
        "owner": "cagdas aydin",
        "partition": "building_type_3",
        "page_generation": 61,
        "semantic_mode": null,
        "batch_id": "BT3-P112G61-20261008-OSOML-GM-WORSHIP-BOLTON10",
        "cursor": "BT3-P112G61-20261008-OSOML-GM-WORSHIP-BOLTON10-p112",
        "building_state": "BUILDING_PRESENT",
        "source_record_id": "os-openmap-local:important-building:BE959588-63C2-490C-A98A-489FABFD5D17",
        "semantic_identity": "os-openmap-local:important-building:BE959588-63C2-490C-A98A-489FABFD5D17",
        "source_row_ordinal": 4,
        "name": "Unknown",
        "building_type_use": "place_of_worship",
        "type_use_evidence": "OS CLASSIFICA=Place Of Worship; BUILDGTHEM=Religious Buildings; FEATCODE=15025",
        "dataset": "OS OpenMap Local ImportantBuilding",
        "quality": "OS-derived generalized building footprint",
        "coordinate_reference_system": "OGC:CRS84; source OS EPSG:27700",
        "ID": "BE959588-63C2-490C-A98A-489FABFD5D17",
        "DISTNAME": "Unknown",
        "BUILDGTHEM": "Religious Buildings",
        "CLASSIFICA": "Place Of Worship",
        "FEATCODE": 15025,
        "area_code": "E08000001",
        "area_name": "Bolton",
        "authority": "Ordnance Survey OS OpenMap Local via Trafford Data Lab local government data service",
        "source_url": "https://github.com/traffordDataLab/open_data/blob/4d9d4e650aa326a2efdb46c495433fc388e5a046/places_of_worship/gm_places_of_worship_RAW.geojson",
        "final_url": "https://github.com/traffordDataLab/open_data/blob/4d9d4e650aa326a2efdb46c495433fc388e5a046/places_of_worship/gm_places_of_worship_RAW.geojson",
        "http_status": 200,
        "access_utc": "2026-10-08T06:36:38.402Z",
        "data_date": "July 2018, source revision 2018-07-17",
        "source_version": "OS OpenMap Local ImportantBuilding, Greater Manchester places of worship RAW, Trafford Data Lab July 2018, revision 4d9d4e650aa326a2efdb46c495433fc388e5a046, blob 0aafb5f8866e22e06a93b695e4822a055588e62f",
        "license": "Open Government Licence v3.0; Contains OS data © Crown copyright and database right 2018",
        "source_file_sha256": "c82464e01e30879859c59e6c47748434dc57b1609f297b578d9bf3402b90df29",
        "field_evidence": [
          "ID",
          "DISTNAME",
          "BUILDGTHEM",
          "CLASSIFICA",
          "FEATCODE",
          "area_name",
          "geometry"
        ],
        "confidence_score_0_100": 95,
        "evidence_grade": "A_OS_OPENMAP_LOCAL_CLASSIFIED_BUILDING_POLYGON",
        "official_public_no_login": true,
        "fake_data": false,
        "evidence_slice_sha256": "372a7fde05deb6a3d5bdcd5ed450c42a60168b6033f5c1a3e306bcd662d26ec1"
      }
    },
    {
      "type": "Feature",
      "geometry": {
        "type": "Polygon",
        "coordinates": [
          [
            [
              -2.36973586676295,
              53.560045314334204
            ],
            [
              -2.369691721713192,
              53.560072685632804
            ],
            [
              -2.369454583125918,
              53.56007593555766
            ],
            [
              -2.369439206594636,
              53.55971483038798
            ],
            [
              -2.369700643838412,
              53.55971105592213
            ],
            [
              -2.36971186821282,
              53.55999397508875
            ],
            [
              -2.36973586676295,
              53.560045314334204
            ]
          ]
        ]
      },
      "properties": {
        "slot_id": "building_type_3",
        "lineage_id": "building_type_3-new-20260927T1328+0300",
        "owner": "cagdas aydin",
        "partition": "building_type_3",
        "page_generation": 61,
        "semantic_mode": null,
        "batch_id": "BT3-P112G61-20261008-OSOML-GM-WORSHIP-BOLTON10",
        "cursor": "BT3-P112G61-20261008-OSOML-GM-WORSHIP-BOLTON10-p112",
        "building_state": "BUILDING_PRESENT",
        "source_record_id": "os-openmap-local:important-building:F4A782D4-2E6C-4CA2-9A02-7B52C679AD15",
        "semantic_identity": "os-openmap-local:important-building:F4A782D4-2E6C-4CA2-9A02-7B52C679AD15",
        "source_row_ordinal": 5,
        "name": "Unknown",
        "building_type_use": "place_of_worship",
        "type_use_evidence": "OS CLASSIFICA=Place Of Worship; BUILDGTHEM=Religious Buildings; FEATCODE=15025",
        "dataset": "OS OpenMap Local ImportantBuilding",
        "quality": "OS-derived generalized building footprint",
        "coordinate_reference_system": "OGC:CRS84; source OS EPSG:27700",
        "ID": "F4A782D4-2E6C-4CA2-9A02-7B52C679AD15",
        "DISTNAME": "Unknown",
        "BUILDGTHEM": "Religious Buildings",
        "CLASSIFICA": "Place Of Worship",
        "FEATCODE": 15025,
        "area_code": "E08000001",
        "area_name": "Bolton",
        "authority": "Ordnance Survey OS OpenMap Local via Trafford Data Lab local government data service",
        "source_url": "https://github.com/traffordDataLab/open_data/blob/4d9d4e650aa326a2efdb46c495433fc388e5a046/places_of_worship/gm_places_of_worship_RAW.geojson",
        "final_url": "https://github.com/traffordDataLab/open_data/blob/4d9d4e650aa326a2efdb46c495433fc388e5a046/places_of_worship/gm_places_of_worship_RAW.geojson",
        "http_status": 200,
        "access_utc": "2026-10-08T06:36:38.402Z",
        "data_date": "July 2018, source revision 2018-07-17",
        "source_version": "OS OpenMap Local ImportantBuilding, Greater Manchester places of worship RAW, Trafford Data Lab July 2018, revision 4d9d4e650aa326a2efdb46c495433fc388e5a046, blob 0aafb5f8866e22e06a93b695e4822a055588e62f",
        "license": "Open Government Licence v3.0; Contains OS data © Crown copyright and database right 2018",
        "source_file_sha256": "c82464e01e30879859c59e6c47748434dc57b1609f297b578d9bf3402b90df29",
        "field_evidence": [
          "ID",
          "DISTNAME",
          "BUILDGTHEM",
          "CLASSIFICA",
          "FEATCODE",
          "area_name",
          "geometry"
        ],
        "confidence_score_0_100": 95,
        "evidence_grade": "A_OS_OPENMAP_LOCAL_CLASSIFIED_BUILDING_POLYGON",
        "official_public_no_login": true,
        "fake_data": false,
        "evidence_slice_sha256": "dbdedd51afabb2a6bbf6e20d72b48955c4c73a84153e1ad078fee37771dd9593"
      }
    },
    {
      "type": "Feature",
      "geometry": {
        "type": "Polygon",
        "coordinates": [
          [
            [
              -2.382528056728969,
              53.594802549877635
            ],
            [
              -2.382514985354641,
              53.59472708979309
            ],
            [
              -2.382646360038014,
              53.59471902941016
            ],
            [
              -2.382659430831111,
              53.59479439959945
            ],
            [
              -2.382528056728969,
              53.594802549877635
            ]
          ]
        ]
      },
      "properties": {
        "slot_id": "building_type_3",
        "lineage_id": "building_type_3-new-20260927T1328+0300",
        "owner": "cagdas aydin",
        "partition": "building_type_3",
        "page_generation": 61,
        "semantic_mode": null,
        "batch_id": "BT3-P112G61-20261008-OSOML-GM-WORSHIP-BOLTON10",
        "cursor": "BT3-P112G61-20261008-OSOML-GM-WORSHIP-BOLTON10-p112",
        "building_state": "BUILDING_PRESENT",
        "source_record_id": "os-openmap-local:important-building:C1D5E36E-87B5-4AAE-8011-6A2E570D26C2",
        "semantic_identity": "os-openmap-local:important-building:C1D5E36E-87B5-4AAE-8011-6A2E570D26C2",
        "source_row_ordinal": 6,
        "name": "Christ's Church",
        "building_type_use": "place_of_worship",
        "type_use_evidence": "OS CLASSIFICA=Place Of Worship; BUILDGTHEM=Religious Buildings; FEATCODE=15025",
        "dataset": "OS OpenMap Local ImportantBuilding",
        "quality": "OS-derived generalized building footprint",
        "coordinate_reference_system": "OGC:CRS84; source OS EPSG:27700",
        "ID": "C1D5E36E-87B5-4AAE-8011-6A2E570D26C2",
        "DISTNAME": "Christ's Church",
        "BUILDGTHEM": "Religious Buildings",
        "CLASSIFICA": "Place Of Worship",
        "FEATCODE": 15025,
        "area_code": "E08000001",
        "area_name": "Bolton",
        "authority": "Ordnance Survey OS OpenMap Local via Trafford Data Lab local government data service",
        "source_url": "https://github.com/traffordDataLab/open_data/blob/4d9d4e650aa326a2efdb46c495433fc388e5a046/places_of_worship/gm_places_of_worship_RAW.geojson",
        "final_url": "https://github.com/traffordDataLab/open_data/blob/4d9d4e650aa326a2efdb46c495433fc388e5a046/places_of_worship/gm_places_of_worship_RAW.geojson",
        "http_status": 200,
        "access_utc": "2026-10-08T06:36:38.402Z",
        "data_date": "July 2018, source revision 2018-07-17",
        "source_version": "OS OpenMap Local ImportantBuilding, Greater Manchester places of worship RAW, Trafford Data Lab July 2018, revision 4d9d4e650aa326a2efdb46c495433fc388e5a046, blob 0aafb5f8866e22e06a93b695e4822a055588e62f",
        "license": "Open Government Licence v3.0; Contains OS data © Crown copyright and database right 2018",
        "source_file_sha256": "c82464e01e30879859c59e6c47748434dc57b1609f297b578d9bf3402b90df29",
        "field_evidence": [
          "ID",
          "DISTNAME",
          "BUILDGTHEM",
          "CLASSIFICA",
          "FEATCODE",
          "area_name",
          "geometry"
        ],
        "confidence_score_0_100": 95,
        "evidence_grade": "A_OS_OPENMAP_LOCAL_CLASSIFIED_BUILDING_POLYGON",
        "official_public_no_login": true,
        "fake_data": false,
        "evidence_slice_sha256": "59098a69d748cf8a7a7083095177fd44385408409449a61360765dd3a5accb56"
      }
    },
    {
      "type": "Feature",
      "geometry": {
        "type": "Polygon",
        "coordinates": [
          [
            [
              -2.382086264503832,
              53.594985885915314
            ],
            [
              -2.382094734453065,
              53.5948697297477
            ],
            [
              -2.382414060521292,
              53.59487787708055
            ],
            [
              -2.382405591446495,
              53.59499403326909
            ],
            [
              -2.382086264503832,
              53.594985885915314
            ]
          ]
        ]
      },
      "properties": {
        "slot_id": "building_type_3",
        "lineage_id": "building_type_3-new-20260927T1328+0300",
        "owner": "cagdas aydin",
        "partition": "building_type_3",
        "page_generation": 61,
        "semantic_mode": null,
        "batch_id": "BT3-P112G61-20261008-OSOML-GM-WORSHIP-BOLTON10",
        "cursor": "BT3-P112G61-20261008-OSOML-GM-WORSHIP-BOLTON10-p112",
        "building_state": "BUILDING_PRESENT",
        "source_record_id": "os-openmap-local:important-building:507E6091-8CB0-44BA-903F-AFA55EA7A0CE",
        "semantic_identity": "os-openmap-local:important-building:507E6091-8CB0-44BA-903F-AFA55EA7A0CE",
        "source_row_ordinal": 7,
        "name": "Christ's Church",
        "building_type_use": "place_of_worship",
        "type_use_evidence": "OS CLASSIFICA=Place Of Worship; BUILDGTHEM=Religious Buildings; FEATCODE=15025",
        "dataset": "OS OpenMap Local ImportantBuilding",
        "quality": "OS-derived generalized building footprint",
        "coordinate_reference_system": "OGC:CRS84; source OS EPSG:27700",
        "ID": "507E6091-8CB0-44BA-903F-AFA55EA7A0CE",
        "DISTNAME": "Christ's Church",
        "BUILDGTHEM": "Religious Buildings",
        "CLASSIFICA": "Place Of Worship",
        "FEATCODE": 15025,
        "area_code": "E08000001",
        "area_name": "Bolton",
        "authority": "Ordnance Survey OS OpenMap Local via Trafford Data Lab local government data service",
        "source_url": "https://github.com/traffordDataLab/open_data/blob/4d9d4e650aa326a2efdb46c495433fc388e5a046/places_of_worship/gm_places_of_worship_RAW.geojson",
        "final_url": "https://github.com/traffordDataLab/open_data/blob/4d9d4e650aa326a2efdb46c495433fc388e5a046/places_of_worship/gm_places_of_worship_RAW.geojson",
        "http_status": 200,
        "access_utc": "2026-10-08T06:36:38.402Z",
        "data_date": "July 2018, source revision 2018-07-17",
        "source_version": "OS OpenMap Local ImportantBuilding, Greater Manchester places of worship RAW, Trafford Data Lab July 2018, revision 4d9d4e650aa326a2efdb46c495433fc388e5a046, blob 0aafb5f8866e22e06a93b695e4822a055588e62f",
        "license": "Open Government Licence v3.0; Contains OS data © Crown copyright and database right 2018",
        "source_file_sha256": "c82464e01e30879859c59e6c47748434dc57b1609f297b578d9bf3402b90df29",
        "field_evidence": [
          "ID",
          "DISTNAME",
          "BUILDGTHEM",
          "CLASSIFICA",
          "FEATCODE",
          "area_name",
          "geometry"
        ],
        "confidence_score_0_100": 95,
        "evidence_grade": "A_OS_OPENMAP_LOCAL_CLASSIFIED_BUILDING_POLYGON",
        "official_public_no_login": true,
        "fake_data": false,
        "evidence_slice_sha256": "708d1e340e19a3ff2f3d96e04aa02767163af9552eb7d55f83df033497485d7f"
      }
    },
    {
      "type": "Feature",
      "geometry": {
        "type": "Polygon",
        "coordinates": [
          [
            [
              -2.381760137622099,
              53.59519536665573
            ],
            [
              -2.381872990759721,
              53.5951605810579
            ],
            [
              -2.381943984081943,
              53.595242148042104
            ],
            [
              -2.381831130785932,
              53.59527693370669
            ],
            [
              -2.381760137622099,
              53.59519536665573
            ]
          ]
        ]
      },
      "properties": {
        "slot_id": "building_type_3",
        "lineage_id": "building_type_3-new-20260927T1328+0300",
        "owner": "cagdas aydin",
        "partition": "building_type_3",
        "page_generation": 61,
        "semantic_mode": null,
        "batch_id": "BT3-P112G61-20261008-OSOML-GM-WORSHIP-BOLTON10",
        "cursor": "BT3-P112G61-20261008-OSOML-GM-WORSHIP-BOLTON10-p112",
        "building_state": "BUILDING_PRESENT",
        "source_record_id": "os-openmap-local:important-building:742F3222-52CD-4CB4-8EDF-0FC69CE9489F",
        "semantic_identity": "os-openmap-local:important-building:742F3222-52CD-4CB4-8EDF-0FC69CE9489F",
        "source_row_ordinal": 8,
        "name": "Christ's Church",
        "building_type_use": "place_of_worship",
        "type_use_evidence": "OS CLASSIFICA=Place Of Worship; BUILDGTHEM=Religious Buildings; FEATCODE=15025",
        "dataset": "OS OpenMap Local ImportantBuilding",
        "quality": "OS-derived generalized building footprint",
        "coordinate_reference_system": "OGC:CRS84; source OS EPSG:27700",
        "ID": "742F3222-52CD-4CB4-8EDF-0FC69CE9489F",
        "DISTNAME": "Christ's Church",
        "BUILDGTHEM": "Religious Buildings",
        "CLASSIFICA": "Place Of Worship",
        "FEATCODE": 15025,
        "area_code": "E08000001",
        "area_name": "Bolton",
        "authority": "Ordnance Survey OS OpenMap Local via Trafford Data Lab local government data service",
        "source_url": "https://github.com/traffordDataLab/open_data/blob/4d9d4e650aa326a2efdb46c495433fc388e5a046/places_of_worship/gm_places_of_worship_RAW.geojson",
        "final_url": "https://github.com/traffordDataLab/open_data/blob/4d9d4e650aa326a2efdb46c495433fc388e5a046/places_of_worship/gm_places_of_worship_RAW.geojson",
        "http_status": 200,
        "access_utc": "2026-10-08T06:36:38.402Z",
        "data_date": "July 2018, source revision 2018-07-17",
        "source_version": "OS OpenMap Local ImportantBuilding, Greater Manchester places of worship RAW, Trafford Data Lab July 2018, revision 4d9d4e650aa326a2efdb46c495433fc388e5a046, blob 0aafb5f8866e22e06a93b695e4822a055588e62f",
        "license": "Open Government Licence v3.0; Contains OS data © Crown copyright and database right 2018",
        "source_file_sha256": "c82464e01e30879859c59e6c47748434dc57b1609f297b578d9bf3402b90df29",
        "field_evidence": [
          "ID",
          "DISTNAME",
          "BUILDGTHEM",
          "CLASSIFICA",
          "FEATCODE",
          "area_name",
          "geometry"
        ],
        "confidence_score_0_100": 95,
        "evidence_grade": "A_OS_OPENMAP_LOCAL_CLASSIFIED_BUILDING_POLYGON",
        "official_public_no_login": true,
        "fake_data": false,
        "evidence_slice_sha256": "1b4f20a1835c0a7363f84939b5cc1d1e0482883b3671a3baacdf816ce41f94ca"
      }
    },
    {
      "type": "Feature",
      "geometry": {
        "type": "Polygon",
        "coordinates": [
          [
            [
              -2.400384504458127,
              53.54442390566781
            ],
            [
              -2.400518099776175,
              53.544428132026134
            ],
            [
              -2.400503770183257,
              53.54458862302889
            ],
            [
              -2.400370174361124,
              53.5445843966556
            ],
            [
              -2.400384504458127,
              53.54442390566781
            ]
          ]
        ]
      },
      "properties": {
        "slot_id": "building_type_3",
        "lineage_id": "building_type_3-new-20260927T1328+0300",
        "owner": "cagdas aydin",
        "partition": "building_type_3",
        "page_generation": 61,
        "semantic_mode": null,
        "batch_id": "BT3-P112G61-20261008-OSOML-GM-WORSHIP-BOLTON10",
        "cursor": "BT3-P112G61-20261008-OSOML-GM-WORSHIP-BOLTON10-p112",
        "building_state": "BUILDING_PRESENT",
        "source_record_id": "os-openmap-local:important-building:983C6B8A-3B4A-49B3-A9BA-28ABFDDD05AD",
        "semantic_identity": "os-openmap-local:important-building:983C6B8A-3B4A-49B3-A9BA-28ABFDDD05AD",
        "source_row_ordinal": 9,
        "name": "Unknown",
        "building_type_use": "place_of_worship",
        "type_use_evidence": "OS CLASSIFICA=Place Of Worship; BUILDGTHEM=Religious Buildings; FEATCODE=15025",
        "dataset": "OS OpenMap Local ImportantBuilding",
        "quality": "OS-derived generalized building footprint",
        "coordinate_reference_system": "OGC:CRS84; source OS EPSG:27700",
        "ID": "983C6B8A-3B4A-49B3-A9BA-28ABFDDD05AD",
        "DISTNAME": "Unknown",
        "BUILDGTHEM": "Religious Buildings",
        "CLASSIFICA": "Place Of Worship",
        "FEATCODE": 15025,
        "area_code": "E08000001",
        "area_name": "Bolton",
        "authority": "Ordnance Survey OS OpenMap Local via Trafford Data Lab local government data service",
        "source_url": "https://github.com/traffordDataLab/open_data/blob/4d9d4e650aa326a2efdb46c495433fc388e5a046/places_of_worship/gm_places_of_worship_RAW.geojson",
        "final_url": "https://github.com/traffordDataLab/open_data/blob/4d9d4e650aa326a2efdb46c495433fc388e5a046/places_of_worship/gm_places_of_worship_RAW.geojson",
        "http_status": 200,
        "access_utc": "2026-10-08T06:36:38.402Z",
        "data_date": "July 2018, source revision 2018-07-17",
        "source_version": "OS OpenMap Local ImportantBuilding, Greater Manchester places of worship RAW, Trafford Data Lab July 2018, revision 4d9d4e650aa326a2efdb46c495433fc388e5a046, blob 0aafb5f8866e22e06a93b695e4822a055588e62f",
        "license": "Open Government Licence v3.0; Contains OS data © Crown copyright and database right 2018",
        "source_file_sha256": "c82464e01e30879859c59e6c47748434dc57b1609f297b578d9bf3402b90df29",
        "field_evidence": [
          "ID",
          "DISTNAME",
          "BUILDGTHEM",
          "CLASSIFICA",
          "FEATCODE",
          "area_name",
          "geometry"
        ],
        "confidence_score_0_100": 95,
        "evidence_grade": "A_OS_OPENMAP_LOCAL_CLASSIFIED_BUILDING_POLYGON",
        "official_public_no_login": true,
        "fake_data": false,
        "evidence_slice_sha256": "7f988ef761e320de3e20dbf32981da5467c7d7b19210ea09528b4ff93d1c1328"
      }
    },
    {
      "type": "Feature",
      "geometry": {
        "type": "Polygon",
        "coordinates": [
          [
            [
              -2.400305718610844,
              53.54455063639226
            ],
            [
              -2.399940412278043,
              53.54453972500356
            ],
            [
              -2.399951052757638,
              53.544403874638
            ],
            [
              -2.400316353680153,
              53.54441433659067
            ],
            [
              -2.400305718610844,
              53.54455063639226
            ]
          ]
        ]
      },
      "properties": {
        "slot_id": "building_type_3",
        "lineage_id": "building_type_3-new-20260927T1328+0300",
        "owner": "cagdas aydin",
        "partition": "building_type_3",
        "page_generation": 61,
        "semantic_mode": null,
        "batch_id": "BT3-P112G61-20261008-OSOML-GM-WORSHIP-BOLTON10",
        "cursor": "BT3-P112G61-20261008-OSOML-GM-WORSHIP-BOLTON10-p112",
        "building_state": "BUILDING_PRESENT",
        "source_record_id": "os-openmap-local:important-building:7C592E81-95FE-44F5-8A5A-6825D92B7679",
        "semantic_identity": "os-openmap-local:important-building:7C592E81-95FE-44F5-8A5A-6825D92B7679",
        "source_row_ordinal": 10,
        "name": "Unknown",
        "building_type_use": "place_of_worship",
        "type_use_evidence": "OS CLASSIFICA=Place Of Worship; BUILDGTHEM=Religious Buildings; FEATCODE=15025",
        "dataset": "OS OpenMap Local ImportantBuilding",
        "quality": "OS-derived generalized building footprint",
        "coordinate_reference_system": "OGC:CRS84; source OS EPSG:27700",
        "ID": "7C592E81-95FE-44F5-8A5A-6825D92B7679",
        "DISTNAME": "Unknown",
        "BUILDGTHEM": "Religious Buildings",
        "CLASSIFICA": "Place Of Worship",
        "FEATCODE": 15025,
        "area_code": "E08000001",
        "area_name": "Bolton",
        "authority": "Ordnance Survey OS OpenMap Local via Trafford Data Lab local government data service",
        "source_url": "https://github.com/traffordDataLab/open_data/blob/4d9d4e650aa326a2efdb46c495433fc388e5a046/places_of_worship/gm_places_of_worship_RAW.geojson",
        "final_url": "https://github.com/traffordDataLab/open_data/blob/4d9d4e650aa326a2efdb46c495433fc388e5a046/places_of_worship/gm_places_of_worship_RAW.geojson",
        "http_status": 200,
        "access_utc": "2026-10-08T06:36:38.402Z",
        "data_date": "July 2018, source revision 2018-07-17",
        "source_version": "OS OpenMap Local ImportantBuilding, Greater Manchester places of worship RAW, Trafford Data Lab July 2018, revision 4d9d4e650aa326a2efdb46c495433fc388e5a046, blob 0aafb5f8866e22e06a93b695e4822a055588e62f",
        "license": "Open Government Licence v3.0; Contains OS data © Crown copyright and database right 2018",
        "source_file_sha256": "c82464e01e30879859c59e6c47748434dc57b1609f297b578d9bf3402b90df29",
        "field_evidence": [
          "ID",
          "DISTNAME",
          "BUILDGTHEM",
          "CLASSIFICA",
          "FEATCODE",
          "area_name",
          "geometry"
        ],
        "confidence_score_0_100": 95,
        "evidence_grade": "A_OS_OPENMAP_LOCAL_CLASSIFIED_BUILDING_POLYGON",
        "official_public_no_login": true,
        "fake_data": false,
        "evidence_slice_sha256": "2ae8cc9a747ab8b783a752bbc9010230243fe046e4320fbf2d4041937b70297c"
      }
    }
  ]
}
