{"type":"FeatureCollection","features":[{"type":"Feature","id":"CHERWELL_24_02406_F_DETACHED_HOME_OFFICE_BUILDING_01","geometry":null,"properties":{"slot_id":"planned_buildings_4","owner":"planned_buildings_4","lineage_id":"pb4-8debc7c8ddf348a2","page_generation":1,"partition":"layer24","schema":"AAYS_LAYER24_EVIDENCE_V1","semantic_mode":"PLANNED_BUILDINGS_OFFICIAL_REFERENCE_DISTINCT_STRUCTURE","batch_id":"20261004T093527Z-cherwell-24-02406-f-window-001","publisher":"Cherwell District Council","source_family":"CHERWELL_PLANNING_REGISTER","source_url":"https://planningregister.cherwell.gov.uk/Planning/Display/24/02406/F","final_url":"https://planningregister.cherwell.gov.uk/Planning/Display/24/02406/F","access_utc":"2026-10-04T09:35:27Z","data_date":"2024-09-19","license":"Public planning register; document copyright/usage remains governed by council register terms","planning_reference":"24/02406/F","location":"6 Wincanton Road Bicester OX26 1EJ","proposal":"Construction of detached home office building within rear garden","status":"Application Permitted","geometry_status":"NOT_MATERIALIZED_LOCAL_OPENCODE","field_evidence":"Official Cherwell District Council Planning Register application 24/02406/F. Application Type: Full Development. Status: Application Permitted. Valid date: 19/09/2024. Location: 6 Wincanton Road Bicester OX26 1EJ. Proposal: Construction of detached home office building within rear garden. Decision: Permitted. Decision Issued Date: 14/11/2024. Official documents include proposed drawing file 6 Wincanton Road - Outer House Drawings - v2.pdf, described as SLP / BP / Floor plan / Elevations. The official proposal and proposed drawing set identify one new detached home office building within the rear garden. Geometry/materialization is deferred to local OpenCode.","evidence_slice_sha256":"bd92fdf98a23ecc5212b7ea8d486df061856d3b7102f2edc996f5efe8c7a8f1b","confidence":0.99,"evidence_grade":"A_OFFICIAL_LOCAL_AUTHORITY_PLANNING_REGISTER_DETACHED_HOME_OFFICE_BUILDING_PERMITTED","fake_data":false,"source_record_id":"CHERWELL_24_02406_F_DETACHED_HOME_OFFICE_BUILDING_01","planned_building":"detached home office building","official_plan_reference":"6 Wincanton Road - Outer House Drawings - v2.pdf","official_plan_description":"SLP / BP / Floor plan / Elevations"}}]}
