{"type":"FeatureCollection","name":"security_public_safety_1_batch_exact_identifiers","features":[{"type":"Feature","geometry":null,"properties":{"slot_id":"security_public_safety_1","evidence_scope":"coverage_exact_identifier","coverage_area_id":"E12000007","exact_identifier":"E12000007","exact_identifier_type":"ons.gov.uk.region_code","coverage_area_name":"London","source_url":"https://www.ons.gov.uk/explore-local-statistics/areas/E12000007-london","final_url":"https://www.ons.gov.uk/explore-local-statistics/areas/E12000007-london","access_utc":"2026-10-03T19:11:00Z","data_date":"2026-10-03","data_date_basis":"Current official ONS area page snapshot observed on access date","license":"Open Government Licence v3.0","file_sha256":"55edbaa2f98d882c3e9e5ad66b6ae991cd0b2aabb733d4ebf3ccca53492c31e4","file_sha256_scope":"normalized official London region code/name/classification record; not raw HTML bytes","evidence_slice_sha256":"d49816ddc742a6173ab9bba40f5f383619f8702ba188ab96d519654c043857e8","field_evidence":{"page_heading":"London E12000007","classification":"Region in England","exact_record":{"code":"E12000007","name":"London"},"source":"Office for National Statistics Explore local statistics"},"confidence_score_0_100":100,"evidence_grade":"A_OFFICIAL_EXACT_IDENTIFIER","fake_data":false,"spatial_binding_method":"DEFERRED_TO_LOCAL_OPENCODE","canonical_parcel_id":null,"materialized_parcel_count":0,"direct_parcel_count":0}}],"metadata":{"source_area_count":204,"source_area_delta_this_turn":1,"latest_evidence_window":"ONS_LOCAL_STATISTICS_LONDON_REGION_20261003T191100Z","latest_status":"1_NEW_OFFICIAL_EXACT_IDENTIFIER_ACCEPTED","exact_blocker":"LOCAL_OPENCODE_EXACT_IDENTIFIER_TO_CANONICAL_SPATIAL_BINDING_REQUIRED","first_missing_criterion":"LOCAL_OPENCODE_EXACT_IDENTIFIER_TO_CANONICAL_SPATIAL_BINDING"}}
