{"type":"FeatureCollection","features":[{"type":"Feature","id":"west-berkshire-local-plan-review-2023-2041-non-strategic-site-allocations:RSA1","geometry":null,"properties":{"slot_id":"future_growth_4","lineage_id":"fg4-e4c9076d6f554f00","page_generation":1,"owner":"future_growth_4","partition":"future_growth","semantic_mode":"SOURCE_AREA_EXACT_IDENTIFIER","dataset":"west-berkshire-local-plan-review-2023-2041-non-strategic-site-allocations","entity":"RSA1","reference":"RSA1","quality":"authoritative","organisation":"West Berkshire Council","name":"Land north of Newbury College, Monks Lane, Newbury","source_url":"https://www.westberks.gov.uk/lpr-site-allocation-policies","final_url":"https://www.westberks.gov.uk/lpr-site-allocation-policies","access_utc":"2026-10-04T06:47:01Z","data_date":"","license":"not stated on source page","field_evidence":{"policy_reference":"RSA1","site_name":"Land north of Newbury College, Monks Lane, Newbury","allocation_class":"Non-strategic residential site allocation","area":"Newbury and Thatcham Area","plan_title":"West Berkshire Local Plan Review 2023-2041","plan_period":"2023-2041"},"evidence_slice_sha256":"ac2297ae0d8f2efd6c3c553412126fb695fc752649db11aaeac223f92c64ebc2","confidence_score_0_100":99,"confidence":0.99,"evidence_grade":"A","exact_identifier_provided":true,"coverage_polygon_provided":false,"coverage_geometry_available":false,"fake_data":false,"join_mode":"LOCAL_OPENCODE_SPATIAL_JOIN_PENDING","direct_parcel":false,"source_area_count_contribution":1,"planned_building_count_contribution":0}}]}