{"type":"FeatureCollection","features":[{"type":"Feature","geometry":null,"properties":{"slot_id":"future_growth_1","lineage_id":"future_growth_1-newstart-20260927T153100+0300","page_generation":null,"accepted_as_parcel":false,"source_area_count_contribution":1,"exact_identifier":"Bd-UE3","exact_identifier_provided":true,"coverage_polygon_provided":false,"identifier_namespace":"Cornwall Site Allocations DPD policy","site_name":"St Lawrence Urban Extension, Bodmin","access_utc":"2026-10-04T12:29:00Z","data_date":"2023-05-03","source_url":"https://www.cornwall.gov.uk/planning-and-building-control/places/","final_url":"https://www.cornwall.gov.uk/planning-and-building-control/places/","allocations_dpd_url":"https://www.cornwall.gov.uk/allocationsplan","concept_masterplan_url":"https://letstalk.cornwall.gov.uk/stlawrenceplan?tool=map","proposals_map_url":"https://www.cornwall.gov.uk/planning-and-building-control/planning-policy/adopted-plans/cornwall-site-allocations-dpd-proposals-map/","license":"Cornwall Council public planning-policy and planning-guidance pages; page-specific reuse licence not stated on the source pages","authority":"Cornwall Council","allocation_type":"allocated housing site","expected_dwellings_approx":780,"site_allocations_dpd_adoption_date":"2019-11-26","concept_masterplan_adoption_date":"2023-05-03","policy_requirement":"planning permission is to accord with the masterplan/concept plan for the whole site","evidence_grade":"A","confidence_score_0_100":99,"evidence_scope":"exact Cornwall Site Allocations DPD policy Bd-UE3 plus Cornwall Council adopted St Lawrence Urban Extension Concept Masterplan","evidence_slice_sha256":"b72995a893fab5ef0e51059f5650ae0eb4f10f7a3b4aeef5536066326352ccd6","fake_data":false,"spatial_binding_method":"official Bd-UE3 statutory allocation identifier plus Cornwall policies-map/concept-masterplan area; exact boundary extraction, canonical parcel spatial join and materialization delegated to local OpenCode","planned_building_count_contribution":0}}]}