{
  "type": "FeatureCollection",
  "features": [
    {
      "type": "Feature",
      "geometry": {
        "type": "Polygon",
        "coordinates": [
          [
            [
              -2.283121,
              53.453664
            ],
            [
              -2.283453,
              53.453508
            ],
            [
              -2.283676,
              53.453677
            ],
            [
              -2.283345,
              53.453832
            ],
            [
              -2.283121,
              53.453664
            ]
          ]
        ]
      },
      "properties": {
        "slot_id": "building_type_3",
        "lineage_id": "building_type_3-new-20260927T1328+0300",
        "owner": "cagdas aydin",
        "partition": "building_type_3",
        "page_generation": 61,
        "semantic_mode": null,
        "batch_id": "BT3-P113G61-20261008-OSOML-TRAFFORD-STYLED-WORSHIP10",
        "cursor": "BT3-P113G61-20261008-OSOML-TRAFFORD-STYLED-WORSHIP10-p113",
        "building_state": "BUILDING_PRESENT",
        "source_record_id": "os-openmap-local:trafford:religious-building:geometry-sha256:c6861dac0fb75c59d39878dcc7fac4255cd0be13a7990acbf1e1cd0d8ccb616b",
        "semantic_identity": "os-openmap-local:trafford:religious-building:geometry-sha256:c6861dac0fb75c59d39878dcc7fac4255cd0be13a7990acbf1e1cd0d8ccb616b",
        "source_row_ordinal": 11,
        "name": "St. Hilda's Parish Church",
        "building_type_use": "place_of_worship",
        "type_use_evidence": "Ordnance Survey Religious buildings/places of worship source dataset and named building in source field Name",
        "dataset": "OS OpenMap Local Trafford places of worship styled GeoJSON",
        "quality": "OS-derived generalized building polygon with styled attributes; original official feature ID not in styled file",
        "coordinate_reference_system": "OGC:CRS84 / WGS84 long-lat, original OS EPSG:27700",
        "Name": "St. Hilda's Parish Church",
        "stroke": "#fc6721",
        "stroke-width": 3,
        "stroke-opacity": 1,
        "fill": "#fc6721",
        "fill-opacity": 0.8,
        "authority": "Ordnance Survey OS OpenMap Local via Trafford Data Lab local-government open data",
        "source_url": "https://github.com/traffordDataLab/open_data/blob/ec1f36cc0a48dbeb2a02ede11e38c103e53c00eb/places_of_worship/trafford_places_of_worship_styled.geojson",
        "final_url": "https://github.com/traffordDataLab/open_data/blob/ec1f36cc0a48dbeb2a02ede11e38c103e53c00eb/places_of_worship/trafford_places_of_worship_styled.geojson",
        "http_status": 200,
        "access_utc": "2026-10-08T07:10:57.935Z",
        "data_date": "July 2018; source commit 2018-07-17",
        "source_version": "Ordnance Survey OpenMap Local Trafford religious buildings styled GeoJSON, July 2018, revision ec1f36cc0a48dbeb2a02ede11e38c103e53c00eb, blob a5c0bd2f565d27c4cb182c49a6fab15e27c5f349",
        "license": "Open Government Licence v3.0; Contains OS data © Crown copyright and database right 2018",
        "source_file_sha256": "595514cea7b0042130e21bce3d2fab4c3f1595e6d8277c5dc3fce92e9c48c906",
        "field_evidence": [
          "Name",
          "geometry",
          "dataset_description:Religious buildings/places of worship",
          "source:Ordnance Survey OS OpenMap Local"
        ],
        "confidence_score_0_100": 91,
        "evidence_grade": "B_OS_OPENMAP_LOCAL_STYLED_BUILDING_POLYGON_WITH_DATASET_TYPE_EVIDENCE",
        "official_public_no_login": true,
        "fake_data": false,
        "evidence_slice_sha256": "7896d0da0c11395dfac74b8d3e603011593f9940cebd3524a47818e9b609ed33"
      }
    },
    {
      "type": "Feature",
      "geometry": {
        "type": "Polygon",
        "coordinates": [
          [
            [
              -2.296923,
              53.415118
            ],
            [
              -2.297268,
              53.415095
            ],
            [
              -2.297308,
              53.415298
            ],
            [
              -2.297144,
              53.415309
            ],
            [
              -2.297131,
              53.415246
            ],
            [
              -2.29695,
              53.415258
            ],
            [
              -2.296923,
              53.415118
            ]
          ]
        ]
      },
      "properties": {
        "slot_id": "building_type_3",
        "lineage_id": "building_type_3-new-20260927T1328+0300",
        "owner": "cagdas aydin",
        "partition": "building_type_3",
        "page_generation": 61,
        "semantic_mode": null,
        "batch_id": "BT3-P113G61-20261008-OSOML-TRAFFORD-STYLED-WORSHIP10",
        "cursor": "BT3-P113G61-20261008-OSOML-TRAFFORD-STYLED-WORSHIP10-p113",
        "building_state": "BUILDING_PRESENT",
        "source_record_id": "os-openmap-local:trafford:religious-building:geometry-sha256:a95819f47fdc313d10b24fd34bce6b401f2028d61840648a929a290550f49238",
        "semantic_identity": "os-openmap-local:trafford:religious-building:geometry-sha256:a95819f47fdc313d10b24fd34bce6b401f2028d61840648a929a290550f49238",
        "source_row_ordinal": 12,
        "name": "Church Of St. Francis",
        "building_type_use": "place_of_worship",
        "type_use_evidence": "Ordnance Survey Religious buildings/places of worship source dataset and named building in source field Name",
        "dataset": "OS OpenMap Local Trafford places of worship styled GeoJSON",
        "quality": "OS-derived generalized building polygon with styled attributes; original official feature ID not in styled file",
        "coordinate_reference_system": "OGC:CRS84 / WGS84 long-lat, original OS EPSG:27700",
        "Name": "Church Of St. Francis",
        "stroke": "#fc6721",
        "stroke-width": 3,
        "stroke-opacity": 1,
        "fill": "#fc6721",
        "fill-opacity": 0.8,
        "authority": "Ordnance Survey OS OpenMap Local via Trafford Data Lab local-government open data",
        "source_url": "https://github.com/traffordDataLab/open_data/blob/ec1f36cc0a48dbeb2a02ede11e38c103e53c00eb/places_of_worship/trafford_places_of_worship_styled.geojson",
        "final_url": "https://github.com/traffordDataLab/open_data/blob/ec1f36cc0a48dbeb2a02ede11e38c103e53c00eb/places_of_worship/trafford_places_of_worship_styled.geojson",
        "http_status": 200,
        "access_utc": "2026-10-08T07:10:57.935Z",
        "data_date": "July 2018; source commit 2018-07-17",
        "source_version": "Ordnance Survey OpenMap Local Trafford religious buildings styled GeoJSON, July 2018, revision ec1f36cc0a48dbeb2a02ede11e38c103e53c00eb, blob a5c0bd2f565d27c4cb182c49a6fab15e27c5f349",
        "license": "Open Government Licence v3.0; Contains OS data © Crown copyright and database right 2018",
        "source_file_sha256": "595514cea7b0042130e21bce3d2fab4c3f1595e6d8277c5dc3fce92e9c48c906",
        "field_evidence": [
          "Name",
          "geometry",
          "dataset_description:Religious buildings/places of worship",
          "source:Ordnance Survey OS OpenMap Local"
        ],
        "confidence_score_0_100": 91,
        "evidence_grade": "B_OS_OPENMAP_LOCAL_STYLED_BUILDING_POLYGON_WITH_DATASET_TYPE_EVIDENCE",
        "official_public_no_login": true,
        "fake_data": false,
        "evidence_slice_sha256": "cd3ef58d8c2054a95ab068a95a263c0f9777a25afecfa1d6c7270c43de1c7eff"
      }
    },
    {
      "type": "Feature",
      "geometry": {
        "type": "Polygon",
        "coordinates": [
          [
            [
              -2.294468,
              53.420075
            ],
            [
              -2.294574,
              53.419763
            ],
            [
              -2.294787,
              53.419789
            ],
            [
              -2.294679,
              53.420101
            ],
            [
              -2.294468,
              53.420075
            ]
          ]
        ]
      },
      "properties": {
        "slot_id": "building_type_3",
        "lineage_id": "building_type_3-new-20260927T1328+0300",
        "owner": "cagdas aydin",
        "partition": "building_type_3",
        "page_generation": 61,
        "semantic_mode": null,
        "batch_id": "BT3-P113G61-20261008-OSOML-TRAFFORD-STYLED-WORSHIP10",
        "cursor": "BT3-P113G61-20261008-OSOML-TRAFFORD-STYLED-WORSHIP10-p113",
        "building_state": "BUILDING_PRESENT",
        "source_record_id": "os-openmap-local:trafford:religious-building:geometry-sha256:818d4301876c76d0d13a2b2a6fed010bdf9be07c3e238908f3eb95ab48901165",
        "semantic_identity": "os-openmap-local:trafford:religious-building:geometry-sha256:818d4301876c76d0d13a2b2a6fed010bdf9be07c3e238908f3eb95ab48901165",
        "source_row_ordinal": 13,
        "name": "Sale Moor Methodist Church",
        "building_type_use": "place_of_worship",
        "type_use_evidence": "Ordnance Survey Religious buildings/places of worship source dataset and named building in source field Name",
        "dataset": "OS OpenMap Local Trafford places of worship styled GeoJSON",
        "quality": "OS-derived generalized building polygon with styled attributes; original official feature ID not in styled file",
        "coordinate_reference_system": "OGC:CRS84 / WGS84 long-lat, original OS EPSG:27700",
        "Name": "Sale Moor Methodist Church",
        "stroke": "#fc6721",
        "stroke-width": 3,
        "stroke-opacity": 1,
        "fill": "#fc6721",
        "fill-opacity": 0.8,
        "authority": "Ordnance Survey OS OpenMap Local via Trafford Data Lab local-government open data",
        "source_url": "https://github.com/traffordDataLab/open_data/blob/ec1f36cc0a48dbeb2a02ede11e38c103e53c00eb/places_of_worship/trafford_places_of_worship_styled.geojson",
        "final_url": "https://github.com/traffordDataLab/open_data/blob/ec1f36cc0a48dbeb2a02ede11e38c103e53c00eb/places_of_worship/trafford_places_of_worship_styled.geojson",
        "http_status": 200,
        "access_utc": "2026-10-08T07:10:57.935Z",
        "data_date": "July 2018; source commit 2018-07-17",
        "source_version": "Ordnance Survey OpenMap Local Trafford religious buildings styled GeoJSON, July 2018, revision ec1f36cc0a48dbeb2a02ede11e38c103e53c00eb, blob a5c0bd2f565d27c4cb182c49a6fab15e27c5f349",
        "license": "Open Government Licence v3.0; Contains OS data © Crown copyright and database right 2018",
        "source_file_sha256": "595514cea7b0042130e21bce3d2fab4c3f1595e6d8277c5dc3fce92e9c48c906",
        "field_evidence": [
          "Name",
          "geometry",
          "dataset_description:Religious buildings/places of worship",
          "source:Ordnance Survey OS OpenMap Local"
        ],
        "confidence_score_0_100": 91,
        "evidence_grade": "B_OS_OPENMAP_LOCAL_STYLED_BUILDING_POLYGON_WITH_DATASET_TYPE_EVIDENCE",
        "official_public_no_login": true,
        "fake_data": false,
        "evidence_slice_sha256": "dafad02dc6de44d8ec5c9a6c64948f230f6883d9297031c38937a097f0ef71fe"
      }
    },
    {
      "type": "Feature",
      "geometry": {
        "type": "Polygon",
        "coordinates": [
          [
            [
              -2.32179,
              53.4226
            ],
            [
              -2.321973,
              53.422445
            ],
            [
              -2.322401,
              53.422627
            ],
            [
              -2.322241,
              53.422761
            ],
            [
              -2.321853,
              53.422596
            ],
            [
              -2.321807,
              53.422635
            ],
            [
              -2.321993,
              53.422713
            ],
            [
              -2.321917,
              53.422776
            ],
            [
              -2.321696,
              53.422682
            ],
            [
              -2.32163,
              53.422738
            ],
            [
              -2.321495,
              53.42268
            ],
            [
              -2.321657,
              53.422543
            ],
            [
              -2.32179,
              53.4226
            ]
          ]
        ]
      },
      "properties": {
        "slot_id": "building_type_3",
        "lineage_id": "building_type_3-new-20260927T1328+0300",
        "owner": "cagdas aydin",
        "partition": "building_type_3",
        "page_generation": 61,
        "semantic_mode": null,
        "batch_id": "BT3-P113G61-20261008-OSOML-TRAFFORD-STYLED-WORSHIP10",
        "cursor": "BT3-P113G61-20261008-OSOML-TRAFFORD-STYLED-WORSHIP10-p113",
        "building_state": "BUILDING_PRESENT",
        "source_record_id": "os-openmap-local:trafford:religious-building:geometry-sha256:acd09c9950ff64d881b22109ab12e1b6317815970113e2026d2b19f37ff0ecdc",
        "semantic_identity": "os-openmap-local:trafford:religious-building:geometry-sha256:acd09c9950ff64d881b22109ab12e1b6317815970113e2026d2b19f37ff0ecdc",
        "source_row_ordinal": 14,
        "name": "St. Paul's Church",
        "building_type_use": "place_of_worship",
        "type_use_evidence": "Ordnance Survey Religious buildings/places of worship source dataset and named building in source field Name",
        "dataset": "OS OpenMap Local Trafford places of worship styled GeoJSON",
        "quality": "OS-derived generalized building polygon with styled attributes; original official feature ID not in styled file",
        "coordinate_reference_system": "OGC:CRS84 / WGS84 long-lat, original OS EPSG:27700",
        "Name": "St. Paul's Church",
        "stroke": "#fc6721",
        "stroke-width": 3,
        "stroke-opacity": 1,
        "fill": "#fc6721",
        "fill-opacity": 0.8,
        "authority": "Ordnance Survey OS OpenMap Local via Trafford Data Lab local-government open data",
        "source_url": "https://github.com/traffordDataLab/open_data/blob/ec1f36cc0a48dbeb2a02ede11e38c103e53c00eb/places_of_worship/trafford_places_of_worship_styled.geojson",
        "final_url": "https://github.com/traffordDataLab/open_data/blob/ec1f36cc0a48dbeb2a02ede11e38c103e53c00eb/places_of_worship/trafford_places_of_worship_styled.geojson",
        "http_status": 200,
        "access_utc": "2026-10-08T07:10:57.935Z",
        "data_date": "July 2018; source commit 2018-07-17",
        "source_version": "Ordnance Survey OpenMap Local Trafford religious buildings styled GeoJSON, July 2018, revision ec1f36cc0a48dbeb2a02ede11e38c103e53c00eb, blob a5c0bd2f565d27c4cb182c49a6fab15e27c5f349",
        "license": "Open Government Licence v3.0; Contains OS data © Crown copyright and database right 2018",
        "source_file_sha256": "595514cea7b0042130e21bce3d2fab4c3f1595e6d8277c5dc3fce92e9c48c906",
        "field_evidence": [
          "Name",
          "geometry",
          "dataset_description:Religious buildings/places of worship",
          "source:Ordnance Survey OS OpenMap Local"
        ],
        "confidence_score_0_100": 91,
        "evidence_grade": "B_OS_OPENMAP_LOCAL_STYLED_BUILDING_POLYGON_WITH_DATASET_TYPE_EVIDENCE",
        "official_public_no_login": true,
        "fake_data": false,
        "evidence_slice_sha256": "06dc5cfff0de7206914e239bfd7b7ff7651eaf3ca71c4a96d1cc72b4c1c1f557"
      }
    },
    {
      "type": "Feature",
      "geometry": {
        "type": "Polygon",
        "coordinates": [
          [
            [
              -2.319127,
              53.422581
            ],
            [
              -2.319421,
              53.422673
            ],
            [
              -2.319418,
              53.422677
            ],
            [
              -2.319607,
              53.422736
            ],
            [
              -2.319503,
              53.422853
            ],
            [
              -2.319023,
              53.422699
            ],
            [
              -2.319127,
              53.422581
            ]
          ]
        ]
      },
      "properties": {
        "slot_id": "building_type_3",
        "lineage_id": "building_type_3-new-20260927T1328+0300",
        "owner": "cagdas aydin",
        "partition": "building_type_3",
        "page_generation": 61,
        "semantic_mode": null,
        "batch_id": "BT3-P113G61-20261008-OSOML-TRAFFORD-STYLED-WORSHIP10",
        "cursor": "BT3-P113G61-20261008-OSOML-TRAFFORD-STYLED-WORSHIP10-p113",
        "building_state": "BUILDING_PRESENT",
        "source_record_id": "os-openmap-local:trafford:religious-building:geometry-sha256:28f22707fd2eab5fefb0fbccbba3eed5581068ad2fc7ee3afbec5bf62e39451d",
        "semantic_identity": "os-openmap-local:trafford:religious-building:geometry-sha256:28f22707fd2eab5fefb0fbccbba3eed5581068ad2fc7ee3afbec5bf62e39451d",
        "source_row_ordinal": 15,
        "name": "St. Joseph's Roman Catholic Church",
        "building_type_use": "place_of_worship",
        "type_use_evidence": "Ordnance Survey Religious buildings/places of worship source dataset and named building in source field Name",
        "dataset": "OS OpenMap Local Trafford places of worship styled GeoJSON",
        "quality": "OS-derived generalized building polygon with styled attributes; original official feature ID not in styled file",
        "coordinate_reference_system": "OGC:CRS84 / WGS84 long-lat, original OS EPSG:27700",
        "Name": "St. Joseph's Roman Catholic Church",
        "stroke": "#fc6721",
        "stroke-width": 3,
        "stroke-opacity": 1,
        "fill": "#fc6721",
        "fill-opacity": 0.8,
        "authority": "Ordnance Survey OS OpenMap Local via Trafford Data Lab local-government open data",
        "source_url": "https://github.com/traffordDataLab/open_data/blob/ec1f36cc0a48dbeb2a02ede11e38c103e53c00eb/places_of_worship/trafford_places_of_worship_styled.geojson",
        "final_url": "https://github.com/traffordDataLab/open_data/blob/ec1f36cc0a48dbeb2a02ede11e38c103e53c00eb/places_of_worship/trafford_places_of_worship_styled.geojson",
        "http_status": 200,
        "access_utc": "2026-10-08T07:10:57.935Z",
        "data_date": "July 2018; source commit 2018-07-17",
        "source_version": "Ordnance Survey OpenMap Local Trafford religious buildings styled GeoJSON, July 2018, revision ec1f36cc0a48dbeb2a02ede11e38c103e53c00eb, blob a5c0bd2f565d27c4cb182c49a6fab15e27c5f349",
        "license": "Open Government Licence v3.0; Contains OS data © Crown copyright and database right 2018",
        "source_file_sha256": "595514cea7b0042130e21bce3d2fab4c3f1595e6d8277c5dc3fce92e9c48c906",
        "field_evidence": [
          "Name",
          "geometry",
          "dataset_description:Religious buildings/places of worship",
          "source:Ordnance Survey OS OpenMap Local"
        ],
        "confidence_score_0_100": 91,
        "evidence_grade": "B_OS_OPENMAP_LOCAL_STYLED_BUILDING_POLYGON_WITH_DATASET_TYPE_EVIDENCE",
        "official_public_no_login": true,
        "fake_data": false,
        "evidence_slice_sha256": "19e3978e3457e6b2aedc16ca9310cbf3910e6614920259373b971e787815c66e"
      }
    },
    {
      "type": "Feature",
      "geometry": {
        "type": "Polygon",
        "coordinates": [
          [
            [
              -2.319141,
              53.409157
            ],
            [
              -2.318483,
              53.409362
            ],
            [
              -2.318375,
              53.409237
            ],
            [
              -2.318866,
              53.409084
            ],
            [
              -2.318768,
              53.408976
            ],
            [
              -2.31893,
              53.408923
            ],
            [
              -2.319141,
              53.409157
            ]
          ]
        ]
      },
      "properties": {
        "slot_id": "building_type_3",
        "lineage_id": "building_type_3-new-20260927T1328+0300",
        "owner": "cagdas aydin",
        "partition": "building_type_3",
        "page_generation": 61,
        "semantic_mode": null,
        "batch_id": "BT3-P113G61-20261008-OSOML-TRAFFORD-STYLED-WORSHIP10",
        "cursor": "BT3-P113G61-20261008-OSOML-TRAFFORD-STYLED-WORSHIP10-p113",
        "building_state": "BUILDING_PRESENT",
        "source_record_id": "os-openmap-local:trafford:religious-building:geometry-sha256:56be30e7db5f51d09e61f27da61c1cd3bc658f1a65ace7baeb0e599ba412fbb4",
        "semantic_identity": "os-openmap-local:trafford:religious-building:geometry-sha256:56be30e7db5f51d09e61f27da61c1cd3bc658f1a65ace7baeb0e599ba412fbb4",
        "source_row_ordinal": 16,
        "name": "St. John's Church",
        "building_type_use": "place_of_worship",
        "type_use_evidence": "Ordnance Survey Religious buildings/places of worship source dataset and named building in source field Name",
        "dataset": "OS OpenMap Local Trafford places of worship styled GeoJSON",
        "quality": "OS-derived generalized building polygon with styled attributes; original official feature ID not in styled file",
        "coordinate_reference_system": "OGC:CRS84 / WGS84 long-lat, original OS EPSG:27700",
        "Name": "St. John's Church",
        "stroke": "#fc6721",
        "stroke-width": 3,
        "stroke-opacity": 1,
        "fill": "#fc6721",
        "fill-opacity": 0.8,
        "authority": "Ordnance Survey OS OpenMap Local via Trafford Data Lab local-government open data",
        "source_url": "https://github.com/traffordDataLab/open_data/blob/ec1f36cc0a48dbeb2a02ede11e38c103e53c00eb/places_of_worship/trafford_places_of_worship_styled.geojson",
        "final_url": "https://github.com/traffordDataLab/open_data/blob/ec1f36cc0a48dbeb2a02ede11e38c103e53c00eb/places_of_worship/trafford_places_of_worship_styled.geojson",
        "http_status": 200,
        "access_utc": "2026-10-08T07:10:57.935Z",
        "data_date": "July 2018; source commit 2018-07-17",
        "source_version": "Ordnance Survey OpenMap Local Trafford religious buildings styled GeoJSON, July 2018, revision ec1f36cc0a48dbeb2a02ede11e38c103e53c00eb, blob a5c0bd2f565d27c4cb182c49a6fab15e27c5f349",
        "license": "Open Government Licence v3.0; Contains OS data © Crown copyright and database right 2018",
        "source_file_sha256": "595514cea7b0042130e21bce3d2fab4c3f1595e6d8277c5dc3fce92e9c48c906",
        "field_evidence": [
          "Name",
          "geometry",
          "dataset_description:Religious buildings/places of worship",
          "source:Ordnance Survey OS OpenMap Local"
        ],
        "confidence_score_0_100": 91,
        "evidence_grade": "B_OS_OPENMAP_LOCAL_STYLED_BUILDING_POLYGON_WITH_DATASET_TYPE_EVIDENCE",
        "official_public_no_login": true,
        "fake_data": false,
        "evidence_slice_sha256": "4099398fbc7cc2995b9c65b66bce3f3d02fdad47e1a66325e70c77b63cdd8f22"
      }
    },
    {
      "type": "Feature",
      "geometry": {
        "type": "Polygon",
        "coordinates": [
          [
            [
              -2.31895,
              53.422856
            ],
            [
              -2.318629,
              53.422751
            ],
            [
              -2.318704,
              53.422669
            ],
            [
              -2.319025,
              53.422774
            ],
            [
              -2.31895,
              53.422856
            ]
          ]
        ]
      },
      "properties": {
        "slot_id": "building_type_3",
        "lineage_id": "building_type_3-new-20260927T1328+0300",
        "owner": "cagdas aydin",
        "partition": "building_type_3",
        "page_generation": 61,
        "semantic_mode": null,
        "batch_id": "BT3-P113G61-20261008-OSOML-TRAFFORD-STYLED-WORSHIP10",
        "cursor": "BT3-P113G61-20261008-OSOML-TRAFFORD-STYLED-WORSHIP10-p113",
        "building_state": "BUILDING_PRESENT",
        "source_record_id": "os-openmap-local:trafford:religious-building:geometry-sha256:f17b217377f3eef6125146c3e10f8868b977856f8dd62cee11f3ca869315b275",
        "semantic_identity": "os-openmap-local:trafford:religious-building:geometry-sha256:f17b217377f3eef6125146c3e10f8868b977856f8dd62cee11f3ca869315b275",
        "source_row_ordinal": 17,
        "name": "St. Joseph's Roman Catholic Church",
        "building_type_use": "place_of_worship",
        "type_use_evidence": "Ordnance Survey Religious buildings/places of worship source dataset and named building in source field Name",
        "dataset": "OS OpenMap Local Trafford places of worship styled GeoJSON",
        "quality": "OS-derived generalized building polygon with styled attributes; original official feature ID not in styled file",
        "coordinate_reference_system": "OGC:CRS84 / WGS84 long-lat, original OS EPSG:27700",
        "Name": "St. Joseph's Roman Catholic Church",
        "stroke": "#fc6721",
        "stroke-width": 3,
        "stroke-opacity": 1,
        "fill": "#fc6721",
        "fill-opacity": 0.8,
        "authority": "Ordnance Survey OS OpenMap Local via Trafford Data Lab local-government open data",
        "source_url": "https://github.com/traffordDataLab/open_data/blob/ec1f36cc0a48dbeb2a02ede11e38c103e53c00eb/places_of_worship/trafford_places_of_worship_styled.geojson",
        "final_url": "https://github.com/traffordDataLab/open_data/blob/ec1f36cc0a48dbeb2a02ede11e38c103e53c00eb/places_of_worship/trafford_places_of_worship_styled.geojson",
        "http_status": 200,
        "access_utc": "2026-10-08T07:10:57.935Z",
        "data_date": "July 2018; source commit 2018-07-17",
        "source_version": "Ordnance Survey OpenMap Local Trafford religious buildings styled GeoJSON, July 2018, revision ec1f36cc0a48dbeb2a02ede11e38c103e53c00eb, blob a5c0bd2f565d27c4cb182c49a6fab15e27c5f349",
        "license": "Open Government Licence v3.0; Contains OS data © Crown copyright and database right 2018",
        "source_file_sha256": "595514cea7b0042130e21bce3d2fab4c3f1595e6d8277c5dc3fce92e9c48c906",
        "field_evidence": [
          "Name",
          "geometry",
          "dataset_description:Religious buildings/places of worship",
          "source:Ordnance Survey OS OpenMap Local"
        ],
        "confidence_score_0_100": 91,
        "evidence_grade": "B_OS_OPENMAP_LOCAL_STYLED_BUILDING_POLYGON_WITH_DATASET_TYPE_EVIDENCE",
        "official_public_no_login": true,
        "fake_data": false,
        "evidence_slice_sha256": "d010c2654eb2acb4b67a6a6168f2d2affc1f21aeab044e67e0b9ac5a5d497e77"
      }
    },
    {
      "type": "Feature",
      "geometry": {
        "type": "Polygon",
        "coordinates": [
          [
            [
              -2.318587,
              53.408929
            ],
            [
              -2.318549,
              53.408885
            ],
            [
              -2.318752,
              53.40882
            ],
            [
              -2.318791,
              53.408864
            ],
            [
              -2.318587,
              53.408929
            ]
          ]
        ]
      },
      "properties": {
        "slot_id": "building_type_3",
        "lineage_id": "building_type_3-new-20260927T1328+0300",
        "owner": "cagdas aydin",
        "partition": "building_type_3",
        "page_generation": 61,
        "semantic_mode": null,
        "batch_id": "BT3-P113G61-20261008-OSOML-TRAFFORD-STYLED-WORSHIP10",
        "cursor": "BT3-P113G61-20261008-OSOML-TRAFFORD-STYLED-WORSHIP10-p113",
        "building_state": "BUILDING_PRESENT",
        "source_record_id": "os-openmap-local:trafford:religious-building:geometry-sha256:2471304ec18b0dd57437775d3d1e40c62612e3c7b986b12b9fd651a6eaa8e156",
        "semantic_identity": "os-openmap-local:trafford:religious-building:geometry-sha256:2471304ec18b0dd57437775d3d1e40c62612e3c7b986b12b9fd651a6eaa8e156",
        "source_row_ordinal": 18,
        "name": "St. John's Church",
        "building_type_use": "place_of_worship",
        "type_use_evidence": "Ordnance Survey Religious buildings/places of worship source dataset and named building in source field Name",
        "dataset": "OS OpenMap Local Trafford places of worship styled GeoJSON",
        "quality": "OS-derived generalized building polygon with styled attributes; original official feature ID not in styled file",
        "coordinate_reference_system": "OGC:CRS84 / WGS84 long-lat, original OS EPSG:27700",
        "Name": "St. John's Church",
        "stroke": "#fc6721",
        "stroke-width": 3,
        "stroke-opacity": 1,
        "fill": "#fc6721",
        "fill-opacity": 0.8,
        "authority": "Ordnance Survey OS OpenMap Local via Trafford Data Lab local-government open data",
        "source_url": "https://github.com/traffordDataLab/open_data/blob/ec1f36cc0a48dbeb2a02ede11e38c103e53c00eb/places_of_worship/trafford_places_of_worship_styled.geojson",
        "final_url": "https://github.com/traffordDataLab/open_data/blob/ec1f36cc0a48dbeb2a02ede11e38c103e53c00eb/places_of_worship/trafford_places_of_worship_styled.geojson",
        "http_status": 200,
        "access_utc": "2026-10-08T07:10:57.935Z",
        "data_date": "July 2018; source commit 2018-07-17",
        "source_version": "Ordnance Survey OpenMap Local Trafford religious buildings styled GeoJSON, July 2018, revision ec1f36cc0a48dbeb2a02ede11e38c103e53c00eb, blob a5c0bd2f565d27c4cb182c49a6fab15e27c5f349",
        "license": "Open Government Licence v3.0; Contains OS data © Crown copyright and database right 2018",
        "source_file_sha256": "595514cea7b0042130e21bce3d2fab4c3f1595e6d8277c5dc3fce92e9c48c906",
        "field_evidence": [
          "Name",
          "geometry",
          "dataset_description:Religious buildings/places of worship",
          "source:Ordnance Survey OS OpenMap Local"
        ],
        "confidence_score_0_100": 91,
        "evidence_grade": "B_OS_OPENMAP_LOCAL_STYLED_BUILDING_POLYGON_WITH_DATASET_TYPE_EVIDENCE",
        "official_public_no_login": true,
        "fake_data": false,
        "evidence_slice_sha256": "349aae7af33a77a49ffe9083911c15e055b7d93a404db9003e992678ec40d7bb"
      }
    },
    {
      "type": "Feature",
      "geometry": {
        "type": "Polygon",
        "coordinates": [
          [
            [
              -2.317102,
              53.422465
            ],
            [
              -2.317183,
              53.422492
            ],
            [
              -2.317278,
              53.422673
            ],
            [
              -2.317091,
              53.422708
            ],
            [
              -2.317016,
              53.422564
            ],
            [
              -2.317102,
              53.422465
            ]
          ]
        ]
      },
      "properties": {
        "slot_id": "building_type_3",
        "lineage_id": "building_type_3-new-20260927T1328+0300",
        "owner": "cagdas aydin",
        "partition": "building_type_3",
        "page_generation": 61,
        "semantic_mode": null,
        "batch_id": "BT3-P113G61-20261008-OSOML-TRAFFORD-STYLED-WORSHIP10",
        "cursor": "BT3-P113G61-20261008-OSOML-TRAFFORD-STYLED-WORSHIP10-p113",
        "building_state": "BUILDING_PRESENT",
        "source_record_id": "os-openmap-local:trafford:religious-building:geometry-sha256:82d6aa4991a25c54c8a3aa2f4be90d7b6b3bbe207eb0f6bd3bf6a0b3e37442df",
        "semantic_identity": "os-openmap-local:trafford:religious-building:geometry-sha256:82d6aa4991a25c54c8a3aa2f4be90d7b6b3bbe207eb0f6bd3bf6a0b3e37442df",
        "source_row_ordinal": 19,
        "name": "Sale United Reformed Church",
        "building_type_use": "place_of_worship",
        "type_use_evidence": "Ordnance Survey Religious buildings/places of worship source dataset and named building in source field Name",
        "dataset": "OS OpenMap Local Trafford places of worship styled GeoJSON",
        "quality": "OS-derived generalized building polygon with styled attributes; original official feature ID not in styled file",
        "coordinate_reference_system": "OGC:CRS84 / WGS84 long-lat, original OS EPSG:27700",
        "Name": "Sale United Reformed Church",
        "stroke": "#fc6721",
        "stroke-width": 3,
        "stroke-opacity": 1,
        "fill": "#fc6721",
        "fill-opacity": 0.8,
        "authority": "Ordnance Survey OS OpenMap Local via Trafford Data Lab local-government open data",
        "source_url": "https://github.com/traffordDataLab/open_data/blob/ec1f36cc0a48dbeb2a02ede11e38c103e53c00eb/places_of_worship/trafford_places_of_worship_styled.geojson",
        "final_url": "https://github.com/traffordDataLab/open_data/blob/ec1f36cc0a48dbeb2a02ede11e38c103e53c00eb/places_of_worship/trafford_places_of_worship_styled.geojson",
        "http_status": 200,
        "access_utc": "2026-10-08T07:10:57.935Z",
        "data_date": "July 2018; source commit 2018-07-17",
        "source_version": "Ordnance Survey OpenMap Local Trafford religious buildings styled GeoJSON, July 2018, revision ec1f36cc0a48dbeb2a02ede11e38c103e53c00eb, blob a5c0bd2f565d27c4cb182c49a6fab15e27c5f349",
        "license": "Open Government Licence v3.0; Contains OS data © Crown copyright and database right 2018",
        "source_file_sha256": "595514cea7b0042130e21bce3d2fab4c3f1595e6d8277c5dc3fce92e9c48c906",
        "field_evidence": [
          "Name",
          "geometry",
          "dataset_description:Religious buildings/places of worship",
          "source:Ordnance Survey OS OpenMap Local"
        ],
        "confidence_score_0_100": 91,
        "evidence_grade": "B_OS_OPENMAP_LOCAL_STYLED_BUILDING_POLYGON_WITH_DATASET_TYPE_EVIDENCE",
        "official_public_no_login": true,
        "fake_data": false,
        "evidence_slice_sha256": "03a42b57439ed81e793122a6967628ee13d7d16e075f52753bd8f0045c8cba05"
      }
    },
    {
      "type": "Feature",
      "geometry": {
        "type": "Polygon",
        "coordinates": [
          [
            [
              -2.309737,
              53.421014
            ],
            [
              -2.309269,
              53.420868
            ],
            [
              -2.309391,
              53.420727
            ],
            [
              -2.30986,
              53.420874
            ],
            [
              -2.309737,
              53.421014
            ]
          ]
        ]
      },
      "properties": {
        "slot_id": "building_type_3",
        "lineage_id": "building_type_3-new-20260927T1328+0300",
        "owner": "cagdas aydin",
        "partition": "building_type_3",
        "page_generation": 61,
        "semantic_mode": null,
        "batch_id": "BT3-P113G61-20261008-OSOML-TRAFFORD-STYLED-WORSHIP10",
        "cursor": "BT3-P113G61-20261008-OSOML-TRAFFORD-STYLED-WORSHIP10-p113",
        "building_state": "BUILDING_PRESENT",
        "source_record_id": "os-openmap-local:trafford:religious-building:geometry-sha256:cd60076f6f4593b84b99dbb102f31e5bd0288a1f2e21ecd189130344233bcac9",
        "semantic_identity": "os-openmap-local:trafford:religious-building:geometry-sha256:cd60076f6f4593b84b99dbb102f31e5bd0288a1f2e21ecd189130344233bcac9",
        "source_row_ordinal": 20,
        "name": "St. Anne's Church",
        "building_type_use": "place_of_worship",
        "type_use_evidence": "Ordnance Survey Religious buildings/places of worship source dataset and named building in source field Name",
        "dataset": "OS OpenMap Local Trafford places of worship styled GeoJSON",
        "quality": "OS-derived generalized building polygon with styled attributes; original official feature ID not in styled file",
        "coordinate_reference_system": "OGC:CRS84 / WGS84 long-lat, original OS EPSG:27700",
        "Name": "St. Anne's Church",
        "stroke": "#fc6721",
        "stroke-width": 3,
        "stroke-opacity": 1,
        "fill": "#fc6721",
        "fill-opacity": 0.8,
        "authority": "Ordnance Survey OS OpenMap Local via Trafford Data Lab local-government open data",
        "source_url": "https://github.com/traffordDataLab/open_data/blob/ec1f36cc0a48dbeb2a02ede11e38c103e53c00eb/places_of_worship/trafford_places_of_worship_styled.geojson",
        "final_url": "https://github.com/traffordDataLab/open_data/blob/ec1f36cc0a48dbeb2a02ede11e38c103e53c00eb/places_of_worship/trafford_places_of_worship_styled.geojson",
        "http_status": 200,
        "access_utc": "2026-10-08T07:10:57.935Z",
        "data_date": "July 2018; source commit 2018-07-17",
        "source_version": "Ordnance Survey OpenMap Local Trafford religious buildings styled GeoJSON, July 2018, revision ec1f36cc0a48dbeb2a02ede11e38c103e53c00eb, blob a5c0bd2f565d27c4cb182c49a6fab15e27c5f349",
        "license": "Open Government Licence v3.0; Contains OS data © Crown copyright and database right 2018",
        "source_file_sha256": "595514cea7b0042130e21bce3d2fab4c3f1595e6d8277c5dc3fce92e9c48c906",
        "field_evidence": [
          "Name",
          "geometry",
          "dataset_description:Religious buildings/places of worship",
          "source:Ordnance Survey OS OpenMap Local"
        ],
        "confidence_score_0_100": 91,
        "evidence_grade": "B_OS_OPENMAP_LOCAL_STYLED_BUILDING_POLYGON_WITH_DATASET_TYPE_EVIDENCE",
        "official_public_no_login": true,
        "fake_data": false,
        "evidence_slice_sha256": "e6c09c5976ca1b37a38d324121813e293187ef2fbbadab49076cba9ed5a3317c"
      }
    }
  ]
}
