{"type":"FeatureCollection","features":[{"type":"Feature","id":"crawley-brownfield-land-register-part-one-text-summary:CBCBLR018","geometry":null,"properties":{"slot_id":"future_growth_4","lineage_id":"fg4-e4c9076d6f554f00","page_generation":1,"owner":"future_growth_4","partition":"future_growth","semantic_mode":"SOURCE_AREA_EXACT_IDENTIFIER","dataset":"crawley-brownfield-land-register-part-one-text-summary","entity":"CBCBLR018","reference":"CBCBLR018","quality":"authoritative","organisation":"Crawley Borough Council","name":"Town Hall, The Boulevard, Northgate, Crawley","site_address":"Town Hall, The Boulevard, Northgate, Crawley","source_url":"https://crawley.gov.uk/planning/planning-policy/engagement-and-monitoring/brownfield-land-register/publications/brownfield-land-register-part-one-text-summary/brownfield-land-register-part-one-text-summary","final_url":"https://crawley.gov.uk/planning/planning-policy/engagement-and-monitoring/brownfield-land-register/publications/brownfield-land-register-part-one-text-summary/brownfield-land-register-part-one-text-summary","access_utc":"2026-10-07T08:12:48Z","data_date":"","license":"not stated on source window","field_evidence":{"reference":"CBCBLR018","site_name_address":"Town Hall, The Boulevard, Northgate, Crawley","site_area_ha":1.01,"ownership_status":"owned by a public authority","planning_status":"permissioned - outline planning permission","planning_permission_date":"2019-02-14","deliverable_within_five_years":"unknown","planning_application":"CR/2017/0997/OUT","indicative_capacity_to":182,"local_plan_allocation":"Land North of the Boulevard; policies TC3 and H2, Crawley Borough Local Plan 2023-2040","first_added_date":"2017-11-29","end_date":"not applicable"},"evidence_slice_sha256":"a9f9fd68ff7fb5a22d3215f143f3329f3cc337a279190cc88127396a75341efb","confidence_score_0_100":99,"confidence":0.99,"evidence_grade":"A","exact_identifier_provided":true,"coverage_polygon_provided":false,"coverage_geometry_available":true,"coverage_geometry_source":"official HTML record includes a site plan link","fake_data":false,"join_mode":"LOCAL_OPENCODE_SPATIAL_JOIN_PENDING","direct_parcel":false,"source_area_count_contribution":1,"planned_building_count_contribution":0}}]}