{"type":"FeatureCollection","name":"height_difference_5","metadata":{"slot_id":"height_difference_5","owner":"height_difference_5","lineage_id":"height_difference_5-eb56f92ed3f0514c","page_generation":1,"schema":"AAYS_LAYER24_EVIDENCE_V1","partition":"layer24","semantic_mode_state":"ABSENT_IN_PRIOR_PHYSICAL_STATE_PRESERVED_BY_OMISSION","batch_id":"20261006T072400Z_spatialni_data_supply_crs_guidance","record_policy":"Official SpatialNI platform CRS guidance only; EPSG:29902 is not promoted to Belfast City 2006 dataset-specific CRS without direct resource evidence.","fake_data":false},"features":[{"type":"Feature","geometry":null,"properties":{"slot_id":"height_difference_5","owner":"height_difference_5","lineage_id":"height_difference_5-eb56f92ed3f0514c","page_generation":1,"schema":"AAYS_LAYER24_EVIDENCE_V1","partition":"layer24","batch_id":"20261006T072400Z_spatialni_data_supply_crs_guidance","source_record_id":"DFI_BELFAST_LIDAR_2006:SPATIALNI_DATA_SUPPLY_CRS_GUIDANCE","source_url":"https://support.spatialni.gov.uk/nima/DownloadDocs/Guidance/SpatialNI_Data_Supply_Metadata_Form.pdf","access_utc":"2026-10-06T07:24:00Z","required_building_state":"BUILDING_PRESENT","binding_status":"LOCAL_OPENCODE_BUILDING_PRESENT_EXACT_TILE_BIND_REQUIRED","platform_supply_srs":"Irish Grid (TM65) [EPSG:29902]","dataset_specific_crs_confirmed":false,"exact_tile_identifier":null,"crs":null,"evidence_slice_sha256":"75253600b018d0cc274c3727dc4da02b0c752691fc4e74beb7a365d424fdd884","accepted_count_contribution":0,"source_area_count_contribution":0,"fake_data":false}}]}
