{"type":"FeatureCollection","name":"future_growth_6","features":[{"type":"Feature","id":"development-policy-area:local-authority-eng:BUC:LPQUC:2021-01-08","geometry":{"type":"MultiPolygon","coordinates":[[[[-0.706428,51.650897],[-0.708051,51.651949],[-0.707949,51.65201],[-0.708232,51.652177],[-0.708139,51.652223],[-0.70801,51.652117],[-0.706407,51.652731],[-0.706627,51.652947],[-0.706793,51.652881],[-0.707078,51.653163],[-0.706769,51.653288],[-0.704078,51.652168],[-0.704053,51.652121],[-0.705167,51.651045],[-0.70616,51.650862],[-0.706203,51.650802],[-0.706428,51.650897]]]]},"properties":{"semantic_identity":"development-policy-area:local-authority-eng:BUC:LPQUC:2021-01-08","source_area_id":"LPQUC","source_area_type":"adopted_local_plan_future_cemetery_allocation","name":"Land at Queensway","allocated_use":"Cemetery (HW20); non-residential","policy":"HW20","organisation":"local-authority-eng:BUC","source_url":"https://github.com/digital-land/development-policy-area/blob/111f7b992aa0c7efe39611b4003607141631a4f2/docs/local-authority-eng/BUC/LPQUC/geometry.geojson","source_final_url":"https://raw.githubusercontent.com/digital-land/development-policy-area/111f7b992aa0c7efe39611b4003607141631a4f2/docs/local-authority-eng/BUC/LPQUC/geometry.geojson","http_status":200,"source_data_date":"2021-01-08","adopted_plan_date":"2019-08","source_version":"git-blob:f7f8b822eb66901e4ae8d7e40301cb58ae42a696","licence":"Open Government Licence v3.0 (Digital Land repository; source-specific rights apply)","source_sha256":"20859ab6aa90f780f1b7286760e17999f3306899ac29f3b17778d7123e6dbac2","evidence_slice_sha256":"0de97657d292d41c646f9829047eb079c594fded5b96225f5332deacfe1bb5a9","field_evidence":{"geometry":"docs/local-authority-eng/BUC/LPQUC/geometry.geojson:geometry","official_identifier":"docs/local-authority-eng/BUC/LPQUC/geometry.geojson:properties.geography","site_name":"docs/local-authority-eng/BUC/LPQUC/geometry.geojson:properties.name","data_date":"docs/local-authority-eng/BUC/LPQUC/geometry.geojson:properties.entry-date","future_use":"https://www.buckinghamshire.gov.uk/documents/9736/Wycombe-District-Local-Plan-Adopted-August-2019-accessible.pdf#page=126","policy":"https://www.buckinghamshire.gov.uk/documents/9736/Wycombe-District-Local-Plan-Adopted-August-2019-accessible.pdf#POLICY_HW20"},"confidence":0.98,"evidence_grade":"A_OFFICIAL_GIS_AND_ADOPTED_PLAN_HW20","fake_data":false}}],"properties":{"state":"SOURCE_AREAS_PRODUCED_LOCAL_BINDING_PENDING","source_area_count":102,"source_area_count_delta":1,"accepted_count":0,"duplicate_count":0,"rejected_count":0,"unmatched_count":13,"materialized_parcel_count":0,"direct_parcel_count":0,"verified_no_building_count":0,"unprocessed_count":13,"planned_building_count":0,"producer_before_count":101,"producer_delta":1,"producer_after_count":102,"cursor":"OFFICIAL_BUC_CEMETERY:LPQUC_HW20_QUEENSWAY:f7f8b822eb66901e4ae8d7e40301cb58ae42a696","first_missing_criterion":"LOCAL_CANONICAL_PARCEL_IDENTIFIER_BINDING_MATERIALIZATION","fake_data":false}}
