{
  "type": "FeatureCollection",
  "features": [
    {
      "type": "Feature",
      "id": "planning-data:brownfield-site:WBR/17/0130",
      "geometry": {
        "type": "MultiPolygon",
        "coordinates": [
          [
            [
              [
                -0.196353,
                51.462878
              ],
              [
                -0.196308,
                51.462428
              ],
              [
                -0.196081,
                51.462428
              ],
              [
                -0.196035,
                51.46199
              ],
              [
                -0.195416,
                51.462014
              ],
              [
                -0.195374,
                51.461711
              ],
              [
                -0.195207,
                51.461718
              ],
              [
                -0.195143,
                51.462189
              ],
              [
                -0.195344,
                51.462234
              ],
              [
                -0.19542,
                51.462265
              ],
              [
                -0.195484,
                51.462334
              ],
              [
                -0.195492,
                51.462402
              ],
              [
                -0.19553,
                51.462516
              ],
              [
                -0.195553,
                51.462592
              ],
              [
                -0.195568,
                51.462627
              ],
              [
                -0.195708,
                51.462729
              ],
              [
                -0.195777,
                51.462852
              ],
              [
                -0.195895,
                51.46289
              ],
              [
                -0.196353,
                51.462878
              ]
            ]
          ]
        ]
      },
      "properties": {
        "semantic_identity": "planning-data:brownfield-site:WBR/17/0130",
        "source_area_id": "planning-data:brownfield-site:WBR/17/0130",
        "source_area_type": "brownfield-site",
        "source_reference": "WBR/17/0130",
        "source_entity": 1802041,
        "source_name": "Land at Wandsworth Riverside Quarter Phase 3 (Building 6B), Point Pleasant/Osiers Road",
        "source_dataset": "brownfield-site",
        "organisation": "London Borough of Wandsworth",
        "organisation_entity": "local-authority:WND",
        "data_date": "2020-12-22",
        "entry_date": "2020-12-22",
        "source_url": "https://www.planning.data.gov.uk/entity/1802041",
        "final_url": "https://www.planning.data.gov.uk/entity/1802041",
        "source_geometry_wkt_sha256": "a6d1914d2700dc3f73b9ed6dd140a69df57d2cdb6bec94310a10a189740f7cc2",
        "evidence_slice_sha256": "532df80ac1242b198055fadac88a70c9d06b4fd4f671c3e61ed702637d40add9",
        "license": "Open Government Licence v3.0",
        "evidence_grade": "B",
        "confidence": 0.78,
        "source_quality": "some",
        "semantic_mode": "AREA_JOIN",
        "canonical_binding_status": "NOT_ATTEMPTED_LOCAL_OPENCODE",
        "fake_data": false
      }
    }
  ]
}
