{"type":"FeatureCollection","features":[{"type":"Feature","geometry":null,"properties":{"slot_id":"future_growth_3","lineage_id":"future_growth_3-newstart-20261001T203100Z","page_generation":null,"accepted_as_parcel":false,"source_area_count_contribution":1,"exact_identifier":"ASN2","exact_identifier_provided":true,"coverage_polygon_provided":false,"identifier_namespace":"Horsham District Local Plan 2023-2040 Main Modifications housing allocation reference","secondary_exact_identifier":"MM229:HA5","source_entity":"ASN2 - Ashington Northern Cluster","access_utc":"2026-10-06T21:41:14Z","data_date":"2026-07-13","source_url":"https://strategicplanning.horsham.gov.uk/HDLP_Main_Modifications/viewCompoundDoc?docid=16941812&partid=16968500&pfv=y","final_url":"https://strategicplanning.horsham.gov.uk/HDLP_Main_Modifications/viewCompoundDoc?docid=16941812&partid=16968500&pfv=y","license":"Site and content © Horsham District Council 2026; website protected by copyright and database rights; reuse subject to Council Copyright Policy.","authority":"Horsham District Council","site_address":"Ashington Northern Cluster, Horsham District","field_evidence":{"reference":"ASN2","policy":"HA5","main_modification":"MM229","dataset":"Horsham District Local Plan 2023-2040 Main Modifications","organisation":"Horsham District Council","site_name":"Ashington Northern Cluster","site_area_ha":25,"allocated_homes":450,"consultation_open_date":"2026-07-13","consultation_close_date":"2026-08-24","status":"proposed main modification allocation"},"source_payload_sha256":"db9b9d3997880e72e1b2181399ea555a56c5bcf228c5b2cbe3abb7a59b8d8534","source_payload_sha256_basis":"canonicalized official Horsham District Council MM229 / ASN2 evidence fields","evidence_slice_sha256":"355840c63a8cade2fff4e12e259c6d6eb0ea2cd67f1b4b6fbe37df3c0a90f8ce","evidence_grade":"A","confidence_score_0_100":99,"evidence_scope":"exact_official_identifier_from_council_local_plan_main_modification_allocation","fake_data":false,"spatial_binding_method":"official Horsham District Council MM229 / Strategic Policy HA5 allocation ASN2 and Policies Map; canonical parcel spatial join and materialization delegated to local OpenCode","planned_building_count_contribution":0}}]}