{"type":"FeatureCollection","name":"future_growth_6","features":[{"type":"Feature","id":"local-plan-boundary:E60000254","geometry":null,"properties":{"source_area_id":"local-plan-boundary:E60000254","source_area_name":"Canterbury City Council","source_entity":4211012,"source_reference":"E60000254","organisation":"Canterbury City Council","organisation_curie":"local-authority:CAT","dataset":"local-plan-boundary","typology":"geography","quality":"authoritative","local_planning_authorities":"E60000254","point":"POINT (1.101838 51.283275)","entry_date":"2026-03-18","evidence_type":"exact_coverage_identifier","confidence_score_0_100":100,"evidence_grade":"A_OFFICIAL_AUTHORITATIVE","fake_data":false,"canonical_parcel_id":null,"parcel_match_status":"DEFERRED_TO_LOCAL_OPENCODE"}}]}
