{"type":"FeatureCollection","features":[{"type":"Feature","id":"chelmsford-brownfield-register-site-pages-2025:24/00129/OUT","geometry":null,"properties":{"slot_id":"future_growth_4","lineage_id":"fg4-e4c9076d6f554f00","page_generation":1,"owner":"future_growth_4","partition":"future_growth","semantic_mode":"SOURCE_AREA_EXACT_IDENTIFIER","dataset":"chelmsford-brownfield-register-site-pages-2025","entity":"24/00129/OUT","reference":"24/00129/OUT","quality":"authoritative","organisation":"Chelmsford City Council","name":"56 Maldon Road Danbury Chelmsford","site_address":"56 Maldon Road Danbury Chelmsford","source_url":"https://www.chelmsford.gov.uk/directory/14764/14765/2742685/2156/OUT?returnUrl=%2Fplanning-and-building-control%2Fplanning-policy-and-local-plan%2Fbrownfield-register%2F","final_url":"https://www.chelmsford.gov.uk/directory/14764/14765/2742685/2156/OUT?returnUrl=%2Fplanning-and-building-control%2Fplanning-policy-and-local-plan%2Fbrownfield-register%2F","access_utc":"2026-10-02T21:16:00Z","data_date":"2025-06-05","license":"Open Government Licence","field_evidence":{"reference":"24/00129/OUT","site_name_address":"56 Maldon Road Danbury Chelmsford","geo_x":578849,"geo_y":205083,"hectares":0.19,"ownership_status":"not owned by a public authority","planning_status":"permissioned","permission_type":"outline planning permission","permission_date":"2024-04-24","deliverable":"yes","net_dwellings_range_to":7,"first_added_date":"2024-04-24","record_last_updated_date":"2024-04-24","page_last_updated_date":"2025-06-05"},"evidence_slice_sha256":"7e03a3e52c5ce8c13ff19e40342dfaff172f4f072fe5a186a004d10e9168b589","confidence_score_0_100":99,"confidence":0.99,"evidence_grade":"A","exact_identifier_provided":true,"coverage_polygon_provided":false,"fake_data":false,"join_mode":"LOCAL_OPENCODE_SPATIAL_JOIN_PENDING","direct_parcel":false,"source_area_count_contribution":1,"planned_building_count_contribution":0}}]}