{"type":"FeatureCollection","features":[{"type":"Feature","id":"CHERWELL_25_00480_F_OUTBUILDING_01","geometry":null,"properties":{"slot_id":"planned_buildings_4","owner":"planned_buildings_4","lineage_id":"pb4-8debc7c8ddf348a2","page_generation":1,"partition":"layer24","schema":"AAYS_LAYER24_EVIDENCE_V1","semantic_mode":"PLANNED_BUILDINGS_OFFICIAL_REFERENCE_DISTINCT_STRUCTURE","batch_id":"20261003T111639Z-cherwell-25-00480-f-window-001","publisher":"Cherwell District Council","source_family":"CHERWELL_PLANNING_REGISTER","source_url":"https://planningregister.cherwell.gov.uk/Planning/Display/25/00480/F","final_url":"https://planningregister.cherwell.gov.uk/Planning/Display/25/00480/F","access_utc":"2026-10-03T11:16:39Z","data_date":"2025-03-03","license":"Public planning register; document copyright/usage remains governed by council register terms","planning_reference":"25/00480/F","location":"London Barn Stratford Road Wroxton Oxfordshire OX15 6PZ","proposal":"Erection of outbuilding","status":"Application Permitted","geometry_status":"NOT_MATERIALIZED_LOCAL_OPENCODE","field_evidence":"Official Cherwell District Council Planning Register application 25/00480/F. Application Type: Full Development. Status: Application Permitted. Valid date: 03/03/2025. Location: London Barn Stratford Road Wroxton Oxfordshire OX15 6PZ. Proposal: Erection of outbuilding. Decision: Permitted. Decision Issued Date: 19/08/2025. Official documents include Proposed Site Layout drawing WG1490-002-B and Plans And Elevations drawing WG1490-003-C. The official register therefore identifies one new distinct outbuilding structure. Geometry/materialization is deferred to local OpenCode.","evidence_slice_sha256":"fbc2ffc362743d0ce4260fb1520b3248ca06c90655947ecb69d86dde07d024ee","confidence":0.99,"evidence_grade":"A_OFFICIAL_LOCAL_AUTHORITY_PLANNING_REGISTER_SINGLE_OUTBUILDING_PERMITTED","fake_data":false,"source_record_id":"CHERWELL_25_00480_F_OUTBUILDING_01","planned_building":"outbuilding","official_plan_reference":"WG1490-002-B; WG1490-003-C","official_plan_description":"Proposed Site Layout; Plans And Elevations"}}]}
