{"type":"FeatureCollection","schema_family":"AAYS_LAYER24_EVIDENCE_V1","category":"AAYS_SOURCE_AREA_V1","slot_id":"gas_emissions_5","lineage_id":"gas_emissions_5__new_start__20260927T104100Z","features":[{"type":"Feature","geometry":null,"properties":{"source_id":"ONS_LAD_MAY2026_BFC_E09000020_WINDOW_001","coverage_area_id":"E09000020","coverage_area_name":"Kensington and Chelsea","coverage_binding":"EXACT_OFFICIAL_IDENTIFIER_WITH_OFFICIAL_MAY_2026_BOUNDARY_SERVICE","boundary_service_version":"May 2026 BFC","boundary_crs":"EPSG:27700","canonical_parcel_id":null,"match_status":"UNPROCESSED_LOCAL_OPENCODE_SPATIAL_JOIN_REQUIRED","fake_data":false}}],"metadata":{"source_area_count":17,"new_source_record_count":1,"accepted_count":0,"duplicate_count":0,"rejected_count":0,"unmatched_count":1,"materialized_parcel_count":0,"direct_parcel_count":0,"verified_no_building_count":0,"unprocessed_count":1,"planned_building_count":0,"cursor":"ONS_LAD_MAY2026_BFC_E09000020_WINDOW_001"}}
