{
  "type": "FeatureCollection",
  "name": "security_public_safety_1_batch_exact_identifiers",
  "features": [
    {
      "type": "Feature",
      "geometry": null,
      "properties": {
        "slot_id": "security_public_safety_1",
        "evidence_scope": "coverage_exact_identifier",
        "coverage_area_id": "Paddington",
        "exact_identifier": "Paddington",
        "exact_identifier_type": "london-fire.gov.uk.fire_station.official_name",
        "coverage_area_name": "Paddington",
        "source_url": "https://www.london-fire.gov.uk/community/westminster/",
        "final_url": "https://www.london-fire.gov.uk/community/westminster/",
        "access_utc": "2026-10-05T16:11:00Z",
        "data_date": "2026-10-05",
        "data_date_basis": "Current official page snapshot observed on access date",
        "license": "London Fire Brigade website; explicit reuse licence not asserted in extracted source window",
        "file_sha256": "e2adf83097788a77a07f2d5a9c9946a56d1546fb75c527841703a1fb58c62030",
        "file_sha256_scope": "normalized two official Westminster station name/address records; not raw HTML bytes",
        "evidence_slice_sha256": "8585e76ee35a8fad80e186a801b90879799305f9486672f6c91cf35bb885e136",
        "field_evidence": {
          "ordinal": 1,
          "id": "Paddington",
          "address": "156 Harrow Rd, London, W2 6NL, UK"
        },
        "confidence_score_0_100": 100,
        "evidence_grade": "A_OFFICIAL_EXACT_IDENTIFIER",
        "fake_data": false,
        "spatial_binding_method": "DEFERRED_TO_LOCAL_OPENCODE",
        "canonical_parcel_id": null,
        "materialized_parcel_count": 0,
        "direct_parcel_count": 0
      }
    },
    {
      "type": "Feature",
      "geometry": null,
      "properties": {
        "slot_id": "security_public_safety_1",
        "evidence_scope": "coverage_exact_identifier",
        "coverage_area_id": "Soho",
        "exact_identifier": "Soho",
        "exact_identifier_type": "london-fire.gov.uk.fire_station.official_name",
        "coverage_area_name": "Soho",
        "source_url": "https://www.london-fire.gov.uk/community/westminster/",
        "final_url": "https://www.london-fire.gov.uk/community/westminster/",
        "access_utc": "2026-10-05T16:11:00Z",
        "data_date": "2026-10-05",
        "data_date_basis": "Current official page snapshot observed on access date",
        "license": "London Fire Brigade website; explicit reuse licence not asserted in extracted source window",
        "file_sha256": "e2adf83097788a77a07f2d5a9c9946a56d1546fb75c527841703a1fb58c62030",
        "file_sha256_scope": "normalized two official Westminster station name/address records; not raw HTML bytes",
        "evidence_slice_sha256": "cf2b2f38e30a395f23bbbffe8a09830d86128cc2fffb7949379ba20d9edb5f61",
        "field_evidence": {
          "ordinal": 2,
          "id": "Soho",
          "address": "126 Shaftesbury Ave, London, W1D 5ET"
        },
        "confidence_score_0_100": 100,
        "evidence_grade": "A_OFFICIAL_EXACT_IDENTIFIER",
        "fake_data": false,
        "spatial_binding_method": "DEFERRED_TO_LOCAL_OPENCODE",
        "canonical_parcel_id": null,
        "materialized_parcel_count": 0,
        "direct_parcel_count": 0
      }
    }
  ],
  "metadata": {
    "slot_id": "security_public_safety_1",
    "source_area_count": 205,
    "source_area_delta_this_turn": 2,
    "latest_evidence_window": "LFB_WESTMINSTER_STATIONS_CURRENT_20261005T161100Z",
    "latest_status": "2_NEW_OFFICIAL_EXACT_IDENTIFIERS_ACCEPTED",
    "exact_blocker": "LOCAL_OPENCODE_EXACT_IDENTIFIER_TO_CANONICAL_SPATIAL_BINDING_REQUIRED",
    "first_missing_criterion": "LOCAL_OPENCODE_EXACT_IDENTIFIER_TO_CANONICAL_SPATIAL_BINDING"
  }
}
