{"type":"FeatureCollection","features":[{"type":"Feature","id":"parcel_61574","geometry":{"type":"Point","coordinates":[-0.129972,51.4640323]},"properties":{"slot_id":"security_public_safety_5","lineage_id":"86b5e932de484ad26133fa8c","parcel_id":"parcel_61574","parcel_number":61574,"accepted_parcel":true,"evidence_family":"security_public_safety","official_boundary_archive":"https://data.police.uk/data/boundaries/2026-06.zip","archive_md5":"62f89304c7d1e453bec3a307e5126372","archive_sha256":"299034d708bdee4a14525561f71a95beee065cb71e48d5e535cf683d35daed77","boundary_identifier":"23844","boundary_identifier_basis":"kml_placemark_id","police_neighbourhood_id":"E05014100","boundary_member":"2026-06/metropolitan/E05014100.kml","official_exact_identifier_evidence":true,"official_boundary_evidence":true,"local_spatial_join":true,"source_window_id":"data_police_npt_boundary_archive_2026_06_sps5_61574_61623_v1","cursor":"data_police_npt_boundary_archive_2026_06_sps5_61574_61623_v1:record=1","canonical_blob_sha":"bb48164e7a0af78df875f30421a6a3068c43edb8","runner_output_commit_sha":"799ff503af3ec14a89649f31a466ff249ca8a51a","runner_output_blob_sha":"f9e5b8c4507731af1f80f4bf74b81ff43e3fe052"}},{"type":"Feature","id":"parcel_61575","geometry":{"type":"Point","coordinates":[-0.1297131,51.4656312]},"properties":{"slot_id":"security_public_safety_5","lineage_id":"86b5e932de484ad26133fa8c","parcel_id":"parcel_61575","parcel_number":61575,"accepted_parcel":true,"evidence_family":"security_public_safety","official_boundary_archive":"https://data.police.uk/data/boundaries/2026-06.zip","archive_md5":"62f89304c7d1e453bec3a307e5126372","archive_sha256":"299034d708bdee4a14525561f71a95beee065cb71e48d5e535cf683d35daed77","boundary_identifier":"23862","boundary_identifier_basis":"kml_placemark_id","police_neighbourhood_id":"E05014102","boundary_member":"2026-06/metropolitan/E05014102.kml","official_exact_identifier_evidence":true,"official_boundary_evidence":true,"local_spatial_join":true,"source_window_id":"data_police_npt_boundary_archive_2026_06_sps5_61574_61623_v1","cursor":"data_police_npt_boundary_archive_2026_06_sps5_61574_61623_v1:record=2","canonical_blob_sha":"bb48164e7a0af78df875f30421a6a3068c43edb8","runner_output_commit_sha":"799ff503af3ec14a89649f31a466ff249ca8a51a","runner_output_blob_sha":"f9e5b8c4507731af1f80f4bf74b81ff43e3fe052"}},{"type":"Feature","id":"parcel_61576","geometry":{"type":"Point","coordinates":[-0.1305894,51.4661447]},"properties":{"slot_id":"security_public_safety_5","lineage_id":"86b5e932de484ad26133fa8c","parcel_id":"parcel_61576","parcel_number":61576,"accepted_parcel":true,"evidence_family":"security_public_safety","official_boundary_archive":"https://data.police.uk/data/boundaries/2026-06.zip","archive_md5":"62f89304c7d1e453bec3a307e5126372","archive_sha256":"299034d708bdee4a14525561f71a95beee065cb71e48d5e535cf683d35daed77","boundary_identifier":"23862","boundary_identifier_basis":"kml_placemark_id","police_neighbourhood_id":"E05014102","boundary_member":"2026-06/metropolitan/E05014102.kml","official_exact_identifier_evidence":true,"official_boundary_evidence":true,"local_spatial_join":true,"source_window_id":"data_police_npt_boundary_archive_2026_06_sps5_61574_61623_v1","cursor":"data_police_npt_boundary_archive_2026_06_sps5_61574_61623_v1:record=3","canonical_blob_sha":"bb48164e7a0af78df875f30421a6a3068c43edb8","runner_output_commit_sha":"799ff503af3ec14a89649f31a466ff249ca8a51a","runner_output_blob_sha":"f9e5b8c4507731af1f80f4bf74b81ff43e3fe052"}},{"type":"Feature","id":"parcel_61577","geometry":{"type":"Point","coordinates":[-0.1301207,51.4663771]},"properties":{"slot_id":"security_public_safety_5","lineage_id":"86b5e932de484ad26133fa8c","parcel_id":"parcel_61577","parcel_number":61577,"accepted_parcel":true,"evidence_family":"security_public_safety","official_boundary_archive":"https://data.police.uk/data/boundaries/2026-06.zip","archive_md5":"62f89304c7d1e453bec3a307e5126372","archive_sha256":"299034d708bdee4a14525561f71a95beee065cb71e48d5e535cf683d35daed77","boundary_identifier":"23862","boundary_identifier_basis":"kml_placemark_id","police_neighbourhood_id":"E05014102","boundary_member":"2026-06/metropolitan/E05014102.kml","official_exact_identifier_evidence":true,"official_boundary_evidence":true,"local_spatial_join":true,"source_window_id":"data_police_npt_boundary_archive_2026_06_sps5_61574_61623_v1","cursor":"data_police_npt_boundary_archive_2026_06_sps5_61574_61623_v1:record=4","canonical_blob_sha":"bb48164e7a0af78df875f30421a6a3068c43edb8","runner_output_commit_sha":"799ff503af3ec14a89649f31a466ff249ca8a51a","runner_output_blob_sha":"f9e5b8c4507731af1f80f4bf74b81ff43e3fe052"}},{"type":"Feature","id":"parcel_61578","geometry":{"type":"Point","coordinates":[-0.1322392,51.4692017]},"properties":{"slot_id":"security_public_safety_5","lineage_id":"86b5e932de484ad26133fa8c","parcel_id":"parcel_61578","parcel_number":61578,"accepted_parcel":true,"evidence_family":"security_public_safety","official_boundary_archive":"https://data.police.uk/data/boundaries/2026-06.zip","archive_md5":"62f89304c7d1e453bec3a307e5126372","archive_sha256":"299034d708bdee4a14525561f71a95beee065cb71e48d5e535cf683d35daed77","boundary_identifier":"23862","boundary_identifier_basis":"kml_placemark_id","police_neighbourhood_id":"E05014102","boundary_member":"2026-06/metropolitan/E05014102.kml","official_exact_identifier_evidence":true,"official_boundary_evidence":true,"local_spatial_join":true,"source_window_id":"data_police_npt_boundary_archive_2026_06_sps5_61574_61623_v1","cursor":"data_police_npt_boundary_archive_2026_06_sps5_61574_61623_v1:record=5","canonical_blob_sha":"bb48164e7a0af78df875f30421a6a3068c43edb8","runner_output_commit_sha":"799ff503af3ec14a89649f31a466ff249ca8a51a","runner_output_blob_sha":"f9e5b8c4507731af1f80f4bf74b81ff43e3fe052"}},{"type":"Feature","id":"parcel_61579","geometry":{"type":"Point","coordinates":[-0.1323466,51.4690253]},"properties":{"slot_id":"security_public_safety_5","lineage_id":"86b5e932de484ad26133fa8c","parcel_id":"parcel_61579","parcel_number":61579,"accepted_parcel":true,"evidence_family":"security_public_safety","official_boundary_archive":"https://data.police.uk/data/boundaries/2026-06.zip","archive_md5":"62f89304c7d1e453bec3a307e5126372","archive_sha256":"299034d708bdee4a14525561f71a95beee065cb71e48d5e535cf683d35daed77","boundary_identifier":"23862","boundary_identifier_basis":"kml_placemark_id","police_neighbourhood_id":"E05014102","boundary_member":"2026-06/metropolitan/E05014102.kml","official_exact_identifier_evidence":true,"official_boundary_evidence":true,"local_spatial_join":true,"source_window_id":"data_police_npt_boundary_archive_2026_06_sps5_61574_61623_v1","cursor":"data_police_npt_boundary_archive_2026_06_sps5_61574_61623_v1:record=6","canonical_blob_sha":"bb48164e7a0af78df875f30421a6a3068c43edb8","runner_output_commit_sha":"799ff503af3ec14a89649f31a466ff249ca8a51a","runner_output_blob_sha":"f9e5b8c4507731af1f80f4bf74b81ff43e3fe052"}},{"type":"Feature","id":"parcel_61580","geometry":{"type":"Point","coordinates":[-0.1328541,51.4644012]},"properties":{"slot_id":"security_public_safety_5","lineage_id":"86b5e932de484ad26133fa8c","parcel_id":"parcel_61580","parcel_number":61580,"accepted_parcel":true,"evidence_family":"security_public_safety","official_boundary_archive":"https://data.police.uk/data/boundaries/2026-06.zip","archive_md5":"62f89304c7d1e453bec3a307e5126372","archive_sha256":"299034d708bdee4a14525561f71a95beee065cb71e48d5e535cf683d35daed77","boundary_identifier":"23862","boundary_identifier_basis":"kml_placemark_id","police_neighbourhood_id":"E05014102","boundary_member":"2026-06/metropolitan/E05014102.kml","official_exact_identifier_evidence":true,"official_boundary_evidence":true,"local_spatial_join":true,"source_window_id":"data_police_npt_boundary_archive_2026_06_sps5_61574_61623_v1","cursor":"data_police_npt_boundary_archive_2026_06_sps5_61574_61623_v1:record=7","canonical_blob_sha":"bb48164e7a0af78df875f30421a6a3068c43edb8","runner_output_commit_sha":"799ff503af3ec14a89649f31a466ff249ca8a51a","runner_output_blob_sha":"f9e5b8c4507731af1f80f4bf74b81ff43e3fe052"}},{"type":"Feature","id":"parcel_61581","geometry":{"type":"Point","coordinates":[-0.1324763,51.4677657]},"properties":{"slot_id":"security_public_safety_5","lineage_id":"86b5e932de484ad26133fa8c","parcel_id":"parcel_61581","parcel_number":61581,"accepted_parcel":true,"evidence_family":"security_public_safety","official_boundary_archive":"https://data.police.uk/data/boundaries/2026-06.zip","archive_md5":"62f89304c7d1e453bec3a307e5126372","archive_sha256":"299034d708bdee4a14525561f71a95beee065cb71e48d5e535cf683d35daed77","boundary_identifier":"23862","boundary_identifier_basis":"kml_placemark_id","police_neighbourhood_id":"E05014102","boundary_member":"2026-06/metropolitan/E05014102.kml","official_exact_identifier_evidence":true,"official_boundary_evidence":true,"local_spatial_join":true,"source_window_id":"data_police_npt_boundary_archive_2026_06_sps5_61574_61623_v1","cursor":"data_police_npt_boundary_archive_2026_06_sps5_61574_61623_v1:record=8","canonical_blob_sha":"bb48164e7a0af78df875f30421a6a3068c43edb8","runner_output_commit_sha":"799ff503af3ec14a89649f31a466ff249ca8a51a","runner_output_blob_sha":"f9e5b8c4507731af1f80f4bf74b81ff43e3fe052"}},{"type":"Feature","id":"parcel_61582","geometry":{"type":"Point","coordinates":[-0.1334834,51.4691026]},"properties":{"slot_id":"security_public_safety_5","lineage_id":"86b5e932de484ad26133fa8c","parcel_id":"parcel_61582","parcel_number":61582,"accepted_parcel":true,"evidence_family":"security_public_safety","official_boundary_archive":"https://data.police.uk/data/boundaries/2026-06.zip","archive_md5":"62f89304c7d1e453bec3a307e5126372","archive_sha256":"299034d708bdee4a14525561f71a95beee065cb71e48d5e535cf683d35daed77","boundary_identifier":"23862","boundary_identifier_basis":"kml_placemark_id","police_neighbourhood_id":"E05014102","boundary_member":"2026-06/metropolitan/E05014102.kml","official_exact_identifier_evidence":true,"official_boundary_evidence":true,"local_spatial_join":true,"source_window_id":"data_police_npt_boundary_archive_2026_06_sps5_61574_61623_v1","cursor":"data_police_npt_boundary_archive_2026_06_sps5_61574_61623_v1:record=9","canonical_blob_sha":"bb48164e7a0af78df875f30421a6a3068c43edb8","runner_output_commit_sha":"799ff503af3ec14a89649f31a466ff249ca8a51a","runner_output_blob_sha":"f9e5b8c4507731af1f80f4bf74b81ff43e3fe052"}},{"type":"Feature","id":"parcel_61583","geometry":{"type":"Point","coordinates":[-0.1325806,51.4686572]},"properties":{"slot_id":"security_public_safety_5","lineage_id":"86b5e932de484ad26133fa8c","parcel_id":"parcel_61583","parcel_number":61583,"accepted_parcel":true,"evidence_family":"security_public_safety","official_boundary_archive":"https://data.police.uk/data/boundaries/2026-06.zip","archive_md5":"62f89304c7d1e453bec3a307e5126372","archive_sha256":"299034d708bdee4a14525561f71a95beee065cb71e48d5e535cf683d35daed77","boundary_identifier":"23862","boundary_identifier_basis":"kml_placemark_id","police_neighbourhood_id":"E05014102","boundary_member":"2026-06/metropolitan/E05014102.kml","official_exact_identifier_evidence":true,"official_boundary_evidence":true,"local_spatial_join":true,"source_window_id":"data_police_npt_boundary_archive_2026_06_sps5_61574_61623_v1","cursor":"data_police_npt_boundary_archive_2026_06_sps5_61574_61623_v1:record=10","canonical_blob_sha":"bb48164e7a0af78df875f30421a6a3068c43edb8","runner_output_commit_sha":"799ff503af3ec14a89649f31a466ff249ca8a51a","runner_output_blob_sha":"f9e5b8c4507731af1f80f4bf74b81ff43e3fe052"}},{"type":"Feature","id":"parcel_61584","geometry":{"type":"Point","coordinates":[-0.1334436,51.465848]},"properties":{"slot_id":"security_public_safety_5","lineage_id":"86b5e932de484ad26133fa8c","parcel_id":"parcel_61584","parcel_number":61584,"accepted_parcel":true,"evidence_family":"security_public_safety","official_boundary_archive":"https://data.police.uk/data/boundaries/2026-06.zip","archive_md5":"62f89304c7d1e453bec3a307e5126372","archive_sha256":"299034d708bdee4a14525561f71a95beee065cb71e48d5e535cf683d35daed77","boundary_identifier":"23862","boundary_identifier_basis":"kml_placemark_id","police_neighbourhood_id":"E05014102","boundary_member":"2026-06/metropolitan/E05014102.kml","official_exact_identifier_evidence":true,"official_boundary_evidence":true,"local_spatial_join":true,"source_window_id":"data_police_npt_boundary_archive_2026_06_sps5_61574_61623_v1","cursor":"data_police_npt_boundary_archive_2026_06_sps5_61574_61623_v1:record=11","canonical_blob_sha":"bb48164e7a0af78df875f30421a6a3068c43edb8","runner_output_commit_sha":"799ff503af3ec14a89649f31a466ff249ca8a51a","runner_output_blob_sha":"f9e5b8c4507731af1f80f4bf74b81ff43e3fe052"}},{"type":"Feature","id":"parcel_61585","geometry":{"type":"Point","coordinates":[-0.1335879,51.4654027]},"properties":{"slot_id":"security_public_safety_5","lineage_id":"86b5e932de484ad26133fa8c","parcel_id":"parcel_61585","parcel_number":61585,"accepted_parcel":true,"evidence_family":"security_public_safety","official_boundary_archive":"https://data.police.uk/data/boundaries/2026-06.zip","archive_md5":"62f89304c7d1e453bec3a307e5126372","archive_sha256":"299034d708bdee4a14525561f71a95beee065cb71e48d5e535cf683d35daed77","boundary_identifier":"23862","boundary_identifier_basis":"kml_placemark_id","police_neighbourhood_id":"E05014102","boundary_member":"2026-06/metropolitan/E05014102.kml","official_exact_identifier_evidence":true,"official_boundary_evidence":true,"local_spatial_join":true,"source_window_id":"data_police_npt_boundary_archive_2026_06_sps5_61574_61623_v1","cursor":"data_police_npt_boundary_archive_2026_06_sps5_61574_61623_v1:record=12","canonical_blob_sha":"bb48164e7a0af78df875f30421a6a3068c43edb8","runner_output_commit_sha":"799ff503af3ec14a89649f31a466ff249ca8a51a","runner_output_blob_sha":"f9e5b8c4507731af1f80f4bf74b81ff43e3fe052"}},{"type":"Feature","id":"parcel_61586","geometry":{"type":"Point","coordinates":[-0.1325856,51.4663381]},"properties":{"slot_id":"security_public_safety_5","lineage_id":"86b5e932de484ad26133fa8c","parcel_id":"parcel_61586","parcel_number":61586,"accepted_parcel":true,"evidence_family":"security_public_safety","official_boundary_archive":"https://data.police.uk/data/boundaries/2026-06.zip","archive_md5":"62f89304c7d1e453bec3a307e5126372","archive_sha256":"299034d708bdee4a14525561f71a95beee065cb71e48d5e535cf683d35daed77","boundary_identifier":"23862","boundary_identifier_basis":"kml_placemark_id","police_neighbourhood_id":"E05014102","boundary_member":"2026-06/metropolitan/E05014102.kml","official_exact_identifier_evidence":true,"official_boundary_evidence":true,"local_spatial_join":true,"source_window_id":"data_police_npt_boundary_archive_2026_06_sps5_61574_61623_v1","cursor":"data_police_npt_boundary_archive_2026_06_sps5_61574_61623_v1:record=13","canonical_blob_sha":"bb48164e7a0af78df875f30421a6a3068c43edb8","runner_output_commit_sha":"799ff503af3ec14a89649f31a466ff249ca8a51a","runner_output_blob_sha":"f9e5b8c4507731af1f80f4bf74b81ff43e3fe052"}},{"type":"Feature","id":"parcel_61587","geometry":{"type":"Point","coordinates":[-0.1318906,51.4658579]},"properties":{"slot_id":"security_public_safety_5","lineage_id":"86b5e932de484ad26133fa8c","parcel_id":"parcel_61587","parcel_number":61587,"accepted_parcel":true,"evidence_family":"security_public_safety","official_boundary_archive":"https://data.police.uk/data/boundaries/2026-06.zip","archive_md5":"62f89304c7d1e453bec3a307e5126372","archive_sha256":"299034d708bdee4a14525561f71a95beee065cb71e48d5e535cf683d35daed77","boundary_identifier":"23862","boundary_identifier_basis":"kml_placemark_id","police_neighbourhood_id":"E05014102","boundary_member":"2026-06/metropolitan/E05014102.kml","official_exact_identifier_evidence":true,"official_boundary_evidence":true,"local_spatial_join":true,"source_window_id":"data_police_npt_boundary_archive_2026_06_sps5_61574_61623_v1","cursor":"data_police_npt_boundary_archive_2026_06_sps5_61574_61623_v1:record=14","canonical_blob_sha":"bb48164e7a0af78df875f30421a6a3068c43edb8","runner_output_commit_sha":"799ff503af3ec14a89649f31a466ff249ca8a51a","runner_output_blob_sha":"f9e5b8c4507731af1f80f4bf74b81ff43e3fe052"}},{"type":"Feature","id":"parcel_61588","geometry":{"type":"Point","coordinates":[-0.1348364,51.4646348]},"properties":{"slot_id":"security_public_safety_5","lineage_id":"86b5e932de484ad26133fa8c","parcel_id":"parcel_61588","parcel_number":61588,"accepted_parcel":true,"evidence_family":"security_public_safety","official_boundary_archive":"https://data.police.uk/data/boundaries/2026-06.zip","archive_md5":"62f89304c7d1e453bec3a307e5126372","archive_sha256":"299034d708bdee4a14525561f71a95beee065cb71e48d5e535cf683d35daed77","boundary_identifier":"23862","boundary_identifier_basis":"kml_placemark_id","police_neighbourhood_id":"E05014102","boundary_member":"2026-06/metropolitan/E05014102.kml","official_exact_identifier_evidence":true,"official_boundary_evidence":true,"local_spatial_join":true,"source_window_id":"data_police_npt_boundary_archive_2026_06_sps5_61574_61623_v1","cursor":"data_police_npt_boundary_archive_2026_06_sps5_61574_61623_v1:record=15","canonical_blob_sha":"bb48164e7a0af78df875f30421a6a3068c43edb8","runner_output_commit_sha":"799ff503af3ec14a89649f31a466ff249ca8a51a","runner_output_blob_sha":"f9e5b8c4507731af1f80f4bf74b81ff43e3fe052"}},{"type":"Feature","id":"parcel_61589","geometry":{"type":"Point","coordinates":[-0.1346453,51.4655937]},"properties":{"slot_id":"security_public_safety_5","lineage_id":"86b5e932de484ad26133fa8c","parcel_id":"parcel_61589","parcel_number":61589,"accepted_parcel":true,"evidence_family":"security_public_safety","official_boundary_archive":"https://data.police.uk/data/boundaries/2026-06.zip","archive_md5":"62f89304c7d1e453bec3a307e5126372","archive_sha256":"299034d708bdee4a14525561f71a95beee065cb71e48d5e535cf683d35daed77","boundary_identifier":"23862","boundary_identifier_basis":"kml_placemark_id","police_neighbourhood_id":"E05014102","boundary_member":"2026-06/metropolitan/E05014102.kml","official_exact_identifier_evidence":true,"official_boundary_evidence":true,"local_spatial_join":true,"source_window_id":"data_police_npt_boundary_archive_2026_06_sps5_61574_61623_v1","cursor":"data_police_npt_boundary_archive_2026_06_sps5_61574_61623_v1:record=16","canonical_blob_sha":"bb48164e7a0af78df875f30421a6a3068c43edb8","runner_output_commit_sha":"799ff503af3ec14a89649f31a466ff249ca8a51a","runner_output_blob_sha":"f9e5b8c4507731af1f80f4bf74b81ff43e3fe052"}},{"type":"Feature","id":"parcel_61590","geometry":{"type":"Point","coordinates":[-0.1345317,51.4641078]},"properties":{"slot_id":"security_public_safety_5","lineage_id":"86b5e932de484ad26133fa8c","parcel_id":"parcel_61590","parcel_number":61590,"accepted_parcel":true,"evidence_family":"security_public_safety","official_boundary_archive":"https://data.police.uk/data/boundaries/2026-06.zip","archive_md5":"62f89304c7d1e453bec3a307e5126372","archive_sha256":"299034d708bdee4a14525561f71a95beee065cb71e48d5e535cf683d35daed77","boundary_identifier":"23862","boundary_identifier_basis":"kml_placemark_id","police_neighbourhood_id":"E05014102","boundary_member":"2026-06/metropolitan/E05014102.kml","official_exact_identifier_evidence":true,"official_boundary_evidence":true,"local_spatial_join":true,"source_window_id":"data_police_npt_boundary_archive_2026_06_sps5_61574_61623_v1","cursor":"data_police_npt_boundary_archive_2026_06_sps5_61574_61623_v1:record=17","canonical_blob_sha":"bb48164e7a0af78df875f30421a6a3068c43edb8","runner_output_commit_sha":"799ff503af3ec14a89649f31a466ff249ca8a51a","runner_output_blob_sha":"f9e5b8c4507731af1f80f4bf74b81ff43e3fe052"}},{"type":"Feature","id":"parcel_61591","geometry":{"type":"Point","coordinates":[-0.1340115,51.4640191]},"properties":{"slot_id":"security_public_safety_5","lineage_id":"86b5e932de484ad26133fa8c","parcel_id":"parcel_61591","parcel_number":61591,"accepted_parcel":true,"evidence_family":"security_public_safety","official_boundary_archive":"https://data.police.uk/data/boundaries/2026-06.zip","archive_md5":"62f89304c7d1e453bec3a307e5126372","archive_sha256":"299034d708bdee4a14525561f71a95beee065cb71e48d5e535cf683d35daed77","boundary_identifier":"23862","boundary_identifier_basis":"kml_placemark_id","police_neighbourhood_id":"E05014102","boundary_member":"2026-06/metropolitan/E05014102.kml","official_exact_identifier_evidence":true,"official_boundary_evidence":true,"local_spatial_join":true,"source_window_id":"data_police_npt_boundary_archive_2026_06_sps5_61574_61623_v1","cursor":"data_police_npt_boundary_archive_2026_06_sps5_61574_61623_v1:record=18","canonical_blob_sha":"bb48164e7a0af78df875f30421a6a3068c43edb8","runner_output_commit_sha":"799ff503af3ec14a89649f31a466ff249ca8a51a","runner_output_blob_sha":"f9e5b8c4507731af1f80f4bf74b81ff43e3fe052"}},{"type":"Feature","id":"parcel_61592","geometry":{"type":"Point","coordinates":[-0.1341926,51.4689007]},"properties":{"slot_id":"security_public_safety_5","lineage_id":"86b5e932de484ad26133fa8c","parcel_id":"parcel_61592","parcel_number":61592,"accepted_parcel":true,"evidence_family":"security_public_safety","official_boundary_archive":"https://data.police.uk/data/boundaries/2026-06.zip","archive_md5":"62f89304c7d1e453bec3a307e5126372","archive_sha256":"299034d708bdee4a14525561f71a95beee065cb71e48d5e535cf683d35daed77","boundary_identifier":"23862","boundary_identifier_basis":"kml_placemark_id","police_neighbourhood_id":"E05014102","boundary_member":"2026-06/metropolitan/E05014102.kml","official_exact_identifier_evidence":true,"official_boundary_evidence":true,"local_spatial_join":true,"source_window_id":"data_police_npt_boundary_archive_2026_06_sps5_61574_61623_v1","cursor":"data_police_npt_boundary_archive_2026_06_sps5_61574_61623_v1:record=19","canonical_blob_sha":"bb48164e7a0af78df875f30421a6a3068c43edb8","runner_output_commit_sha":"799ff503af3ec14a89649f31a466ff249ca8a51a","runner_output_blob_sha":"f9e5b8c4507731af1f80f4bf74b81ff43e3fe052"}},{"type":"Feature","id":"parcel_61593","geometry":{"type":"Point","coordinates":[-0.1334109,51.4669576]},"properties":{"slot_id":"security_public_safety_5","lineage_id":"86b5e932de484ad26133fa8c","parcel_id":"parcel_61593","parcel_number":61593,"accepted_parcel":true,"evidence_family":"security_public_safety","official_boundary_archive":"https://data.police.uk/data/boundaries/2026-06.zip","archive_md5":"62f89304c7d1e453bec3a307e5126372","archive_sha256":"299034d708bdee4a14525561f71a95beee065cb71e48d5e535cf683d35daed77","boundary_identifier":"23862","boundary_identifier_basis":"kml_placemark_id","police_neighbourhood_id":"E05014102","boundary_member":"2026-06/metropolitan/E05014102.kml","official_exact_identifier_evidence":true,"official_boundary_evidence":true,"local_spatial_join":true,"source_window_id":"data_police_npt_boundary_archive_2026_06_sps5_61574_61623_v1","cursor":"data_police_npt_boundary_archive_2026_06_sps5_61574_61623_v1:record=20","canonical_blob_sha":"bb48164e7a0af78df875f30421a6a3068c43edb8","runner_output_commit_sha":"799ff503af3ec14a89649f31a466ff249ca8a51a","runner_output_blob_sha":"f9e5b8c4507731af1f80f4bf74b81ff43e3fe052"}},{"type":"Feature","id":"parcel_61594","geometry":{"type":"Point","coordinates":[-0.132539,51.4668929]},"properties":{"slot_id":"security_public_safety_5","lineage_id":"86b5e932de484ad26133fa8c","parcel_id":"parcel_61594","parcel_number":61594,"accepted_parcel":true,"evidence_family":"security_public_safety","official_boundary_archive":"https://data.police.uk/data/boundaries/2026-06.zip","archive_md5":"62f89304c7d1e453bec3a307e5126372","archive_sha256":"299034d708bdee4a14525561f71a95beee065cb71e48d5e535cf683d35daed77","boundary_identifier":"23862","boundary_identifier_basis":"kml_placemark_id","police_neighbourhood_id":"E05014102","boundary_member":"2026-06/metropolitan/E05014102.kml","official_exact_identifier_evidence":true,"official_boundary_evidence":true,"local_spatial_join":true,"source_window_id":"data_police_npt_boundary_archive_2026_06_sps5_61574_61623_v1","cursor":"data_police_npt_boundary_archive_2026_06_sps5_61574_61623_v1:record=21","canonical_blob_sha":"bb48164e7a0af78df875f30421a6a3068c43edb8","runner_output_commit_sha":"799ff503af3ec14a89649f31a466ff249ca8a51a","runner_output_blob_sha":"f9e5b8c4507731af1f80f4bf74b81ff43e3fe052"}},{"type":"Feature","id":"parcel_61595","geometry":{"type":"Point","coordinates":[-0.13432,51.4672092]},"properties":{"slot_id":"security_public_safety_5","lineage_id":"86b5e932de484ad26133fa8c","parcel_id":"parcel_61595","parcel_number":61595,"accepted_parcel":true,"evidence_family":"security_public_safety","official_boundary_archive":"https://data.police.uk/data/boundaries/2026-06.zip","archive_md5":"62f89304c7d1e453bec3a307e5126372","archive_sha256":"299034d708bdee4a14525561f71a95beee065cb71e48d5e535cf683d35daed77","boundary_identifier":"23862","boundary_identifier_basis":"kml_placemark_id","police_neighbourhood_id":"E05014102","boundary_member":"2026-06/metropolitan/E05014102.kml","official_exact_identifier_evidence":true,"official_boundary_evidence":true,"local_spatial_join":true,"source_window_id":"data_police_npt_boundary_archive_2026_06_sps5_61574_61623_v1","cursor":"data_police_npt_boundary_archive_2026_06_sps5_61574_61623_v1:record=22","canonical_blob_sha":"bb48164e7a0af78df875f30421a6a3068c43edb8","runner_output_commit_sha":"799ff503af3ec14a89649f31a466ff249ca8a51a","runner_output_blob_sha":"f9e5b8c4507731af1f80f4bf74b81ff43e3fe052"}},{"type":"Feature","id":"parcel_61596","geometry":{"type":"Point","coordinates":[-0.1318218,51.4671566]},"properties":{"slot_id":"security_public_safety_5","lineage_id":"86b5e932de484ad26133fa8c","parcel_id":"parcel_61596","parcel_number":61596,"accepted_parcel":true,"evidence_family":"security_public_safety","official_boundary_archive":"https://data.police.uk/data/boundaries/2026-06.zip","archive_md5":"62f89304c7d1e453bec3a307e5126372","archive_sha256":"299034d708bdee4a14525561f71a95beee065cb71e48d5e535cf683d35daed77","boundary_identifier":"23862","boundary_identifier_basis":"kml_placemark_id","police_neighbourhood_id":"E05014102","boundary_member":"2026-06/metropolitan/E05014102.kml","official_exact_identifier_evidence":true,"official_boundary_evidence":true,"local_spatial_join":true,"source_window_id":"data_police_npt_boundary_archive_2026_06_sps5_61574_61623_v1","cursor":"data_police_npt_boundary_archive_2026_06_sps5_61574_61623_v1:record=23","canonical_blob_sha":"bb48164e7a0af78df875f30421a6a3068c43edb8","runner_output_commit_sha":"799ff503af3ec14a89649f31a466ff249ca8a51a","runner_output_blob_sha":"f9e5b8c4507731af1f80f4bf74b81ff43e3fe052"}},{"type":"Feature","id":"parcel_61597","geometry":{"type":"Point","coordinates":[-0.1318647,51.4674777]},"properties":{"slot_id":"security_public_safety_5","lineage_id":"86b5e932de484ad26133fa8c","parcel_id":"parcel_61597","parcel_number":61597,"accepted_parcel":true,"evidence_family":"security_public_safety","official_boundary_archive":"https://data.police.uk/data/boundaries/2026-06.zip","archive_md5":"62f89304c7d1e453bec3a307e5126372","archive_sha256":"299034d708bdee4a14525561f71a95beee065cb71e48d5e535cf683d35daed77","boundary_identifier":"23862","boundary_identifier_basis":"kml_placemark_id","police_neighbourhood_id":"E05014102","boundary_member":"2026-06/metropolitan/E05014102.kml","official_exact_identifier_evidence":true,"official_boundary_evidence":true,"local_spatial_join":true,"source_window_id":"data_police_npt_boundary_archive_2026_06_sps5_61574_61623_v1","cursor":"data_police_npt_boundary_archive_2026_06_sps5_61574_61623_v1:record=24","canonical_blob_sha":"bb48164e7a0af78df875f30421a6a3068c43edb8","runner_output_commit_sha":"799ff503af3ec14a89649f31a466ff249ca8a51a","runner_output_blob_sha":"f9e5b8c4507731af1f80f4bf74b81ff43e3fe052"}},{"type":"Feature","id":"parcel_61598","geometry":{"type":"Point","coordinates":[-0.1351513,51.4645986]},"properties":{"slot_id":"security_public_safety_5","lineage_id":"86b5e932de484ad26133fa8c","parcel_id":"parcel_61598","parcel_number":61598,"accepted_parcel":true,"evidence_family":"security_public_safety","official_boundary_archive":"https://data.police.uk/data/boundaries/2026-06.zip","archive_md5":"62f89304c7d1e453bec3a307e5126372","archive_sha256":"299034d708bdee4a14525561f71a95beee065cb71e48d5e535cf683d35daed77","boundary_identifier":"23862","boundary_identifier_basis":"kml_placemark_id","police_neighbourhood_id":"E05014102","boundary_member":"2026-06/metropolitan/E05014102.kml","official_exact_identifier_evidence":true,"official_boundary_evidence":true,"local_spatial_join":true,"source_window_id":"data_police_npt_boundary_archive_2026_06_sps5_61574_61623_v1","cursor":"data_police_npt_boundary_archive_2026_06_sps5_61574_61623_v1:record=25","canonical_blob_sha":"bb48164e7a0af78df875f30421a6a3068c43edb8","runner_output_commit_sha":"799ff503af3ec14a89649f31a466ff249ca8a51a","runner_output_blob_sha":"f9e5b8c4507731af1f80f4bf74b81ff43e3fe052"}},{"type":"Feature","id":"parcel_61599","geometry":{"type":"Point","coordinates":[-0.1354999,51.4663337]},"properties":{"slot_id":"security_public_safety_5","lineage_id":"86b5e932de484ad26133fa8c","parcel_id":"parcel_61599","parcel_number":61599,"accepted_parcel":true,"evidence_family":"security_public_safety","official_boundary_archive":"https://data.police.uk/data/boundaries/2026-06.zip","archive_md5":"62f89304c7d1e453bec3a307e5126372","archive_sha256":"299034d708bdee4a14525561f71a95beee065cb71e48d5e535cf683d35daed77","boundary_identifier":"23862","boundary_identifier_basis":"kml_placemark_id","police_neighbourhood_id":"E05014102","boundary_member":"2026-06/metropolitan/E05014102.kml","official_exact_identifier_evidence":true,"official_boundary_evidence":true,"local_spatial_join":true,"source_window_id":"data_police_npt_boundary_archive_2026_06_sps5_61574_61623_v1","cursor":"data_police_npt_boundary_archive_2026_06_sps5_61574_61623_v1:record=26","canonical_blob_sha":"bb48164e7a0af78df875f30421a6a3068c43edb8","runner_output_commit_sha":"799ff503af3ec14a89649f31a466ff249ca8a51a","runner_output_blob_sha":"f9e5b8c4507731af1f80f4bf74b81ff43e3fe052"}},{"type":"Feature","id":"parcel_61600","geometry":{"type":"Point","coordinates":[-0.1351287,51.4679654]},"properties":{"slot_id":"security_public_safety_5","lineage_id":"86b5e932de484ad26133fa8c","parcel_id":"parcel_61600","parcel_number":61600,"accepted_parcel":true,"evidence_family":"security_public_safety","official_boundary_archive":"https://data.police.uk/data/boundaries/2026-06.zip","archive_md5":"62f89304c7d1e453bec3a307e5126372","archive_sha256":"299034d708bdee4a14525561f71a95beee065cb71e48d5e535cf683d35daed77","boundary_identifier":"23862","boundary_identifier_basis":"kml_placemark_id","police_neighbourhood_id":"E05014102","boundary_member":"2026-06/metropolitan/E05014102.kml","official_exact_identifier_evidence":true,"official_boundary_evidence":true,"local_spatial_join":true,"source_window_id":"data_police_npt_boundary_archive_2026_06_sps5_61574_61623_v1","cursor":"data_police_npt_boundary_archive_2026_06_sps5_61574_61623_v1:record=27","canonical_blob_sha":"bb48164e7a0af78df875f30421a6a3068c43edb8","runner_output_commit_sha":"799ff503af3ec14a89649f31a466ff249ca8a51a","runner_output_blob_sha":"f9e5b8c4507731af1f80f4bf74b81ff43e3fe052"}},{"type":"Feature","id":"parcel_61601","geometry":{"type":"Point","coordinates":[-0.1353755,51.4679742]},"properties":{"slot_id":"security_public_safety_5","lineage_id":"86b5e932de484ad26133fa8c","parcel_id":"parcel_61601","parcel_number":61601,"accepted_parcel":true,"evidence_family":"security_public_safety","official_boundary_archive":"https://data.police.uk/data/boundaries/2026-06.zip","archive_md5":"62f89304c7d1e453bec3a307e5126372","archive_sha256":"299034d708bdee4a14525561f71a95beee065cb71e48d5e535cf683d35daed77","boundary_identifier":"23862","boundary_identifier_basis":"kml_placemark_id","police_neighbourhood_id":"E05014102","boundary_member":"2026-06/metropolitan/E05014102.kml","official_exact_identifier_evidence":true,"official_boundary_evidence":true,"local_spatial_join":true,"source_window_id":"data_police_npt_boundary_archive_2026_06_sps5_61574_61623_v1","cursor":"data_police_npt_boundary_archive_2026_06_sps5_61574_61623_v1:record=28","canonical_blob_sha":"bb48164e7a0af78df875f30421a6a3068c43edb8","runner_output_commit_sha":"799ff503af3ec14a89649f31a466ff249ca8a51a","runner_output_blob_sha":"f9e5b8c4507731af1f80f4bf74b81ff43e3fe052"}},{"type":"Feature","id":"parcel_61602","geometry":{"type":"Point","coordinates":[-0.1361851,51.4691186]},"properties":{"slot_id":"security_public_safety_5","lineage_id":"86b5e932de484ad26133fa8c","parcel_id":"parcel_61602","parcel_number":61602,"accepted_parcel":true,"evidence_family":"security_public_safety","official_boundary_archive":"https://data.police.uk/data/boundaries/2026-06.zip","archive_md5":"62f89304c7d1e453bec3a307e5126372","archive_sha256":"299034d708bdee4a14525561f71a95beee065cb71e48d5e535cf683d35daed77","boundary_identifier":"27723","boundary_identifier_basis":"kml_placemark_id","police_neighbourhood_id":"E05014111","boundary_member":"2026-06/metropolitan/E05014111.kml","official_exact_identifier_evidence":true,"official_boundary_evidence":true,"local_spatial_join":true,"source_window_id":"data_police_npt_boundary_archive_2026_06_sps5_61574_61623_v1","cursor":"data_police_npt_boundary_archive_2026_06_sps5_61574_61623_v1:record=29","canonical_blob_sha":"bb48164e7a0af78df875f30421a6a3068c43edb8","runner_output_commit_sha":"799ff503af3ec14a89649f31a466ff249ca8a51a","runner_output_blob_sha":"f9e5b8c4507731af1f80f4bf74b81ff43e3fe052"}},{"type":"Feature","id":"parcel_61603","geometry":{"type":"Point","coordinates":[-0.1365041,51.4673775]},"properties":{"slot_id":"security_public_safety_5","lineage_id":"86b5e932de484ad26133fa8c","parcel_id":"parcel_61603","parcel_number":61603,"accepted_parcel":true,"evidence_family":"security_public_safety","official_boundary_archive":"https://data.police.uk/data/boundaries/2026-06.zip","archive_md5":"62f89304c7d1e453bec3a307e5126372","archive_sha256":"299034d708bdee4a14525561f71a95beee065cb71e48d5e535cf683d35daed77","boundary_identifier":"23862","boundary_identifier_basis":"kml_placemark_id","police_neighbourhood_id":"E05014102","boundary_member":"2026-06/metropolitan/E05014102.kml","official_exact_identifier_evidence":true,"official_boundary_evidence":true,"local_spatial_join":true,"source_window_id":"data_police_npt_boundary_archive_2026_06_sps5_61574_61623_v1","cursor":"data_police_npt_boundary_archive_2026_06_sps5_61574_61623_v1:record=30","canonical_blob_sha":"bb48164e7a0af78df875f30421a6a3068c43edb8","runner_output_commit_sha":"799ff503af3ec14a89649f31a466ff249ca8a51a","runner_output_blob_sha":"f9e5b8c4507731af1f80f4bf74b81ff43e3fe052"}},{"type":"Feature","id":"parcel_61604","geometry":{"type":"Point","coordinates":[-0.1365804,51.466798]},"properties":{"slot_id":"security_public_safety_5","lineage_id":"86b5e932de484ad26133fa8c","parcel_id":"parcel_61604","parcel_number":61604,"accepted_parcel":true,"evidence_family":"security_public_safety","official_boundary_archive":"https://data.police.uk/data/boundaries/2026-06.zip","archive_md5":"62f89304c7d1e453bec3a307e5126372","archive_sha256":"299034d708bdee4a14525561f71a95beee065cb71e48d5e535cf683d35daed77","boundary_identifier":"23862","boundary_identifier_basis":"kml_placemark_id","police_neighbourhood_id":"E05014102","boundary_member":"2026-06/metropolitan/E05014102.kml","official_exact_identifier_evidence":true,"official_boundary_evidence":true,"local_spatial_join":true,"source_window_id":"data_police_npt_boundary_archive_2026_06_sps5_61574_61623_v1","cursor":"data_police_npt_boundary_archive_2026_06_sps5_61574_61623_v1:record=31","canonical_blob_sha":"bb48164e7a0af78df875f30421a6a3068c43edb8","runner_output_commit_sha":"799ff503af3ec14a89649f31a466ff249ca8a51a","runner_output_blob_sha":"f9e5b8c4507731af1f80f4bf74b81ff43e3fe052"}},{"type":"Feature","id":"parcel_61605","geometry":{"type":"Point","coordinates":[-0.1373715,51.4659927]},"properties":{"slot_id":"security_public_safety_5","lineage_id":"86b5e932de484ad26133fa8c","parcel_id":"parcel_61605","parcel_number":61605,"accepted_parcel":true,"evidence_family":"security_public_safety","official_boundary_archive":"https://data.police.uk/data/boundaries/2026-06.zip","archive_md5":"62f89304c7d1e453bec3a307e5126372","archive_sha256":"299034d708bdee4a14525561f71a95beee065cb71e48d5e535cf683d35daed77","boundary_identifier":"23862","boundary_identifier_basis":"kml_placemark_id","police_neighbourhood_id":"E05014102","boundary_member":"2026-06/metropolitan/E05014102.kml","official_exact_identifier_evidence":true,"official_boundary_evidence":true,"local_spatial_join":true,"source_window_id":"data_police_npt_boundary_archive_2026_06_sps5_61574_61623_v1","cursor":"data_police_npt_boundary_archive_2026_06_sps5_61574_61623_v1:record=32","canonical_blob_sha":"bb48164e7a0af78df875f30421a6a3068c43edb8","runner_output_commit_sha":"799ff503af3ec14a89649f31a466ff249ca8a51a","runner_output_blob_sha":"f9e5b8c4507731af1f80f4bf74b81ff43e3fe052"}},{"type":"Feature","id":"parcel_61606","geometry":{"type":"Point","coordinates":[-0.1355942,51.4642759]},"properties":{"slot_id":"security_public_safety_5","lineage_id":"86b5e932de484ad26133fa8c","parcel_id":"parcel_61606","parcel_number":61606,"accepted_parcel":true,"evidence_family":"security_public_safety","official_boundary_archive":"https://data.police.uk/data/boundaries/2026-06.zip","archive_md5":"62f89304c7d1e453bec3a307e5126372","archive_sha256":"299034d708bdee4a14525561f71a95beee065cb71e48d5e535cf683d35daed77","boundary_identifier":"23862","boundary_identifier_basis":"kml_placemark_id","police_neighbourhood_id":"E05014102","boundary_member":"2026-06/metropolitan/E05014102.kml","official_exact_identifier_evidence":true,"official_boundary_evidence":true,"local_spatial_join":true,"source_window_id":"data_police_npt_boundary_archive_2026_06_sps5_61574_61623_v1","cursor":"data_police_npt_boundary_archive_2026_06_sps5_61574_61623_v1:record=33","canonical_blob_sha":"bb48164e7a0af78df875f30421a6a3068c43edb8","runner_output_commit_sha":"799ff503af3ec14a89649f31a466ff249ca8a51a","runner_output_blob_sha":"f9e5b8c4507731af1f80f4bf74b81ff43e3fe052"}},{"type":"Feature","id":"parcel_61607","geometry":{"type":"Point","coordinates":[-0.1367693,51.4651952]},"properties":{"slot_id":"security_public_safety_5","lineage_id":"86b5e932de484ad26133fa8c","parcel_id":"parcel_61607","parcel_number":61607,"accepted_parcel":true,"evidence_family":"security_public_safety","official_boundary_archive":"https://data.police.uk/data/boundaries/2026-06.zip","archive_md5":"62f89304c7d1e453bec3a307e5126372","archive_sha256":"299034d708bdee4a14525561f71a95beee065cb71e48d5e535cf683d35daed77","boundary_identifier":"23862","boundary_identifier_basis":"kml_placemark_id","police_neighbourhood_id":"E05014102","boundary_member":"2026-06/metropolitan/E05014102.kml","official_exact_identifier_evidence":true,"official_boundary_evidence":true,"local_spatial_join":true,"source_window_id":"data_police_npt_boundary_archive_2026_06_sps5_61574_61623_v1","cursor":"data_police_npt_boundary_archive_2026_06_sps5_61574_61623_v1:record=34","canonical_blob_sha":"bb48164e7a0af78df875f30421a6a3068c43edb8","runner_output_commit_sha":"799ff503af3ec14a89649f31a466ff249ca8a51a","runner_output_blob_sha":"f9e5b8c4507731af1f80f4bf74b81ff43e3fe052"}},{"type":"Feature","id":"parcel_61608","geometry":{"type":"Point","coordinates":[-0.1374363,51.4645115]},"properties":{"slot_id":"security_public_safety_5","lineage_id":"86b5e932de484ad26133fa8c","parcel_id":"parcel_61608","parcel_number":61608,"accepted_parcel":true,"evidence_family":"security_public_safety","official_boundary_archive":"https://data.police.uk/data/boundaries/2026-06.zip","archive_md5":"62f89304c7d1e453bec3a307e5126372","archive_sha256":"299034d708bdee4a14525561f71a95beee065cb71e48d5e535cf683d35daed77","boundary_identifier":"23862","boundary_identifier_basis":"kml_placemark_id","police_neighbourhood_id":"E05014102","boundary_member":"2026-06/metropolitan/E05014102.kml","official_exact_identifier_evidence":true,"official_boundary_evidence":true,"local_spatial_join":true,"source_window_id":"data_police_npt_boundary_archive_2026_06_sps5_61574_61623_v1","cursor":"data_police_npt_boundary_archive_2026_06_sps5_61574_61623_v1:record=35","canonical_blob_sha":"bb48164e7a0af78df875f30421a6a3068c43edb8","runner_output_commit_sha":"799ff503af3ec14a89649f31a466ff249ca8a51a","runner_output_blob_sha":"f9e5b8c4507731af1f80f4bf74b81ff43e3fe052"}},{"type":"Feature","id":"parcel_61609","geometry":{"type":"Point","coordinates":[-0.1359531,51.4652394]},"properties":{"slot_id":"security_public_safety_5","lineage_id":"86b5e932de484ad26133fa8c","parcel_id":"parcel_61609","parcel_number":61609,"accepted_parcel":true,"evidence_family":"security_public_safety","official_boundary_archive":"https://data.police.uk/data/boundaries/2026-06.zip","archive_md5":"62f89304c7d1e453bec3a307e5126372","archive_sha256":"299034d708bdee4a14525561f71a95beee065cb71e48d5e535cf683d35daed77","boundary_identifier":"23862","boundary_identifier_basis":"kml_placemark_id","police_neighbourhood_id":"E05014102","boundary_member":"2026-06/metropolitan/E05014102.kml","official_exact_identifier_evidence":true,"official_boundary_evidence":true,"local_spatial_join":true,"source_window_id":"data_police_npt_boundary_archive_2026_06_sps5_61574_61623_v1","cursor":"data_police_npt_boundary_archive_2026_06_sps5_61574_61623_v1:record=36","canonical_blob_sha":"bb48164e7a0af78df875f30421a6a3068c43edb8","runner_output_commit_sha":"799ff503af3ec14a89649f31a466ff249ca8a51a","runner_output_blob_sha":"f9e5b8c4507731af1f80f4bf74b81ff43e3fe052"}},{"type":"Feature","id":"parcel_61610","geometry":{"type":"Point","coordinates":[-0.1380908,51.4692681]},"properties":{"slot_id":"security_public_safety_5","lineage_id":"86b5e932de484ad26133fa8c","parcel_id":"parcel_61610","parcel_number":61610,"accepted_parcel":true,"evidence_family":"security_public_safety","official_boundary_archive":"https://data.police.uk/data/boundaries/2026-06.zip","archive_md5":"62f89304c7d1e453bec3a307e5126372","archive_sha256":"299034d708bdee4a14525561f71a95beee065cb71e48d5e535cf683d35daed77","boundary_identifier":"23862","boundary_identifier_basis":"kml_placemark_id","police_neighbourhood_id":"E05014102","boundary_member":"2026-06/metropolitan/E05014102.kml","official_exact_identifier_evidence":true,"official_boundary_evidence":true,"local_spatial_join":true,"source_window_id":"data_police_npt_boundary_archive_2026_06_sps5_61574_61623_v1","cursor":"data_police_npt_boundary_archive_2026_06_sps5_61574_61623_v1:record=37","canonical_blob_sha":"bb48164e7a0af78df875f30421a6a3068c43edb8","runner_output_commit_sha":"799ff503af3ec14a89649f31a466ff249ca8a51a","runner_output_blob_sha":"f9e5b8c4507731af1f80f4bf74b81ff43e3fe052"}},{"type":"Feature","id":"parcel_61611","geometry":{"type":"Point","coordinates":[-0.137408,51.4684505]},"properties":{"slot_id":"security_public_safety_5","lineage_id":"86b5e932de484ad26133fa8c","parcel_id":"parcel_61611","parcel_number":61611,"accepted_parcel":true,"evidence_family":"security_public_safety","official_boundary_archive":"https://data.police.uk/data/boundaries/2026-06.zip","archive_md5":"62f89304c7d1e453bec3a307e5126372","archive_sha256":"299034d708bdee4a14525561f71a95beee065cb71e48d5e535cf683d35daed77","boundary_identifier":"23862","boundary_identifier_basis":"kml_placemark_id","police_neighbourhood_id":"E05014102","boundary_member":"2026-06/metropolitan/E05014102.kml","official_exact_identifier_evidence":true,"official_boundary_evidence":true,"local_spatial_join":true,"source_window_id":"data_police_npt_boundary_archive_2026_06_sps5_61574_61623_v1","cursor":"data_police_npt_boundary_archive_2026_06_sps5_61574_61623_v1:record=38","canonical_blob_sha":"bb48164e7a0af78df875f30421a6a3068c43edb8","runner_output_commit_sha":"799ff503af3ec14a89649f31a466ff249ca8a51a","runner_output_blob_sha":"f9e5b8c4507731af1f80f4bf74b81ff43e3fe052"}},{"type":"Feature","id":"parcel_61612","geometry":{"type":"Point","coordinates":[-0.1371723,51.469467]},"properties":{"slot_id":"security_public_safety_5","lineage_id":"86b5e932de484ad26133fa8c","parcel_id":"parcel_61612","parcel_number":61612,"accepted_parcel":true,"evidence_family":"security_public_safety","official_boundary_archive":"https://data.police.uk/data/boundaries/2026-06.zip","archive_md5":"62f89304c7d1e453bec3a307e5126372","archive_sha256":"299034d708bdee4a14525561f71a95beee065cb71e48d5e535cf683d35daed77","boundary_identifier":"27723","boundary_identifier_basis":"kml_placemark_id","police_neighbourhood_id":"E05014111","boundary_member":"2026-06/metropolitan/E05014111.kml","official_exact_identifier_evidence":true,"official_boundary_evidence":true,"local_spatial_join":true,"source_window_id":"data_police_npt_boundary_archive_2026_06_sps5_61574_61623_v1","cursor":"data_police_npt_boundary_archive_2026_06_sps5_61574_61623_v1:record=39","canonical_blob_sha":"bb48164e7a0af78df875f30421a6a3068c43edb8","runner_output_commit_sha":"799ff503af3ec14a89649f31a466ff249ca8a51a","runner_output_blob_sha":"f9e5b8c4507731af1f80f4bf74b81ff43e3fe052"}},{"type":"Feature","id":"parcel_61613","geometry":{"type":"Point","coordinates":[-0.137908,51.4674023]},"properties":{"slot_id":"security_public_safety_5","lineage_id":"86b5e932de484ad26133fa8c","parcel_id":"parcel_61613","parcel_number":61613,"accepted_parcel":true,"evidence_family":"security_public_safety","official_boundary_archive":"https://data.police.uk/data/boundaries/2026-06.zip","archive_md5":"62f89304c7d1e453bec3a307e5126372","archive_sha256":"299034d708bdee4a14525561f71a95beee065cb71e48d5e535cf683d35daed77","boundary_identifier":"23862","boundary_identifier_basis":"kml_placemark_id","police_neighbourhood_id":"E05014102","boundary_member":"2026-06/metropolitan/E05014102.kml","official_exact_identifier_evidence":true,"official_boundary_evidence":true,"local_spatial_join":true,"source_window_id":"data_police_npt_boundary_archive_2026_06_sps5_61574_61623_v1","cursor":"data_police_npt_boundary_archive_2026_06_sps5_61574_61623_v1:record=40","canonical_blob_sha":"bb48164e7a0af78df875f30421a6a3068c43edb8","runner_output_commit_sha":"799ff503af3ec14a89649f31a466ff249ca8a51a","runner_output_blob_sha":"f9e5b8c4507731af1f80f4bf74b81ff43e3fe052"}},{"type":"Feature","id":"parcel_61614","geometry":{"type":"Point","coordinates":[-0.1377116,51.4668243]},"properties":{"slot_id":"security_public_safety_5","lineage_id":"86b5e932de484ad26133fa8c","parcel_id":"parcel_61614","parcel_number":61614,"accepted_parcel":true,"evidence_family":"security_public_safety","official_boundary_archive":"https://data.police.uk/data/boundaries/2026-06.zip","archive_md5":"62f89304c7d1e453bec3a307e5126372","archive_sha256":"299034d708bdee4a14525561f71a95beee065cb71e48d5e535cf683d35daed77","boundary_identifier":"23862","boundary_identifier_basis":"kml_placemark_id","police_neighbourhood_id":"E05014102","boundary_member":"2026-06/metropolitan/E05014102.kml","official_exact_identifier_evidence":true,"official_boundary_evidence":true,"local_spatial_join":true,"source_window_id":"data_police_npt_boundary_archive_2026_06_sps5_61574_61623_v1","cursor":"data_police_npt_boundary_archive_2026_06_sps5_61574_61623_v1:record=41","canonical_blob_sha":"bb48164e7a0af78df875f30421a6a3068c43edb8","runner_output_commit_sha":"799ff503af3ec14a89649f31a466ff249ca8a51a","runner_output_blob_sha":"f9e5b8c4507731af1f80f4bf74b81ff43e3fe052"}},{"type":"Feature","id":"parcel_61615","geometry":{"type":"Point","coordinates":[-0.1373778,51.4670526]},"properties":{"slot_id":"security_public_safety_5","lineage_id":"86b5e932de484ad26133fa8c","parcel_id":"parcel_61615","parcel_number":61615,"accepted_parcel":true,"evidence_family":"security_public_safety","official_boundary_archive":"https://data.police.uk/data/boundaries/2026-06.zip","archive_md5":"62f89304c7d1e453bec3a307e5126372","archive_sha256":"299034d708bdee4a14525561f71a95beee065cb71e48d5e535cf683d35daed77","boundary_identifier":"23862","boundary_identifier_basis":"kml_placemark_id","police_neighbourhood_id":"E05014102","boundary_member":"2026-06/metropolitan/E05014102.kml","official_exact_identifier_evidence":true,"official_boundary_evidence":true,"local_spatial_join":true,"source_window_id":"data_police_npt_boundary_archive_2026_06_sps5_61574_61623_v1","cursor":"data_police_npt_boundary_archive_2026_06_sps5_61574_61623_v1:record=42","canonical_blob_sha":"bb48164e7a0af78df875f30421a6a3068c43edb8","runner_output_commit_sha":"799ff503af3ec14a89649f31a466ff249ca8a51a","runner_output_blob_sha":"f9e5b8c4507731af1f80f4bf74b81ff43e3fe052"}},{"type":"Feature","id":"parcel_61616","geometry":{"type":"Point","coordinates":[-0.1384932,51.4693715]},"properties":{"slot_id":"security_public_safety_5","lineage_id":"86b5e932de484ad26133fa8c","parcel_id":"parcel_61616","parcel_number":61616,"accepted_parcel":true,"evidence_family":"security_public_safety","official_boundary_archive":"https://data.police.uk/data/boundaries/2026-06.zip","archive_md5":"62f89304c7d1e453bec3a307e5126372","archive_sha256":"299034d708bdee4a14525561f71a95beee065cb71e48d5e535cf683d35daed77","boundary_identifier":"23862","boundary_identifier_basis":"kml_placemark_id","police_neighbourhood_id":"E05014102","boundary_member":"2026-06/metropolitan/E05014102.kml","official_exact_identifier_evidence":true,"official_boundary_evidence":true,"local_spatial_join":true,"source_window_id":"data_police_npt_boundary_archive_2026_06_sps5_61574_61623_v1","cursor":"data_police_npt_boundary_archive_2026_06_sps5_61574_61623_v1:record=43","canonical_blob_sha":"bb48164e7a0af78df875f30421a6a3068c43edb8","runner_output_commit_sha":"799ff503af3ec14a89649f31a466ff249ca8a51a","runner_output_blob_sha":"f9e5b8c4507731af1f80f4bf74b81ff43e3fe052"}},{"type":"Feature","id":"parcel_61617","geometry":{"type":"Point","coordinates":[-0.1386561,51.468237]},"properties":{"slot_id":"security_public_safety_5","lineage_id":"86b5e932de484ad26133fa8c","parcel_id":"parcel_61617","parcel_number":61617,"accepted_parcel":true,"evidence_family":"security_public_safety","official_boundary_archive":"https://data.police.uk/data/boundaries/2026-06.zip","archive_md5":"62f89304c7d1e453bec3a307e5126372","archive_sha256":"299034d708bdee4a14525561f71a95beee065cb71e48d5e535cf683d35daed77","boundary_identifier":"23862","boundary_identifier_basis":"kml_placemark_id","police_neighbourhood_id":"E05014102","boundary_member":"2026-06/metropolitan/E05014102.kml","official_exact_identifier_evidence":true,"official_boundary_evidence":true,"local_spatial_join":true,"source_window_id":"data_police_npt_boundary_archive_2026_06_sps5_61574_61623_v1","cursor":"data_police_npt_boundary_archive_2026_06_sps5_61574_61623_v1:record=44","canonical_blob_sha":"bb48164e7a0af78df875f30421a6a3068c43edb8","runner_output_commit_sha":"799ff503af3ec14a89649f31a466ff249ca8a51a","runner_output_blob_sha":"f9e5b8c4507731af1f80f4bf74b81ff43e3fe052"}},{"type":"Feature","id":"parcel_61618","geometry":{"type":"Point","coordinates":[-0.1386721,51.4659529]},"properties":{"slot_id":"security_public_safety_5","lineage_id":"86b5e932de484ad26133fa8c","parcel_id":"parcel_61618","parcel_number":61618,"accepted_parcel":true,"evidence_family":"security_public_safety","official_boundary_archive":"https://data.police.uk/data/boundaries/2026-06.zip","archive_md5":"62f89304c7d1e453bec3a307e5126372","archive_sha256":"299034d708bdee4a14525561f71a95beee065cb71e48d5e535cf683d35daed77","boundary_identifier":"23862","boundary_identifier_basis":"kml_placemark_id","police_neighbourhood_id":"E05014102","boundary_member":"2026-06/metropolitan/E05014102.kml","official_exact_identifier_evidence":true,"official_boundary_evidence":true,"local_spatial_join":true,"source_window_id":"data_police_npt_boundary_archive_2026_06_sps5_61574_61623_v1","cursor":"data_police_npt_boundary_archive_2026_06_sps5_61574_61623_v1:record=45","canonical_blob_sha":"bb48164e7a0af78df875f30421a6a3068c43edb8","runner_output_commit_sha":"799ff503af3ec14a89649f31a466ff249ca8a51a","runner_output_blob_sha":"f9e5b8c4507731af1f80f4bf74b81ff43e3fe052"}},{"type":"Feature","id":"parcel_61619","geometry":{"type":"Point","coordinates":[-0.1390212,51.4644931]},"properties":{"slot_id":"security_public_safety_5","lineage_id":"86b5e932de484ad26133fa8c","parcel_id":"parcel_61619","parcel_number":61619,"accepted_parcel":true,"evidence_family":"security_public_safety","official_boundary_archive":"https://data.police.uk/data/boundaries/2026-06.zip","archive_md5":"62f89304c7d1e453bec3a307e5126372","archive_sha256":"299034d708bdee4a14525561f71a95beee065cb71e48d5e535cf683d35daed77","boundary_identifier":"23862","boundary_identifier_basis":"kml_placemark_id","police_neighbourhood_id":"E05014102","boundary_member":"2026-06/metropolitan/E05014102.kml","official_exact_identifier_evidence":true,"official_boundary_evidence":true,"local_spatial_join":true,"source_window_id":"data_police_npt_boundary_archive_2026_06_sps5_61574_61623_v1","cursor":"data_police_npt_boundary_archive_2026_06_sps5_61574_61623_v1:record=46","canonical_blob_sha":"bb48164e7a0af78df875f30421a6a3068c43edb8","runner_output_commit_sha":"799ff503af3ec14a89649f31a466ff249ca8a51a","runner_output_blob_sha":"f9e5b8c4507731af1f80f4bf74b81ff43e3fe052"}},{"type":"Feature","id":"parcel_61620","geometry":{"type":"Point","coordinates":[-0.1385328,51.4650101]},"properties":{"slot_id":"security_public_safety_5","lineage_id":"86b5e932de484ad26133fa8c","parcel_id":"parcel_61620","parcel_number":61620,"accepted_parcel":true,"evidence_family":"security_public_safety","official_boundary_archive":"https://data.police.uk/data/boundaries/2026-06.zip","archive_md5":"62f89304c7d1e453bec3a307e5126372","archive_sha256":"299034d708bdee4a14525561f71a95beee065cb71e48d5e535cf683d35daed77","boundary_identifier":"23862","boundary_identifier_basis":"kml_placemark_id","police_neighbourhood_id":"E05014102","boundary_member":"2026-06/metropolitan/E05014102.kml","official_exact_identifier_evidence":true,"official_boundary_evidence":true,"local_spatial_join":true,"source_window_id":"data_police_npt_boundary_archive_2026_06_sps5_61574_61623_v1","cursor":"data_police_npt_boundary_archive_2026_06_sps5_61574_61623_v1:record=47","canonical_blob_sha":"bb48164e7a0af78df875f30421a6a3068c43edb8","runner_output_commit_sha":"799ff503af3ec14a89649f31a466ff249ca8a51a","runner_output_blob_sha":"f9e5b8c4507731af1f80f4bf74b81ff43e3fe052"}},{"type":"Feature","id":"parcel_61621","geometry":{"type":"Point","coordinates":[-0.139015,51.468773]},"properties":{"slot_id":"security_public_safety_5","lineage_id":"86b5e932de484ad26133fa8c","parcel_id":"parcel_61621","parcel_number":61621,"accepted_parcel":true,"evidence_family":"security_public_safety","official_boundary_archive":"https://data.police.uk/data/boundaries/2026-06.zip","archive_md5":"62f89304c7d1e453bec3a307e5126372","archive_sha256":"299034d708bdee4a14525561f71a95beee065cb71e48d5e535cf683d35daed77","boundary_identifier":"23862","boundary_identifier_basis":"kml_placemark_id","police_neighbourhood_id":"E05014102","boundary_member":"2026-06/metropolitan/E05014102.kml","official_exact_identifier_evidence":true,"official_boundary_evidence":true,"local_spatial_join":true,"source_window_id":"data_police_npt_boundary_archive_2026_06_sps5_61574_61623_v1","cursor":"data_police_npt_boundary_archive_2026_06_sps5_61574_61623_v1:record=48","canonical_blob_sha":"bb48164e7a0af78df875f30421a6a3068c43edb8","runner_output_commit_sha":"799ff503af3ec14a89649f31a466ff249ca8a51a","runner_output_blob_sha":"f9e5b8c4507731af1f80f4bf74b81ff43e3fe052"}},{"type":"Feature","id":"parcel_61622","geometry":{"type":"Point","coordinates":[-0.1396846,51.4671135]},"properties":{"slot_id":"security_public_safety_5","lineage_id":"86b5e932de484ad26133fa8c","parcel_id":"parcel_61622","parcel_number":61622,"accepted_parcel":true,"evidence_family":"security_public_safety","official_boundary_archive":"https://data.police.uk/data/boundaries/2026-06.zip","archive_md5":"62f89304c7d1e453bec3a307e5126372","archive_sha256":"299034d708bdee4a14525561f71a95beee065cb71e48d5e535cf683d35daed77","boundary_identifier":"23862","boundary_identifier_basis":"kml_placemark_id","police_neighbourhood_id":"E05014102","boundary_member":"2026-06/metropolitan/E05014102.kml","official_exact_identifier_evidence":true,"official_boundary_evidence":true,"local_spatial_join":true,"source_window_id":"data_police_npt_boundary_archive_2026_06_sps5_61574_61623_v1","cursor":"data_police_npt_boundary_archive_2026_06_sps5_61574_61623_v1:record=49","canonical_blob_sha":"bb48164e7a0af78df875f30421a6a3068c43edb8","runner_output_commit_sha":"799ff503af3ec14a89649f31a466ff249ca8a51a","runner_output_blob_sha":"f9e5b8c4507731af1f80f4bf74b81ff43e3fe052"}},{"type":"Feature","id":"parcel_61623","geometry":{"type":"Point","coordinates":[-0.1392653,51.4664182]},"properties":{"slot_id":"security_public_safety_5","lineage_id":"86b5e932de484ad26133fa8c","parcel_id":"parcel_61623","parcel_number":61623,"accepted_parcel":true,"evidence_family":"security_public_safety","official_boundary_archive":"https://data.police.uk/data/boundaries/2026-06.zip","archive_md5":"62f89304c7d1e453bec3a307e5126372","archive_sha256":"299034d708bdee4a14525561f71a95beee065cb71e48d5e535cf683d35daed77","boundary_identifier":"23862","boundary_identifier_basis":"kml_placemark_id","police_neighbourhood_id":"E05014102","boundary_member":"2026-06/metropolitan/E05014102.kml","official_exact_identifier_evidence":true,"official_boundary_evidence":true,"local_spatial_join":true,"source_window_id":"data_police_npt_boundary_archive_2026_06_sps5_61574_61623_v1","cursor":"data_police_npt_boundary_archive_2026_06_sps5_61574_61623_v1:record=50","canonical_blob_sha":"bb48164e7a0af78df875f30421a6a3068c43edb8","runner_output_commit_sha":"799ff503af3ec14a89649f31a466ff249ca8a51a","runner_output_blob_sha":"f9e5b8c4507731af1f80f4bf74b81ff43e3fe052"}}]}
