{"type":"FeatureCollection","features":[{"type":"Feature","id":"CHERWELL-24-00572-F-HOUSE-1","geometry":null,"properties":{"slot_id":"planned_buildings_2","lineage_id":"planned_buildings_2-20260930T174700Z-newstart","batch_id":"batch-0004","application_reference":"24/00572/F","planning_authority":"Cherwell District Council","site":"Fourways North Street Islip Oxfordshire OX5 2SQ","distinct_building_id":"HOUSE_1","official_plan_label":"House 1","drawing_reference":"PA-04 Rev PL3","drawing_date":"2025-03-06","planning_status":"Appeal Allowed","status_date":"2025-08-01","planned_building":true,"geometry_status":"OFFICIAL_PLAN_IDENTIFIED_BUT_NATIVE_POLYGON_NOT_EXTRACTED","source_url":"https://planningregister.cherwell.gov.uk/Planning/Display/24/00572/F","plan_url":"https://planningregister.cherwell.gov.uk/Document/Download?fileName=LS034-PA-04-Proposed+Block+Plan+-Rev.PL3.pdf&imageId=153511&isPlan=True&module=PLA&planId=143511&recordNumber=158952","confidence_score_0_100":97,"evidence_grade":"A_OFFICIAL_APPROVED_PLAN_DISTINCT_STRUCTURE","fake_data":false}},{"type":"Feature","id":"CHERWELL-24-00572-F-HOUSE-2","geometry":null,"properties":{"slot_id":"planned_buildings_2","lineage_id":"planned_buildings_2-20260930T174700Z-newstart","batch_id":"batch-0004","application_reference":"24/00572/F","planning_authority":"Cherwell District Council","site":"Fourways North Street Islip Oxfordshire OX5 2SQ","distinct_building_id":"HOUSE_2","official_plan_label":"House 2","drawing_reference":"PA-04 Rev PL3","drawing_date":"2025-03-06","planning_status":"Appeal Allowed","status_date":"2025-08-01","planned_building":true,"geometry_status":"OFFICIAL_PLAN_IDENTIFIED_BUT_NATIVE_POLYGON_NOT_EXTRACTED","source_url":"https://planningregister.cherwell.gov.uk/Planning/Display/24/00572/F","plan_url":"https://planningregister.cherwell.gov.uk/Document/Download?fileName=LS034-PA-04-Proposed+Block+Plan+-Rev.PL3.pdf&imageId=153511&isPlan=True&module=PLA&planId=143511&recordNumber=158952","confidence_score_0_100":97,"evidence_grade":"A_OFFICIAL_APPROVED_PLAN_DISTINCT_STRUCTURE","fake_data":false}}]}
