{
  "features": [
    {
      "geometry": null,
      "id": "cheshire:northwich:davenham-and-moulton:crime-map:brick-kiln-lane",
      "properties": {
        "accepted_as_parcel": false,
        "access_utc": "2026-10-03T15:45:00Z",
        "canonical_binding": "LOCAL_OPENCODE_PENDING_NOT_CLAIMED",
        "confidence_score_0_100": 90,
        "data_date": "2026-10-03 access snapshot",
        "direct_parcel": false,
        "duplicate": false,
        "evidence_grade": "A_OFFICIAL_FORCE_WEBSITE_AREA_LOCALIZED_APPROXIMATE_LOCATION",
        "fake_data": false,
        "force_id": "cheshire",
        "identifier": "cheshire:northwich:davenham-and-moulton:crime-map:brick-kiln-lane",
        "identifier_field": "area_localized_approximate_location_label",
        "identifier_version": "Cheshire Constabulary crime-map visible rows",
        "instances": 1,
        "name": "Brick Kiln Lane",
        "parent_area": "Northwich",
        "record_type": "SOURCE_AREA_APPROXIMATE_LOCATION_LABEL",
        "source_area_counted": true,
        "source_url": "https://www.cheshire.police.uk/area/your-area/cheshire/northwich/davenham-and-moulton/contact-us/crime-map",
        "team": "Davenham and Moulton"
      },
      "type": "Feature"
    }
  ],
  "name": "security_public_safety_3",
  "properties": {
    "accepted_count": 0,
    "batch_id": "20261003T154500Z-cheshire-davenham-moulton-crimemap-002",
    "fake_data": false,
    "lineage_id": "L24-SPS3-57442c9c2a0f429be2d2",
    "page_generation": 1,
    "partition": {
      "count": 30761,
      "end": 92283,
      "start": 61523
    },
    "schema": "AAYS_LAYER24_EVIDENCE_V1",
    "slot_id": "security_public_safety_3",
    "source_area_count": 1
  },
  "type": "FeatureCollection"
}
