{"type":"FeatureCollection","features":[{"type":"Feature","id":"planning-data-brownfield-land:1700583","geometry":null,"properties":{"slot_id":"future_growth_4","lineage_id":"fg4-e4c9076d6f554f00","page_generation":1,"owner":"future_growth_4","partition":"future_growth","semantic_mode":"SOURCE_AREA_EXACT_IDENTIFIER","dataset":"planning-data-brownfield-land","entity":"1700583","reference":"B0154","quality":"authoritative","organisation":"Sefton Metropolitan Borough Council","name":"B0154","site_address":"Land adj to St Monicas Parochial, Stewart Avenue, Bootle","source_url":"https://www.planning.data.gov.uk/entity/1700583","final_url":"https://www.planning.data.gov.uk/entity/1700583","access_utc":"2026-10-07T08:43:00Z","data_date":"2024-02-21","license":"Planning Data official public entity; no explicit reuse licence stated on entity page","field_evidence":{"entity":1700583,"reference":"B0154","site_address":"Land adj to St Monicas Parochial, Stewart Avenue, Bootle","hectares":0.12,"point_wkt":"POINT (-2.978126 53.454523)","deliverable":"yes","ownership_status":"not-owned-by-a-public-authority","planning_permission_date":"2024-02-21","planning_permission_type":"full-planning-permission","planning_permission_status":"permissioned","minimum_net_dwellings":10,"maximum_net_dwellings":0,"entry_date":"2023-11-15","start_date":"2016-03-11"},"evidence_slice_sha256":"3b7202208775928c344f0f12b44d4a663f2c6112af313121bd714e372b7c540e","confidence_score_0_100":99,"confidence":0.99,"evidence_grade":"A","exact_identifier_provided":true,"coverage_polygon_provided":false,"point_geometry_provided":true,"fake_data":false,"join_mode":"LOCAL_OPENCODE_SPATIAL_JOIN_PENDING","direct_parcel":false,"source_area_count_contribution":1,"planned_building_count_contribution":0}}]}