{"type":"FeatureCollection","name":"future_growth_9_latest","demo_only":true,"metadata":{"schema_version":3,"slot_id":"future_growth_9","continuation_key":"future_growth_9_open_source_v2_20260813","run_id":"future_growth_9_bounded12_20260818T014138Z","updated_at":"2026-08-18T01:41:38Z","state":"IN_PROGRESS_BOUNDED_SOURCE_EXPANSION","source_family":"planning_data_brownfield_land_direct_identity","source_authority":"City of Bradford Metropolitan District Council","feature_count":1,"batch_index":1,"fake_data":false,"final_ready":false,"production_merge":false,"duplicate_count":0,"nearest_match_used":false},"features":[{"type":"Feature","id":"future_growth_9:planning_data_bradford:cc-018","geometry":{"type":"Point","coordinates":[-1.748247,53.796368]},"properties":{"slot_id":"future_growth_9","continuation_key":"future_growth_9_open_source_v2_20260813","source_index":0,"source_family":"planning_data_brownfield_land_direct_identity","source_name":"Planning Data Brownfield Land — City of Bradford Metropolitan District Council","source_publisher":"City of Bradford Metropolitan District Council via Planning Data (MHCLG)","source_feature_id":"CC/018","planning_data_entity":1712083,"source_url":"https://www.planning.data.gov.uk/entity/1712083","source_dataset_url":"https://www.planning.data.gov.uk/dataset/brownfield-land","source_entry_date":"2022-11-01","source_sha256":"27194f451ca212d532295f8a4c130a34d18d89989cc6be9d8f58ab45d9ab8a42","source_sha256_scope":"canonical JSON snapshot of official entity fields used in this bounded batch","license":"Open Government Licence v3.0","planning_status":"not-permissioned","future_growth_evidence_type":"area_proxy","direct_project_evidence":false,"evidence_summary":"Official brownfield record identifies the site for residential development and states capacity for at least 30 dwellings; the published dwelling range is 50.","matching_method":"direct official brownfield-land CURIE/reference identity plus published WGS84 point; no nearest matching, no cross-parcel identity inference","accuracy_scale_1_4":3,"future_growth_value":null,"future_growth_probability":null,"planned_building_complete_month":null,"unknown_reason":"Numeric value/probability withheld because no approved scoring rule exists.","site_name":"Cathedral Quarter B, City Centre","hectares":0.3,"net_dwellings_range_from":50,"net_dwellings_range_to":50,"fake_data":false,"final_ready":false,"production_merge":false,"demo_only":true}}]}