{"type":"FeatureCollection","metadata":{"slot_id":"future_growth_3","continuation_key":"future_growth_3_open_source_v2_20260813","updated_at":"2026-08-18T05:28:50Z","feature_count":0,"feature_count_before":0,"new_features_added":0,"feature_count_after":0,"bounded_batches_completed":114,"last_batch_index":114,"last_window_id":"west_oxfordshire_local_plan_preferred_policy_options_2025","last_batch_result":"NO_CANONICAL_PARCEL_ACCEPT_REG18_STAGE","duplicate_count":0,"nearest_match_used":false,"fake_data":false,"final_ready":false,"production_merge":false,"demo_only":true,"request_batch_start":109,"request_batch_end":120,"completed_new_bounded_batches_this_request":6,"matching_requirement":"STRICT_CENTROID_WITHIN_POLYGON_OR_EXACT_INTERSECTION_ONLY"},"features":[]}