{"features":[{"geometry":{"coordinates":[[[[-1.607006,54.955074],[-1.606407,54.955243],[-1.606521,54.955377],[-1.607119,54.955202],[-1.607006,54.955074]]]],"type":"MultiPolygon"},"id":"42118318","properties":{"access_utc":"2026-10-04T18:50:00Z","batch_id":"batch-0049","building_evidence_status":"BUILDING_PRESENT","building_type":"listed_building","building_use":null,"canonical_parcel_id":null,"confidence_score_0_100":94,"data_date":"2023-08-17","evidence_grade":"A","evidence_slice_sha256":"fc1c91576cb2ebf44d248277a5c5f8061985892c68ce0dd0e564a98e66162389","fake_data":false,"field_evidence":{"footprint":"official listed-building-outline MULTIPOLYGON","name":"3-8, WOODBINE PLACE","reference":"430260","type":"official dataset classification: listed-building-outline","use":"no current use inferred"},"final_url":"https://www.planning.data.gov.uk/entity/42118318","licence":"Open Government Licence v3.0","lineage_id":"building_type_9-20261001T200900Z-newstart","local_spatial_join_required":true,"page_generation":1,"parcel_status":"UNPROCESSED","poi_accepted":false,"slot_id":"building_type_9","source_dataset":"listed-building-outline","source_entity":42118318,"source_organisation":"Gateshead Metropolitan Borough Council","source_reference":"430260","source_url":"https://www.planning.data.gov.uk/entity/42118318"},"type":"Feature"},{"geometry":{"coordinates":[[[[-1.808143,54.964791],[-1.808197,54.964785],[-1.808193,54.96477],[-1.808256,54.964763],[-1.808249,54.964738],[-1.808261,54.964734],[-1.808218,54.964585],[-1.808147,54.964593],[-1.808094,54.964426],[-1.80793,54.96444],[-1.807922,54.964414],[-1.807844,54.964419],[-1.807854,54.964447],[-1.807707,54.964461],[-1.807745,54.96461],[-1.807831,54.964606],[-1.80784,54.964638],[-1.80789,54.964633],[-1.807878,54.964585],[-1.808008,54.964573],[-1.808061,54.964753],[-1.80804,54.964755],[-1.808051,54.964784],[-1.808135,54.964777],[-1.808143,54.964791]]]],"type":"MultiPolygon"},"id":"42118391","properties":{"access_utc":"2026-10-04T18:50:00Z","batch_id":"batch-0049","building_evidence_status":"BUILDING_PRESENT","building_type":"listed_building","building_use":null,"canonical_parcel_id":null,"confidence_score_0_100":94,"data_date":"2023-08-17","evidence_grade":"A","evidence_slice_sha256":"eb099a5e7a9e32939c22cda380cdac08759eb2eb61c3319d01195e8144ba8e87","fake_data":false,"field_evidence":{"footprint":"official listed-building-outline MULTIPOLYGON","name":"BRADLEY HALL","reference":"303840","type":"official dataset classification: listed-building-outline","use":"no current use inferred"},"final_url":"https://www.planning.data.gov.uk/entity/42118391","licence":"Open Government Licence v3.0","lineage_id":"building_type_9-20261001T200900Z-newstart","local_spatial_join_required":true,"page_generation":1,"parcel_status":"UNPROCESSED","poi_accepted":false,"slot_id":"building_type_9","source_dataset":"listed-building-outline","source_entity":42118391,"source_organisation":"Gateshead Metropolitan Borough Council","source_reference":"303840","source_url":"https://www.planning.data.gov.uk/entity/42118391"},"type":"Feature"},{"geometry":{"coordinates":[[[[-1.763701,54.976216],[-1.763536,54.976229],[-1.763535,54.976224],[-1.763468,54.976228],[-1.763446,54.976098],[-1.763657,54.976083],[-1.763667,54.976156],[-1.76367,54.976164],[-1.763678,54.976166],[-1.763688,54.976166],[-1.763761,54.976161],[-1.763767,54.976156],[-1.763748,54.976024],[-1.763332,54.976055],[-1.763376,54.976292],[-1.76371,54.976264],[-1.763701,54.976216]]]],"type":"MultiPolygon"},"id":"42118401","properties":{"access_utc":"2026-10-04T18:50:00Z","batch_id":"batch-0049","building_evidence_status":"BUILDING_PRESENT","building_type":"listed_building","building_use":null,"canonical_parcel_id":null,"confidence_score_0_100":94,"data_date":"2023-08-17","evidence_grade":"A","evidence_slice_sha256":"2572c76a17845165ca68b9d1e33d1d721040bb42ad583e1c4535e2cab5507d68","fake_data":false,"field_evidence":{"footprint":"official listed-building-outline MULTIPOLYGON","name":"BARN, STABLES, SHELTERS, IMPLEMENT SHED AND PIG S*","reference":"303850","type":"official dataset classification: listed-building-outline","use":"no current use inferred"},"final_url":"https://www.planning.data.gov.uk/entity/42118401","licence":"Open Government Licence v3.0","lineage_id":"building_type_9-20261001T200900Z-newstart","local_spatial_join_required":true,"page_generation":1,"parcel_status":"UNPROCESSED","poi_accepted":false,"slot_id":"building_type_9","source_dataset":"listed-building-outline","source_entity":42118401,"source_organisation":"Gateshead Metropolitan Borough Council","source_reference":"303850","source_url":"https://www.planning.data.gov.uk/entity/42118401"},"type":"Feature"}],"name":"building_type_9_batch_0049","type":"FeatureCollection"}