{"features":[{"geometry":null,"id":"planning-data-brownfield-land-1729395","properties":{"accessed_utc":"2026-09-30T20:26:00Z","batch_id":"20260930T202600Z_planningdata_brownfield_1729395","canonical_join_status":"PENDING_LOCAL_OPENCODE_SPATIAL_JOIN","category":"future_growth","confidence_score_0_100":95,"data_date":"2026-04-10","direct_parcel":false,"evidence_grade":"A_OFFICIAL_EXACT_IDENTIFIER","evidence_slice_sha256":"e0bee6135bc929b5e44f4739db2bde681de06a07e9072ca438ef101e01c151ca","fake_data":false,"field_evidence":{"curie":"brownfield-land:BR00190","entry_date":"2026-04-10","hectares":"42.67","notes":"Development at 39 Waterloo Road subtracted from capacity as completed. Brent Local Plan 2019-2041 site allocation reference BEGA2.","organisation":"London Borough of Brent","planning_permission_status":"not-permissioned","point":"POINT (-0.234889 51.568696)","quality":"authoritative","reference":"BR00190","site_address":"BEGA2 - Staples Corner Growth Area"},"final_url":"https://www.planning.data.gov.uk/entity/1729395","license":"Open Government Licence v3.0","lineage_id":"d409404e-c2b6-4d79-b904-d05e944a949e","page_generation":4,"schema":"AAYS_LAYER24_EVIDENCE_V1","slot_id":"future_growth_2","source_dataset":"brownfield-land","source_exact_identifier":{"curie":"brownfield-land:BR00190","entity":1729395,"reference":"BR00190"},"source_file_sha256":"e0bee6135bc929b5e44f4739db2bde681de06a07e9072ca438ef101e01c151ca","source_file_sha256_scope":"persisted source_evidence.json","source_provider":"Planning Data / MHCLG","source_url":"https://www.planning.data.gov.uk/entity/1729395"},"type":"Feature"}],"name":"future_growth_source_identifiers","type":"FeatureCollection"}
