{"type":"FeatureCollection","features":[{"type":"Feature","geometry":null,"properties":{"slot_id":"future_growth_3","lineage_id":"future_growth_3-newstart-20261001T203100Z","page_generation":null,"accepted_as_parcel":false,"source_area_count_contribution":1,"exact_identifier":"AGT1","exact_identifier_provided":true,"coverage_polygon_provided":false,"identifier_namespace":"Vale of Aylesbury Local Plan site reference","secondary_exact_identifier":"policy:D-AGT1","source_entity":"AGT1 - South Aylesbury","access_utc":"2026-10-06T01:18:23Z","data_date":"2021-08","source_url":"https://maps.buckinghamshire.gov.uk/server/rest/services/Local_Plans/Vale_of_Aylesbury_Local_Plan/FeatureServer/12","final_url":"https://maps.buckinghamshire.gov.uk/server/rest/services/Local_Plans/Vale_of_Aylesbury_Local_Plan/FeatureServer/12","license":"Buckinghamshire Council content/data is published under the Open Government Licence v3.0 except where otherwise stated; mapping content may include Ordnance Survey rights and is subject to applicable map notices.","authority":"Buckinghamshire Council","site_address":"South Aylesbury","field_evidence":{"reference":"AGT1","policy_reference":"D-AGT1","dataset":"Vale of Aylesbury Local Plan - Housing/Emp Allocations","organisation":"Buckinghamshire Council","site_name":"South Aylesbury","local_plan_status":"Local Plan allocation (2021) - AGT1","allocation_minimum_dwellings":1000,"monitoring_category":"Developable","layer_name":"Housing/Emp Allocations","layer_id":12,"service_item_id":"40f01a6766144d94bbf1e19abb1034e1","geometry_type":"esriGeometryPolygon","layer_correct_as_of":"2021-08","supported_query_formats":["JSON","geoJSON","PBF"]},"source_payload_sha256":"45a307c158c5a4c15fc3828006c1f256684ceb28ca43bdab9d6418b14f2fb979","source_payload_sha256_basis":"canonicalized official Buckinghamshire Council AGT1 and layer metadata evidence fields","evidence_slice_sha256":"5edb5b803dd3526a5e876a061d03499d187de53887cb4e8988e261c0d5ed7cd1","evidence_grade":"A","confidence_score_0_100":99,"evidence_scope":"exact_official_identifier_bound_to_official_council_polygon_feature_layer","fake_data":false,"spatial_binding_method":"Buckinghamshire Council Housing/Emp Allocations FeatureServer layer 12 (polygon) plus exact AGT1/D-AGT1 reference; canonical parcel spatial join and materialization delegated to local OpenCode","planned_building_count_contribution":0}}]}