{"type":"FeatureCollection","features":[{"type":"Feature","id":"tendring-local-plan-provisional-site-changes-2026:MSA33","geometry":null,"properties":{"slot_id":"future_growth_4","lineage_id":"fg4-e4c9076d6f554f00","page_generation":1,"owner":"future_growth_4","partition":"future_growth","semantic_mode":"SOURCE_AREA_EXACT_IDENTIFIER","dataset":"tendring-local-plan-provisional-site-changes-2026","entity":"MSA33","reference":"MSA33","quality":"authoritative","organisation":"Tendring District Council","name":"Former Wellhouse Site, Chestnut Way, Brightlingsea","site_address":"Former Wellhouse Site, Chestnut Way, Brightlingsea","source_url":"https://tdcdemocracy.tendringdc.gov.uk/mgAi.aspx?ID=22977","final_url":"https://tdcdemocracy.tendringdc.gov.uk/mgAi.aspx?ID=22977","access_utc":"2026-10-03T15:29:00Z","data_date":"2026-06-08","license":"Tendring District Council official committee publication; no explicit reuse licence stated on page","field_evidence":{"reference":"MSA33","site_name":"Former Wellhouse Site, Chestnut Way, Brightlingsea","recommendation":"addition of new site allocation","brownfield_status":"previously developed brownfield site","indicative_capacity":60,"proposed_use":"residential extra-care/assisted living","plan_stage":"Draft Local Plan - provisional recommended changes","committee_meeting_date":"2026-06-08"},"evidence_slice_sha256":"4e11f512666a83394b46fb95760bed9036549a1a5924688d0ee95b0030bfdde7","confidence_score_0_100":99,"confidence":0.99,"evidence_grade":"A","exact_identifier_provided":true,"coverage_polygon_provided":false,"fake_data":false,"join_mode":"LOCAL_OPENCODE_SPATIAL_JOIN_PENDING","direct_parcel":false,"source_area_count_contribution":1,"planned_building_count_contribution":0}}]}