{"type":"FeatureCollection","features":[{"type":"Feature","id":"st-helens-bold-forest-garden-village-masterplan-2026:4HA","geometry":null,"properties":{"slot_id":"future_growth_4","lineage_id":"fg4-e4c9076d6f554f00","page_generation":1,"owner":"future_growth_4","partition":"future_growth","semantic_mode":"SOURCE_AREA_EXACT_IDENTIFIER","dataset":"st-helens-bold-forest-garden-village-masterplan-2026","entity":"4HA","reference":"4HA","quality":"authoritative","organisation":"St Helens Borough Council","name":"Bold Forest Garden Village","source_url":"https://www.sthelens.gov.uk/BoldForestGardenVillage","final_url":"https://www.sthelens.gov.uk/BoldForestGardenVillage","access_utc":"2026-10-03T02:34:00Z","data_date":"2026-01-21","license":"not stated on source page","field_evidence":{"site_allocation":"4HA","policy_reference":"LPA11","site_name":"Bold Forest Garden Village","masterplan_adopted_date":"2026-01-21","site_area_hectares":128,"indicative_homes":3000,"affordable_housing_percent":30,"community_infrastructure":"new primary school; on-site health care provision; strategic open space","status":"adopted masterplan"},"evidence_slice_sha256":"b24b3be520cb7b7c3035dc150c634fd00121346aebac268c5d5d1ce888a568ff","confidence_score_0_100":99,"confidence":0.99,"evidence_grade":"A","exact_identifier_provided":true,"coverage_polygon_provided":false,"fake_data":false,"join_mode":"LOCAL_OPENCODE_SPATIAL_JOIN_PENDING","direct_parcel":false,"source_area_count_contribution":1,"planned_building_count_contribution":0}}]}