{"type":"FeatureCollection","name":"future_growth_9_batch_45","demo_only":true,"metadata":{"schema_version":3,"slot_id":"future_growth_9","continuation_key":"future_growth_9_open_source_v2_20260813","run_id":"future_growth_9_bounded12_20260818T103502Z","batch_index":45,"feature_count_before":44,"feature_count_added":1,"feature_count_after":45,"source_family":"planning_data_brownfield_land_direct_identity","source_authority":"City of Bradford Metropolitan District Council","source_window":{"dataset":"brownfield-land","window_index":44,"window_size":1,"entity":1729820},"fake_data":false,"final_ready":false,"production_merge":false,"duplicate_count":0,"nearest_match_used":false},"features":[{"type":"Feature","id":"future_growth_9:planning_data_bradford:sh-058","geometry":{"type":"Point","coordinates":[-1.771367,53.837307]},"properties":{"slot_id":"future_growth_9","continuation_key":"future_growth_9_open_source_v2_20260813","source_index":0,"source_family":"planning_data_brownfield_land_direct_identity","source_name":"Planning Data Brownfield Land — City of Bradford Metropolitan District Council","source_publisher":"City of Bradford Metropolitan District Council via Planning Data (MHCLG)","source_feature_id":"SH/058","planning_data_entity":1729820,"source_url":"https://www.planning.data.gov.uk/entity/1729820","source_dataset_url":"https://www.planning.data.gov.uk/dataset/brownfield-land","source_entry_date":"2022-11-01","source_sha256":"da9107108a38dafb0f4a1025bffec40de016fd8b5cc38696c462a668f03854f3","source_sha256_scope":"sha256 of sorted-key canonical JSON of official fields used in this bounded batch","license":"Open Government Licence v3.0","planning_status":"not-permissioned","future_growth_evidence_type":"area_proxy","direct_project_evidence":false,"evidence_summary":"Official current brownfield record identifies the site with capacity for 50 dwellings.","matching_method":"direct official brownfield-land CURIE/reference identity plus published WGS84 point; no nearest matching, no cross-parcel identity inference","accuracy_scale_1_4":3,"future_growth_value":null,"future_growth_probability":null,"planned_building_complete_month":null,"unknown_reason":"Numeric value/probability withheld because no approved scoring rule exists.","site_name":"Dockfield Road, Shipley","hectares":0.54,"net_dwellings_range_from":50,"net_dwellings_range_to":50,"fake_data":false,"final_ready":false,"production_merge":false,"demo_only":true}}]}