{"features":[{"geometry":{"coordinates":[[[[0.040345,51.39963],[0.040408,51.399437],[0.045153,51.399679],[0.045122,51.399907],[0.043609,51.399805],[0.043574,51.399829],[0.041102,51.399748],[0.040482,51.39965],[0.040345,51.39963]]]],"type":"MultiPolygon"},"properties":{"accepted_as_parcel":false,"access_utc":"2026-10-03T18:57:00Z","authority":"London Borough of Bromley","confidence":0.95,"confidence_score_0_100":95,"coverage_polygon_provided":true,"data_date":"2020-12-22","dataset_url":"https://www.planning.data.gov.uk/dataset/brownfield-site","evidence_grade":"B","evidence_scope":"official_government_polygon_and_exact_identifier","evidence_slice_sha256":"5d56b73f3da6a051eff30bfd8e24c45a4d3c4f31132a637c897f643c27686831","exact_identifier":"BLR2","exact_identifier_provided":true,"fake_data":false,"field_evidence":{"dataset":"Brownfield site","entry_date":"2020-12-22","geometry_wkt":"MULTIPOLYGON (((0.040345 51.39963, 0.040408 51.399437, 0.045153 51.399679, 0.045122 51.399907, 0.043609 51.399805, 0.043574 51.399829, 0.041102 51.399748, 0.040482 51.39965, 0.040345 51.39963)))","name":"Land adjacent to Bickley StationBR1 2EB","organisation":"London Borough of Bromley","point_wkt":"POINT (0.042686 51.399674)","quality":"some","reference":"BLR2"},"final_url":"https://www.planning.data.gov.uk/entity/1801960","hectares":null,"identifier_namespace":"Planning Data brownfield-site reference","license":"Open Government Licence v3.0","lineage_id":"future_growth_ 2-newstart-20261001T203100Z","maximum_net_dwellings":null,"minimum_net_dwellings":null,"owner":"future_growth_ 2","page_generation":1,"partition":"future_growth","planned_building_count_contribution":0,"planning_permission_status":null,"point":{"coordinates":[0.042686,51.399674],"type":"Point"},"semantic_mode":"SOURCE_AREA_EXACT_IDENTIFIER","site_address":"Land adjacent to Bickley Station, BR1 2EB","slot_id":"future_growth_ 2","source_area_count_contribution":1,"source_url":"https://www.planning.data.gov.uk/entity/1801960","spatial_binding_method":"official Planning Data MultiPolygon coverage with exact brownfield-site identifier; canonical parcel spatial join/materialization delegated to local OpenCode"},"type":"Feature"}],"type":"FeatureCollection"}