{
  "type": "FeatureCollection",
  "features": [
    {
      "type": "Feature",
      "geometry": null,
      "properties": {
        "schema": "AAYS_LAYER24_EVIDENCE_V1",
        "slot_id": "security_public_safety_4",
        "lineage_id": "L24-SPS4-57de1ed0eaf0f860383f",
        "page_generation": 10,
        "criterion": "security_public_safety_official_coverage_identifier",
        "record_role": "source_area_identifier",
        "source_record_index": 4,
        "area_name": "South Wigston",
        "major_text": "force=leicestershire",
        "minor_text": "neighbourhood_id=NA53",
        "series_start": null,
        "series_end": null,
        "series_month_count": 0,
        "visible_nonzero_evidence": true,
        "source_url": "https://data.police.uk/api/leicestershire/neighbourhoods",
        "final_url": "https://data.police.uk/api/leicestershire/neighbourhoods",
        "access_utc": "2026-10-07T05:53:19Z",
        "data_date": "current official neighbourhood listing observed 2026-10-07; endpoint carries no intrinsic effective date",
        "license": "Open Government Licence v3.0",
        "source_payload_sha256": "1b436dfbe76728f3e8b61e686964a90570ca89362a9eb98e7208a58c17d96783",
        "field_evidence": {
          "id": "official API response field id; documentation defines it as a police-force-specific team identifier",
          "name": "official API response field name; documentation defines it as the neighbourhood name",
          "force_context": "endpoint path leicestershire/neighbourhoods fixes the police-force context",
          "window": "non-overlapping response record 4; Leicestershire records 0-3, Metropolitan records 0-60 and prior NC04 exact record were already processed",
          "authentication": "data.police.uk API authentication is not required",
          "license": "data.police.uk publishes the relevant data under Open Government Licence v3.0"
        },
        "evidence_slice_sha256": "cda5a6b778555b0ec5a53dde8fac2a4d175ce4c8d46cf0ea2a6e19a3944f4a90",
        "confidence_score_0_100": 100,
        "evidence_grade": "A_OFFICIAL_API_EXACT_IDENTIFIER",
        "join_state": "UNPROCESSED",
        "fake_data": false
      }
    }
  ]
}
