{
  "type": "FeatureCollection",
  "features": [
    {
      "type": "Feature",
      "id": "brownfield-site:BR110",
      "geometry": {
        "type": "MultiPolygon",
        "coordinates": [
          [
            [
              [
                -5.423734,
                50.18648
              ],
              [
                -5.42385,
                50.18665
              ],
              [
                -5.424409,
                50.186578
              ],
              [
                -5.42435,
                50.186285
              ],
              [
                -5.424334,
                50.186264
              ],
              [
                -5.424312,
                50.186298
              ],
              [
                -5.424287,
                50.186316
              ],
              [
                -5.424181,
                50.186355
              ],
              [
                -5.424063,
                50.186376
              ],
              [
                -5.423985,
                50.18638
              ],
              [
                -5.423654,
                50.186355
              ],
              [
                -5.423734,
                50.18648
              ]
            ]
          ]
        ]
      },
      "properties": {
        "slot_id": "future_growth_2",
        "lineage_id": "d409404e-c2b6-4d79-b904-d05e944a949e",
        "page_generation": 4,
        "batch_id": "batch-20261008T054501Z_mhclg_cornwall_BR110_geojson",
        "schema": "AAYS_LAYER24_EVIDENCE_V1",
        "source_dataset": "brownfield-site",
        "source_provider": "MHCLG Planning Data / Cornwall Council",
        "source_exact_identifier": "brownfield-site:BR110",
        "category": "brownfield-site",
        "source_url": "https://www.planning.data.gov.uk/entity/1800048.geojson",
        "final_url": "https://www.planning.data.gov.uk/entity/1800048.geojson",
        "accessed_utc": "2026-10-08T05:45:01.171Z",
        "http_status": null,
        "data_date": "2024-05-29",
        "license": "Open Government Licence v3.0",
        "source_file_sha256": "d311c684ad4b5ad8ef525a7e8593e3b88f98d5a6adb6a01966b6851051c6bbc1",
        "source_file_sha256_scope": "normalized_official_GeoJSON_content; raw_network_bytes_not_available",
        "evidence_slice_sha256": "d311c684ad4b5ad8ef525a7e8593e3b88f98d5a6adb6a01966b6851051c6bbc1",
        "field_evidence": {
          "entity": 1800048,
          "curie": "brownfield-site:BR110",
          "reference": "BR110",
          "name": "South Quay Hayle Harbour, Hayle, Cornwall, TR27 4BL",
          "organisation": "Cornwall Council",
          "organisation_entity": 92,
          "dataset": "brownfield-site",
          "quality": "authoritative",
          "start_date": "2023-11-20",
          "entry_date": "2024-05-29",
          "end_date": "",
          "geometry_source_field": "geometry",
          "geometry_type": "MultiPolygon",
          "notes": "Extant permission PA21/07855 (x13) with additional (x3) on PA21/07853"
        },
        "confidence_score_0_100": 95,
        "evidence_grade": "A_OFFICIAL_GEOJSON_GEOMETRY",
        "geometry_crs": "EPSG:4326",
        "direct_parcel": false,
        "canonical_join_status": "PENDING_LOCAL_SPATIAL_JOIN",
        "fake_data": false
      }
    }
  ]
}
