{
  "type": "FeatureCollection",
  "features": [
    {
      "type": "Feature",
      "id": "E06000001",
      "geometry": null,
      "properties": {
        "slot_id": "gas_emissions_3",
        "lineage_id": "aays-layer24-gas-emissions-3-1f4454fc-a618-4819-a518-7c3b4ce5b038",
        "page_generation": 8,
        "semantic_mode": "AREA_JOIN",
        "evidence_scope": "coverage_area_exact_identifier_measurement_window",
        "coverage_area_id": "E06000001",
        "coverage_area_name": "Hartlepool",
        "coverage_binding": "EXACT_OFFICIAL_IDENTIFIER",
        "identifier_authority": "Department for Energy Security and Net Zero / National Data Library",
        "indicator": "UK local authority greenhouse gas emissions",
        "indicator_measure": "Territorial emissions and LA scope-of-influence emissions",
        "indicator_time_range": "2005",
        "indicator_source": "Department for Energy Security and Net Zero",
        "data_publication_date": "2026-06-25",
        "source_url": "https://www.data.gov.uk/dataset/723c243d-2f1a-4d27-8b61-cdb93e5b10ff/local_authority_carbon_dioxide_emissions/datafile/899d4613-20b6-49bc-a953-4fc13efdef12/preview",
        "final_url": "https://www.data.gov.uk/dataset/723c243d-2f1a-4d27-8b61-cdb93e5b10ff/local_authority_carbon_dioxide_emissions/datafile/899d4613-20b6-49bc-a953-4fc13efdef12/preview",
        "source_asset_url": "https://assets.publishing.service.gov.uk/media/6a3bacc9d52550a19950f2f5/2005-24-local-authority-ghg-emissions-csv-dataset.csv",
        "source_page": "https://www.gov.uk/government/statistics/uk-local-authority-and-regional-greenhouse-gas-emissions-statistics-2005-to-2024",
        "source_accessed_at_utc": "2026-10-01T19:54:00Z",
        "licence": "Open Government Licence v3.0",
        "file_sha256": "63c50310b56b890440e5037b4e292f2fdf116c15ac28746f7143004030f95910",
        "evidence_slice_sha256": "63c50310b56b890440e5037b4e292f2fdf116c15ac28746f7143004030f95910",
        "remote_full_file_sha256_status": "NOT_COMPUTED_PREVIEW_SLICE_ONLY",
        "field_evidence": {
          "Local Authority Code": "National Data Library official preview rows 1-4",
          "Local Authority": "National Data Library official preview rows 1-4",
          "Calendar Year": "National Data Library official preview rows 1-4",
          "LA GHG Sector": "National Data Library official preview rows 1-4",
          "LA GHG Sub-sector": "National Data Library official preview rows 1-4",
          "Greenhouse gas": "National Data Library official preview rows 1-4",
          "Territorial emissions (kt CO2e)": "National Data Library official preview rows 1-4"
        },
        "observations": [
          {"source_record_index":1,"calendar_year":2005,"sector":"Agriculture","subsector":"Agriculture Electricity","greenhouse_gas":"CO2","territorial_emissions_kt_co2e":1.692170216,"scope_of_influence_kt_co2":1.692170216},
          {"source_record_index":2,"calendar_year":2005,"sector":"Agriculture","subsector":"Agriculture Electricity","greenhouse_gas":"CH4","territorial_emissions_kt_co2e":0.0536,"scope_of_influence_kt_co2":0},
          {"source_record_index":3,"calendar_year":2005,"sector":"Agriculture","subsector":"Agriculture Electricity","greenhouse_gas":"N2O","territorial_emissions_kt_co2e":0.00683,"scope_of_influence_kt_co2":0},
          {"source_record_index":4,"calendar_year":2005,"sector":"Agriculture","subsector":"Agriculture Gas","greenhouse_gas":"CO2","territorial_emissions_kt_co2e":0.277495195,"scope_of_influence_kt_co2":0.277495195}
        ],
        "confidence_score_0_100": 99,
        "evidence_grade": "A_OFFICIAL_DATASET_PREVIEW",
        "local_spatial_join_status": "PENDING_LOCAL_OPENCODE",
        "fake_data": false
      }
    }
  ]
}
