{"type":"FeatureCollection","features":[{"type":"Feature","geometry":{"type":"MultiPolygon","coordinates":[[[[-0.096164,51.503678],[-0.09618,51.503625],[-0.096085,51.503614],[-0.096042,51.503605],[-0.095965,51.503604],[-0.095862,51.503608],[-0.095851,51.503691],[-0.096164,51.503678]]]]},"properties":{"slot_id":"future_growth_ 2","lineage_id":"future_growth_ 2-newstart-20261001T203100Z","page_generation":1,"owner":"future_growth_ 2","partition":"future_growth","semantic_mode":"SOURCE_AREA_EXACT_IDENTIFIER","accepted_as_parcel":false,"source_area_count_contribution":1,"exact_identifier":"14-AP-4414","exact_identifier_provided":true,"coverage_polygon_provided":true,"identifier_namespace":"Planning Data brownfield-site reference","access_utc":"2026-10-06T04:12:00Z","data_date":"2017-12-20","source_url":"https://www.planning.data.gov.uk/entity/1800416","final_url":"https://www.planning.data.gov.uk/entity/1800416","dataset_url":"https://www.planning.data.gov.uk/dataset/brownfield-site","license":"Open Government Licence v3.0","authority":"London Borough of Southwark","site_address":"58 Southwark Bridge Road SE1 0AS","hectares":null,"point":"POINT (-0.096004 51.503647)","maximum_net_dwellings":null,"minimum_net_dwellings":null,"planning_permission_status":null,"confidence_score_0_100":99,"confidence":0.99,"evidence_grade":"A","evidence_scope":"official_polygon_and_exact_identifier","field_evidence":{"reference":"14-AP-4414","site_name":"58 Southwark Bridge Road SE1 0AS","dataset":"Brownfield site","organisation":"London Borough of Southwark","entry_date":"2017-12-20","start_date":"2017-12-20","point":"POINT (-0.096004 51.503647)","geometry_type":"MULTIPOLYGON"},"evidence_slice_sha256":"d5424fa010c6420a1c2471681d71cf0593b117df79a1004af3036910922b9bec","fake_data":false,"spatial_binding_method":"official Planning Data brownfield-site MultiPolygon coverage; canonical parcel spatial join/materialization delegated to local OpenCode","planned_building_count_contribution":0}}]}