{"type":"FeatureCollection","features":[{"type":"Feature","id":353927,"geometry":{"type":"MultiPolygon","coordinates":[[[[-73.869957915648,40.900305259723],[-73.869953578094,40.900283350548],[-73.869946517529,40.900284155732],[-73.869936282361,40.900270382996],[-73.869932735696,40.900252472864],[-73.869937813044,40.900240195073],[-73.869944873605,40.900239389889],[-73.869941725318,40.900223493689],[-73.869936990244,40.900223397406],[-73.869932338203,40.900222715901],[-73.869927896147,40.900221466427],[-73.869923782686,40.900219684235],[-73.869920108102,40.900217414476],[-73.869916971961,40.900214720294],[-73.869914457196,40.900211674723],[-73.86991263367,40.900208357084],[-73.869911863559,40.900205875381],[-73.869911547493,40.900204857477],[-73.86991123052,40.90020127139],[-73.869911689687,40.900197693382],[-73.869912912936,40.90019422069],[-73.869914866852,40.900190946929],[-73.869917500237,40.900187958486],[-73.869920741721,40.900185337225],[-73.869924504535,40.900183152387],[-73.869928686498,40.900181464187],[-73.869933175966,40.900180316625],[-73.870020952121,40.900170310242],[-73.870024917164,40.900190335181],[-73.870030597182,40.900189687824],[-73.870040713107,40.900240778302],[-73.87005137199,40.900294605963],[-73.869957915648,40.900305259723]]]]},"properties":{"source_id":"353927","building_type":"Building","building_present":true,"building_state":"BUILDING_PRESENT","DOITT_ID":"353927","BIN":"2019299","FEATURE_CODE":"2100","BASE_BBL":"2033800084","OBJECTID":229537,"construction_year":1910,"geom_source":"Photogrammetric","ground_elevation":197.0,"height_roof":33.49,"last_edited_date":"2017 Aug 22 02:57:18 PM","last_status_type":"Constructed","mappluto_bbl":"2033800084","length":63.268290421653646,"evidence_grade":"A_OFFICIAL_CITY_BUILDING_FOOTPRINT_AND_TYPE"}}]}
