{"type":"FeatureCollection","features":[{"type":"Feature","geometry":{"type":"MultiPolygon","coordinates":[[[[-1.13302,53.519821],[-1.132761,53.520016],[-1.13252,53.520195],[-1.13268,53.52027],[-1.133182,53.519897],[-1.13302,53.519821]]]]},"properties":{"slot_id":"future_growth_ 2","lineage_id":"future_growth_ 2-newstart-20261001T203100Z","page_generation":1,"owner":"future_growth_ 2","partition":"future_growth","semantic_mode":"SOURCE_AREA_EXACT_IDENTIFIER","accepted_as_parcel":false,"source_area_count_contribution":1,"exact_identifier":"119","exact_identifier_provided":true,"coverage_polygon_provided":true,"identifier_namespace":"Planning Data brownfield-site reference","access_utc":"2026-10-04T11:55:00Z","data_date":"2025-12-03","source_url":"https://www.planning.data.gov.uk/entity/1802786","final_url":"https://www.planning.data.gov.uk/entity/1802786","dataset_url":"https://www.planning.data.gov.uk/dataset/brownfield-site","license":"Open Government Licence v3.0","authority":"Doncaster Metropolitan Borough Council","site_address":"Copley House, Waterdale, Doncaster, DN1 3EY","hectares":null,"point":"POINT (-1.132851 53.520045)","maximum_net_dwellings":null,"minimum_net_dwellings":null,"planning_permission_status":null,"confidence_score_0_100":99,"confidence":0.99,"evidence_grade":"A","evidence_scope":"official_polygon","field_evidence":{"dataset":"Brownfield site","entry_date":"2025-12-03","geometry_type":"MultiPolygon","name":"Copley House, Waterdale, Doncaster, DN1 3EY","organisation":"Doncaster Metropolitan Borough Council","point":"POINT (-1.132851 53.520045)","quality":"authoritative","reference":"119"},"evidence_slice_sha256":"4fa591488f385bd336e72cb2ee1efe72a90e194529580949bdf2cedcb594f929","fake_data":false,"spatial_binding_method":"official Planning Data authoritative MultiPolygon coverage; canonical parcel spatial join/materialization delegated to local OpenCode","planned_building_count_contribution":0}}]}