{"type":"FeatureCollection","name":"ONSDIGITAL_GEOSCRIPTS_CTY23_EXACTID_ROW_001_COMMITTED","features":[{"type":"Feature","id":"E10000003","geometry":null,"properties":{"slot_id":"gas_emissions_6","lineage_id":"LOCAL-NEW-92271296-1318-4c0c-a293-d0d4ebc2d06b","page_generation":1,"semantic_mode":"AREA_JOIN","partition":{"start":76904,"end":92283,"count":15380},"evidence_scope":"coverage_area","coverage_area_id":"E10000003","coverage_area_name":"Cambridgeshire","coverage_area_identifier_scheme":"ONS_GSS_CTY23","boundary_vintage":"County 2023 exact identifier list","source_area_record":true,"accepted_parcel_record":false,"spatial_binding_method":"EXACT_OFFICIAL_IDENTIFIER","source_window_record_index":1,"source_row_cursor":1,"source_url":"https://raw.githubusercontent.com/ONSdigital/geo-scripts/7ee374970b457a0e7d2228f96c63f078ab1825f3/output/lists/cty23.csv","final_url":"https://raw.githubusercontent.com/ONSdigital/geo-scripts/7ee374970b457a0e7d2228f96c63f078ab1825f3/output/lists/cty23.csv","source_access_utc":"2026-10-03T17:03:00Z","source_blob_sha":"60d53a1dac3137433153e8a298677440946d73ae","source_file_sha256":"116e00ef2c70a5f2895c128249dbe2ce86d6630fc2fdd3f01e2a520e33a68489","field_evidence":{"areacd":"E10000003","areanm":"Cambridgeshire"},"evidence_slice_sha256":"39020d7daf79b10ae36b73839ffba0ca3c21dd9e9dd8fa675579aa1ef5a4d7c9","confidence_score_0_100":96,"evidence_grade":"A","licence":"Open Government Licence v3.0","licence_evidence_url":"https://www.ons.gov.uk/methodology/geography/licences","fake_data":false,"local_spatial_join_status":"DEFERRED_TO_LOCAL_OPENCODE"}}]}
