{"type":"FeatureCollection","features":[{"type":"Feature","geometry":null,"properties":{"slot_id":"future_growth_1","lineage_id":"future_growth_1-newstart-20260927T153100+0300","page_generation":null,"accepted_as_parcel":false,"source_area_count_contribution":1,"exact_identifier":"4000A","exact_identifier_provided":true,"coverage_polygon_provided":false,"identifier_namespace":"North Tyneside Initial Draft Local Plan possible housing site reference","site_name":"North of Killingworth Way","access_utc":"2026-10-05T06:39:00Z","data_date":"2026-02-25","source_url":"https://haveyoursay.northtyneside.gov.uk/local-plan-consultation-feedback/widgets/146537/documents","final_url":"https://haveyoursay.northtyneside.gov.uk/local-plan-consultation-feedback/widgets/146537/documents","site_assessments_url":"https://haveyoursay.northtyneside.gov.uk/site-assessments","current_publication_url":"https://haveyoursay.northtyneside.gov.uk/publication-draft-local-plan","gis_directory_url":"https://services3.arcgis.com/y0Mj0TLNFif07RwB/ArcGIS/rest/services","gis_service_url":"https://services3.arcgis.com/y0Mj0TLNFif07RwB/ArcGIS/rest/services/NT%20Housing%20Sites%20Initial%20Draft%202026/FeatureServer","license":"Publicly accessible North Tyneside Council consultation materials and public ArcGIS REST service directory; document/layer-specific reuse licence is not stated on the cited source pages.","authority":"North Tyneside Council","record_class":"possible housing site in Initial Draft Local Plan consultation","evidence_grade":"A","confidence_score_0_100":98,"evidence_scope":"exact council-hosted site reference/name 4000A North of Killingworth Way plus North Tyneside public planning GIS service directory listing for NT Housing Sites Initial Draft 2026","evidence_slice_sha256":"b338897bfe410c9c23d2c346060f45fcd47d26114492712eb4a0e3038ed66dd1","fake_data":false,"spatial_binding_method":"official 4000A site identifier plus authority public Initial Draft housing-sites GIS service; exact feature geometry resolution, canonical parcel spatial join and materialization delegated to local OpenCode","planned_building_count_contribution":0}}]}
