{"type":"FeatureCollection","features":[{"type":"Feature","id":"chelmsford-brownfield-register-2026-html:25/01468/FUL","geometry":null,"properties":{"slot_id":"future_growth_4","lineage_id":"fg4-e4c9076d6f554f00","page_generation":1,"owner":"future_growth_4","partition":"future_growth","semantic_mode":"SOURCE_AREA_EXACT_IDENTIFIER","dataset":"chelmsford-brownfield-register-2026-html","entity":"25/01468/FUL","reference":"25/01468/FUL","quality":"authoritative","organisation":"Chelmsford City Council","name":"158 Wood Street Chelmsford","site_address":"158 Wood Street Chelmsford","source_url":"https://www.chelmsford.gov.uk/planning-and-building-control/planning-policy-and-local-plan/brownfield-register/?14765_page=6","final_url":"https://www.chelmsford.gov.uk/planning-and-building-control/planning-policy-and-local-plan/brownfield-register/?14765_page=6","access_utc":"2026-10-05T05:03:29Z","data_date":"2026-07-29","license":"Open Government Licence","field_evidence":{"reference":"25/01468/FUL","site_address":"158 Wood Street Chelmsford","register_last_updated":"2026-07-29","page_index":6,"page_count":43},"evidence_slice_sha256":"4805676c0288b58747af952d6d68818357adf5c4c4932a76a4f66e8c2df6375d","confidence_score_0_100":99,"confidence":0.99,"evidence_grade":"A","exact_identifier_provided":true,"coverage_polygon_provided":false,"fake_data":false,"join_mode":"LOCAL_OPENCODE_SPATIAL_JOIN_PENDING","direct_parcel":false,"source_area_count_contribution":1,"planned_building_count_contribution":0}}]}