{"type":"FeatureCollection","name":"height_difference_5","metadata":{"slot_id":"height_difference_5","owner":"height_difference_5","lineage_id":"height_difference_5-eb56f92ed3f0514c","page_generation":1,"schema":"AAYS_LAYER24_EVIDENCE_V1","partition":"layer24","semantic_mode_state":"ABSENT_IN_PRIOR_PHYSICAL_STATE_PRESERVED_BY_OMISSION","batch_id":"20261004T160400Z_spatialni_data_supply_metadata_crs_context","record_policy":"Official SpatialNI generic data-supply CRS context only; no Belfast-specific CRS, tile/file, parcel binding or geometry synthesized.","fake_data":false},"features":[{"type":"Feature","geometry":null,"properties":{"slot_id":"height_difference_5","owner":"height_difference_5","lineage_id":"height_difference_5-eb56f92ed3f0514c","page_generation":1,"schema":"AAYS_LAYER24_EVIDENCE_V1","partition":"layer24","batch_id":"20261004T160400Z_spatialni_data_supply_metadata_crs_context","source_record_id":"SPATIALNI:DATA_SUPPLY_METADATA:CRS_CONTEXT","source_url":"https://support.spatialni.gov.uk/nima/DownloadDocs/Guidance/SpatialNI_Data_Supply_Metadata_Form.pdf","access_utc":"2026-10-04T16:04:00Z","required_building_state":"BUILDING_PRESENT","binding_status":"LOCAL_OPENCODE_BUILDING_PRESENT_EXACT_TILE_BIND_REQUIRED","generic_data_supply_crs_context":"Irish Grid (TM65) [EPSG:29902]","dataset_specific_crs":null,"exact_tile_identifier":null,"evidence_slice_sha256":"092187f57f8d596255a8541f98490c91a229efb26c330a59476ea4a9778199f9","accepted_count_contribution":0,"source_area_count_contribution":0,"fake_data":false}}]}
