{"type":"FeatureCollection","metadata":{"slot_id":"security_public_safety_1","lineage_id":null,"page_generation":null,"source_area_count":208,"source_area_delta_this_turn":0,"batch_record_count":0,"latest_evidence_window":"POLICEUK_NPT_BOUNDARIES_2026_08_20261005T030300Z","latest_status":"NO_NEW_SOURCE_AREA_ZIP_PAYLOAD_UNAVAILABLE","exact_blocker":"OFFICIAL_NPT_BOUNDARY_ZIP_PAYLOAD_UNSUPPORTED_CONTENT_TYPE_APPLICATION_ZIP","first_missing_criterion":"LOCAL_OPENCODE_EXACT_IDENTIFIER_TO_CANONICAL_SPATIAL_BINDING","record_scope":"BATCH_LOCAL_DELTA_WITH_CUMULATIVE_COUNTERS"},"features":[]}
