{"type":"FeatureCollection","features":[{"type":"Feature","geometry":null,"properties":{"slot_id":"future_growth_1","lineage_id":"future_growth_1-newstart-20260927T153100+0300","page_generation":null,"accepted_as_parcel":false,"source_area_count_contribution":1,"exact_identifier":"22/02771/OUT","exact_identifier_provided":true,"coverage_polygon_provided":false,"identifier_namespace":"South Cambridgeshire planning application","policy_reference":"SS/4","site_name":"North East Cambridge - Land north of Cambridge North Station","access_utc":"2026-10-03T18:56:00Z","data_date":"2026-04-01","source_url":"https://www.greatercambridgeplanning.org/media/retpwa1z/appendix-1-gc-ht-hls-final-april-2026.pdf","final_url":"https://www.greatercambridgeplanning.org/media/retpwa1z/appendix-1-gc-ht-hls-final-april-2026.pdf","documentation_url":"https://greatercambridgeplanning.org/local-and-neighbourhood-planning/current-plans-the-adopted-local-plans/monitoring-delivery-and-land-use-in-greater-cambridge","progress_url":"https://www.scambs.gov.uk/community-and-people/community-forums/northeast-cambridge-community-forum","license":"Publicly accessible Greater Cambridge Shared Planning monitoring material; document-specific reuse licence not stated on the source page","authority":"South Cambridgeshire District Council","site_area_hectares":10.02,"total_dwellings_net":425,"dwellings_built_net_at_2025_03_31":0,"outstanding_dwellings_net":425,"trajectory_2029_30":425,"five_year_supply_2026_2031":425,"permission_status":"allowed by Secretary of State in April 2024","anticipated_residential_phase_start":"Q4 2026 to Q1 2027, subject to determination of non-material amendments","evidence_grade":"A","confidence_score_0_100":99,"evidence_scope":"exact Greater Cambridge 2026 housing-trajectory row for 22/02771/OUT plus South Cambridgeshire July 2026 development progress update","evidence_slice_sha256":"2d793fb4ef920d44e15a14f1390d8792a873fc4a193933af667724f7a214db9a","fake_data":false,"spatial_binding_method":"official planning application reference 22/02771/OUT plus Local Plan policy SS/4; exact boundary resolution, canonical parcel spatial join and materialization delegated to local OpenCode","planned_building_count_contribution":0}}]}