{"type":"FeatureCollection","features":[{"type":"Feature","geometry":null,"properties":{"slot_id":"future_growth_3","lineage_id":"future_growth_3-newstart-20261001T203100Z","page_generation":null,"accepted_as_parcel":false,"source_area_count_contribution":1,"exact_identifier":"SD10","exact_identifier_provided":true,"coverage_polygon_provided":false,"identifier_namespace":"Arun Local Plan strategic allocation reference","secondary_exact_identifier":"policy:H-SP2c","source_entity":"SD10 - Climping strategic allocation","access_utc":"2026-10-06T15:28:39Z","data_date":"2018-07-18","source_url":"https://www.arun.gov.uk/climping-strategic-site/","final_url":"https://www.arun.gov.uk/climping-strategic-site/","license":"Arun District Council website content: reproduction, transmission or storage is generally forbidden without written permission; downloading for personal use is permitted. Mapping remains subject to Ordnance Survey/Crown copyright terms.","authority":"Arun District Council","site_address":"Land west of Church Lane & south of Horsemere Green Lane, Climping","field_evidence":{"reference":"SD10","policy":"H SP2c","dataset":"Arun Local Plan 2011-2031 / Climping strategic site","organisation":"Arun District Council","site_name":"Climping strategic allocation","site_component":"Land west of Church Lane & south of Horsemere Green Lane","local_plan_adoption_date":"2018-07-18","allocated_use":"Strategic residential development","minimum_dwellings":300},"source_payload_sha256":"bd6972bb321e7fb758dba4c0547236228cb6504bb03fd1880bf014bb14e0eee1","source_payload_sha256_basis":"canonicalized official Arun District Council SD10 evidence fields","evidence_slice_sha256":"5cfee093a35edbfe01b732ca327df8a9fc2dcde128515e7115f08de9a1a944f3","evidence_grade":"A","confidence_score_0_100":99,"evidence_scope":"exact_official_identifier_from_council_adopted_local_plan_strategic_allocation","fake_data":false,"spatial_binding_method":"official Arun District Council policy H SP2c (SD10) strategic allocation reference and Council strategic-site/policies mapping; canonical parcel spatial join and materialization delegated to local OpenCode","planned_building_count_contribution":0}}]}