{
  "type": "FeatureCollection",
  "features": [
    {
      "type": "Feature",
      "id": "planning-data:brownfield-site:WBR/18/0032",
      "geometry": {
        "type": "MultiPolygon",
        "coordinates": [
          [
            [
              [
                -0.16495,
                51.431957
              ],
              [
                -0.165152,
                51.432058
              ],
              [
                -0.165414,
                51.431805
              ],
              [
                -0.165608,
                51.431609
              ],
              [
                -0.165696,
                51.431516
              ],
              [
                -0.165795,
                51.431415
              ],
              [
                -0.165846,
                51.431365
              ],
              [
                -0.165473,
                51.431215
              ],
              [
                -0.165429,
                51.431126
              ],
              [
                -0.165134,
                51.431007
              ],
              [
                -0.165047,
                51.431095
              ],
              [
                -0.165008,
                51.431138
              ],
              [
                -0.16485,
                51.4313
              ],
              [
                -0.164686,
                51.431463
              ],
              [
                -0.164479,
                51.431673
              ],
              [
                -0.164481,
                51.431675
              ],
              [
                -0.164479,
                51.431695
              ],
              [
                -0.164482,
                51.431704
              ],
              [
                -0.164489,
                51.431713
              ],
              [
                -0.164506,
                51.431725
              ],
              [
                -0.164826,
                51.431883
              ],
              [
                -0.164826,
                51.431896
              ],
              [
                -0.164829,
                51.431898
              ],
              [
                -0.16495,
                51.431957
              ]
            ]
          ]
        ]
      },
      "properties": {
        "semantic_identity": "planning-data:brownfield-site:WBR/18/0032",
        "source_area_id": "planning-data:brownfield-site:WBR/18/0032",
        "source_area_type": "brownfield-site",
        "source_reference": "WBR/18/0032",
        "source_entity": 1802057,
        "source_name": "Dadu's Parade, 180-218 Upper Tooting Road",
        "source_dataset": "brownfield-site",
        "organisation": "London Borough of Wandsworth",
        "organisation_entity": "local-authority:WND",
        "data_date": "2020-12-22",
        "entry_date": "2020-12-22",
        "source_url": "https://www.planning.data.gov.uk/entity/1802057",
        "final_url": "https://www.planning.data.gov.uk/entity/1802057",
        "source_geometry_wkt_sha256": "f20141434a409f1b9a6788043c661fb703734354b8667c4ab10331b79555a33a",
        "evidence_slice_sha256": "5cb1108bf90349808a18bcd8e3f8c57b509f61eef6ae199a31cc6c1b6df4cf34",
        "license": "Open Government Licence v3.0",
        "evidence_grade": "B",
        "confidence": 0.78,
        "source_quality": "some",
        "semantic_mode": "AREA_JOIN",
        "canonical_binding_status": "NOT_ATTEMPTED_LOCAL_OPENCODE",
        "fake_data": false
      }
    }
  ]
}
