{"type":"FeatureCollection","name":"height_difference_5","metadata":{"slot_id":"height_difference_5","owner":"height_difference_5","lineage_id":"height_difference_5-eb56f92ed3f0514c","page_generation":1,"schema":"AAYS_LAYER24_EVIDENCE_V1","partition":"layer24","semantic_mode_state":"ABSENT_IN_PRIOR_PHYSICAL_STATE_PRESERVED_BY_OMISSION","batch_id":"20261003T153900Z_spatialni_data_supply_srs_guidance","record_policy":"Official Spatial NI SRS guidance context only; no Belfast 2006 CRS assignment, tile/file, parcel binding or geometry synthesized.","fake_data":false},"features":[{"type":"Feature","geometry":null,"properties":{"slot_id":"height_difference_5","owner":"height_difference_5","lineage_id":"height_difference_5-eb56f92ed3f0514c","page_generation":1,"schema":"AAYS_LAYER24_EVIDENCE_V1","partition":"layer24","batch_id":"20261003T153900Z_spatialni_data_supply_srs_guidance","source_record_id":"SPATIALNI:DATA_SUPPLY_SRS_GUIDANCE:EPSG29902","source_url":"https://support.spatialni.gov.uk/nima/DownloadDocs/Guidance/SpatialNI_Data_Supply_Metadata_Form.pdf","access_utc":"2026-10-03T15:39:00Z","required_building_state":"BUILDING_PRESENT","binding_status":"LOCAL_OPENCODE_BUILDING_PRESENT_EXACT_TILE_BIND_REQUIRED","published_supply_srs":"Irish Grid (TM65) [EPSG:29902]","dataset_specific_to_belfast_2006":false,"crs":null,"evidence_slice_sha256":"1e50d9eb6fdab834adf7a6bcb8b0a6b8af58fb3087f4762ff11ae28ab8abe931","accepted_count_contribution":0,"source_area_count_contribution":0,"fake_data":false}}]}
