{"type":"FeatureCollection","features":[{"type":"Feature","geometry":null,"properties":{"slot_id":"future_growth_1","lineage_id":"future_growth_1-newstart-20260927T153100+0300","page_generation":null,"accepted_as_parcel":false,"source_area_count_contribution":1,"exact_identifier":"SHLAA0131","exact_identifier_provided":true,"coverage_polygon_provided":false,"identifier_namespace":"Wigan Strategic Housing Land Availability Assessment 2026","site_name":"Eckersley Mill Swan Meadow Road Wigan","access_utc":"2026-10-02T15:20:00Z","data_date":"2026-04-01","dataset_updated":"2026-09-02","source_url":"https://www.wigan.gov.uk/Council/Strategies-Plans-and-Policies/Planning/Local-plan/Background/Key-Local-Studies/WiganStrategicHousingLandAvailabilityAssessment.aspx","final_url":"https://www.wigan.gov.uk/Council/Strategies-Plans-and-Policies/Planning/Local-plan/Background/Key-Local-Studies/WiganStrategicHousingLandAvailabilityAssessment.aspx","dataset_url":"https://www.data.gov.uk/dataset/2961fa8d-e21d-414b-8668-98221d2900af/strategic-housing-land-availability-assessment-2026","csv_preview_url":"https://www.data.gov.uk/dataset/2961fa8d-e21d-414b-8668-98221d2900af/strategic-housing-land-availability-assessment-2026/datafile/d300ab2e-a340-4836-b2a3-2e20ec5eaf19/preview","arcgis_item_url":"https://www.arcgis.com/home/item.html?id=10db4a371d834f16a1f4630c255e354a&sublayer=0","license":"not stated on dataset record","authority":"Wigan Metropolitan Borough Council","shlaa_reference":"SHLAA0131","site_area_hectares":4.9,"total_site_capacity":817,"remaining_capacity":817,"easting":357680.3,"northing":405028.2,"shape_area":48819.1209259033,"shape_length":1153.18190450019,"shlaa_base_date":"2026-04-01","evidence_grade":"A","confidence_score_0_100":99,"evidence_scope":"exact Wigan SHLAA 2026 record SHLAA0131 plus Wigan Council SHLAA status page and National Data Library structured spatial dataset/CSV preview","evidence_slice_sha256":"d04ff70583a4e61ee138f6cefc34bb02b53dbd077ec122da2efd3758ec1c23a7","fake_data":false,"spatial_binding_method":"official SHLAA0131 identifier with published Wigan SHLAA GeoJSON/ArcGIS spatial resources; exact geometry extraction, canonical parcel spatial join and materialization delegated to local OpenCode","planned_building_count_contribution":0}}]}