{"type":"FeatureCollection","features":[{"type":"Feature","geometry":null,"properties":{"slot_id":"future_growth_1","lineage_id":"future_growth_1-newstart-20260927T153100+0300","page_generation":null,"accepted_as_parcel":false,"source_area_count_contribution":1,"exact_identifier":"BLR_2","exact_identifier_provided":true,"coverage_polygon_provided":false,"identifier_namespace":"St Albans City and District Council Brownfield Land Register reference","entity_id":1737360,"site_name":"Jewsons Dark Lane","access_utc":"2026-10-06T22:11:00Z","data_date":"2025-12-05","source_url":"https://www.planning.data.gov.uk/entity/1737360","final_url":"https://www.planning.data.gov.uk/entity/1737360","site_plan_url":"https://gis.stalbans.gov.uk/WebMap9/Map.aspx?x=514463&y=213368&resolution=0.2&epsg=27700&mapname=stalbans&baseLayer=Colour%20Maps&datalayers=Brownfield%20Land%20Register%2CselectFeaturesControl_container","license":"Open Government Licence v3.0","authority":"St Albans City and District Council","point_wkt":"POINT (-0.339302 51.806735)","hectares":0.34,"deliverable":"yes","minimum_net_dwellings":14,"maximum_net_dwellings":14,"planning_permission_status":"not-permissioned","plan_allocation_note":"HA4 - Harpenden Neighbourhood Plan - allocation for Residential.","evidence_grade":"A","confidence_score_0_100":99,"evidence_scope":"exact Planning Data entity 1737360 and St Albans brownfield register reference BLR_2 with structured status/capacity fields","evidence_slice_sha256":"bf1bfd2606b42a768918dc65d291b83bca1c68d607e4734c116ca19574eb7e84","fake_data":false,"spatial_binding_method":"official brownfield register identifier BLR_2 plus Planning Data geographical-area/site-plan evidence; exact boundary resolution, canonical parcel spatial join and materialization delegated to local OpenCode","planned_building_count_contribution":0}}]}