{"type":"FeatureCollection","features":[{"type":"Feature","id":"crawley-brownfield-land-register-part-one-2025:CBCBLR059","geometry":null,"properties":{"slot_id":"future_growth_4","lineage_id":"fg4-e4c9076d6f554f00","page_generation":1,"owner":"future_growth_4","partition":"future_growth","semantic_mode":"SOURCE_AREA_EXACT_IDENTIFIER","dataset":"crawley-brownfield-land-register-part-one-2025","entity":"CBCBLR059","reference":"CBCBLR059","quality":"authoritative","organisation":"Crawley Borough Council","name":"Turnpike House, 121 - 123 High Street, Northgate, Crawley","site_address":"Turnpike House, 121 - 123 High Street, Northgate, Crawley","source_url":"https://crawley.gov.uk/planning/planning-policy/engagement-and-monitoring/brownfield-land-register/publications/brownfield-land-register-part-one-text-summary/brownfield-land-register-part-one-text-summary","final_url":"https://crawley.gov.uk/planning/planning-policy/engagement-and-monitoring/brownfield-land-register/publications/brownfield-land-register-part-one-text-summary/brownfield-land-register-part-one-text-summary","access_utc":"2026-10-04T14:20:00Z","data_date":"2025-12-15","license":"Open Government Licence","field_evidence":{"reference":"CBCBLR059","site_name_address":"Turnpike House, 121 - 123 High Street, Northgate, Crawley","hectares":0.23,"ownership_status":"not owned by a public authority","planning_status":"permissioned – prior approval (dated 27 June 2025)","deliverable_within_five_years":"yes","planning_application":"CR/2025/0055/PA3","permitted_dwellings":68,"development_description":"Prior approval for change of use from commercial, business and service (Class E) to 68 dwellings (Class C3)","first_added_date":"2025-12-15","end_date":"not applicable"},"evidence_slice_sha256":"de77bdc51c991a1a1617e9ab39a25af9739e6d6ad712504eb529186925ea0337","confidence_score_0_100":99,"confidence":0.99,"evidence_grade":"A","exact_identifier_provided":true,"coverage_polygon_provided":false,"fake_data":false,"join_mode":"LOCAL_OPENCODE_SPATIAL_JOIN_PENDING","direct_parcel":false,"source_area_count_contribution":1,"planned_building_count_contribution":0}}]}