{"features":[],"metadata":{"accepted_count":0,"access_utc":"2026-09-30T00:28:19Z","batch_id":"20260930T002819Z_police_npt_2026_07_boundary_probe","category":"security_public_safety","crs":"EPSG:4326 expected after KML parse, not materialized","data_date":"2026-07","delivery_mode":"TEXT_BUNDLE_V1","fake_data":false,"lineage_id":"security_public_safety_2:new-start:2026-09-30T00:28:19Z","owner":"security_public_safety_2","page_generation":1,"partition":"layer24","schema":"AAYS_LAYER24_EVIDENCE_V1","slot_id":"security_public_safety_2","source_area_count":0,"source_url":"https://data.police.uk/data/boundaries/2026-07.zip"},"name":"security_public_safety_2","type":"FeatureCollection"}
