{"type":"FeatureCollection","name":"building_type_9_batch_0007","features":[{"type":"Feature","id":"42137088","geometry":{"type":"MultiPolygon","coordinates":[[[[0.682492,51.064801],[0.68242,51.064747],[0.682315,51.064802],[0.682259,51.064763],[0.682224,51.064783],[0.682162,51.064737],[0.682194,51.06472],[0.682225,51.064743],[0.682314,51.064694],[0.682307,51.064687],[0.682352,51.064663],[0.682371,51.064651],[0.682395,51.064668],[0.682455,51.064636],[0.682484,51.064657],[0.682521,51.06464],[0.682536,51.064653],[0.682571,51.064641],[0.6826,51.064666],[0.682579,51.064686],[0.682595,51.064695],[0.682604,51.064691],[0.682628,51.064708],[0.682619,51.064714],[0.682632,51.064724],[0.682492,51.064801]]]]},"properties":{"slot_id":"building_type_9","lineage_id":"building_type_9-20261001T200900Z-newstart","batch_id":"batch-0007","page_generation":1,"source_entity":42137088,"source_reference":"ABC-1071121","source_dataset":"listed-building-outline","source_organisation":"Ashford Borough Council","building_evidence_status":"BUILDING_PRESENT","parcel_status":"UNPROCESSED","canonical_parcel_id":null,"building_type":"listed_building","building_use":null,"poi_accepted":false,"field_evidence":{"footprint":"official listed-building-outline MULTIPOLYGON","type":"official dataset classification: listed-building-outline","name":"THE CEDARS","reference":"ABC-1071121","use":"no use inferred"},"source_url":"https://www.planning.data.gov.uk/entity/42137088","final_url":"https://www.planning.data.gov.uk/entity/42137088","access_utc":"2026-10-01T23:38:00Z","data_date":"1950-01-08","licence":"Open Government Licence v3.0","evidence_slice_sha256":"9421e652d1cd0fde6c4b39ce0a073382cbbdb233eb928e902c9f0d76137e689a","confidence_score_0_100":94,"evidence_grade":"A","fake_data":false,"local_spatial_join_required":true}},{"type":"Feature","id":"42136933","geometry":{"type":"MultiPolygon","coordinates":[[[[0.621967,51.020272],[0.621975,51.020229],[0.621935,51.020226],[0.621945,51.020165],[0.622014,51.02017],[0.62201,51.020193],[0.622151,51.0202],[0.622135,51.020271],[0.622131,51.020283],[0.621967,51.020272]]]]},"properties":{"slot_id":"building_type_9","lineage_id":"building_type_9-20261001T200900Z-newstart","batch_id":"batch-0007","page_generation":1,"source_entity":42136933,"source_reference":"ABC-1070946","source_dataset":"listed-building-outline","source_organisation":"Ashford Borough Council","building_evidence_status":"BUILDING_PRESENT","parcel_status":"UNPROCESSED","canonical_parcel_id":null,"building_type":"listed_building","building_use":null,"poi_accepted":false,"field_evidence":{"footprint":"official listed-building-outline MULTIPOLYGON","type":"official dataset classification: listed-building-outline","name":"OWLS OAST","reference":"ABC-1070946","use":"no use inferred"},"source_url":"https://www.planning.data.gov.uk/entity/42136933","final_url":"https://www.planning.data.gov.uk/entity/42136933","access_utc":"2026-10-01T23:38:00Z","data_date":"1977-01-04","licence":"Open Government Licence v3.0","evidence_slice_sha256":"aff5d683751105136143fa38923df06dc356dec69c914c0f1b1113c980be845e","confidence_score_0_100":94,"evidence_grade":"A","fake_data":false,"local_spatial_join_required":true}},{"type":"Feature","id":"42137009","geometry":{"type":"MultiPolygon","coordinates":[[[[0.788336,51.032587],[0.78836,51.032465],[0.788622,51.032487],[0.788609,51.032546],[0.788547,51.032541],[0.78854,51.032566],[0.788494,51.032563],[0.788485,51.032599],[0.788336,51.032587]]]]},"properties":{"slot_id":"building_type_9","lineage_id":"building_type_9-20261001T200900Z-newstart","batch_id":"batch-0007","page_generation":1,"source_entity":42137009,"source_reference":"ABC-1071033","source_dataset":"listed-building-outline","source_organisation":"Ashford Borough Council","building_evidence_status":"BUILDING_PRESENT","parcel_status":"UNPROCESSED","canonical_parcel_id":null,"building_type":"listed_building","building_use":null,"poi_accepted":false,"field_evidence":{"footprint":"official listed-building-outline MULTIPOLYGON","type":"official dataset classification: listed-building-outline","name":"POPLAR HALL","reference":"ABC-1071033","use":"no use inferred"},"source_url":"https://www.planning.data.gov.uk/entity/42137009","final_url":"https://www.planning.data.gov.uk/entity/42137009","access_utc":"2026-10-01T23:38:00Z","data_date":"1962-01-16","licence":"Open Government Licence v3.0","evidence_slice_sha256":"4d636d1cff64a6aa0e045257fb4b818237b65a377d7e685d68c4f4d719028f93","confidence_score_0_100":94,"evidence_grade":"A","fake_data":false,"local_spatial_join_required":true}},{"type":"Feature","id":"42136739","geometry":{"type":"MultiPolygon","coordinates":[[[[0.793933,51.210942],[0.793958,51.210967],[0.793926,51.21098],[0.7939,51.210958],[0.793933,51.210942]]]]},"properties":{"slot_id":"building_type_9","lineage_id":"building_type_9-20261001T200900Z-newstart","batch_id":"batch-0007","page_generation":1,"source_entity":42136739,"source_reference":"ABC-1070743","source_dataset":"listed-building-outline","source_organisation":"Ashford Borough Council","building_evidence_status":"BUILDING_PRESENT","parcel_status":"UNPROCESSED","canonical_parcel_id":null,"building_type":"listed_building","building_use":null,"poi_accepted":false,"field_evidence":{"footprint":"official listed-building-outline MULTIPOLYGON","type":"official dataset classification: listed-building-outline","name":"The Gazebo","reference":"ABC-1070743","use":"no use inferred"},"source_url":"https://www.planning.data.gov.uk/entity/42136739","final_url":"https://www.planning.data.gov.uk/entity/42136739","access_utc":"2026-10-01T23:38:00Z","data_date":"1980-01-10","licence":"Open Government Licence v3.0","evidence_slice_sha256":"11df6f18948a4d8c468f03b8029e0d8c67d6104e4e4d5f393584f29ab55302fc","confidence_score_0_100":94,"evidence_grade":"A","fake_data":false,"local_spatial_join_required":true}},{"type":"Feature","id":"42136957","geometry":{"type":"MultiPolygon","coordinates":[[[[0.64244,51.115155],[0.642454,51.1152],[0.642434,51.115202],[0.64244,51.115234],[0.642415,51.115237],[0.64244,51.115323],[0.642432,51.115324],[0.642453,51.115392],[0.642399,51.115401],[0.642344,51.115255],[0.64231,51.115258],[0.642287,51.115177],[0.64244,51.115155]]]]},"properties":{"slot_id":"building_type_9","lineage_id":"building_type_9-20261001T200900Z-newstart","batch_id":"batch-0007","page_generation":1,"source_entity":42136957,"source_reference":"ABC-1070975","source_dataset":"listed-building-outline","source_organisation":"Ashford Borough Council","building_evidence_status":"BUILDING_PRESENT","parcel_status":"UNPROCESSED","canonical_parcel_id":null,"building_type":"listed_building","building_use":null,"poi_accepted":false,"field_evidence":{"footprint":"official listed-building-outline MULTIPOLYGON","type":"official dataset classification: listed-building-outline","name":"WEST HOUSE","reference":"ABC-1070975","use":"no use inferred"},"source_url":"https://www.planning.data.gov.uk/entity/42136957","final_url":"https://www.planning.data.gov.uk/entity/42136957","access_utc":"2026-10-01T23:38:00Z","data_date":"1952-01-04","licence":"Open Government Licence v3.0","evidence_slice_sha256":"38832dd6707fd654313296f8839f90856f9392f13ee498615d0eca6692260f11","confidence_score_0_100":94,"evidence_grade":"A","fake_data":false,"local_spatial_join_required":true}},{"type":"Feature","id":"42137146","geometry":{"type":"MultiPolygon","coordinates":[[[[0.910274,51.073478],[0.91022,51.073543],[0.910119,51.07351],[0.910172,51.073445],[0.910274,51.073478]]]]},"properties":{"slot_id":"building_type_9","lineage_id":"building_type_9-20261001T200900Z-newstart","batch_id":"batch-0007","page_generation":1,"source_entity":42137146,"source_reference":"ABC-1071189","source_dataset":"listed-building-outline","source_organisation":"Ashford Borough Council","building_evidence_status":"BUILDING_PRESENT","parcel_status":"UNPROCESSED","canonical_parcel_id":null,"building_type":"listed_building","building_use":null,"poi_accepted":false,"field_evidence":{"footprint":"official listed-building-outline MULTIPOLYGON","type":"official dataset classification: listed-building-outline","name":"FORGE COTTAGE","reference":"ABC-1071189","use":"no use inferred"},"source_url":"https://www.planning.data.gov.uk/entity/42137146","final_url":"https://www.planning.data.gov.uk/entity/42137146","access_utc":"2026-10-01T23:38:00Z","data_date":"1988-01-10","licence":"Open Government Licence v3.0","evidence_slice_sha256":"9781693b4b1bb44fe77a57d6665967e2673dd0db4fa1f1d3cda3f8053a75462f","confidence_score_0_100":94,"evidence_grade":"A","fake_data":false,"local_spatial_join_required":true}},{"type":"Feature","id":"42136949","geometry":{"type":"MultiPolygon","coordinates":[[[[0.724866,51.094773],[0.724788,51.094759],[0.724808,51.094711],[0.724824,51.094714],[0.724877,51.094593],[0.724793,51.09458],[0.724816,51.094529],[0.724879,51.094541],[0.724898,51.094508],[0.724987,51.094523],[0.724932,51.094638],[0.724954,51.094645],[0.724944,51.094665],[0.724923,51.09466],[0.724866,51.094773]]]]},"properties":{"slot_id":"building_type_9","lineage_id":"building_type_9-20261001T200900Z-newstart","batch_id":"batch-0007","page_generation":1,"source_entity":42136949,"source_reference":"ABC-1070966","source_dataset":"listed-building-outline","source_organisation":"Ashford Borough Council","building_evidence_status":"BUILDING_PRESENT","parcel_status":"UNPROCESSED","canonical_parcel_id":null,"building_type":"listed_building","building_use":null,"poi_accepted":false,"field_evidence":{"footprint":"official listed-building-outline MULTIPOLYGON","type":"official dataset classification: listed-building-outline","name":"TIFFENDEN MANOR","reference":"ABC-1070966","use":"no use inferred"},"source_url":"https://www.planning.data.gov.uk/entity/42136949","final_url":"https://www.planning.data.gov.uk/entity/42136949","access_utc":"2026-10-01T23:38:00Z","data_date":"1979-01-09","licence":"Open Government Licence v3.0","evidence_slice_sha256":"882d803c707db84a6a018d413c4494cf27fc216552640610d8f45dd6fe90cadc","confidence_score_0_100":94,"evidence_grade":"A","fake_data":false,"local_spatial_join_required":true}},{"type":"Feature","id":"42136858","geometry":{"type":"MultiPolygon","coordinates":[[[[0.768143,51.026178],[0.768035,51.026009],[0.768065,51.025998],[0.767984,51.025871],[0.768055,51.025854],[0.768079,51.025894],[0.768131,51.025881],[0.768182,51.025962],[0.768145,51.025977],[0.768194,51.026044],[0.768215,51.02604],[0.768251,51.0261],[0.768291,51.02609],[0.768317,51.026134],[0.768143,51.026178]]]]},"properties":{"slot_id":"building_type_9","lineage_id":"building_type_9-20261001T200900Z-newstart","batch_id":"batch-0007","page_generation":1,"source_entity":42136858,"source_reference":"ABC-1070867","source_dataset":"listed-building-outline","source_organisation":"Ashford Borough Council","building_evidence_status":"BUILDING_PRESENT","parcel_status":"UNPROCESSED","canonical_parcel_id":null,"building_type":"listed_building","building_use":null,"poi_accepted":false,"field_evidence":{"footprint":"official listed-building-outline MULTIPOLYGON","type":"official dataset classification: listed-building-outline","name":"COTTAGE AND FORMER OUTBUILDING TO THE FERRY INN","reference":"ABC-1070867","use":"no use inferred"},"source_url":"https://www.planning.data.gov.uk/entity/42136858","final_url":"https://www.planning.data.gov.uk/entity/42136858","access_utc":"2026-10-01T23:38:00Z","data_date":"1968-01-01","licence":"Open Government Licence v3.0","evidence_slice_sha256":"9c0bbc5f3f935735e85f9672d2fb8ce865aedac35f62ba666fff05459d2bd7ef","confidence_score_0_100":94,"evidence_grade":"A","fake_data":false,"local_spatial_join_required":true}}]}