{"type":"FeatureCollection","name":"building_type_9_batch_0014","features":[{"type":"Feature","id":"42130798","geometry":{"type":"MultiPolygon","coordinates":[[[[-1.901818,52.480368],[-1.901923,52.480312],[-1.901931,52.480306],[-1.901748,52.48016],[-1.90162,52.480212],[-1.901818,52.480368]]]]},"properties":{"slot_id":"building_type_9","lineage_id":"building_type_9-20261001T200900Z-newstart","batch_id":"batch-0014","page_generation":1,"source_entity":42130798,"source_reference":"345","source_dataset":"listed-building-outline","source_organisation":"Birmingham City Council","building_evidence_status":"BUILDING_PRESENT","parcel_status":"UNPROCESSED","canonical_parcel_id":null,"building_type":"listed_building","building_use":null,"poi_accepted":false,"field_evidence":{"footprint":"official listed-building-outline MULTIPOLYGON","type":"official dataset classification: listed-building-outline","name":"122 & 124, Colmore Row, City Centre, Birmingham","reference":"345","use":"no use inferred"},"source_url":"https://www.planning.data.gov.uk/entity/42130798","final_url":"https://www.planning.data.gov.uk/entity/42130798","access_utc":"2026-10-02T12:44:00Z","data_date":"2026-07-31","licence":"Open Government Licence v3.0","evidence_slice_sha256":"15f7759e35f5b58c46bf0cadc3add8b19cbb98781281376601db65db5f22baea","confidence_score_0_100":94,"evidence_grade":"A","fake_data":false,"local_spatial_join_required":true}},{"type":"Feature","id":"42130793","geometry":{"type":"MultiPolygon","coordinates":[[[[-1.901288,52.480621],[-1.901059,52.48044],[-1.900939,52.480498],[-1.900962,52.480527],[-1.900978,52.480523],[-1.901164,52.480678],[-1.901288,52.480621]]]]},"properties":{"slot_id":"building_type_9","lineage_id":"building_type_9-20261001T200900Z-newstart","batch_id":"batch-0014","page_generation":1,"source_entity":42130793,"source_reference":"340","source_dataset":"listed-building-outline","source_organisation":"Birmingham City Council","building_evidence_status":"BUILDING_PRESENT","parcel_status":"UNPROCESSED","canonical_parcel_id":null,"building_type":"listed_building","building_use":null,"poi_accepted":false,"field_evidence":{"footprint":"official listed-building-outline MULTIPOLYGON","type":"official dataset classification: listed-building-outline","name":"104 & 106, Colmore Row, City Centre, Birmingham","reference":"340","use":"no use inferred"},"source_url":"https://www.planning.data.gov.uk/entity/42130793","final_url":"https://www.planning.data.gov.uk/entity/42130793","access_utc":"2026-10-02T12:44:00Z","data_date":"2026-07-30","licence":"Open Government Licence v3.0","evidence_slice_sha256":"ae1b6883c94a3ea71a50a6ebe8d7f2dfa52c171c6cac43b99d7ddb7cbb24795e","confidence_score_0_100":94,"evidence_grade":"A","fake_data":false,"local_spatial_join_required":true}},{"type":"Feature","id":"42130803","geometry":{"type":"MultiPolygon","coordinates":[[[[-1.900667,52.481594],[-1.900768,52.481544],[-1.900771,52.481536],[-1.900757,52.481526],[-1.900774,52.481515],[-1.900749,52.481496],[-1.900708,52.481473],[-1.90066,52.481436],[-1.900565,52.481357],[-1.90038,52.481209],[-1.900301,52.481246],[-1.900248,52.481278],[-1.900667,52.481594]]]]},"properties":{"slot_id":"building_type_9","lineage_id":"building_type_9-20261001T200900Z-newstart","batch_id":"batch-0014","page_generation":1,"source_entity":42130803,"source_reference":"350","source_dataset":"listed-building-outline","source_organisation":"Birmingham City Council","building_evidence_status":"BUILDING_PRESENT","parcel_status":"UNPROCESSED","canonical_parcel_id":null,"building_type":"listed_building","building_use":null,"poi_accepted":false,"field_evidence":{"footprint":"official listed-building-outline MULTIPOLYGON","type":"official dataset classification: listed-building-outline","name":"75 & 77, Colmore Row, City Centre, Birmingham","reference":"350","use":"no use inferred"},"source_url":"https://www.planning.data.gov.uk/entity/42130803","final_url":"https://www.planning.data.gov.uk/entity/42130803","access_utc":"2026-10-02T12:44:00Z","data_date":"2026-07-31","licence":"Open Government Licence v3.0","evidence_slice_sha256":"9843b22d20017450b2f98d15acacc10e98c8b29ccdcc75c19da7a074bb053633","confidence_score_0_100":94,"evidence_grade":"A","fake_data":false,"local_spatial_join_required":true}},{"type":"Feature","id":"42130832","geometry":{"type":"MultiPolygon","coordinates":[[[[-1.90085,52.482733],[-1.900856,52.482729],[-1.900745,52.482669],[-1.900461,52.482805],[-1.900617,52.482892],[-1.90085,52.482733]]]]},"properties":{"slot_id":"building_type_9","lineage_id":"building_type_9-20261001T200900Z-newstart","batch_id":"batch-0014","page_generation":1,"source_entity":42130832,"source_reference":"304","source_dataset":"listed-building-outline","source_organisation":"Birmingham City Council","building_evidence_status":"BUILDING_PRESENT","parcel_status":"UNPROCESSED","canonical_parcel_id":null,"building_type":"listed_building","building_use":null,"poi_accepted":false,"field_evidence":{"footprint":"official listed-building-outline MULTIPOLYGON","type":"official dataset classification: listed-building-outline","name":"41 & 43, Church Street, City Centre, Birmingham","reference":"304","use":"no use inferred"},"source_url":"https://www.planning.data.gov.uk/entity/42130832","final_url":"https://www.planning.data.gov.uk/entity/42130832","access_utc":"2026-10-02T12:44:00Z","data_date":"2026-07-16","licence":"Open Government Licence v3.0","evidence_slice_sha256":"a3686020f6a6ba74fcf71c61983fa95dd8e8ee7dec42edf4721e85bc923f6dd9","confidence_score_0_100":94,"evidence_grade":"A","fake_data":false,"local_spatial_join_required":true}},{"type":"Feature","id":"42186575","geometry":{"type":"MultiPolygon","coordinates":[[[[-1.910396,52.465477],[-1.909797,52.464889],[-1.909803,52.464886],[-1.909716,52.464797],[-1.90971,52.464799],[-1.909626,52.46472],[-1.909427,52.464792],[-1.910205,52.465559],[-1.910396,52.465477]]]]},"properties":{"slot_id":"building_type_9","lineage_id":"building_type_9-20261001T200900Z-newstart","batch_id":"batch-0014","page_generation":1,"source_entity":42186575,"source_reference":"534","source_dataset":"listed-building-outline","source_organisation":"Birmingham City Council","building_evidence_status":"BUILDING_PRESENT","parcel_status":"UNPROCESSED","canonical_parcel_id":null,"building_type":"listed_building","building_use":null,"poi_accepted":false,"field_evidence":{"footprint":"official listed-building-outline MULTIPOLYGON","type":"official dataset classification: listed-building-outline","name":"101, Gough Road, Edgbaston, Birmingham","reference":"534","use":"no use inferred"},"source_url":"https://www.planning.data.gov.uk/entity/42186575","final_url":"https://www.planning.data.gov.uk/entity/42186575","access_utc":"2026-10-02T12:44:00Z","data_date":"2026-06-22","licence":"Open Government Licence v3.0","evidence_slice_sha256":"21e1062a71c8dd0198ed36c5263d89fc0c6293764c42b7cdb70a30ebeb92b6d7","confidence_score_0_100":94,"evidence_grade":"A","fake_data":false,"local_spatial_join_required":true}},{"type":"Feature","id":"42130792","geometry":{"type":"MultiPolygon","coordinates":[[[[-1.901164,52.480678],[-1.900978,52.480523],[-1.900889,52.480544],[-1.90091,52.48057],[-1.900929,52.480565],[-1.900944,52.480584],[-1.900926,52.48059],[-1.900955,52.480623],[-1.900968,52.480619],[-1.900988,52.480641],[-1.900974,52.480645],[-1.90099,52.480663],[-1.901044,52.480733],[-1.901164,52.480678]]]]},"properties":{"slot_id":"building_type_9","lineage_id":"building_type_9-20261001T200900Z-newstart","batch_id":"batch-0014","page_generation":1,"source_entity":42130792,"source_reference":"339","source_dataset":"listed-building-outline","source_organisation":"Birmingham City Council","building_evidence_status":"BUILDING_PRESENT","parcel_status":"UNPROCESSED","canonical_parcel_id":null,"building_type":"listed_building","building_use":null,"poi_accepted":false,"field_evidence":{"footprint":"official listed-building-outline MULTIPOLYGON","type":"official dataset classification: listed-building-outline","name":"102, Colmore Row, City Centre, Birmingham","reference":"339","use":"no use inferred"},"source_url":"https://www.planning.data.gov.uk/entity/42130792","final_url":"https://www.planning.data.gov.uk/entity/42130792","access_utc":"2026-10-02T12:44:00Z","data_date":"2026-07-27","licence":"Open Government Licence v3.0","evidence_slice_sha256":"9c591e7c5ad0b9f983f87cf16c5ab732dd216a80f3b760afa5303410c497d0a3","confidence_score_0_100":94,"evidence_grade":"A","fake_data":false,"local_spatial_join_required":true}},{"type":"Feature","id":"42130501","geometry":{"type":"MultiPolygon","coordinates":[[[[-1.900952,52.480324],[-1.900864,52.480214],[-1.900586,52.480299],[-1.90059,52.480307],[-1.900584,52.480307],[-1.900568,52.480333],[-1.900573,52.480339],[-1.900565,52.480341],[-1.900633,52.480423],[-1.900952,52.480324]]]]},"properties":{"slot_id":"building_type_9","lineage_id":"building_type_9-20261001T200900Z-newstart","batch_id":"batch-0014","page_generation":1,"source_entity":42130501,"source_reference":"80","source_dataset":"listed-building-outline","source_organisation":"Birmingham City Council","building_evidence_status":"BUILDING_PRESENT","parcel_status":"UNPROCESSED","canonical_parcel_id":null,"building_type":"listed_building","building_use":null,"poi_accepted":false,"field_evidence":{"footprint":"official listed-building-outline MULTIPOLYGON","type":"official dataset classification: listed-building-outline","name":"7, Bennetts Hill, City Centre, Birmingham","reference":"80","use":"no use inferred"},"source_url":"https://www.planning.data.gov.uk/entity/42130501","final_url":"https://www.planning.data.gov.uk/entity/42130501","access_utc":"2026-10-02T12:44:00Z","data_date":"2026-07-02","licence":"Open Government Licence v3.0","evidence_slice_sha256":"8d5434a4ea37f59844780c6d2e4505112399ab7be2408bf51bb0fe2b636c0b06","confidence_score_0_100":94,"evidence_grade":"A","fake_data":false,"local_spatial_join_required":true}},{"type":"Feature","id":"42130901","geometry":{"type":"MultiPolygon","coordinates":[[[[-1.897729,52.479387],[-1.897649,52.479482],[-1.897732,52.479514],[-1.897783,52.47954],[-1.89789,52.479455],[-1.897808,52.479412],[-1.897729,52.479387]]]]},"properties":{"slot_id":"building_type_9","lineage_id":"building_type_9-20261001T200900Z-newstart","batch_id":"batch-0014","page_generation":1,"source_entity":42130901,"source_reference":"374","source_dataset":"listed-building-outline","source_organisation":"Birmingham City Council","building_evidence_status":"BUILDING_PRESENT","parcel_status":"UNPROCESSED","canonical_parcel_id":null,"building_type":"listed_building","building_use":null,"poi_accepted":false,"field_evidence":{"footprint":"official listed-building-outline MULTIPOLYGON","type":"official dataset classification: listed-building-outline","name":"9 to 13a (odd), Corporation St., City Centre, Birmingham","reference":"374","use":"no use inferred"},"source_url":"https://www.planning.data.gov.uk/entity/42130901","final_url":"https://www.planning.data.gov.uk/entity/42130901","access_utc":"2026-10-02T12:44:00Z","data_date":"2026-07-17","licence":"Open Government Licence v3.0","evidence_slice_sha256":"101ffaef6b728c25b91f1c55c789fcb3547141178b5c7315fe5ee8598cac8df6","confidence_score_0_100":94,"evidence_grade":"A","fake_data":false,"local_spatial_join_required":true}}]}