{"type":"FeatureCollection","features":[{"type":"Feature","id":"wyre-forest-brownfield-land-register-february-2026:AS/6","geometry":{"type":"Point","coordinates":[-2.23826,52.387165]},"properties":{"slot_id":"future_growth_4","lineage_id":"fg4-e4c9076d6f554f00","page_generation":1,"owner":"future_growth_4","partition":"future_growth","semantic_mode":"SOURCE_AREA_EXACT_IDENTIFIER","dataset":"wyre-forest-brownfield-land-register-february-2026","entity":"AS/6","reference":"AS/6","quality":"authoritative","organisation":"Wyre Forest District Council","name":"Lea Street School Lea Street","site_address":"Lea Street School Lea Street","source_url":"https://www.wyreforestdc.gov.uk/planning-and-buildings/planning-policy/brownfield-land-register/","final_url":"https://www.wyreforestdc.gov.uk/planning-and-buildings/planning-policy/brownfield-land-register/","access_utc":"2026-10-03T00:13:00Z","data_date":"2026-02","license":"Open Government Licence","field_evidence":{"reference":"AS/6","site_name_address":"Lea Street School Lea Street","longitude":-2.23826,"latitude":52.387165,"hectares":0.47,"ownership_status":"owned by a public authority","planning_status":"not permissioned","deliverable":"yes","net_dwellings_range_from":24,"net_dwellings_range_to":null,"notes":"Allocated for residential development under SA.K2.","first_added_date":"2017-12-31","last_updated_date":"2022-12-31"},"evidence_slice_sha256":"403d7eac03d3feea8741aa6e018402aa034aed9a019bea867fd42a3ca4398b5f","confidence_score_0_100":99,"confidence":0.99,"evidence_grade":"A","exact_identifier_provided":true,"coverage_polygon_provided":false,"source_point_provided":true,"fake_data":false,"join_mode":"LOCAL_OPENCODE_SPATIAL_JOIN_PENDING","direct_parcel":false,"source_area_count_contribution":1,"planned_building_count_contribution":0}}]}