{"type":"FeatureCollection","features":[{"type":"Feature","geometry":null,"properties":{"slot_id":"future_growth_7","lineage_id":"future_growth_7_open_source_v2_20260813","page_generation":null,"batch_id":"batch_20261005T050300Z_lpd3800344","official_entity_id":3800344,"official_reference":"bolsover-district-council-local-plan-2014-2","dataset":"local-plan-document","organisation":"Bolsover District Council","source_url":"https://www.planning.data.gov.uk/entity/3800344","final_url":"https://www.planning.data.gov.uk/entity/3800344","accessed_utc":"2026-10-05T05:03:00Z","data_date":"2024-12-20","licence":"Open Government Licence v3.0","source_sha256":"5b1ede85119f939f6d1acc3ae6aea8d443d6557a3454d66b81fb62e42d85baa3","source_sha256_basis":"canonical_official_field_evidence_json","field_evidence":{"curie":"local-plan-document:bolsover-district-council-local-plan-2014-2","prefix":"local-plan-document","reference":"bolsover-district-council-local-plan-2014-2","name":"https://www.bolsover.gov.uk/index.php?option=com_content&view=article&id=90","dataset":"local-plan-document","organisation-entity":"local-authority:BOS","start-date":"","end-date":"","entry-date":"2024-12-20","typology":"document","geometry":"","point":"","entity":3800344,"quality":"some","local-plan":"bolsover-district-council-local-plan-2014","document-url":"https://www.bolsover.gov.uk/index.php?option=com_content&view=article&id=90","document-types":"local-plan","documentation-url":"https://www.bolsover.gov.uk/index.php?option=com_content&view=article&id=90"},"evidence_slice_sha256":"b5f1376d3c888d84cb18da10238c78b8da8ee02d51f97ea78d610649846cf2cb","evidence_grade":"A_EXACT_OFFICIAL_IDENTIFIER","confidence_score_0_100":97,"official_geometry_available":false,"official_geometry_type":null,"source_geometry_materialized_here":false,"point_not_used_as_coverage":true,"source_area_basis":"exact official local-plan-document identifier","document_url":"https://www.bolsover.gov.uk/index.php?option=com_content&view=article&id=90","documentation_url":"https://www.bolsover.gov.uk/index.php?option=com_content&view=article&id=90","source_area_only":true,"fake_data":false}}]}
