{"type":"FeatureCollection","features":[{"type":"Feature","id":"planned_buildings_2-planning-data-brownfield-1739876","geometry":null,"properties":{"slot_id":"planned_buildings_2","source_dataset_id":"planning_data_brownfield_land","source_index":5,"source_window_index":1,"entity":1739876,"reference":"LBBD 81/HA","official_site_key":"PLANNING-DATA-BROWNFIELD-1739876","canonical_record_key":"planning-data:brownfield-land:1739876","planned_project_name":"Wickes, Hertford Road","planned_project_type":"brownfield_land_register_site","planned_project_status":"pending-decision","borough":"London Borough of Barking and Dagenham","official_minimum_net_dwellings":880,"official_maximum_net_dwellings":899,"official_hectares":1.3,"parcel_id":null,"planned_building_value":null,"planned_building_probability":null,"planned_building_complete_month":null,"matching_method":"direct_official_brownfield_entity_no_parcel_match","source_url":"https://www.planning.data.gov.uk/entity/1739876","source_quality":"official_planning_data_record","source_license":"Open Government Licence v3.0","demo_only":true,"fake_data":false,"final_ready":false,"production_merge":false}}],"metadata":{"slot_id":"planned_buildings_2","batch_index":94,"source_index":5,"source_window":{"resource_index":1,"limit":1},"feature_count_before":449,"feature_count_after":450,"unique_real_site_project_before":290,"unique_real_site_project_after":291,"duplicate_count_new":0,"nearest_match_used":false,"parcel_match_used":false,"fake_data":false,"mirror_only":true}}