{
  "type": "FeatureCollection",
  "name": "gas_emissions_2_ons_lad26_bgc_identifier_window",
  "metadata": {
    "schema_family": "AAYS_LAYER24_EVIDENCE_V1",
    "package_category": "AAYS_SOURCE_AREA_V1",
    "slot_id": "gas_emissions_2",
    "lineage_id": "L24-GE2-600c3339868ccb329689",
    "page_generation": 4,
    "owner": "gas_emissions_2",
    "partition": {
      "start": 15382,
      "end": 30762
    },
    "batch_id": "20261001T064300Z_ONS_LAD26_BGC_PREVIEW_0001_0004",
    "semantic_mode_state": "ABSENT_IN_VERIFIED_PREDECESSOR_PRESERVED_NO_NEW_VALUE_ASSERTED",
    "source_family": "ONS_OPEN_GEOGRAPHY_LAD26_BOUNDARY_BGC_EXACT_IDENTIFIER",
    "source_window_id": "ONS_LAD_MAY_2026_UK_BGC_NDL_PREVIEW_ROWS_0001_0004",
    "url": "https://www.data.gov.uk/dataset/fa7b922d-e307-43dd-8d98-62529435181e/local-authority-districts-may-2026-boundaries-uk-bgc/datafile/2498d634-b80f-484d-a04f-21499a6609e9/preview",
    "final_url": "https://www.data.gov.uk/dataset/fa7b922d-e307-43dd-8d98-62529435181e/local-authority-districts-may-2026-boundaries-uk-bgc/datafile/2498d634-b80f-484d-a04f-21499a6609e9/preview",
    "dataset_url": "https://www.data.gov.uk/dataset/fa7b922d-e307-43dd-8d98-62529435181e/local-authority-districts-may-2026-boundaries-uk-bgc",
    "feature_service_url": "https://services1.arcgis.com/ESMARspQHYMw9BZ9/arcgis/rest/services/Local_Authority_Districts_May_2026_Boundaries_UK_BGC/FeatureServer",
    "harvest_guid": "43eddab36751466db7bb4006b242243c",
    "accessed_at_utc": "2026-10-01T06:43:00Z",
    "data_date": "2026-05",
    "dataset_updated": "2026-09-10",
    "publisher": "Office for National Statistics",
    "license": "NOT_STATED_ON_DATA_GOV_UK_DATASET",
    "rights_note": "Contains both Ordnance Survey and ONS Intellectual Property Rights.",
    "boundary_product": "BGC Generalised (20m) - clipped to coastline (Mean High Water mark)",
    "field_evidence": {
      "LAD26CD": "ONS Local Authority District May 2026 exact identifier",
      "LAD26NM": "ONS Local Authority District name",
      "GlobalID": "official ArcGIS feature GlobalID",
      "Shape__Area": "published BGC feature area metadata",
      "Shape__Length": "published BGC feature perimeter metadata",
      "LONG": "published representative longitude",
      "LAT": "published representative latitude"
    },
    "confidence_score_0_100": 97,
    "evidence_grade": "A_OFFICIAL_ONS_EXACT_IDENTIFIER_GENERALISED_BOUNDARY_METADATA",
    "fake_data": false,
    "geometry_materialization_status": "OFFICIAL BGC POLYGON PRODUCT CONFIRMED; PREVIEW STORES EXACT IDENTIFIERS/SHAPE METADATA ONLY",
    "canonical_binding_status": "LOCAL_OPENCODE_SPATIAL_JOIN_REQUIRED"
  },
  "features": [
    {
      "type": "Feature",
      "geometry": null,
      "properties": {
        "FID": 1,
        "LAD26CD": "E06000001",
        "LAD26NM": "Hartlepool",
        "LAD26NMW": "",
        "BNG_E": 447161,
        "BNG_N": 531473,
        "LONG": -1.270174,
        "LAT": 54.67613,
        "Shape__Area": 93876525.4976654,
        "Shape__Length": 69627.0438164182,
        "GlobalID": "3e2ba4d8-4410-417d-99a8-dff63e7f32d7",
        "source_record_ordinal": 1,
        "official_identifier": "E06000001",
        "identifier_already_present_in_source_area_ledger": true
      }
    },
    {
      "type": "Feature",
      "geometry": null,
      "properties": {
        "FID": 2,
        "LAD26CD": "E06000002",
        "LAD26NM": "Middlesbrough",
        "LAD26NMW": "",
        "BNG_E": 451141,
        "BNG_N": 516887,
        "LONG": -1.210998,
        "LAT": 54.54468,
        "Shape__Area": 53858527.7080383,
        "Shape__Length": 43640.942049616,
        "GlobalID": "164e1478-b9ed-4009-97c4-c41409033ff0",
        "source_record_ordinal": 2,
        "official_identifier": "E06000002",
        "identifier_already_present_in_source_area_ledger": true
      }
    },
    {
      "type": "Feature",
      "geometry": null,
      "properties": {
        "FID": 3,
        "LAD26CD": "E06000003",
        "LAD26NM": "Redcar and Cleveland",
        "LAD26NMW": "",
        "BNG_E": 464330,
        "BNG_N": 519596,
        "LONG": -1.006565,
        "LAT": 54.56752,
        "Shape__Area": 245176713.877808,
        "Shape__Length": 95002.258359269,
        "GlobalID": "9fce55d6-ead4-4463-956a-e83947317f6d",
        "source_record_ordinal": 3,
        "official_identifier": "E06000003",
        "identifier_already_present_in_source_area_ledger": true
      }
    },
    {
      "type": "Feature",
      "geometry": null,
      "properties": {
        "FID": 4,
        "LAD26CD": "E06000004",
        "LAD26NM": "Stockton-on-Tees",
        "LAD26NMW": "",
        "BNG_E": 444940,
        "BNG_N": 518179,
        "LONG": -1.306646,
        "LAT": 54.55688,
        "Shape__Area": 204921130.433899,
        "Shape__Length": 118101.244900402,
        "GlobalID": "6c59dae0-dd85-4d5d-9c79-9ff5e78be754",
        "source_record_ordinal": 4,
        "official_identifier": "E06000004",
        "identifier_already_present_in_source_area_ledger": true
      }
    }
  ]
}
