{"type":"FeatureCollection","features":[{"type":"Feature","geometry":{"type":"MultiPolygon","coordinates":[[[[-1.113434,53.535588],[-1.113219,53.535638],[-1.113388,53.535901],[-1.113539,53.535857],[-1.113555,53.535846],[-1.11357,53.535819],[-1.113568,53.535803],[-1.113507,53.535715],[-1.113434,53.535588]]]]},"properties":{"slot_id":"future_growth_1","lineage_id":"future_growth_1-newstart-20260927T153100+0300","page_generation":null,"semantic_mode":"AREA_JOIN","source_window":"mhclg_doncaster_brownfield_site_132_entity1802799_entry2025-12-03_official_HTML_WKT","semantic_identity":"brownfield-site:132|local-authority:DNC|entity:1802799|2025-12-03","source_url":"https://www.planning.data.gov.uk/entity/1802799","final_url":"https://www.planning.data.gov.uk/entity/1802799","final_url_status":"Official no-login entity HTML exact canonical URL; numeric redirect history not supplied","http_status":null,"http_status_reason":"Retrieval returns content but not numeric origin HTTP status","access_utc":"2026-10-09T04:16:09.887Z","data_date":"2025-12-03","data_date_basis":"Official entity entry-date; original collector last ran 2026-08-10","license":"Open Government Licence v3.0","license_evidence_url":"https://www.planning.data.gov.uk/dataset/brownfield-site","field_evidence":{"curie":"brownfield-site:132","prefix":"brownfield-site","reference":"132","name":"170 Beckett Road, Wheatley, Doncaster, DN2 4BD","dataset":"brownfield-site","organisation-entity":"local-authority:DNC","start-date":"","end-date":"","entry-date":"2025-12-03","typology":"geography","geometry":"MULTIPOLYGON (((-1.113434 53.535588, -1.113219 53.535638, -1.113388 53.535901, -1.113539 53.535857, -1.113555 53.535846, -1.11357 53.535819, -1.113568 53.535803, -1.113507 53.535715, -1.113434 53.535588)))","point":"POINT (-1.113404 53.535741)","entity":1802799,"quality":"authoritative","brownfield-site":"132"},"evidence_slice_sha256":"66b293774ca3243cabbf7f6fe98cbfca84cab867bc1db7c8c905e2c2bdcdbd22","confidence_score_0_100":94,"evidence_grade":"A","fake_data":false,"source_area_count_contribution":1,"accepted_as_parcel":false,"exact_identifier":"132","exact_identifier_provided":true,"identifier_namespace":"brownfield-site:local-authority:DNC","coverage_polygon_provided":true,"geometry_type":"MultiPolygon","geometry_crs":"EPSG:4326","source_file_sha256":null,"source_file_sha256_reason":"Official geojson download returned cache miss; original raw bytes unavailable, hash not fabricated","spatial_binding_method":"Planning Data official HTML WKT MultiPolygon EPSG:4326; local OpenCode performs canonical parcel join","planned_building_count_contribution":0}}]}