{
  "type": "FeatureCollection",
  "features": [
    {
      "type": "Feature",
      "id": "brownfield-site:58",
      "geometry": {
        "type": "MultiPolygon",
        "coordinates": [
          [
            [
              [
                -1.133195,
                53.523676
              ],
              [
                -1.133303,
                53.52373
              ],
              [
                -1.133386,
                53.523779
              ],
              [
                -1.133437,
                53.523807
              ],
              [
                -1.133474,
                53.523779
              ],
              [
                -1.13344,
                53.523764
              ],
              [
                -1.13353,
                53.523695
              ],
              [
                -1.133307,
                53.523592
              ],
              [
                -1.133195,
                53.523676
              ]
            ]
          ]
        ]
      },
      "properties": {
        "slot_id": "future_growth_2",
        "lineage_id": "d409404e-c2b6-4d79-b904-d05e944a949e",
        "page_generation": 4,
        "batch_id": "batch-20261009T053713Z_mhclg_doncaster_58_official_WKT",
        "schema": "AAYS_LAYER24_EVIDENCE_V1",
        "source_dataset": "brownfield-site",
        "source_provider": "MHCLG Planning Data / Doncaster Metropolitan Borough Council",
        "source_exact_identifier": "brownfield-site:58",
        "source_entity_id": 1802725,
        "category": "brownfield-site",
        "source_url": "https://www.planning.data.gov.uk/entity/1802725",
        "final_url": "https://www.planning.data.gov.uk/entity/1802725",
        "accessed_utc": "2026-10-09T05:37:13.089Z",
        "http_status": null,
        "data_date": "2025-12-03",
        "license": "Open Government Licence v3.0",
        "source_file_sha256": "0e5ed8f419fd0f0f455b91bbedfaec94ddb37f70b55d931e61429c49e3853caf",
        "source_file_sha256_scope": "normalized_indexed_official_evidence_slice_not_raw_HTTP_source",
        "evidence_slice_sha256": "0e5ed8f419fd0f0f455b91bbedfaec94ddb37f70b55d931e61429c49e3853caf",
        "field_evidence": {
          "dataset": "brownfield-site",
          "entity": 1802725,
          "curie": "brownfield-site:58",
          "reference": "58",
          "name": "13 Scot Lane, Doncaster, DN1 1EW",
          "organisation": "Doncaster Metropolitan Borough Council",
          "organisation_curie": "local-authority:DNC",
          "organisation_entity": 109,
          "quality": "authoritative",
          "entry_date": "2025-12-03",
          "start_date": "",
          "end_date": "",
          "geometry_source_field": "geometry",
          "geometry_type": "MultiPolygon",
          "point": "POINT (-1.133366 53.523693)"
        },
        "confidence_score_0_100": 92,
        "evidence_grade": "B_OFFICIAL_INDEXED_WKT_GEOMETRY",
        "geometry_crs": "EPSG:4326",
        "direct_parcel": false,
        "canonical_join_status": "PENDING_LOCAL_SPATIAL_JOIN",
        "fake_data": false
      }
    }
  ]
}
