{"type":"FeatureCollection","features":[{"type":"Feature","geometry":{"type":"MultiPolygon","coordinates":[[[[-1.136779,53.521191],[-1.136831,53.521215],[-1.136847,53.521186],[-1.136951,53.521209],[-1.136964,53.52118],[-1.136671,53.520817],[-1.136526,53.520651],[-1.136379,53.520586],[-1.136261,53.520661],[-1.136185,53.520627],[-1.136125,53.52062],[-1.135946,53.520745],[-1.136549,53.521074],[-1.136779,53.521191]]]]},"properties":{"slot_id":"future_growth_1","lineage_id":"future_growth_1-newstart-20260927T153100+0300","page_generation":null,"semantic_mode":"AREA_JOIN","source_window":"mhclg_doncaster_brownfield_site_56_entity1802723_2025-12-03_official_live_html_wkt","semantic_identity":"brownfield-site:56|local-authority:DNC|entity:1802723|entry:2025-12-03","source_url":"https://www.planning.data.gov.uk/entity/1802723","final_url":"https://www.planning.data.gov.uk/entity/1802723","final_url_status":"Official MHCLG public no-login HTML page opened; no redirect independently observed","http_status":null,"http_status_reason":"Origin response HTTP code not exposed by retrieved HTML","access_utc":"2026-10-09T02:18:21.734Z","data_date":"2025-12-03","data_date_basis":"Official entity entry date, no start or end date","license":"Open Government Licence v3.0","license_evidence_url":"https://www.planning.data.gov.uk/dataset/brownfield-site","field_evidence":{"entry-date":"2025-12-03","start-date":"","end-date":"","entity":1802723,"name":"1 - 7 Portland Place, Doncaster, DN1 3DF","dataset":"brownfield-site","typology":"geography","reference":"56","prefix":"brownfield-site","organisation-entity":"109","geometry":"MULTIPOLYGON (((-1.136779 53.521191, -1.136831 53.521215, -1.136847 53.521186, -1.136951 53.521209, -1.136964 53.52118, -1.136671 53.520817, -1.136526 53.520651, -1.136379 53.520586, -1.136261 53.520661, -1.136185 53.520627, -1.136125 53.52062, -1.135946 53.520745, -1.136549 53.521074, -1.136779 53.521191)))","point":"POINT (-1.136469 53.520872)","quality":"authoritative","brownfield-site":"56"},"evidence_slice_sha256":"2c422d5936465a5932014c3dd85d841040e48c6c30edaa2f14c3755aca3a911b","confidence_score_0_100":94,"evidence_grade":"A","fake_data":false,"source_area_count_contribution":1,"accepted_as_parcel":false,"exact_identifier":"56","exact_identifier_provided":true,"identifier_namespace":"MHCLG brownfield-site:DNC","coverage_polygon_provided":true,"geometry_type":"MultiPolygon","geometry_crs":"EPSG:4326","source_file_sha256":null,"source_file_sha256_reason":"Official downloadable .geojson endpoint returned cache miss; original bytes not accessible and no original-file hash claimed","spatial_binding_method":"Full WKT transcribed from official entity HTML, WGS84 MultiPolygon; spatial join delegated to local OpenCode","planned_building_count_contribution":0}}]}