{"type":"FeatureCollection","features":[{"type":"Feature","geometry":null,"properties":{"evidence_scope":"authoritative_exact_identifier","coverage_area_id":"Skerningham Garden Village (Local Plan Policy H10)","official_identifier":"H10","source_resolution":"direct official Darlington Borough Council webpage identifying Skerningham Garden Village against Local Plan Policy H10 and recording Cabinet agreement of the masterplan","source_url":"https://www.darlington.gov.uk/planning-and-building-regs/planning/planning-and-environmental-policy/garden-villages/skerningham-garden-village/","final_url":"https://www.darlington.gov.uk/planning-and-building-regs/planning/planning-and-environmental-policy/garden-villages/skerningham-garden-village/","access_utc":"2026-10-02T20:47:00Z","data_date":"2024-12-03","licence":"Darlington Borough Council public webpage; no explicit reuse licence identified on the retrieved page","measurement_method":"official Darlington Borough Council Skerningham Garden Village webpage","spatial_binding_method":"local OpenCode spatial/identifier binding against canonical parcel polygons; not performed here","confidence_score_0_100":100,"evidence_grade":"authoritative_exact_identifier","fake_data":false,"upstream_file_sha256":null,"upstream_file_sha256_reason":"raw upstream HTML response bytes were not exposed by the available retrieval path; no hash invented","source_window_payload_sha256":"3aa1e1464d254f70e8ed8da483f50573528cbabc37d2b10625534f74af733ecb","field_evidence":{"entry-date":"2024-12-03","start-date":"","end-date":"","entity":null,"name":"Skerningham Garden Village","dataset":"darlington-local-plan-skerningham-garden-village","typology":"geography","reference":"H10","prefix":"darlington-local-plan-policy","organisation-entity":"Darlington Borough Council","geometry":"","point":"","quality":"authoritative","policy":"H10","masterplan-status":"agreed by Cabinet","masterplan-agreement-date":"2024-12-03","policy-context":"Local Plan Policy H10 and Skerningham Design Code"}}}]}
