{"type":"FeatureCollection","name":"distance_property_types","features":[{"type":"Feature","id":"DPT_WEB_PILOT_WESTFIELD_LONDON_001","geometry":{"type":"Point","coordinates":[-0.22111,51.5075]},"properties":{"parcel_id":"DPT_WEB_PILOT_WESTFIELD_LONDON_001","selected_property_type":"Retail Property","selected_color_category":"retail_property","selected_match_distance_m":0,"official_source_evidence":"Source URL: https://www.westfield.com/united-kingdom/london","web_source_evidence":"Westfield London is documented as a large shopping centre in White City, London with stores and public coordinate evidence.","map_source_evidence":"Coordinate evidence: 51.50750,-0.22111 from published coordinate source.","photo_ai_evidence":"not_used_for_this_pilot","photo_ai_observation":"no_photo_ai_used; web_and_coordinate_evidence_only","source_date":"2026-07-09","matching_method":"web_source_coordinate_pilot","conflict_status":"no_conflict","needs_manual_review":false,"accuracy_score_4":3.0,"accuracy_label_4":"3_of_4_web_coordinate_verified","explanation":"Real-source verified example point for site visibility; not a final parcel-distance batch output.","last_updated":"2026-07-09","changed_in_latest_run":true,"change_reason":"pilot_real_web_source_visibility_batch","fake_data":false,"final_ready":false,"nearest_retail_property_distance_m":0,"layer_key":"distance_property_types","layer_name":"Distance to Nearby Property Types","color_category":"retail_property","source":"web_source_coordinate_pilot","source_url":"https://www.westfield.com/united-kingdom/london"}},{"type":"Feature","id":"DPT_WEB_PILOT_NEWS_BUILDING_002","geometry":{"type":"Point","coordinates":[-0.0876,51.5054]},"properties":{"parcel_id":"DPT_WEB_PILOT_NEWS_BUILDING_002","selected_property_type":"Office Building","selected_color_category":"office_building","selected_match_distance_m":0,"official_source_evidence":"Source URL: https://www.news.co.uk/contact-us/","web_source_evidence":"The News Building is documented as a 17-storey office block in London Bridge and as News UK office/headquarters operations.","map_source_evidence":"Coordinate evidence: 51.5054,-0.0876 from published coordinate source.","photo_ai_evidence":"not_used_for_this_pilot","photo_ai_observation":"no_photo_ai_used; web_and_coordinate_evidence_only","source_date":"2026-07-09","matching_method":"web_source_coordinate_pilot","conflict_status":"no_conflict","needs_manual_review":false,"accuracy_score_4":3.0,"accuracy_label_4":"3_of_4_web_coordinate_verified","explanation":"Real-source verified example point for site visibility; not a final parcel-distance batch output.","last_updated":"2026-07-09","changed_in_latest_run":true,"change_reason":"pilot_real_web_source_visibility_batch","fake_data":false,"final_ready":false,"nearest_office_building_distance_m":0,"layer_key":"distance_property_types","layer_name":"Distance to Nearby Property Types","color_category":"office_building","source":"web_source_coordinate_pilot","source_url":"https://www.news.co.uk/contact-us/"}},{"type":"Feature","id":"DPT_WEB_PILOT_THE_SHARD_003","geometry":{"type":"Point","coordinates":[-0.0865,51.5045]},"properties":{"parcel_id":"DPT_WEB_PILOT_THE_SHARD_003","selected_property_type":"Mixed Building","selected_color_category":"mixed_building","selected_match_distance_m":0,"official_source_evidence":"Source URL: https://www.the-shard.com/","web_source_evidence":"The Shard is documented as a mixed-use development with offices, hotel, restaurants, residences and viewing gallery.","map_source_evidence":"Coordinate evidence: 51.5045,-0.0865 from published coordinate source.","photo_ai_evidence":"not_used_for_this_pilot","photo_ai_observation":"no_photo_ai_used; web_and_coordinate_evidence_only","source_date":"2026-07-09","matching_method":"web_source_coordinate_pilot","conflict_status":"no_conflict","needs_manual_review":false,"accuracy_score_4":3.0,"accuracy_label_4":"3_of_4_web_coordinate_verified","explanation":"Real-source verified example point for site visibility; not a final parcel-distance batch output.","last_updated":"2026-07-09","changed_in_latest_run":true,"change_reason":"pilot_real_web_source_visibility_batch","fake_data":false,"final_ready":false,"nearest_mixed_building_distance_m":0,"layer_key":"distance_property_types","layer_name":"Distance to Nearby Property Types","color_category":"mixed_building","source":"web_source_coordinate_pilot","source_url":"https://www.the-shard.com/"}},{"type":"Feature","id":"DPT_WEB_PILOT_ONE_HYDE_PARK_004","geometry":{"type":"Point","coordinates":[-0.1613,51.502]},"properties":{"parcel_id":"DPT_WEB_PILOT_ONE_HYDE_PARK_004","selected_property_type":"Apartment Building","selected_color_category":"apartment_building","selected_match_distance_m":0,"official_source_evidence":"Source URL: https://www.mandarinoriental.com/en/residences/one-hyde-park","web_source_evidence":"One Hyde Park is documented as a luxury residential apartment complex at 100 Knightsbridge, London.","map_source_evidence":"Coordinate evidence: 51.5020,-0.1613 from published coordinate source.","photo_ai_evidence":"not_used_for_this_pilot","photo_ai_observation":"no_photo_ai_used; web_and_coordinate_evidence_only","source_date":"2026-07-09","matching_method":"web_source_coordinate_pilot","conflict_status":"no_conflict","needs_manual_review":false,"accuracy_score_4":3.0,"accuracy_label_4":"3_of_4_web_coordinate_verified","explanation":"Real-source verified example point for site visibility; not a final parcel-distance batch output.","last_updated":"2026-07-09","changed_in_latest_run":true,"change_reason":"pilot_real_web_source_visibility_batch","fake_data":false,"final_ready":false,"nearest_apartment_building_distance_m":0,"layer_key":"distance_property_types","layer_name":"Distance to Nearby Property Types","color_category":"apartment_building","source":"web_source_coordinate_pilot","source_url":"https://www.mandarinoriental.com/en/residences/one-hyde-park"}},{"type":"Feature","id":"DPT_WEB_PILOT_WITANHURST_005","geometry":{"type":"Point","coordinates":[-0.15278,51.56889]},"properties":{"parcel_id":"DPT_WEB_PILOT_WITANHURST_005","selected_property_type":"Detached Home","selected_color_category":"detached_home","selected_match_distance_m":0,"official_source_evidence":"Source URL: https://historicengland.org.uk/listing/the-list/list-entry/1379026","web_source_evidence":"Witanhurst is documented as a large Grade II* listed mansion/house in Highgate, north London.","map_source_evidence":"Coordinate evidence: 51.56889,-0.15278 from published coordinate source.","photo_ai_evidence":"not_used_for_this_pilot","photo_ai_observation":"no_photo_ai_used; web_and_coordinate_evidence_only","source_date":"2026-07-09","matching_method":"web_source_coordinate_pilot","conflict_status":"no_conflict","needs_manual_review":false,"accuracy_score_4":3.0,"accuracy_label_4":"3_of_4_web_coordinate_verified","explanation":"Real-source verified example point for site visibility; not a final parcel-distance batch output.","last_updated":"2026-07-09","changed_in_latest_run":true,"change_reason":"pilot_real_web_source_visibility_batch","fake_data":false,"final_ready":false,"nearest_detached_home_distance_m":0,"layer_key":"distance_property_types","layer_name":"Distance to Nearby Property Types","color_category":"detached_home","source":"web_source_coordinate_pilot","source_url":"https://historicengland.org.uk/listing/the-list/list-entry/1379026"}},{"type":"Feature","id":"DPT_WEB_PILOT_LSIP_DAGENHAM_006","geometry":{"type":"Point","coordinates":[0.136288,51.523122]},"properties":{"parcel_id":"DPT_WEB_PILOT_LSIP_DAGENHAM_006","selected_property_type":"Industrial Unit","selected_color_category":"industrial_unit","selected_match_distance_m":0,"official_source_evidence":"Source URL: https://www.segro.com/property-search/gb/segro-park-dagenham","web_source_evidence":"London Sustainable Industries Park is documented as a 60-acre eco-industrial park in Dagenham Dock including SEGRO Park Dagenham industrial units.","map_source_evidence":"Coordinate evidence: 51.523122,0.136288 from published coordinate source.","photo_ai_evidence":"not_used_for_this_pilot","photo_ai_observation":"no_photo_ai_used; web_and_coordinate_evidence_only","source_date":"2026-07-09","matching_method":"web_source_coordinate_pilot","conflict_status":"no_conflict","needs_manual_review":false,"accuracy_score_4":3.0,"accuracy_label_4":"3_of_4_web_coordinate_verified","explanation":"Real-source verified example point for site visibility; not a final parcel-distance batch output.","last_updated":"2026-07-09","changed_in_latest_run":true,"change_reason":"pilot_real_web_source_visibility_batch","fake_data":false,"final_ready":false,"nearest_industrial_unit_distance_m":0,"layer_key":"distance_property_types","layer_name":"Distance to Nearby Property Types","color_category":"industrial_unit","source":"web_source_coordinate_pilot","source_url":"https://www.segro.com/property-search/gb/segro-park-dagenham"}},{"type":"Feature","id":"DPT_WEB_VERIFIED_22_BISHOPSGATE_007","geometry":{"type":"Point","coordinates":[-0.08306,51.51472]},"properties":{"parcel_id":"DPT_WEB_VERIFIED_22_BISHOPSGATE_007","selected_property_type":"Office Building","selected_color_category":"office_building","selected_match_distance_m":0,"official_source_evidence":"Source URL: https://22bishopsgate.com/","web_source_evidence":"22 Bishopsgate is documented as a completed commercial skyscraper in the City of London with the majority of levels used as office space.","map_source_evidence":"Coordinate evidence: 51°30′53″N, 0°04′59″W from published coordinate source.","photo_ai_evidence":"not_used_for_this_pilot","photo_ai_observation":"no_photo_ai_used; web_and_coordinate_evidence_only","source_date":"2026-07-10","matching_method":"web_source_coordinate_verified_example","conflict_status":"no_conflict","needs_manual_review":false,"accuracy_score_4":3.25,"accuracy_label_4":"3.25_of_4_web_coordinate_verified","explanation":"Real-source verified example point for site visibility; not a final parcel-distance batch output.","last_updated":"2026-07-10","changed_in_latest_run":true,"change_reason":"added_web_verified_example_batch_20260710","fake_data":false,"final_ready":false,"nearest_office_building_distance_m":0,"layer_key":"distance_property_types","layer_name":"Distance to Nearby Property Types","color_category":"office_building","source":"web_source_coordinate_verified_example","source_url":"https://22bishopsgate.com/"}},{"type":"Feature","id":"DPT_WEB_VERIFIED_BATTERSEA_POWER_STATION_008","geometry":{"type":"Point","coordinates":[-0.14444,51.48111]},"properties":{"parcel_id":"DPT_WEB_VERIFIED_BATTERSEA_POWER_STATION_008","selected_property_type":"Mixed Building","selected_color_category":"mixed_building","selected_match_distance_m":0,"official_source_evidence":"Source URL: https://batterseapowerstation.co.uk/","web_source_evidence":"Battersea Power Station is documented as a redeveloped mixed-use site with shops, cafes, restaurants, office space and residential accommodation.","map_source_evidence":"Coordinate evidence: 51°28′52″N, 0°08′40″W from published coordinate source.","photo_ai_evidence":"not_used_for_this_pilot","photo_ai_observation":"no_photo_ai_used; web_and_coordinate_evidence_only","source_date":"2026-07-10","matching_method":"web_source_coordinate_verified_example","conflict_status":"no_conflict","needs_manual_review":false,"accuracy_score_4":3.25,"accuracy_label_4":"3.25_of_4_web_coordinate_verified","explanation":"Real-source verified example point for site visibility; not a final parcel-distance batch output.","last_updated":"2026-07-10","changed_in_latest_run":true,"change_reason":"added_web_verified_example_batch_20260710","fake_data":false,"final_ready":false,"nearest_mixed_building_distance_m":0,"layer_key":"distance_property_types","layer_name":"Distance to Nearby Property Types","color_category":"mixed_building","source":"web_source_coordinate_verified_example","source_url":"https://batterseapowerstation.co.uk/"}},{"type":"Feature","id":"DPT_WEB_VERIFIED_BLUEWATER_009","geometry":{"type":"Point","coordinates":[0.2711,51.4386]},"properties":{"parcel_id":"DPT_WEB_VERIFIED_BLUEWATER_009","selected_property_type":"Retail Property","selected_color_category":"retail_property","selected_match_distance_m":0,"official_source_evidence":"Source URL: https://bluewater.co.uk/","web_source_evidence":"Bluewater Shopping Centre is documented as a large out-of-town shopping centre in Stone, Kent with hundreds of stores and major retail/leisure use.","map_source_evidence":"Coordinate evidence: approximate centre point 51.4386,0.2711 checked against published map/coordinate sources.","photo_ai_evidence":"not_used_for_this_pilot","photo_ai_observation":"no_photo_ai_used; web_and_coordinate_evidence_only","source_date":"2026-07-10","matching_method":"web_source_coordinate_verified_example","conflict_status":"no_conflict","needs_manual_review":false,"accuracy_score_4":3.1,"accuracy_label_4":"3.1_of_4_web_coordinate_verified","explanation":"Real-source verified example point for site visibility; not a final parcel-distance batch output.","last_updated":"2026-07-10","changed_in_latest_run":true,"change_reason":"added_web_verified_example_batch_20260710","fake_data":false,"final_ready":false,"nearest_retail_property_distance_m":0,"layer_key":"distance_property_types","layer_name":"Distance to Nearby Property Types","color_category":"retail_property","source":"web_source_coordinate_verified_example","source_url":"https://bluewater.co.uk/"}},{"type":"Feature","id":"DPT_WEB_VERIFIED_ONE_THE_ELEPHANT_010","geometry":{"type":"Point","coordinates":[-0.101,51.4943]},"properties":{"parcel_id":"DPT_WEB_VERIFIED_ONE_THE_ELEPHANT_010","selected_property_type":"Apartment Building","selected_color_category":"apartment_building","selected_match_distance_m":0,"official_source_evidence":"Source URL: https://onetheelephant.com/","web_source_evidence":"One The Elephant is documented as a residential apartment development in Elephant & Castle with a 37-storey tower and 284 apartments.","map_source_evidence":"Coordinate evidence: approximate centre point 51.4943,-0.1010 checked against published map/coordinate sources.","photo_ai_evidence":"not_used_for_this_pilot","photo_ai_observation":"no_photo_ai_used; web_and_coordinate_evidence_only","source_date":"2026-07-10","matching_method":"web_source_coordinate_verified_example","conflict_status":"no_conflict","needs_manual_review":false,"accuracy_score_4":3.1,"accuracy_label_4":"3.1_of_4_web_coordinate_verified","explanation":"Real-source verified example point for site visibility; not a final parcel-distance batch output.","last_updated":"2026-07-10","changed_in_latest_run":true,"change_reason":"added_web_verified_example_batch_20260710","fake_data":false,"final_ready":false,"nearest_apartment_building_distance_m":0,"layer_key":"distance_property_types","layer_name":"Distance to Nearby Property Types","color_category":"apartment_building","source":"web_source_coordinate_verified_example","source_url":"https://onetheelephant.com/"}}],"metadata":{"page_key":"distance_property_types","feature_count":10,"fake_data":false,"final_ready":false,"updated_at_utc":"2026-07-10T00:00:00Z"}}