{"type":"FeatureCollection","name":"height_difference_5","metadata":{"slot_id":"height_difference_5","owner":"height_difference_5","lineage_id":"height_difference_5-eb56f92ed3f0514c","page_generation":1,"schema":"AAYS_LAYER24_EVIDENCE_V1","partition":"layer24","semantic_mode_state":"ABSENT_IN_PRIOR_PHYSICAL_STATE_PRESERVED_BY_OMISSION","batch_id":"20261004T152500Z_spatialni_data_supply_srs_metadata","record_policy":"Official generic Spatial NI SRS metadata evidence only; no Belfast LiDAR dataset-specific CRS, tile, geometry or parcel binding synthesized.","fake_data":false},"features":[{"type":"Feature","geometry":null,"properties":{"slot_id":"height_difference_5","owner":"height_difference_5","lineage_id":"height_difference_5-eb56f92ed3f0514c","page_generation":1,"schema":"AAYS_LAYER24_EVIDENCE_V1","partition":"layer24","batch_id":"20261004T152500Z_spatialni_data_supply_srs_metadata","source_record_id":"SPATIALNI:DATA_SUPPLY_METADATA_FORM","source_url":"https://support.spatialni.gov.uk/nima/DownloadDocs/Guidance/SpatialNI_Data_Supply_Metadata_Form.pdf","source_name":"Spatial NI Data Supply: Metadata","access_utc":"2026-10-04T15:25:00Z","required_building_state":"BUILDING_PRESENT","binding_status":"LOCAL_OPENCODE_BUILDING_PRESENT_EXACT_TILE_BIND_REQUIRED","official_reference_system_option":"Irish Grid (TM65) [EPSG:29902]","dataset_specific_crs":null,"exact_tile_identifier":null,"evidence_slice_sha256":"93c0995e70090003006ffe1952b1670897d0fd80f016a2e25a6f251874cb950e","accepted_count_contribution":0,"source_area_count_contribution":0,"fake_data":false}}]}
