{"type":"FeatureCollection","features":[{"type":"Feature","geometry":null,"properties":{"slot_id":"future_growth_3","lineage_id":"future_growth_3-newstart-20261001T203100Z","page_generation":null,"accepted_as_parcel":false,"source_area_count_contribution":1,"exact_identifier":"3/13/0804/OP","exact_identifier_provided":true,"coverage_polygon_provided":false,"identifier_namespace":"East Herts District Council outline planning permission reference for Bishop's Stortford North / Stortford Fields","secondary_exact_identifier":"Bishop's Stortford North (Stortford Fields)","source_entity":"Bishop's Stortford North (Stortford Fields) - 3/13/0804/OP","access_utc":"2026-10-05T06:12:46Z","data_date":"2018-10-23","source_url":"https://www.eastherts.gov.uk/about-east-herts-0/improvement-projects-east-herts/bishops-stortford-north-stortford-fields","final_url":"https://www.eastherts.gov.uk/about-east-herts-0/improvement-projects-east-herts/bishops-stortford-north-stortford-fields","license":"© East Herts District Council, 2023; reuse subject to Council website terms and third-party rights.","authority":"East Herts District Council","site_address":"Bishop's Stortford North / Stortford Fields, Bishop's Stortford","field_evidence":{"reference":"3/13/0804/OP","dataset":"East Herts District Plan 2018 / Bishop's Stortford North (Stortford Fields)","organisation":"East Herts District Council","site_name":"Bishop's Stortford North (Stortford Fields)","district_plan_allocation_minimum_homes":2529,"stortford_fields_homes":2200,"st_michaels_hurst_initial_homes":329,"st_michaels_hurst_current_approved_homes":479,"current_overall_total_homes":2679,"buildout_expected_until":2033,"outline_planning_permission":"3/13/0804/OP"},"source_payload_sha256":"8c4c04867080b5da3ae5e6915b6ddcf7c4e9b89e46d017ddea66fea387cae5de","source_payload_sha256_basis":"canonicalized official East Herts District Council site-allocation evidence fields","evidence_slice_sha256":"7f7e9a3687a4f7f1b8d71d9c90081eddd368276e7cd18da25533bcadef29f416","evidence_grade":"A","confidence_score_0_100":99,"evidence_scope":"exact_official_site_allocation_and_outline_planning_identifier_from_council_page","fake_data":false,"spatial_binding_method":"official East Herts District Council site-allocation page and outline permission 3/13/0804/OP; canonical parcel spatial join and materialization delegated to local OpenCode","planned_building_count_contribution":0}}]}