{"features":[{"geometry":null,"properties":{"accessed_at_utc":"2026-10-08T00:33:00Z","confidence_score_0_100":95,"crs":"EPSG:27700","data_date":"2018-02-25","data_version":"National LIDAR Programme index catalogue; service data last edit 2025-05-13","dtm_fn":"DTM_ST7525_P_10651_20180225_20180225.tif","ed_flown":"2018-02-25T00:00:00Z","evidence_grade":"A_OFFICIAL_EA_TILE_INDEX","evidence_slice_sha256":"6d0c54102af1334bfda8f94a09dd074cf4556066fdfe7a8aa07716c6388a2844","fake_data":false,"field_evidence":{"dtm_file":"dtm_fn","resolution":"resolution","survey_end":"ed_flown","survey_ids":"surveys","survey_start":"sd_flown","tile":"tilename"},"final_url":"https://environment.data.gov.uk/KB6uNVj5ZcJr7jUP/ArcGIS/rest/services/National_LIDAR_Programme_Catalogues/FeatureServer/0","http_status":200,"latest":"No","license":"Open Government Licence","nodata_evidence_url":"https://environment.data.gov.uk/support/announcements/275811447/275811543","nodata_value":-3.4028235e+38,"polygon_id":"P_10651","resolution_m":1,"sd_flown":"2018-02-25T00:00:00Z","source_url":"https://environment.data.gov.uk/KB6uNVj5ZcJr7jUP/ArcGIS/rest/services/National_LIDAR_Programme_Catalogues/FeatureServer/0","surveys":"18-067 [ 2018/02/25 ], 18-066 [ 2018/02/25 ]","tile_grid_cell":"ST7525","tilename":"ST7525","year":2018},"type":"Feature"},{"geometry":null,"properties":{"accessed_at_utc":"2026-10-08T00:33:00Z","confidence_score_0_100":95,"crs":"EPSG:27700","data_date":"2018-02-25","data_version":"National LIDAR Programme index catalogue; service data last edit 2025-05-13","dtm_fn":"DTM_ST7530_P_10651_20180225_20180225.tif","ed_flown":"2018-02-25T00:00:00Z","evidence_grade":"A_OFFICIAL_EA_TILE_INDEX","evidence_slice_sha256":"6d0c54102af1334bfda8f94a09dd074cf4556066fdfe7a8aa07716c6388a2844","fake_data":false,"field_evidence":{"dtm_file":"dtm_fn","resolution":"resolution","survey_end":"ed_flown","survey_ids":"surveys","survey_start":"sd_flown","tile":"tilename"},"final_url":"https://environment.data.gov.uk/KB6uNVj5ZcJr7jUP/ArcGIS/rest/services/National_LIDAR_Programme_Catalogues/FeatureServer/0","http_status":200,"latest":"No","license":"Open Government Licence","nodata_evidence_url":"https://environment.data.gov.uk/support/announcements/275811447/275811543","nodata_value":-3.4028235e+38,"polygon_id":"P_10651","resolution_m":1,"sd_flown":"2018-02-25T00:00:00Z","source_url":"https://environment.data.gov.uk/KB6uNVj5ZcJr7jUP/ArcGIS/rest/services/National_LIDAR_Programme_Catalogues/FeatureServer/0","surveys":"18-067 [ 2018/02/25 ], 18-066 [ 2018/02/25 ]","tile_grid_cell":"ST7530","tilename":"ST7530","year":2018},"type":"Feature"},{"geometry":null,"properties":{"accessed_at_utc":"2026-10-08T00:33:00Z","confidence_score_0_100":95,"crs":"EPSG:27700","data_date":"2018-02-25","data_version":"National LIDAR Programme index catalogue; service data last edit 2025-05-13","dtm_fn":"DTM_ST7535_P_10651_20180225_20180225.tif","ed_flown":"2018-02-25T00:00:00Z","evidence_grade":"A_OFFICIAL_EA_TILE_INDEX","evidence_slice_sha256":"6d0c54102af1334bfda8f94a09dd074cf4556066fdfe7a8aa07716c6388a2844","fake_data":false,"field_evidence":{"dtm_file":"dtm_fn","resolution":"resolution","survey_end":"ed_flown","survey_ids":"surveys","survey_start":"sd_flown","tile":"tilename"},"final_url":"https://environment.data.gov.uk/KB6uNVj5ZcJr7jUP/ArcGIS/rest/services/National_LIDAR_Programme_Catalogues/FeatureServer/0","http_status":200,"latest":"No","license":"Open Government Licence","nodata_evidence_url":"https://environment.data.gov.uk/support/announcements/275811447/275811543","nodata_value":-3.4028235e+38,"polygon_id":"P_10651","resolution_m":1,"sd_flown":"2018-02-25T00:00:00Z","source_url":"https://environment.data.gov.uk/KB6uNVj5ZcJr7jUP/ArcGIS/rest/services/National_LIDAR_Programme_Catalogues/FeatureServer/0","surveys":"18-067 [ 2018/02/25 ], 18-066 [ 2018/02/25 ]","tile_grid_cell":"ST7535","tilename":"ST7535","year":2018},"type":"Feature"}],"metadata":{"accepted_count":53,"batch_id":"20261008T003300Z_EA_NLP_TILE_INDEX_ST7525_ST7535","cursor":{"do_not_repeat_same_url_version_window":true,"next_cursor":"UNUSED_TILE_WINDOW_AFTER_ST7535","processed_records":3,"source_family":"EA_NATIONAL_LIDAR_PROGRAMME_INDEX","window":"TILES_ST7525_ST7535_POLYGON_P_10651"},"direct_parcel_count":0,"duplicate_count":0,"fake_data":false,"first_missing_criterion":"LOCAL_OPENCODE_HEIGHT_CALCULATION_AND_CANONICAL_BINDING_READBACK","lineage_id":"height_difference_2_20260930T001051Z","materialized_parcel_count":0,"owner":"cagdas aydin","page_generation":1,"partition":{"end":30762,"start":15382},"planned_building_count":0,"producer_after_count":53,"producer_before_count":50,"producer_delta":3,"rejected_count":0,"schema_family":"AAYS_LAYER24_EVIDENCE_V1","semantic_mode_state":"UNCHANGED_NOT_MATERIALIZED_IN_PRIOR_PHYSICAL_CHECKPOINT","slot_id":"height_difference_2","source_area_count":50,"unmatched_count":0,"unprocessed_count":0,"verified_no_building_count":0},"name":"height_difference_2","type":"FeatureCollection"}
