{"features":[{"geometry":null,"properties":{"accepted_as_parcel":false,"access_utc":"2026-10-02T13:11:52Z","confidence":0.97,"confidence_score_0_100":97,"coverage_polygon_provided":false,"data_date":"2025-09-09","dataset":"planning-application","evidence_grade":"A_EXACT_OFFICIAL_IDENTIFIER","evidence_slice_sha256":"1bc9a6ff2baac8dc9cc346303eb8a7a5897952fd0b941a98c401fca1c64ab39a","exact_identifier":"2020/5885/P","exact_identifier_provided":true,"fake_data":false,"field_evidence":{"address_text":"Plot S4 King's Cross Central York Way London","dataset":"planning-application","decision_date":"2021-03-10","description":"Reserved matters relating to Building S4 for the erection of a 13 storey building above ground floor to provide 176 residential homes comprising 120 market and 56 social rented units with associated public realm works, as required by conditions 9, 10, 12, 14, 16-22, 24, 27, 28, 31, 33-39, 42, 42A, 43, 45, 46, 48, 49, 50A, 51, 56, 60, 61, 64-67 67 of outline planning permission reference 2004/2307/P granted 22/12/06 (subject to S106 agreement) for a comprehensive, phased, mixed-use development of former railway lands within the King's Cross Opportunity Area.","entity":10000039714,"entry_date":"2025-09-09","geometry":"","organisation":"London Borough of Camden","organisation_entity":90,"planning_application_status":"Final Decision","planning_decision_type":"Granted","point":"POINT (-0.125699 51.538546)","quality":"","reference":"2020/5885/P","typology":"geography"},"final_url":"https://www.planning.data.gov.uk/entity/10000039714","identifier_namespace":"planning-application","license":"Open Government Licence v3.0","lineage_id":"future_growth_ 9-newstart-20261001T204400Z","official_entity_id":10000039714,"official_reference":"2020/5885/P","organisation":"London Borough of Camden","owner":"cagdas aydin","page_generation":1,"partition":"plan0","publisher":"Planning Data / Ministry of Housing, Communities & Local Government","semantic_mode":"SOURCE_AREA_EXACT_IDENTIFIER","sha256":"1bc9a6ff2baac8dc9cc346303eb8a7a5897952fd0b941a98c401fca1c64ab39a","sha256_scope":"normalized_evidence_slice","slot_id":"future_growth_ 9","source_area_count_contribution":1,"source_url":"https://www.planning.data.gov.uk/entity/10000039714","spatial_binding_method":"official planning-application exact identifier; canonical parcel spatial join/materialization delegated to local OpenCode"},"type":"Feature"}],"name":"future_growth_ 9","type":"FeatureCollection"}