{
  "features": [],
  "name": "security_public_safety_3",
  "properties": {
    "batch_id": "20261001T080000Z-npt-boundaries-2026-07-download-blocked",
    "fake_data": false,
    "first_missing_criterion": "OFFICIAL_NPT_BOUNDARY_BINARY_PAYLOAD_RETRIEVAL_BLOCKED",
    "lineage_id": "L24-SPS3-57442c9c2a0f429be2d2",
    "page_generation": 1,
    "partition": {
      "count": 30761,
      "end": 92283,
      "start": 61523
    },
    "schema": "AAYS_LAYER24_EVIDENCE_V1",
    "slot_id": "security_public_safety_3"
  },
  "type": "FeatureCollection"
}
