{"features":[{"geometry":{"coordinates":[[[[-5.068913,50.418684],[-5.068931,50.418706],[-5.069025,50.418796],[-5.069473,50.41866],[-5.069386,50.418572],[-5.069251,50.418431],[-5.069007,50.418166],[-5.068923,50.41815],[-5.068846,50.418098],[-5.068842,50.418096],[-5.068834,50.418096],[-5.068487,50.418233],[-5.068716,50.418474],[-5.068728,50.418484],[-5.068727,50.418484],[-5.068737,50.418498],[-5.068819,50.418603],[-5.068838,50.418596],[-5.068913,50.418684]]]],"type":"MultiPolygon"},"properties":{"accepted_as_parcel":false,"access_utc":"2026-10-02T15:36:49Z","confidence":0.99,"confidence_score_0_100":99,"coverage_polygon_provided":true,"data_date":"2023-12-12","dataset":"brownfield-site","evidence_grade":"A_OFFICIAL_COVERAGE_POLYGON","evidence_slice_sha256":"de83ae9272220b2b32cc4329e17c5a0f84c4ae8d991ca3e4ddf7f00ec461c3bf","exact_identifier":"BR294","exact_identifier_provided":true,"fake_data":false,"field_evidence":{"brownfield_site":"BR294","dataset":"brownfield-site","entity":1802820,"entry_date":"2024-12-12","geometry":"MULTIPOLYGON (((-5.068913 50.418684, -5.068931 50.418706, -5.069025 50.418796, -5.069473 50.41866, -5.069386 50.418572, -5.069251 50.418431, -5.069007 50.418166, -5.068923 50.41815, -5.068846 50.418098, -5.068842 50.418096, -5.068834 50.418096, -5.068487 50.418233, -5.068716 50.418474, -5.068728 50.418484, -5.068727 50.418484, -5.068737 50.418498, -5.068819 50.418603, -5.068838 50.418596, -5.068913 50.418684)))","name":"Edgcumbe Hotel, Narrowcliff, Newquay, Cornwall, TR7 2RR","organisation":"Cornwall Council","organisation_entity":92,"point":"POINT (-5.068974 50.418445)","quality":"authoritative","reference":"BR294","start_date":"2023-12-12","typology":"geography"},"final_url":"https://www.planning.data.gov.uk/entity/1802820","identifier_namespace":"brownfield-site","license":"Open Government Licence v3.0","lineage_id":"future_growth_ 9-newstart-20261001T204400Z","official_entity_id":1802820,"official_reference":"BR294","organisation":"Cornwall Council","owner":"cagdas aydin","page_generation":1,"partition":"plan0","publisher":"Planning Data / Ministry of Housing, Communities & Local Government","semantic_mode":"SOURCE_AREA_EXACT_IDENTIFIER","sha256":"de83ae9272220b2b32cc4329e17c5a0f84c4ae8d991ca3e4ddf7f00ec461c3bf","sha256_scope":"normalized_evidence_slice","slot_id":"future_growth_ 9","source_area_count_contribution":1,"source_url":"https://www.planning.data.gov.uk/entity/1802820","spatial_binding_method":"official authoritative brownfield-site coverage polygon; canonical parcel spatial join/materialization delegated to local OpenCode"},"type":"Feature"}],"name":"future_growth_ 9","type":"FeatureCollection"}