{"type":"FeatureCollection","features":[{"type":"Feature","geometry":null,"properties":{"slot_id":"planned_buildings_1","lineage_id":"planned_buildings_1-0ffc4ebd6c6e4e41","semantic_mode":"DISTINCT_BUILDINGS","planned_building_id":"planning-application:2026/0692/FPA::DWELLING_01","building_status":"PLANNED","building_name":"Proposed detached dwelling 1, Land adjacent The Old School Tebay","planning_reference":"2026/0692/FPA","authority":"Westmorland & Furness Council","source_url":"https://planningregister.westmorlandandfurness.gov.uk/Planning/Display/2026/0692/FPA","final_url":"https://planningregister.westmorlandandfurness.gov.uk/Planning/Display/2026/0692/FPA","access_utc":"2026-10-03T14:10:00Z","source_data_date":"2026-04-13","license":"Open Government Licence v3.0","geometry_role":"official planning register exposes no machine-readable application point or building footprint in the retrieved record; geometry null; no geometry inferred","field_evidence":"Official Valid Full Application states four detached dwellings and associated development; status Officer Consideration and decision Pending.","identity_limitation":"This record represents one of the four detached dwellings explicitly stated by the source; associated development is not counted as a separate building.","confidence_score_0_100":98,"evidence_grade":"A","fake_data":false}},{"type":"Feature","geometry":null,"properties":{"slot_id":"planned_buildings_1","lineage_id":"planned_buildings_1-0ffc4ebd6c6e4e41","semantic_mode":"DISTINCT_BUILDINGS","planned_building_id":"planning-application:2026/0692/FPA::DWELLING_02","building_status":"PLANNED","building_name":"Proposed detached dwelling 2, Land adjacent The Old School Tebay","planning_reference":"2026/0692/FPA","authority":"Westmorland & Furness Council","source_url":"https://planningregister.westmorlandandfurness.gov.uk/Planning/Display/2026/0692/FPA","final_url":"https://planningregister.westmorlandandfurness.gov.uk/Planning/Display/2026/0692/FPA","access_utc":"2026-10-03T14:10:00Z","source_data_date":"2026-04-13","license":"Open Government Licence v3.0","geometry_role":"official planning register exposes no machine-readable application point or building footprint in the retrieved record; geometry null; no geometry inferred","field_evidence":"Official Valid Full Application states four detached dwellings and associated development; status Officer Consideration and decision Pending.","identity_limitation":"This record represents one of the four detached dwellings explicitly stated by the source; associated development is not counted as a separate building.","confidence_score_0_100":98,"evidence_grade":"A","fake_data":false}},{"type":"Feature","geometry":null,"properties":{"slot_id":"planned_buildings_1","lineage_id":"planned_buildings_1-0ffc4ebd6c6e4e41","semantic_mode":"DISTINCT_BUILDINGS","planned_building_id":"planning-application:2026/0692/FPA::DWELLING_03","building_status":"PLANNED","building_name":"Proposed detached dwelling 3, Land adjacent The Old School Tebay","planning_reference":"2026/0692/FPA","authority":"Westmorland & Furness Council","source_url":"https://planningregister.westmorlandandfurness.gov.uk/Planning/Display/2026/0692/FPA","final_url":"https://planningregister.westmorlandandfurness.gov.uk/Planning/Display/2026/0692/FPA","access_utc":"2026-10-03T14:10:00Z","source_data_date":"2026-04-13","license":"Open Government Licence v3.0","geometry_role":"official planning register exposes no machine-readable application point or building footprint in the retrieved record; geometry null; no geometry inferred","field_evidence":"Official Valid Full Application states four detached dwellings and associated development; status Officer Consideration and decision Pending.","identity_limitation":"This record represents one of the four detached dwellings explicitly stated by the source; associated development is not counted as a separate building.","confidence_score_0_100":98,"evidence_grade":"A","fake_data":false}},{"type":"Feature","geometry":null,"properties":{"slot_id":"planned_buildings_1","lineage_id":"planned_buildings_1-0ffc4ebd6c6e4e41","semantic_mode":"DISTINCT_BUILDINGS","planned_building_id":"planning-application:2026/0692/FPA::DWELLING_04","building_status":"PLANNED","building_name":"Proposed detached dwelling 4, Land adjacent The Old School Tebay","planning_reference":"2026/0692/FPA","authority":"Westmorland & Furness Council","source_url":"https://planningregister.westmorlandandfurness.gov.uk/Planning/Display/2026/0692/FPA","final_url":"https://planningregister.westmorlandandfurness.gov.uk/Planning/Display/2026/0692/FPA","access_utc":"2026-10-03T14:10:00Z","source_data_date":"2026-04-13","license":"Open Government Licence v3.0","geometry_role":"official planning register exposes no machine-readable application point or building footprint in the retrieved record; geometry null; no geometry inferred","field_evidence":"Official Valid Full Application states four detached dwellings and associated development; status Officer Consideration and decision Pending.","identity_limitation":"This record represents one of the four detached dwellings explicitly stated by the source; associated development is not counted as a separate building.","confidence_score_0_100":98,"evidence_grade":"A","fake_data":false}}]}