{"type":"FeatureCollection","name":"security_public_safety_4","features":[{"type":"Feature","id":"SPS4-092","geometry":{"type":"Polygon","coordinates":[[[0.15925856828745744,51.511993344172026],[0.1586790308664323,51.51216189559576],[0.14317640485401917,51.515280096934745],[0.14172756130145636,51.51570147549407],[0.1263698196442995,51.51940960681611],[0.1089836970135547,51.51418451268051],[0.10043552005343948,51.51460589123983],[0.09565433632998577,51.51696561117204],[0.09203222744858053,51.526741593748326],[0.08087613209385225,51.527837178002564],[0.0804414790280834,51.52758435086697],[0.08015171031757085,51.5275000751551],[0.09203222744858053,51.52556173378222],[0.09406060842216668,51.51789264400254],[0.09681341117203424,51.51519582122288],[0.08464312533051377,51.51216189559576],[0.07725402321244701,51.505167011511],[0.07696425450193445,51.50491418437541],[0.07334214562053099,51.500616123070316],[0.07276260819950586,51.4999419173754],[0.05870882573965375,51.49834067884997],[0.04132270310891073,51.4999419173754],[0.024371233543934778,51.49834067884997],[0.01756166884689314,51.500616123070316],[0.016257709649586616,51.50162743161269],[0.01567817222856327,51.50213308588388],[0.013070253833950218,51.50407142725676],[0.009737913663059317,51.50676825003643],[0.010027682373570102,51.508959418544904],[0.0074197639789588266,51.50971789995169],[0.006550457847422919,51.50997072708728],[0.005681151715885235,51.50997072708728],[0.007564648334215107,51.50938079710423],[0.009158376242034194,51.508706591409315],[0.008433954465752791,51.50710535288388],[0.007564648334215107,51.50735818001948],[0.0036527707422973066,51.50820093713813],[-0.0028670252442299926,51.50702107717202],[-0.0082277463887106,51.50196453446015],[-0.008952168164992003,51.501206053053366],[-0.003156793954742554,51.49117724334149],[-0.0027221408889754883,51.49058731335844],[-0.006199365415122671,51.487132009171994],[-0.015761732862031863,51.48578359778216],[-0.023730372401123745,51.48856469627369],[-0.027642249993041546,51.49395834183302],[-0.027787134348297826,51.49412689325675],[-0.027207596927272704,51.50230163730761],[-0.027062712572016423,51.503312945849984],[-0.02996039967714026,51.50735818001948],[-0.04097161067661226,51.50997072708728],[-0.041840916808148165,51.50980217566355],[-0.049664671991983766,51.50786383429067],[-0.06024122992568515,51.50289156729066],[-0.06038611428094143,51.5028072915788],[-0.06053099863619771,51.50289156729066],[-0.0786415430432239,51.50769528286694],[-0.07458478109604982,51.50997072708728],[-0.07313593754348702,51.5118247927483],[-0.0740052436750247,51.51452161552797],[-0.07690293078014854,51.51671278403644],[-0.07849665868796762,51.52151649961272],[-0.08516133902975298,51.520336639646615],[-0.08617552951654517,51.518819676833054],[-0.09240555679256168,51.521010845341536],[-0.09733162487127345,51.521600775324586],[-0.09762139358178601,51.521010845341536],[-0.10022931197639728,51.520083812511025],[-0.1018230398842146,51.5196624339517],[-0.10530026441036355,51.5184825739856],[-0.11384844137048056,51.51831402256187],[-0.11153029168638007,51.515280096934745],[-0.11153029168638007,51.510813484205926],[-0.11153029168638007,51.510813484205926],[-0.12138242784380182,51.50735818001948],[-0.1222517339753395,51.503902875833035],[-0.1247147680146945,51.4947168232398],[-0.12485965236995078,51.49437972039234],[-0.12848176125135602,51.488311869138094],[-0.12848176125135602,51.48822759342623],[-0.1380441286982652,51.484772289239785],[-0.1381890130535215,51.484772289239785],[-0.1500695301845294,51.48553077064656],[-0.15064906760555452,51.485362219222836],[-0.16455796571015036,51.48359242927368],[-0.16716588410476163,51.48317105071436],[-0.18194408834089337,51.478114508002484],[-0.18382758495922502,51.47744030230757],[-0.1793361699462821,51.4776088537313],[-0.18455200673550465,51.46758004401942],[-0.1864355033538363,51.46673728690077],[-0.18846388432742245,51.46581025407026],[-0.18773946255114105,51.46513604837535],[-0.18687015641960514,51.4642932912567],[-0.17803221074897557,51.47061396964654],[-0.17426521751231583,51.47887298940927],[-0.16629657797322395,51.48131698505334],[-0.12848176125135602,51.485025116375375],[-0.12804710818558718,51.48527794351097],[-0.12558407414623218,51.4868791820364],[-0.12514942108046334,51.487721939155044],[-0.12138242784380182,51.494295444680475],[-0.12123754348854554,51.49437972039234],[-0.11848474073867798,51.50381860012117],[-0.1176154346071403,51.50702107717202],[-0.10892237329176879,51.508369488561854],[-0.10863260458125623,51.508369488561854],[-0.09675208745024833,51.50853803998558],[-0.0882039104901331,51.50710535288388],[-0.0818289988588603,51.50609404434151],[-0.07183197834618227,51.503228670138114],[-0.0715422096356697,51.50306011871439],[-0.06473264493862807,51.50086895020591],[-0.0596616925046618,51.50103750162964],[-0.05618446797851284,51.5011217773415],[-0.0525623590971076,51.5028072915788],[-0.04836071279467724,51.50457708152795],[-0.04705675359737249,51.505167011511],[-0.04299999165019841,51.507189628595754],[-0.037929039216230365,51.50761100715507],[-0.03387227726905806,51.50609404434151],[-0.03213366500598269,51.50440853010422],[-0.03213366500598269,51.502385913019474],[-0.032423433716495254,51.493368411849964],[-0.032423433716495254,51.493115584714374],[-0.02474456288791771,51.48553077064656],[-0.024309909822148867,51.48527794351097],[-0.01880430432241198,51.48342387784995],[-0.018079882546132353,51.48199119074825],[-0.017934998190876072,51.48317105071436],[-0.00460563750730536,51.48468801352792],[0.0023488115449925573,51.48991310766352],[-0.0022874878232066465,51.50011046879913],[-0.001707950402181524,51.50188025874829],[-0.0009835286259001208,51.5039871515449],[0.003797655097553587,51.50499846008727],[0.007999301399983949,51.50171170732455],[0.015388403518050708,51.49606523462963],[0.01567817222856327,51.4958966832059],[0.029007532912132206,51.49387406612115],[0.029587070333157328,51.49395834183302],[0.040163628266860485,51.49547530464658],[0.05986790058170399,51.4947168232398],[0.07595006401514226,51.4958966832059],[0.07623983272565482,51.4958966832059],[0.08246986000167134,51.49893060883303],[0.0827596287121839,51.49918343596862],[0.08391870355423237,51.500363295934726],[0.09203222744858053,51.508959418544904],[0.11883583317097646,51.51131913847711],[0.12013979236828298,51.511403414188976],[0.12854308497314193,51.51334175556186],[0.15128992874836555,51.50626259576524],[0.15201435052464696,51.50617832005338],[0.1643295207214237,51.504492805816085],[0.16447440507667999,51.50440853010422],[0.17084931670795278,51.498762057409294],[0.17113908541846534,51.49859350598557],[0.17519584736563942,51.48527794351097],[0.18548263658882824,51.480895606494016],[0.1866417114308785,51.48038995222283],[0.2008403782459851,51.478704437985535],[0.21170670489020083,51.48266539644317],[0.21764696345570478,51.48038995222283],[0.20808459600879559,51.47078252107027],[0.2102578613376398,51.46260777701941],[0.2024341061538042,51.45856254284991],[0.20967832391661467,51.46176501990077],[0.20257899050906047,51.4562028229177],[0.20272387486431676,51.453927378697365],[0.19098824208856513,51.448786560273625],[0.17084931670795278,51.44120174620582],[0.1643295207214237,51.42856038942614],[0.15578134376130848,51.43092010935835],[0.15114504439310927,51.420385645375276],[0.15462226891925823,51.418531579714255],[0.14911666341952312,51.41237945274815],[0.15375296278772055,51.41128386849391],[0.15288365665618464,51.408671321426105],[0.14897177906426684,51.40858704571424],[0.14897177906426684,51.40850277000238],[0.1612869492610436,51.39240610903625],[0.14766781986696031,51.392827487595575],[0.15317342536669543,51.37799496230742],[0.14955131648529196,51.37361262529046],[0.15157969745887812,51.36838753115486],[0.14723316680119147,51.367039119765025],[0.14129290823568752,51.3497625988328],[0.13694637757800265,51.34420040184973],[0.11840118010520762,51.34411612613787],[0.1217335202761003,51.333581662154806],[0.11796652703944055,51.32970497940904],[0.1049269350663824,51.32742953518869],[0.09377083971165412,51.32018182396834],[0.08493289404102633,51.31596803837512],[0.0827596287121839,51.30560212581578],[0.09116292131704284,51.29683745178187],[0.08160055387013365,51.29178090906999],[0.05856394138439747,51.28942118913779],[0.05074018620056364,51.29397207757847],[0.04233689359570292,51.2927079419005],[0.04146758746416701,51.302989578747976],[0.032919410504050006,51.307540467188666],[0.02480588660970362,51.3022310973412],[0.01915539675471223,51.29169663335813],[0.014953750452281867,51.29178090906999],[0.01205606334715803,51.299618550273394],[0.010317451084082663,51.316136589798845],[0.006550457847422919,51.31571521123952],[0.0023488115449925573,51.32911504942599],[-0.010835664783321874,51.333581662154806],[-0.014457773664727114,51.3297892551209],[-0.022136644493304658,51.33813255059549],[-0.037929039216230365,51.338638204866676],[-0.041985801163404446,51.333834489290396],[-0.05024420941300889,51.33257035361243],[-0.0479260597289084,51.32523836668022],[-0.05632935233376912,51.32169878678191],[-0.06400822316234667,51.318580585442916],[-0.07096267221464458,51.321193132510714],[-0.08226365192462914,51.31697934691749],[-0.0835676111219339,51.316726519781895],[-0.08197388321411658,51.31057439281579],[-0.08878344791115644,51.305096471544594],[-0.09733162487127345,51.300292755968314],[-0.09443393776614961,51.299365723137804],[-0.10124350246319125,51.29633179751068],[-0.11573193798881043,51.290685324815755],[-0.11776031896239658,51.28706146920558],[-0.12428011494892566,51.286808642069985],[-0.1373197069219838,51.3007984102395],[-0.1500695301845294,51.300292755968314],[-0.15774840101310872,51.304422265849674],[-0.15427117648695976,51.31032156568019],[-0.15832793843413384,51.31099577137511],[-0.16195004731553908,51.31959189398529],[-0.15658932617105847,51.321530235358175],[-0.1642681969996378,51.325996848086994],[-0.16310912215758755,51.33029490939209],[-0.1729612583150093,51.3300420822565],[-0.18237874140666221,51.33796399917176],[-0.18455200673550465,51.339228134849726],[-0.19730182999805024,51.34361047186668],[-0.20208301372150572,51.340070891968374],[-0.21309422472097594,51.33552000352769],[-0.2141084152077699,51.33037918510395],[-0.22106286426006783,51.329873530832764],[-0.22975592557543933,51.336531312070065],[-0.2172958710234063,51.343441920442956],[-0.22700312282557178,51.362572507036205],[-0.2339575718778697,51.3654378812396],[-0.24540343594310876,51.366786292629435],[-0.24467901416682913,51.36906173684977],[-0.2451136672325962,51.38001757939217],[-0.2610509463107782,51.37959620083284],[-0.2726416947312753,51.37226421390063],[-0.27394565392858006,51.370662975375204],[-0.2840875587965144,51.365185054104],[-0.28568128670433346,51.364089469849766],[-0.2978515725458539,51.34934122027347],[-0.3062548651507129,51.33509862496837],[-0.32393075649197023,51.326671053781915],[-0.3307403211890101,51.32903077371412],[-0.32784263408388625,51.35220659447687],[-0.31828026663697706,51.36366809129044],[-0.31784561357121,51.36982021825656],[-0.31262977678198567,51.37479248525656],[-0.3084281304795553,51.3758880695108],[-0.3082832461243008,51.38010185510403],[-0.3132093142030108,51.38878225342608],[-0.31596211695287835,51.38760239345997],[-0.3177007292159537,51.39367024471422],[-0.3259591374655564,51.39139480049388],[-0.3384191920175894,51.4008336802227],[-0.3591376548192269,51.41187379847696],[-0.3739158590553586,51.40850277000238],[-0.38333334214701154,51.40850277000238],[-0.38970825377828433,51.41069393851085],[-0.3866656823179042,51.420132818239686],[-0.3914468660413579,51.42232398674816],[-0.40781879818530875,51.42358812242613],[-0.4185402404742682,51.43209996932445],[-0.4279577235659211,51.429318870832915],[-0.4399831250521853,51.430583006510886],[-0.439838240696929,51.43462824068038],[-0.4476619958807646,51.43496534352784],[-0.4463580366834581,51.44002188623971],[-0.4564999415513924,51.4381678205787],[-0.4612811252748461,51.452410415883804],[-0.45867320688023483,51.45628709862957],[-0.4938801052074915,51.46269205273128],[-0.5096724999304172,51.469181282544845],[-0.4992408263519721,51.48856469627369],[-0.49011311197082996,51.494632547527935],[-0.4899682276155737,51.4947168232398],[-0.4831586629185338,51.506599698612696],[-0.4856216969578888,51.50997072708728],[-0.4898233432603174,51.51148768990084],[-0.49170683987864905,51.518903952544925],[-0.4896784589050629,51.5301126222229],[-0.49547383311531057,51.53837164198563],[-0.4911273024576239,51.544608044663605],[-0.48533192824737625,51.55067589591785],[-0.4773632887082844,51.5553110600704],[-0.4769286356425173,51.559609121375495],[-0.48286889420802126,51.56281159842634],[-0.48402796905006973,51.575115852358564],[-0.48924380583929405,51.57781267513823],[-0.5005447855492768,51.599724360223014],[-0.4963431392468465,51.602421183002676],[-0.4992408263519721,51.60891041281624],[-0.4953289487600543,51.61868639539253],[-0.5002550168387643,51.622141699578975],[-0.4999652481282517,51.6292208593756],[-0.4970675610231279,51.63166485501967],[-0.4598322817222851,51.61312419840947],[-0.4572243633276738,51.612281441290826],[-0.4405626624732104,51.62011908249423],[-0.4120204444877391,51.61421978266371],[-0.40405180494864723,51.613208474121336],[-0.40405180494864723,51.613208474121336],[-0.3859412605416228,51.61582102118914],[-0.38463730134431806,51.616158124036595],[-0.36826536920036723,51.620624736765414],[-0.36261487934537406,51.62349011096881],[-0.3398680355701522,51.63073782218916],[-0.33247893345208546,51.63377174781628],[-0.31668653872915975,51.64051380476545],[-0.3045162528876393,51.63630001917222],[-0.2736558852180675,51.638659739104426],[-0.27307634779704415,51.64118801046036],[-0.26829516407358867,51.64236787042647],[-0.2633690959948787,51.64481186607054],[-0.2555453408110431,51.64329490325698],[-0.2516334632191253,51.647930067409526],[-0.24946019789028284,51.65610481146039],[-0.22888661944390165,51.65998149420616],[-0.22656846975980294,51.657200395714625],[-0.2078783879317534,51.662931144121416],[-0.21121072810264607,51.66697637829091],[-0.1999097483926633,51.67017885534177],[-0.19107180272203372,51.663858176951926],[-0.18208897269614965,51.668577616816336],[-0.17643848284115826,51.67262285098584],[-0.17252660524924046,51.673128505257026],[-0.1635437752233564,51.685938413460434],[-0.1635437752233564,51.68812958196891],[-0.149345108408248,51.68551703490111],[-0.1057349174761324,51.691921989002815],[-0.08385737983244645,51.68998364762993],[-0.061979842188760514,51.682988763545175],[-0.04894025021570236,51.68400007208755],[-0.03343762420328922,51.68248310927399],[-0.011849855270115839,51.680881870748564],[-0.010401011717553033,51.676668085155335],[-0.00996635865178419,51.66183555986718],[-0.011849855270115839,51.64877282452817],[-0.01228450833588468,51.646160277460375],[0.0010448523476860316,51.64177794044342],[0.02263262128085941,51.6411037347485],[0.02509565532021618,51.6373113277146],[0.025240539675472462,51.63520443491798],[0.021763315149323503,51.62879948081628],[0.04074316568788561,51.61573674547727],[0.05363787330568748,51.61826501683321],[0.04813226780595059,51.6132927498332],[0.06247581897631527,51.60714062286709],[0.06305535639734039,51.606887795731495],[0.08710615936986876,51.604528075799294],[0.0946401458431918,51.6106802027654],[0.09232199615909309,51.61362985268066],[0.09797248601408448,51.61539964262982],[0.10376786022433215,51.61253426842642],[0.11666256784213402,51.61691660544338],[0.1192704862367453,51.61539964262982],[0.12926750674942333,51.6213832181722],[0.1382503367753074,51.62349011096881],[0.151000160037853,51.62323728383322],[0.16896582008962113,51.6213832181722],[0.18055656851011825,51.62568127947729],[0.19692850065406908,51.62559700376543],[0.20026084082496176,51.62492279807051],[0.22416675944223385,51.63166485501967],[0.263140651006152,51.60916323995184],[0.2538680522697554,51.60191552873149],[0.2608225013220533,51.60039856591793],[0.26995021570319366,51.59964008451115],[0.27096440618998585,51.59028548049418],[0.28675680091291156,51.57351461383314],[0.2902340254390605,51.56449711266364],[0.31298086921428414,51.5657612483416],[0.31529901889838463,51.55783933142634],[0.32775907345041766,51.55101299876531],[0.3338442163711779,51.54250115186699],[0.3313811823318211,51.53997288051106],[0.32239835230593705,51.540478534782245],[0.26531391633499446,51.53213523930766],[0.266617875532301,51.523033462426284],[0.26227134487461434,51.51789264400254],[0.2538680522697554,51.51789264400254],[0.2508254808093753,51.528764210833074],[0.24575452837540723,51.52353911669747],[0.2428568412702834,51.52438187381612],[0.24068357594144096,51.52117939676526],[0.24488522224387133,51.518819676833054],[0.23706146706003572,51.51932533110424],[0.2418426507834912,51.508032385714394],[0.22662979348158885,51.506599698612696],[0.22996213365248153,51.499436263104215],[0.21416973892955582,51.49598095891777],[0.2118515892454571,51.48991310766352],[0.21054763004815058,51.490165934799116],[0.18765590191767245,51.48789049057877],[0.18200541206267928,51.49859350598557],[0.17852818753653033,51.50533556293473],[0.17794865011550698,51.50550411435846],[0.15925856828745744,51.511993344172026]]]},"properties":{"evidence_scope":"coverage_area","coverage_area_id":"E23000001","source_resolution":"ONSdigital uk-topojson 2016 super-generalised LTLA base with published changes through 2025; dissolve of 32 London boroughs excluding City of London","time_window":"2022-04-01/P3Y","source_url":["https://raw.githubusercontent.com/ONSdigital/uk-topojson/refs/heads/main/output/topo.json","https://raw.githubusercontent.com/ONSdigital/explore-local-statistics-data/refs/heads/main/homicide-offences/homicide-offences.csv"],"measurement_date":"2025-03-31","measurement_method":"ONS Homicide Offences rate per 1,000,000 population over source-labelled three-year PFA window","spatial_binding_method":"TOPOLOGICAL_DISSOLVE_E09000002_TO_E09000033_EXCLUDING_E09000001_TO_E23000001","confidence_score_0_100":92,"evidence_grade":"A_OFFICIAL_SOURCE_DERIVED_GENERALIZED_COVERAGE","field_evidence":{"field":"homicide_offences_rate_per_million_population","value":12.6,"unit":"Rate per 1,000,000 population","source_geography_code":"E23000001","source_geography_name":"Metropolitan Police","source_row":"E23000001,Metropolitan Police,Police Force Area,Homicide Offences,2022-04-01/P3Y,12.6,Homicide Offences (rate per million population),\"Rate per 1,000,000 population\",,,,"},"source_asset_sha256":{"topology":"9feaf90628fee8cf713821801c17fff47691cfa03b60262d4b68e355c485f23d","field_evidence":"363936e287b3501088d6884b243812f2abad99912ca35e9b0b5953e1a17dd67d"},"source_git_blob_sha":{"topology":"668461dddd006aa7e8e176896a7bdcbe5f5e32b5","field_evidence":"8d8be4c9b3a73d3b1afc0e08c39bd91f27f83ddc"},"accepted_count_contribution":0,"source_area_count_contribution":1,"local_spatial_join_status":"NOT_RUN"}}]}
