{"type":"FeatureCollection","features":[{"type":"Feature","geometry":null,"properties":{"slot_id":"planned_buildings_1","lineage_id":"planned_buildings_1-0ffc4ebd6c6e4e41","semantic_mode":"DISTINCT_BUILDINGS","planned_building_id":"planning-application:2026/1156/FPA::REPLACEMENT_SELF_BUILD_DWELLING","building_status":"PLANNED","building_name":"Replacement self-build dwelling, Seacroft 1 Yew Tree Road","planning_reference":"2026/1156/FPA","authority":"Westmorland & Furness Council","source_url":"https://planningregister.westmorlandandfurness.gov.uk/Planning/Display/2026/1156/FPA","final_url":"https://planningregister.westmorlandandfurness.gov.uk/Planning/Display/2026/1156/FPA","access_utc":"2026-10-03T16:01:00Z","source_data_date":"2026-07-07","license":"Open Government Licence v3.0","geometry_role":"official planning register exposes no machine-readable application point or building footprint in the retrieved record; geometry null; no geometry inferred","field_evidence":"Official Valid Full Application states demolition of the existing dwelling and detached garage and construction of a replacement self-build dwelling with attached garage; status Consultation Started and decision Pending.","identity_limitation":"This record represents the one replacement self-build dwelling explicitly stated by the source; the attached garage is integral and is not counted as a separate building; demolished existing structures are not counted as new.","confidence_score_0_100":98,"evidence_grade":"A","fake_data":false}}]}