{"type":"FeatureCollection","features":[{"type":"Feature","geometry":null,"properties":{"slot_id":"future_growth_1","lineage_id":"future_growth_1-newstart-20260927T153100+0300","page_generation":null,"accepted_as_parcel":false,"source_area_count_contribution":1,"exact_identifier":"GN5","exact_identifier_provided":true,"coverage_polygon_provided":false,"identifier_namespace":"Great Yarmouth Local Plan Part 2 Policy","site_name":"Beacon Business Park Extension","access_utc":"2026-10-05T13:09:00Z","data_date":"2024-11-01","source_url":"https://storymaps.arcgis.com/stories/aa0efabdb2314c398e16c25a14628667","final_url":"https://storymaps.arcgis.com/stories/aa0efabdb2314c398e16c25a14628667","policy_url":"https://portal.great-yarmouth.gov.uk/civica/Resource/Civica/Handler.ashx/Doc/pagestream?cd=inline&docno=5437417&pdf=true","map_url":"https://www.great-yarmouth.gov.uk/media/5064/Great-Yarmouth-Borough-Area-Policies-Map/pdf/Great_Yarmouth_Borough_Area_Policies_Map.pdf?m=1582706575677","license":"Great Yarmouth Borough Council public planning-policy and evidence-base documents; page-specific reuse licence not stated on the source pages","authority":"Great Yarmouth Borough Council","site_area_hectares":20.12,"current_status":"completely undeveloped at present","enterprise_zone_status":true,"allocated_uses":"office; research and development; light industrial; storage and distribution","evidence_grade":"A","confidence_score_0_100":99,"evidence_scope":"exact adopted Policy GN5 plus November 2024 Employment Land Needs Review and official Borough Area Policies Map","evidence_slice_sha256":"d36e0548dac6bdf05be6061b07daa4196cf885c6c45585880c97e30cc01f0019","fake_data":false,"spatial_binding_method":"official Policy GN5 identifier plus adopted policies-map boundary evidence; exact boundary extraction, canonical parcel spatial join and materialization delegated to local OpenCode","planned_building_count_contribution":0}}]}
