{"type":"FeatureCollection","features":[{"type":"Feature","id":"CHERWELL-22-03245-F-BLOCK-A","geometry":null,"properties":{"slot_id":"planned_buildings_2","lineage_id":"planned_buildings_2-20260930T174700Z-newstart","batch_id":"batch-0010","application_reference":"22/03245/F","planning_authority":"Cherwell District Council","distinct_building_id":"BLOCK_A","official_plan_label":"Block A","planned_building":true,"drawing_reference":"1442-10110-03","source_document_date":"2023-03-01","source_url":"https://planningregister.cherwell.gov.uk/Planning/Display/22/03245/F","geometry_status":"OFFICIAL_DISTINCT_BLOCK_IDENTIFIED_NATIVE_POLYGON_NOT_EXTRACTED","confidence_score_0_100":98,"evidence_grade":"A_OFFICIAL_LPA_REGISTER_DISTINCT_BLOCK_PLANS","fake_data":false}},{"type":"Feature","id":"CHERWELL-22-03245-F-BLOCK-B","geometry":null,"properties":{"slot_id":"planned_buildings_2","lineage_id":"planned_buildings_2-20260930T174700Z-newstart","batch_id":"batch-0010","application_reference":"22/03245/F","planning_authority":"Cherwell District Council","distinct_building_id":"BLOCK_B","official_plan_label":"Block B","planned_building":true,"drawing_reference":"1442-10120-04","source_document_date":"2023-03-01","source_url":"https://planningregister.cherwell.gov.uk/Planning/Display/22/03245/F","geometry_status":"OFFICIAL_DISTINCT_BLOCK_IDENTIFIED_NATIVE_POLYGON_NOT_EXTRACTED","confidence_score_0_100":98,"evidence_grade":"A_OFFICIAL_LPA_REGISTER_DISTINCT_BLOCK_PLANS","fake_data":false}},{"type":"Feature","id":"CHERWELL-22-03245-F-BLOCK-C","geometry":null,"properties":{"slot_id":"planned_buildings_2","lineage_id":"planned_buildings_2-20260930T174700Z-newstart","batch_id":"batch-0010","application_reference":"22/03245/F","planning_authority":"Cherwell District Council","distinct_building_id":"BLOCK_C","official_plan_label":"Block C","planned_building":true,"drawing_reference":"1442-10130-02","source_document_date":"2023-03-01","source_url":"https://planningregister.cherwell.gov.uk/Planning/Display/22/03245/F","geometry_status":"OFFICIAL_DISTINCT_BLOCK_IDENTIFIED_NATIVE_POLYGON_NOT_EXTRACTED","confidence_score_0_100":98,"evidence_grade":"A_OFFICIAL_LPA_REGISTER_DISTINCT_BLOCK_PLANS","fake_data":false}}]}
