{"type":"FeatureCollection","name":"security_public_safety_6","features":[],"metadata":{"slot_id":"security_public_safety_6","lineage_id":"SECPS6_20260930T003421Z_01","page_generation":1,"batch_id":"BATCH_20261005T043603Z_ONS_CSP21_ARCGIS_HUB_BLOCKER","source_window_id":"ons_csp_dec2021_arcgis_hub_document_2026-10-05","source_url":"https://open-geography-portalx-ons.hub.arcgis.com/documents/ons%3A%3Acommunity-safety-partnerships-december-2021-names-and-codes-in-ew","final_url":"https://open-geography-portalx-ons.hub.arcgis.com/documents/ons%3A%3Acommunity-safety-partnerships-december-2021-names-and-codes-in-ew","dataset_url":"https://www.data.gov.uk/dataset/0c0720f5-f107-4966-9551-f2480e9f0a6c/community-safety-partnerships-december-2021-names-and-codes-in-ew","accessed_utc":"2026-10-05T04:36:03Z","data_date":"2021-12-31","license":"Dataset licence field: Not set; National Data Library site content is Open Government Licence v3.0 except where otherwise stated.","new_source_records":0,"source_area_count_delta":0,"cumulative_source_area_count":58,"accepted_count":0,"duplicate_count":0,"rejected_count":0,"unmatched_count":0,"materialized_parcel_count":0,"direct_parcel_count":0,"planned_building_count":0,"cursor":null,"window_complete":false,"dataset_complete":false,"exact_blocker":"ONS_CSP_DEC2021_ARCGIS_HUB_DOCUMENT_CACHE_MISS_CURRENT_TOOLCHAIN","local_spatial_join_required":true,"fake_data":false}}
